{
"type": "FeatureCollection",
"name": "adeepig",
"crs": { "type": "name", "properties": { "name": "urn:ogc:def:crs:OGC:1.3:CRS84" } },
"features": [
{ "type": "Feature", "properties": { "ID": 1, "GRIDCODE": 2 }, "geometry": { "type": "Polygon", "coordinates": [ [ [ -159.606037711357942, 22.185229160710712 ], [ -159.606392910318021, 22.185320617553099 ], [ -159.606138734407665, 22.18555921868014 ], [ -159.606037711357942, 22.185229160710712 ] ] ] } },
{ "type": "Feature", "properties": { "ID": 2, "GRIDCODE": 2 }, "geometry": { "type": "Polygon", "coordinates": [ [ [ -159.512828690230435, 22.161428133044307 ], [ -159.513755068612852, 22.162114347601193 ], [ -159.514319895108116, 22.163351180703764 ], [ -159.515443543842281, 22.164110316672261 ], [ -159.516752194124564, 22.164619099442916 ], [ -159.515806314112382, 22.164846684980954 ], [ -159.515309418756829, 22.1647907067217 ], [ -159.512941679728357, 22.165299527303979 ], [ -159.513232618035858, 22.163059009878733 ], [ -159.512828690230435, 22.161428133044307 ] ] ] } },
{ "type": "Feature", "properties": { "ID": 3, "GRIDCODE": 2 }, "geometry": { "type": "Polygon", "coordinates": [ [ [ -159.502539333749183, 22.1316474554243 ], [ -159.502637731260307, 22.131316708211145 ], [ -159.502893677205634, 22.131553587980775 ], [ -159.502539333749183, 22.1316474554243 ] ] ] } },
{ "type": "Feature", "properties": { "ID": 4, "GRIDCODE": 2 }, "geometry": { "type": "Polygon", "coordinates": [ [ [ -159.531312658521017, 22.124780726568382 ], [ -159.532045890917686, 22.124908681735832 ], [ -159.533255230819037, 22.127454853641257 ], [ -159.534783586044909, 22.128764985430625 ], [ -159.536933779710438, 22.128678509362132 ], [ -159.53729687420801, 22.130076825977525 ], [ -159.537889115014565, 22.130584443590728 ], [ -159.537584786032937, 22.131124814497969 ], [ -159.537628028474728, 22.132058368542602 ], [ -159.539055915151437, 22.132474363521784 ], [ -159.539994746305297, 22.133818365493717 ], [ -159.540931659063006, 22.132869532941829 ], [ -159.541696072233748, 22.132204937936482 ], [ -159.541664787371246, 22.133012944116825 ], [ -159.54168623175417, 22.133476304943933 ], [ -159.543142806608557, 22.132995229087182 ], [ -159.543116121796544, 22.133685680974207 ], [ -159.543134938253019, 22.13409215409289 ], [ -159.543119238764405, 22.134498742046862 ], [ -159.543140839824844, 22.134964591561683 ], [ -159.543790783790115, 22.136099134123807 ], [ -159.544902612379076, 22.137052023265106 ], [ -159.545497300666341, 22.137645679853158 ], [ -159.545457255723704, 22.138681655200457 ], [ -159.546064600622486, 22.139497682125441 ], [ -159.546440527084229, 22.140232929823235 ], [ -159.547530244257558, 22.140707596130394 ], [ -159.547447205942547, 22.142854582375119 ], [ -159.549564734846086, 22.145407901187568 ], [ -159.549882042250033, 22.146329938687934 ], [ -159.549821626516746, 22.147891957978612 ], [ -159.549890843843201, 22.149382351820083 ], [ -159.549875163102172, 22.149788939305601 ], [ -159.549931285582716, 22.150998064788865 ], [ -159.550506625411288, 22.152002030678918 ], [ -159.552191626713068, 22.151934112663046 ], [ -159.553109714719199, 22.152230377825248 ], [ -159.553664891348745, 22.151668111802341 ], [ -159.554302920437891, 22.151405260713457 ], [ -159.55417993708042, 22.154590378822348 ], [ -159.554561521610054, 22.154917339613167 ], [ -159.554870189871451, 22.155814027771385 ], [ -159.555445799592832, 22.156818428696063 ], [ -159.55497836405948, 22.157224784067907 ], [ -159.555596512199799, 22.157754394168549 ], [ -159.557295270993222, 22.159449684466427 ], [ -159.556865496460148, 22.159787896163447 ], [ -159.556172609797528, 22.159096385871084 ], [ -159.555743425477971, 22.159531040215242 ], [ -159.554571683352407, 22.160337758392011 ], [ -159.554292913356733, 22.160620067500975 ], [ -159.553835515019813, 22.161017717604132 ], [ -159.554310081990877, 22.162264390157389 ], [ -159.554290093276535, 22.162783088076605 ], [ -159.55430289566695, 22.163059104064509 ], [ -159.553419530934264, 22.163322920927076 ], [ -159.552548616232173, 22.163610577367503 ], [ -159.552121525615775, 22.161967047484691 ], [ -159.551623370454564, 22.160222064999779 ], [ -159.550388552937676, 22.159485192799217 ], [ -159.549056048528712, 22.158155239860566 ], [ -159.54785939225755, 22.158203456156674 ], [ -159.547886641265592, 22.157499117021523 ], [ -159.548751118738522, 22.157115514630142 ], [ -159.5490845158279, 22.156777863578064 ], [ -159.548999489755801, 22.154946875961709 ], [ -159.549654361896302, 22.153783931521414 ], [ -159.549569174852593, 22.151949271865103 ], [ -159.548486416242667, 22.151424922586092 ], [ -159.545806567832585, 22.152965835820382 ], [ -159.545853525477582, 22.151751822940028 ], [ -159.545505408725319, 22.151144285430231 ], [ -159.545526793547822, 22.150592606300709 ], [ -159.544930592388909, 22.150081724353988 ], [ -159.54464965742892, 22.149801300634639 ], [ -159.543752062036987, 22.149265565156877 ], [ -159.543792638643822, 22.14821651311248 ], [ -159.543466563887137, 22.147647398615188 ], [ -159.543173860417028, 22.146796793623814 ], [ -159.542588586717756, 22.14629520402076 ], [ -159.54230766399192, 22.146014775892866 ], [ -159.54147959625783, 22.145654074608043 ], [ -159.541134979869128, 22.144652543467341 ], [ -159.540260561626923, 22.144687731185684 ], [ -159.539973031446806, 22.144125354637914 ], [ -159.538797275902596, 22.143868556635127 ], [ -159.538502022884245, 22.143010366192602 ], [ -159.536754668946401, 22.142249146673603 ], [ -159.536473765754948, 22.141968707969397 ], [ -159.535588950111219, 22.141710929577744 ], [ -159.535202606203399, 22.14132522238026 ], [ -159.535595930057724, 22.140626811373121 ], [ -159.535873562666922, 22.140044035645609 ], [ -159.535287487716573, 22.139541709863348 ], [ -159.535757995234036, 22.137844380658201 ], [ -159.534696761664918, 22.136564401125042 ], [ -159.534393815820295, 22.135971817013431 ], [ -159.534483846160498, 22.133649456005188 ], [ -159.534086315304592, 22.131909604127738 ], [ -159.533513747139779, 22.131418814295056 ], [ -159.533232761273524, 22.131108891594042 ], [ -159.533824196666018, 22.130594760126364 ], [ -159.533795674891394, 22.129980102798545 ], [ -159.532631465609171, 22.128982104855226 ], [ -159.532700998912162, 22.127188781628259 ], [ -159.532179860398173, 22.126278867216172 ], [ -159.531757042712911, 22.125451671677432 ], [ -159.531312658521017, 22.124780726568382 ] ] ] } },
{ "type": "Feature", "properties": { "ID": 5, "GRIDCODE": 2 }, "geometry": { "type": "Polygon", "coordinates": [ [ [ -159.489423681776515, 22.124369614169915 ], [ -159.489325257734265, 22.124700354178223 ], [ -159.489069346638587, 22.124463452291188 ], [ -159.489423681776515, 22.124369614169915 ] ] ] } },
{ "type": "Feature", "properties": { "ID": 6, "GRIDCODE": 2 }, "geometry": { "type": "Polygon", "coordinates": [ [ [ -159.529562306010234, 22.123431290198898 ], [ -159.530331611608744, 22.123541700932304 ], [ -159.531091766129805, 22.124621119944891 ], [ -159.529997561872847, 22.124171349522509 ], [ -159.529562306010234, 22.123431290198898 ] ] ] } },
{ "type": "Feature", "properties": { "ID": 7, "GRIDCODE": 2 }, "geometry": { "type": "Polygon", "coordinates": [ [ [ -159.529270415160909, 22.12316121200482 ], [ -159.529561293499228, 22.123160268879907 ], [ -159.529562306010234, 22.123431290198898 ], [ -159.529271427115845, 22.123432233336558 ], [ -159.529270415160909, 22.12316121200482 ] ] ] } },
{ "type": "Feature", "properties": { "ID": 8, "GRIDCODE": 2 }, "geometry": { "type": "Polygon", "coordinates": [ [ [ -159.529270415160909, 22.12316121200482 ], [ -159.528915418962129, 22.123069586340655 ], [ -159.529169618258862, 22.122831095103219 ], [ -159.529270415160909, 22.12316121200482 ] ] ] } },
{ "type": "Feature", "properties": { "ID": 9, "GRIDCODE": 2 }, "geometry": { "type": "Polygon", "coordinates": [ [ [ -159.526932306351654, 22.120187501987161 ], [ -159.527406437541259, 22.120312162327878 ], [ -159.528523014039195, 22.122068062422041 ], [ -159.528033588821273, 22.122376831403344 ], [ -159.527065204729354, 22.121150646873744 ], [ -159.526932306351654, 22.120187501987161 ] ] ] } },
{ "type": "Feature", "properties": { "ID": 10, "GRIDCODE": 2 }, "geometry": { "type": "Polygon", "coordinates": [ [ [ -159.525175025168096, 22.116940864139334 ], [ -159.525014563721413, 22.117293626462416 ], [ -159.524514445575278, 22.117051544204759 ], [ -159.525175025168096, 22.116940864139334 ] ] ] } },
{ "type": "Feature", "properties": { "ID": 11, "GRIDCODE": 2 }, "geometry": { "type": "Polygon", "coordinates": [ [ [ -159.525175025168096, 22.116940864139334 ], [ -159.525273360107178, 22.116610103902818 ], [ -159.525529315996778, 22.116846948396386 ], [ -159.525175025168096, 22.116940864139334 ] ] ] } },
{ "type": "Feature", "properties": { "ID": 12, "GRIDCODE": 2 }, "geometry": { "type": "Polygon", "coordinates": [ [ [ -159.489383454892419, 22.112715617678898 ], [ -159.489245919545766, 22.113398764502051 ], [ -159.488677359610307, 22.115447388731756 ], [ -159.490179042230494, 22.118071182754012 ], [ -159.490718004045391, 22.118533504230278 ], [ -159.491613611666764, 22.119428360601116 ], [ -159.491584980858363, 22.120162221548721 ], [ -159.491604641851325, 22.120589370502014 ], [ -159.492472126945046, 22.120967646845614 ], [ -159.49246117193772, 22.121248482069994 ], [ -159.49276445982531, 22.121508626305008 ], [ -159.493046179329752, 22.12206016626445 ], [ -159.49335041448191, 22.122591679599399 ], [ -159.493339458826853, 22.122871844849534 ], [ -159.494575588186848, 22.124363700877044 ], [ -159.496554750649977, 22.1271990203517 ], [ -159.497902382190716, 22.128731608899496 ], [ -159.500646834695601, 22.129331814793616 ], [ -159.500635372542803, 22.129625413803343 ], [ -159.500939120794101, 22.129885912862196 ], [ -159.500928377719731, 22.130161768288584 ], [ -159.500943456489836, 22.130489577542416 ], [ -159.501816172674239, 22.131237973013025 ], [ -159.502096986820362, 22.131518473468038 ], [ -159.502539333749183, 22.1316474554243 ], [ -159.503012753209703, 22.134307019075901 ], [ -159.50296562961617, 22.134876988506441 ], [ -159.504166613125989, 22.13583455004591 ], [ -159.504102336151078, 22.136612497923295 ], [ -159.504729129817122, 22.136935769094791 ], [ -159.505803871257683, 22.13737858899524 ], [ -159.506189479502837, 22.138557395286192 ], [ -159.506592197573298, 22.138878500401564 ], [ -159.506440450604202, 22.140714732485762 ], [ -159.506527068105811, 22.14167854179108 ], [ -159.506225601306852, 22.142622654536648 ], [ -159.5050330607273, 22.145148025876527 ], [ -159.505073964864778, 22.145603872059336 ], [ -159.504758079746239, 22.146413539866671 ], [ -159.505099397582967, 22.146979031427481 ], [ -159.505045608099948, 22.147630184605344 ], [ -159.505082146150016, 22.148036608310878 ], [ -159.505026107157704, 22.148714343132522 ], [ -159.505213985686765, 22.150805963198522 ], [ -159.502839077473936, 22.150001824098545 ], [ -159.501294853303989, 22.149891022543382 ], [ -159.500176727372548, 22.149978173967668 ], [ -159.499159858601445, 22.149633839860154 ], [ -159.498384783165164, 22.149694239142523 ], [ -159.497322551216513, 22.149617996503348 ], [ -159.496538546092154, 22.150028609173766 ], [ -159.49531418166643, 22.14994071332794 ], [ -159.494302725379185, 22.150227742024871 ], [ -159.493171727657142, 22.15061854680167 ], [ -159.493973309253533, 22.14856449460132 ], [ -159.493414349980895, 22.144683064174057 ], [ -159.492120769839318, 22.143651578909981 ], [ -159.491355401331504, 22.142652793175877 ], [ -159.493077969381432, 22.141930465549912 ], [ -159.493130791331509, 22.141292047085901 ], [ -159.492811849639651, 22.140219910520091 ], [ -159.492933374567571, 22.138750938985073 ], [ -159.492416608308503, 22.137894528211014 ], [ -159.493382483861495, 22.13661664763972 ], [ -159.493096945860486, 22.135548446173047 ], [ -159.492504395297715, 22.135075940993264 ], [ -159.491963816117476, 22.134495199276603 ], [ -159.491190449335022, 22.133878482582382 ], [ -159.492494802476813, 22.132316404125515 ], [ -159.492155224364126, 22.131674826397209 ], [ -159.490640930811253, 22.130467238904281 ], [ -159.491926297798528, 22.129928200965793 ], [ -159.492193649168854, 22.129365179232934 ], [ -159.493053479514543, 22.128670455433703 ], [ -159.493189307485181, 22.127028797128883 ], [ -159.492110261313741, 22.125435178859778 ], [ -159.491327526789547, 22.125031378136107 ], [ -159.489423681776515, 22.124369614169915 ], [ -159.490123423889969, 22.123366594004821 ], [ -159.489877843702772, 22.122584227816134 ], [ -159.488955484955795, 22.122089653974694 ], [ -159.488514103238856, 22.121033388440409 ], [ -159.488102952232907, 22.120958962579607 ], [ -159.487726245632558, 22.121029490574418 ], [ -159.486905867653121, 22.120737480919644 ], [ -159.487128873604064, 22.119668054680339 ], [ -159.486519566606319, 22.118881324933543 ], [ -159.484818771382976, 22.118568881813388 ], [ -159.48520909019112, 22.118306464624958 ], [ -159.485803298150557, 22.117528748593237 ], [ -159.487011792974869, 22.117090314878229 ], [ -159.486521672068392, 22.11560403507848 ], [ -159.486944074082032, 22.115320013486869 ], [ -159.487185849574331, 22.115003552971352 ], [ -159.488031828313666, 22.114696627506877 ], [ -159.488633630133791, 22.113102045050692 ], [ -159.489383454892419, 22.112715617678898 ] ] ] } },
{ "type": "Feature", "properties": { "ID": 13, "GRIDCODE": 2 }, "geometry": { "type": "Polygon", "coordinates": [ [ [ -159.489383454892419, 22.112715617678898 ], [ -159.489506724493737, 22.111808665405054 ], [ -159.489756974689499, 22.112530855784044 ], [ -159.489383454892419, 22.112715617678898 ] ] ] } },
{ "type": "Feature", "properties": { "ID": 14, "GRIDCODE": 2 }, "geometry": { "type": "Polygon", "coordinates": [ [ [ -159.513510941535401, 22.108847191890217 ], [ -159.513865892717234, 22.108938852081018 ], [ -159.513611691530286, 22.109177319918391 ], [ -159.513510941535401, 22.108847191890217 ] ] ] } },
{ "type": "Feature", "properties": { "ID": 15, "GRIDCODE": 2 }, "geometry": { "type": "Polygon", "coordinates": [ [ [ -159.513218130724084, 22.108306060834511 ], [ -159.513573080368957, 22.108397721697145 ], [ -159.513318879629367, 22.108636189085448 ], [ -159.513218130724084, 22.108306060834511 ] ] ] } },
{ "type": "Feature", "properties": { "ID": 16, "GRIDCODE": 2 }, "geometry": { "type": "Polygon", "coordinates": [ [ [ -159.478212102066067, 22.077515186150698 ], [ -159.47811368197938, 22.077845921179637 ], [ -159.477857875372536, 22.077609006793345 ], [ -159.478212102066067, 22.077515186150698 ] ] ] } },
{ "type": "Feature", "properties": { "ID": 17, "GRIDCODE": 2 }, "geometry": { "type": "Polygon", "coordinates": [ [ [ -159.530206136449777, 22.062177418689245 ], [ -159.529851293025843, 22.062085783102738 ], [ -159.530105383905351, 22.061847299100439 ], [ -159.530206136449777, 22.062177418689245 ] ] ] } },
{ "type": "Feature", "properties": { "ID": 18, "GRIDCODE": 2 }, "geometry": { "type": "Polygon", "coordinates": [ [ [ -159.48598088282651, 22.053370809780517 ], [ -159.485626087914397, 22.053279077254128 ], [ -159.485880239035794, 22.053040660556089 ], [ -159.48598088282651, 22.053370809780517 ] ] ] } },
{ "type": "Feature", "properties": { "ID": 19, "GRIDCODE": 2 }, "geometry": { "type": "Polygon", "coordinates": [ [ [ -159.484230922851197, 22.051749826048933 ], [ -159.484585713091946, 22.05184156170197 ], [ -159.48433156185925, 22.052079976425354 ], [ -159.484230922851197, 22.051749826048933 ] ] ] } },
{ "type": "Feature", "properties": { "ID": 20, "GRIDCODE": 2 }, "geometry": { "type": "Polygon", "coordinates": [ [ [ -159.48393926673225, 22.05147966017341 ], [ -159.484230000326335, 22.051478800448628 ], [ -159.484230922851197, 22.051749826048933 ], [ -159.483940188703315, 22.051750685785372 ], [ -159.48393926673225, 22.05147966017341 ] ] ] } },
{ "type": "Feature", "properties": { "ID": 21, "GRIDCODE": 2 }, "geometry": { "type": "Polygon", "coordinates": [ [ [ -159.483647611721011, 22.051209493749305 ], [ -159.48393834477551, 22.051208634552449 ], [ -159.48393926673225, 22.05147966017341 ], [ -159.483648533123954, 22.051480519381901 ], [ -159.483647611721011, 22.051209493749305 ] ] ] } },
{ "type": "Feature", "properties": { "ID": 22, "GRIDCODE": 2 }, "geometry": { "type": "Polygon", "coordinates": [ [ [ -159.483647611721011, 22.051209493749305 ], [ -159.483292823627693, 22.051117756016502 ], [ -159.483546974949462, 22.050879342877522 ], [ -159.483647611721011, 22.051209493749305 ] ] ] } },
{ "type": "Feature", "properties": { "ID": 23, "GRIDCODE": 2 }, "geometry": { "type": "Polygon", "coordinates": [ [ [ -159.505137763830902, 22.044368896967423 ], [ -159.505492548075495, 22.044460587487208 ], [ -159.505238445490107, 22.044699033983569 ], [ -159.505137763830902, 22.044368896967423 ] ] ] } },
{ "type": "Feature", "properties": { "ID": 24, "GRIDCODE": 2 }, "geometry": { "type": "Polygon", "coordinates": [ [ [ -159.500184123241496, 22.041131765767478 ], [ -159.500869690433234, 22.041479390051482 ], [ -159.500325785040189, 22.041736101070978 ], [ -159.500184123241496, 22.041131765767478 ] ] ] } },
{ "type": "Feature", "properties": { "ID": 25, "GRIDCODE": 2 }, "geometry": { "type": "Polygon", "coordinates": [ [ [ -159.531815936971611, 22.026125586479534 ], [ -159.531461183006172, 22.026033952213172 ], [ -159.531715208150672, 22.025795466001508 ], [ -159.531815936971611, 22.026125586479534 ] ] ] } },
{ "type": "Feature", "properties": { "ID": 26, "GRIDCODE": 2 }, "geometry": { "type": "Polygon", "coordinates": [ [ [ -159.504177320554447, 22.019437245381301 ], [ -159.504078998456606, 22.01976799649956 ], [ -159.503823255929291, 22.01953111988173 ], [ -159.504177320554447, 22.019437245381301 ] ] ] } },
{ "type": "Feature", "properties": { "ID": 27, "GRIDCODE": 2 }, "geometry": { "type": "Polygon", "coordinates": [ [ [ -159.504177320554447, 22.019437245381301 ], [ -159.504275642211212, 22.019106494199391 ], [ -159.504531384697742, 22.019343370123693 ], [ -159.504177320554447, 22.019437245381301 ] ] ] } },
{ "type": "Feature", "properties": { "ID": 28, "GRIDCODE": 2 }, "geometry": { "type": "Polygon", "coordinates": [ [ [ -159.505329417425486, 22.016452380235922 ], [ -159.505684131849222, 22.016544071967243 ], [ -159.505430078380783, 22.016782518619681 ], [ -159.505329417425486, 22.016452380235922 ] ] ] } },
{ "type": "Feature", "properties": { "ID": 29, "GRIDCODE": 2 }, "geometry": { "type": "Polygon", "coordinates": [ [ [ -159.505329417425486, 22.016452380235922 ], [ -159.504974703442798, 22.016360687727261 ], [ -159.505228756951965, 22.016122241768262 ], [ -159.505329417425486, 22.016452380235922 ] ] ] } },
{ "type": "Feature", "properties": { "ID": 30, "GRIDCODE": 2 }, "geometry": { "type": "Polygon", "coordinates": [ [ [ -159.550697508627621, 22.022810888365616 ], [ -159.550343468624447, 22.022904862894663 ], [ -159.550599293018792, 22.023141665154196 ], [ -159.550697508627621, 22.022810888365616 ], [ -159.55116874407662, 22.022670035394572 ], [ -159.551706681394364, 22.022124764718772 ], [ -159.552120292219826, 22.021764819805473 ], [ -159.552890449211503, 22.02214146940625 ], [ -159.553460637882011, 22.022118469935279 ], [ -159.553741725106079, 22.022208039198482 ], [ -159.552058094893596, 22.023368231885975 ], [ -159.551179783354286, 22.025119747067354 ], [ -159.550306067260806, 22.025090393381586 ], [ -159.54966228531967, 22.025410776252521 ], [ -159.549699207456143, 22.026206529982037 ], [ -159.549290398020901, 22.026933093781295 ], [ -159.548599920863609, 22.026243249008871 ], [ -159.547739371415958, 22.025671750151261 ], [ -159.547371716252542, 22.026768104720439 ], [ -159.54678849885579, 22.02674849758629 ], [ -159.546380639261542, 22.026764944654023 ], [ -159.545919088964354, 22.028141403708567 ], [ -159.544858456909225, 22.027081767738018 ], [ -159.544470593190056, 22.027855246608532 ], [ -159.543869290957161, 22.027561138481747 ], [ -159.543303477525399, 22.027583925029436 ], [ -159.543007289197931, 22.027573955990313 ], [ -159.542731837181179, 22.02894572025119 ], [ -159.542149588883206, 22.028660938714481 ], [ -159.541815377212771, 22.028674384786701 ], [ -159.541181512410162, 22.029316811620035 ], [ -159.540399827430264, 22.028934454947585 ], [ -159.540117674984685, 22.029220407425569 ], [ -159.539816482080539, 22.029482469064085 ], [ -159.539830935717106, 22.029794407268508 ], [ -159.540412435088086, 22.030293222389417 ], [ -159.540693231827959, 22.03060312370355 ], [ -159.539895537328306, 22.031297152032174 ], [ -159.537855067960948, 22.030299057777363 ], [ -159.536774790455098, 22.030342517171778 ], [ -159.537524132757255, 22.03165177388205 ], [ -159.536620310547164, 22.032758763299579 ], [ -159.536645191823339, 22.033297047564176 ], [ -159.535919235011448, 22.033619383384348 ], [ -159.534027540404651, 22.033555670613005 ], [ -159.533740042208365, 22.033898170983207 ], [ -159.534445868549255, 22.035131290551323 ], [ -159.535503951550652, 22.035592637353549 ], [ -159.536302268892968, 22.036540357753463 ], [ -159.535201444869074, 22.036001903946495 ], [ -159.533682952731596, 22.035746153628658 ], [ -159.532542774321598, 22.03631337461211 ], [ -159.532008850149253, 22.037377763939219 ], [ -159.531394318167031, 22.037650604311452 ], [ -159.531509742188973, 22.0401464469114 ], [ -159.528771129065319, 22.040054123515958 ], [ -159.528235710509819, 22.039005818721286 ], [ -159.527932965703627, 22.038746089808871 ], [ -159.527652289030954, 22.038465644545163 ], [ -159.526789559283401, 22.038089439847468 ], [ -159.525078888580254, 22.039822683924804 ], [ -159.524252251969045, 22.04018962464432 ], [ -159.523737838648941, 22.041214918793088 ], [ -159.525004557574533, 22.041164048308076 ], [ -159.525639512585116, 22.041474675627924 ], [ -159.525599005524896, 22.042517907120306 ], [ -159.52621679883174, 22.043348756472156 ], [ -159.526500490587381, 22.044442276131566 ], [ -159.52709396301006, 22.044701071749031 ], [ -159.527943109878663, 22.045116473022315 ], [ -159.526800199516401, 22.046870235009127 ], [ -159.526522593616249, 22.047423504695924 ], [ -159.526072848618554, 22.048222531945843 ], [ -159.52496119324212, 22.050438071659521 ], [ -159.523743952092076, 22.050396992233591 ], [ -159.523332572174468, 22.049591628027649 ], [ -159.521417878710537, 22.049313542537661 ], [ -159.520881298137255, 22.047245077501117 ], [ -159.520000454811509, 22.04813741764001 ], [ -159.519236805871117, 22.048801545786258 ], [ -159.519266786306872, 22.049450814656737 ], [ -159.519850767615878, 22.051499912135508 ], [ -159.520134506925558, 22.052614930435826 ], [ -159.518701652299342, 22.052566541967881 ], [ -159.517594244435571, 22.053688282919069 ], [ -159.517197693455017, 22.053674896511609 ], [ -159.516404935920178, 22.052882646217743 ], [ -159.515616367662744, 22.052538754942631 ], [ -159.512520841323607, 22.052662865400482 ], [ -159.512008923326476, 22.053726857275105 ], [ -159.513810418004425, 22.054803303711889 ], [ -159.514362381383705, 22.055354890006587 ], [ -159.514323023100189, 22.056366188326596 ], [ -159.512011949421122, 22.056716817152459 ], [ -159.510812191070443, 22.056676249390012 ], [ -159.509231351147946, 22.055096399380393 ], [ -159.507795843136876, 22.054470303247175 ], [ -159.506152633097031, 22.054536102597545 ], [ -159.505365578309807, 22.055333288484061 ], [ -159.504736033313094, 22.055612627354314 ], [ -159.504457142938861, 22.055832737606568 ], [ -159.506450467710437, 22.056268854451517 ], [ -159.506860353902141, 22.060121538328911 ], [ -159.509009936253506, 22.062566981859803 ], [ -159.511089187244323, 22.063021779782616 ], [ -159.511584469238215, 22.06399168832986 ], [ -159.513775438557758, 22.062902237260975 ], [ -159.515701579074232, 22.062609998656772 ], [ -159.517158672722189, 22.062659228383001 ], [ -159.518688385918949, 22.062280417844857 ], [ -159.520461859638431, 22.062620402361834 ], [ -159.52193377250012, 22.062877493956169 ], [ -159.521049290764779, 22.064234371640435 ], [ -159.520771748000811, 22.064819871806932 ], [ -159.523168623422094, 22.064723642379434 ], [ -159.523962901510771, 22.065861550172038 ], [ -159.524720120597323, 22.066879708171449 ], [ -159.525709434857163, 22.066387678731815 ], [ -159.526301067988868, 22.066125072412248 ], [ -159.526579713527809, 22.065842826980834 ], [ -159.527653202178556, 22.065522222533769 ], [ -159.528044075356974, 22.063577457465442 ], [ -159.529195082431642, 22.063949345112682 ], [ -159.530369454857407, 22.063561384568558 ], [ -159.53034930166956, 22.063125547755142 ], [ -159.530359919114119, 22.062850963306314 ], [ -159.530206136449777, 22.062177418689245 ], [ -159.530649952461289, 22.06204809272656 ], [ -159.531244315581688, 22.061744518171405 ], [ -159.531803789479454, 22.061773767103475 ], [ -159.532137134292384, 22.061754156253652 ], [ -159.532054783882302, 22.060538046738699 ], [ -159.532972763515829, 22.060141687340479 ], [ -159.532583735601406, 22.058806232242837 ], [ -159.533252500599559, 22.05824526068093 ], [ -159.533525251633307, 22.057686189919028 ], [ -159.533829616769651, 22.057702103532314 ], [ -159.534736623848715, 22.057395379112823 ], [ -159.534681606335937, 22.056582015821792 ], [ -159.536219040459457, 22.056662393258527 ], [ -159.535377760246661, 22.055231256944921 ], [ -159.536293751277242, 22.055279141948912 ], [ -159.536710739634827, 22.054424332441389 ], [ -159.53788904675821, 22.054164689877815 ], [ -159.538193836444492, 22.053844474136298 ], [ -159.53808971206783, 22.052307173690956 ], [ -159.538462312603912, 22.051994592063103 ], [ -159.538735635343073, 22.051707414259994 ], [ -159.5390417230129, 22.051450631856735 ], [ -159.539315043540256, 22.051163453111887 ], [ -159.539621128991399, 22.050906669652985 ], [ -159.539893418796851, 22.050348466693716 ], [ -159.540542668437439, 22.050068085221799 ], [ -159.541321039823885, 22.049250117490011 ], [ -159.542939461941842, 22.049648452863341 ], [ -159.544190383220695, 22.048827696336527 ], [ -159.544542022952896, 22.049535242381683 ], [ -159.544859239705147, 22.049797587552977 ], [ -159.54452670490582, 22.050076568924677 ], [ -159.544562965122708, 22.050611652901289 ], [ -159.544466274869023, 22.052220995763076 ], [ -159.545445950358527, 22.052499447031511 ], [ -159.545124219186192, 22.053635557633587 ], [ -159.545176283314333, 22.054403981565294 ], [ -159.545135581899331, 22.055081683010375 ], [ -159.545181477399865, 22.055759095978917 ], [ -159.545148513693846, 22.056307378986801 ], [ -159.545553770194573, 22.056996579966775 ], [ -159.545437401860141, 22.058932744276738 ], [ -159.547301108734132, 22.057980610589063 ], [ -159.547767092664287, 22.056555916037222 ], [ -159.549109168116928, 22.056024618456558 ], [ -159.549536896637932, 22.056885192992667 ], [ -159.550112491236575, 22.057361128170758 ], [ -159.5503933610633, 22.057652036502887 ], [ -159.55097002246842, 22.057357433060169 ], [ -159.551560791457831, 22.057388262791015 ], [ -159.552017189902756, 22.055992637066574 ], [ -159.552430887566317, 22.056014218296337 ], [ -159.55371539513979, 22.05557968354692 ], [ -159.555046710698349, 22.055191513077993 ], [ -159.555610335137345, 22.054599130049191 ], [ -159.557355134582167, 22.05469011840384 ], [ -159.558194508089173, 22.053807929132429 ], [ -159.55852208218738, 22.053825008063171 ], [ -159.558820134003128, 22.053807432153064 ], [ -159.559096452819261, 22.054093626522103 ], [ -159.559812588239282, 22.054617978829352 ], [ -159.560550262300012, 22.053527860393235 ], [ -159.561873924274778, 22.053853469521698 ], [ -159.562940237813649, 22.053790535475631 ], [ -159.56418191558646, 22.052485455882099 ], [ -159.565036213834674, 22.052176050337458 ], [ -159.565490761385519, 22.053530502727462 ], [ -159.565879219884522, 22.053507572841852 ], [ -159.566936311207343, 22.052396421755621 ], [ -159.567610846785357, 22.053377081618077 ], [ -159.568226675873518, 22.051493298400118 ], [ -159.569709161884219, 22.052237634906348 ], [ -159.570908327146441, 22.051624757848796 ], [ -159.57276249567272, 22.054417614931886 ], [ -159.57160344642881, 22.055390304702488 ], [ -159.571330184469787, 22.055677536023502 ], [ -159.571024147628066, 22.055934377647944 ], [ -159.570000049870714, 22.057447825767035 ], [ -159.570466605655497, 22.057833499920108 ], [ -159.570742171192279, 22.058118816371422 ], [ -159.570896219072552, 22.058246165881094 ], [ -159.571015173997353, 22.058861661995955 ], [ -159.571274734119299, 22.058395576474798 ], [ -159.570896219072552, 22.058246165881094 ], [ -159.571048495580698, 22.057826243359241 ], [ -159.571027991524005, 22.057033204973472 ], [ -159.572650925566023, 22.056412930348504 ], [ -159.573358628034811, 22.056749631438855 ], [ -159.574406102239209, 22.057062441573091 ], [ -159.577175734363038, 22.062771602410422 ], [ -159.581455630327497, 22.073089912254236 ], [ -159.582165937884014, 22.077502417527036 ], [ -159.581921579855077, 22.087968751685011 ], [ -159.580918802066918, 22.095273488597922 ], [ -159.57936227659809, 22.100832966401441 ], [ -159.577341882932217, 22.104751524672004 ], [ -159.575735732039703, 22.107414833465601 ], [ -159.575089478127182, 22.107429400300006 ], [ -159.574584374506458, 22.105529743979204 ], [ -159.572974963218201, 22.105800993956915 ], [ -159.571459684644765, 22.106949591539962 ], [ -159.569784524609133, 22.106555763257319 ], [ -159.570070934350639, 22.106900673518815 ], [ -159.570642101675048, 22.107408205585529 ], [ -159.570663954109335, 22.108251009192955 ], [ -159.570654265520943, 22.108790377635444 ], [ -159.570955830587735, 22.108523725996886 ], [ -159.571239741022396, 22.108246284009756 ], [ -159.571826184360361, 22.107978634434325 ], [ -159.5733549881258, 22.106889181441215 ], [ -159.573571146005946, 22.107699748581897 ], [ -159.572703997473866, 22.109282846797043 ], [ -159.573162268251451, 22.110648656581944 ], [ -159.575760737571471, 22.110688929504235 ], [ -159.576193609307808, 22.109849445358691 ], [ -159.577060470840223, 22.109862869565131 ], [ -159.578353029006848, 22.109039752802033 ], [ -159.578813217972851, 22.109574884676338 ], [ -159.57880823861143, 22.109851169542786 ], [ -159.579704399975128, 22.11011864302758 ], [ -159.580266092222217, 22.110659216566923 ], [ -159.580858894695126, 22.110645836403794 ], [ -159.581431714799095, 22.111197118479382 ], [ -159.582567266505663, 22.111171477143262 ], [ -159.583211304881161, 22.111477752442728 ], [ -159.58448950347946, 22.111448875471655 ], [ -159.584925815045551, 22.111455609484391 ], [ -159.585429653115227, 22.111444226770445 ], [ -159.592505558048572, 22.114946113359405 ], [ -159.599101131514374, 22.118383379896301 ], [ -159.609280626059672, 22.122346858225704 ], [ -159.619305195317679, 22.125507617372858 ], [ -159.618865382106065, 22.126644170896903 ], [ -159.617564128163366, 22.126234683905825 ], [ -159.616810371944524, 22.127315416207935 ], [ -159.616116316787611, 22.127331229109291 ], [ -159.615549418402651, 22.127322590544697 ], [ -159.615094133612359, 22.127733435929681 ], [ -159.614668200524932, 22.128149810331902 ], [ -159.614086526135225, 22.128140941170475 ], [ -159.614512056781081, 22.128957929527029 ], [ -159.614961578490551, 22.128690640980302 ], [ -159.615521663528284, 22.12814311261862 ], [ -159.617285118953646, 22.127868807265344 ], [ -159.617862762959419, 22.127588785405589 ], [ -159.618591493711904, 22.127935066759438 ], [ -159.619314271672323, 22.127584675008269 ], [ -159.620671329047354, 22.126964893052413 ], [ -159.621149820806608, 22.126036292336757 ], [ -159.623966504344224, 22.127137666876266 ], [ -159.623105168859951, 22.128388739488571 ], [ -159.622521124795753, 22.129198605651752 ], [ -159.621303100005122, 22.131128251003606 ], [ -159.61992893176199, 22.132471676005046 ], [ -159.618879707146704, 22.131973133468243 ], [ -159.616504923966573, 22.132522037190665 ], [ -159.615559872353572, 22.133832367150433 ], [ -159.614669353117847, 22.136093261008568 ], [ -159.613404577920534, 22.135695267353743 ], [ -159.612084684518464, 22.136099798982698 ], [ -159.612693490048343, 22.136298332406845 ], [ -159.613819573466259, 22.136272687632779 ], [ -159.614408066505547, 22.13655234593892 ], [ -159.61506459098652, 22.136846037824903 ], [ -159.614632604437219, 22.138443223420545 ], [ -159.61511624726046, 22.138094337199693 ], [ -159.615579656327014, 22.136816239425041 ], [ -159.615232425872705, 22.135883423671469 ], [ -159.615693839270932, 22.134540116758174 ], [ -159.616142842693137, 22.134101188801072 ], [ -159.616438407030415, 22.133834477209803 ], [ -159.617000910351067, 22.133284560946915 ], [ -159.617451280425968, 22.133291426527588 ], [ -159.617887586181354, 22.133281479716342 ], [ -159.618469423601624, 22.13329033429833 ], [ -159.619053720877531, 22.13327701143324 ], [ -159.62015911256853, 22.133624833435146 ], [ -159.621154331831661, 22.132363349786772 ], [ -159.621982060268436, 22.132733596231002 ], [ -159.622843554047222, 22.133562198980211 ], [ -159.622825051034539, 22.1328589447462 ], [ -159.6228322723274, 22.132449879462822 ], [ -159.62245488735303, 22.131774279014799 ], [ -159.623828977454423, 22.129597440194921 ], [ -159.625150973394739, 22.129192161893158 ], [ -159.625115318706889, 22.127839012296956 ], [ -159.628964712210092, 22.1295097630308 ], [ -159.630381442112792, 22.130767471738825 ], [ -159.630396485379919, 22.131339263701467 ], [ -159.629229307737546, 22.13187241830672 ], [ -159.629515650979528, 22.132158438549023 ], [ -159.630110416514469, 22.132424451633106 ], [ -159.630091576428754, 22.133505894765388 ], [ -159.630984547734727, 22.132699911634127 ], [ -159.630962936493177, 22.13188182961942 ], [ -159.632401796625828, 22.132201084311745 ], [ -159.635290871180075, 22.134765669456101 ], [ -159.637525886607534, 22.138045136607925 ], [ -159.638271410789969, 22.140708697263555 ], [ -159.638887213253241, 22.146098163933502 ], [ -159.638191649453489, 22.148571868159443 ], [ -159.636912316703473, 22.149192163255666 ], [ -159.634998801540945, 22.149236006675491 ], [ -159.633372382239543, 22.148946786308016 ], [ -159.62948878252547, 22.148148757664629 ], [ -159.625340291886516, 22.148733443852681 ], [ -159.623016306535447, 22.150165599056038 ], [ -159.622042012282378, 22.151945284111381 ], [ -159.621609514263554, 22.155358119976139 ], [ -159.621189036762217, 22.155769147452855 ], [ -159.620596541051441, 22.156039710675433 ], [ -159.620630643428143, 22.157337026500748 ], [ -159.620322106598309, 22.158477630594412 ], [ -159.620335650466842, 22.158990762623944 ], [ -159.620022862316659, 22.161042816938508 ], [ -159.620341282996833, 22.162818902381932 ], [ -159.62133875530364, 22.165244029532879 ], [ -159.622257113137039, 22.167843627523315 ], [ -159.622990745902257, 22.168494795112444 ], [ -159.623329375030607, 22.169766040214537 ], [ -159.624179949187862, 22.170963566672931 ], [ -159.624991487811485, 22.171683843555055 ], [ -159.625895374402091, 22.172914925786294 ], [ -159.623988619307312, 22.176077683067639 ], [ -159.623589262620612, 22.176086804287422 ], [ -159.623021791753871, 22.175541195317745 ], [ -159.62185087335169, 22.175280064979248 ], [ -159.621008601292942, 22.174470217220975 ], [ -159.621275362883068, 22.176378434951882 ], [ -159.622150109208405, 22.177154804665019 ], [ -159.620988083960867, 22.177999052059363 ], [ -159.61927974637527, 22.177973081557585 ], [ -159.618806269061736, 22.178400250817816 ], [ -159.618364847966404, 22.178831668248385 ], [ -159.617212905003242, 22.179357575623111 ], [ -159.616656095538559, 22.179901723241176 ], [ -159.616617127185663, 22.179469966012711 ], [ -159.616633347150014, 22.178546743432406 ], [ -159.615739814762037, 22.178280437997035 ], [ -159.616338695846338, 22.177740182935924 ], [ -159.616621468561902, 22.177191656094447 ], [ -159.616984416100763, 22.176864236440398 ], [ -159.616562976255523, 22.175671170310956 ], [ -159.615454557768885, 22.175175493139459 ], [ -159.615743598377463, 22.174467903388283 ], [ -159.616824283818772, 22.173492928175893 ], [ -159.6158082718473, 22.173038530552812 ], [ -159.617031530060046, 22.171934907727294 ], [ -159.61601816506149, 22.170960473881308 ], [ -159.615138268114862, 22.170698202382777 ], [ -159.614560948520847, 22.17042393417713 ], [ -159.614121002583829, 22.170292795021137 ], [ -159.614001755468706, 22.169677344888584 ], [ -159.613742143080827, 22.170143485134151 ], [ -159.614121002583829, 22.170292795021137 ], [ -159.614365608140673, 22.170852977994979 ], [ -159.614243449068283, 22.17153005413034 ], [ -159.61528281630595, 22.171788296062132 ], [ -159.614544823512063, 22.1723039448622 ], [ -159.614299141656318, 22.172886718910014 ], [ -159.613915990164713, 22.173468534089888 ], [ -159.613394909043507, 22.173386997340504 ], [ -159.612194292760194, 22.174085313975183 ], [ -159.61235809464344, 22.174950386538377 ], [ -159.612872830127912, 22.175304012548665 ], [ -159.612523261283684, 22.175834815799007 ], [ -159.612202254375035, 22.177318402681458 ], [ -159.611369996318246, 22.177188171586138 ], [ -159.611002863463739, 22.177651778780529 ], [ -159.611125440139318, 22.178299147858887 ], [ -159.611030318230348, 22.178826160770189 ], [ -159.611434334173993, 22.179103696363999 ], [ -159.611079033832766, 22.179643181798006 ], [ -159.611335173127117, 22.180996278694579 ], [ -159.612058211421981, 22.18149299679002 ], [ -159.61167728709043, 22.182071452783894 ], [ -159.611431577378454, 22.182654222469697 ], [ -159.611098812135822, 22.182886683053933 ], [ -159.610459622263534, 22.183693752151033 ], [ -159.60881404640881, 22.182997811665782 ], [ -159.609779485128541, 22.182323338514067 ], [ -159.609572503869771, 22.181229913708034 ], [ -159.60907639581896, 22.181311367796486 ], [ -159.608703231447123, 22.181252976236483 ], [ -159.608898137166335, 22.18228248046336 ], [ -159.607611284828948, 22.18208109146877 ], [ -159.606775631731665, 22.182671627952725 ], [ -159.606151861289732, 22.182905162043014 ], [ -159.605777757272989, 22.184633756118664 ], [ -159.606037711357942, 22.185229160710712 ], [ -159.605615138692286, 22.185596722372907 ], [ -159.6051888753573, 22.186446740858166 ], [ -159.604726741884349, 22.186187767266208 ], [ -159.60444561744302, 22.185907460203829 ], [ -159.602973832051902, 22.185379963668346 ], [ -159.603370123411651, 22.184313426728675 ], [ -159.602294003990778, 22.184000517987293 ], [ -159.602686925559908, 22.182943084660785 ], [ -159.602959858652753, 22.181305623352262 ], [ -159.603537472831476, 22.180279123916762 ], [ -159.602811961798494, 22.180127152265808 ], [ -159.601399087446225, 22.18104037114416 ], [ -159.600629218574596, 22.180782376056388 ], [ -159.600671997566309, 22.179664726766219 ], [ -159.599752422787873, 22.179702065884552 ], [ -159.599330413949275, 22.179281191300689 ], [ -159.59886666409443, 22.178884165052647 ], [ -159.601195135803579, 22.178188123533214 ], [ -159.601220652859553, 22.177522930216757 ], [ -159.601195025649957, 22.176976182672334 ], [ -159.601900776225733, 22.176362301180074 ], [ -159.601198719154326, 22.175138381866685 ], [ -159.602111160417167, 22.174784298870811 ], [ -159.602942888147794, 22.174811925565066 ], [ -159.60322193976441, 22.174529145206446 ], [ -159.603820392461955, 22.174263373194151 ], [ -159.602351833322018, 22.172596251500647 ], [ -159.602643551038597, 22.172352443232025 ], [ -159.604216175969583, 22.172404670369605 ], [ -159.605396204744238, 22.172051859950489 ], [ -159.604889749265681, 22.171168945396346 ], [ -159.605261970157329, 22.170167005291407 ], [ -159.605225139862966, 22.169379348049336 ], [ -159.606679279968944, 22.168497046464271 ], [ -159.60566019548861, 22.167624576317046 ], [ -159.605202250330223, 22.167167912454477 ], [ -159.605267449278017, 22.16855910733657 ], [ -159.604068295758793, 22.168302873300078 ], [ -159.603222389222822, 22.167889963140428 ], [ -159.603191138399893, 22.168707482919398 ], [ -159.603223027069589, 22.169388563925807 ], [ -159.602187719613198, 22.169524254638844 ], [ -159.602086718134757, 22.169194188975403 ], [ -159.601832563109497, 22.169432791638528 ], [ -159.602187719613198, 22.169524254638844 ], [ -159.601952300314679, 22.170209209737216 ], [ -159.600709462287, 22.170190172879682 ], [ -159.599905065858195, 22.168661224679116 ], [ -159.599372707410112, 22.169181429054454 ], [ -159.599449265307015, 22.172109044496604 ], [ -159.598268739046006, 22.172381693806354 ], [ -159.597985970415522, 22.172946029028186 ], [ -159.598817428570754, 22.173684255249096 ], [ -159.596583879064582, 22.174200080519785 ], [ -159.595347168793239, 22.175408448063745 ], [ -159.595374145657388, 22.173885615577827 ], [ -159.595356445406765, 22.173208128363072 ], [ -159.595366018468923, 22.172664095791148 ], [ -159.595252717699509, 22.171856112010062 ], [ -159.594494176155763, 22.17294296364005 ], [ -159.593898364988746, 22.173214870403768 ], [ -159.593338227662457, 22.174844321407143 ], [ -159.59187860726729, 22.17511523208405 ], [ -159.591583145428757, 22.175403904668084 ], [ -159.5916042142496, 22.176211489712951 ], [ -159.591014671834444, 22.175931322279069 ], [ -159.590147472703251, 22.175950948718995 ], [ -159.589695323073585, 22.175516022424397 ], [ -159.590576261971592, 22.174721555508508 ], [ -159.591570259437646, 22.173750404183593 ], [ -159.592978505050382, 22.172480310543026 ], [ -159.593928162321561, 22.171277320109915 ], [ -159.593886769570673, 22.169692824091992 ], [ -159.594188394306201, 22.169420811518769 ], [ -159.594562493658373, 22.167598103700445 ], [ -159.594173317812903, 22.167252591257746 ], [ -159.594192620946217, 22.166165831509595 ], [ -159.594160717466167, 22.164946353043312 ], [ -159.594172717884504, 22.16426875659889 ], [ -159.594155025763257, 22.16359126830546 ], [ -159.59416226868538, 22.163184710224257 ], [ -159.594155163519986, 22.162913714979915 ], [ -159.594160052237896, 22.162640070684063 ], [ -159.593860017313006, 22.162373665982038 ], [ -159.594258029795043, 22.161647047336906 ], [ -159.593819317475123, 22.161257489449014 ], [ -159.594165807012189, 22.158986730461454 ], [ -159.593264050111031, 22.158583274850653 ], [ -159.593271355604969, 22.158174061328491 ], [ -159.593259678361903, 22.157726920260661 ], [ -159.59181083886773, 22.15644034993155 ], [ -159.590808288154193, 22.154534270862218 ], [ -159.589449655769926, 22.15371154857166 ], [ -159.589490040837774, 22.151435690903252 ], [ -159.585133205152715, 22.147566206967785 ], [ -159.581880784661763, 22.146913303301762 ], [ -159.580416034409581, 22.145886109225486 ], [ -159.579289258009965, 22.14538180665674 ], [ -159.578375148380104, 22.144809268016438 ], [ -159.577485906772694, 22.14441125225995 ], [ -159.577503189498032, 22.143441712201472 ], [ -159.576609007267223, 22.142647447787862 ], [ -159.576623463370908, 22.141836934759144 ], [ -159.576007335821203, 22.141561140817679 ], [ -159.575450525022433, 22.14102529514216 ], [ -159.575152709715411, 22.140760748345762 ], [ -159.57486649930533, 22.140485308606255 ], [ -159.574568686223444, 22.140220760678854 ], [ -159.573470705331715, 22.139164088198644 ], [ -159.572817738521564, 22.138871803180724 ], [ -159.57188304787249, 22.138286296788227 ], [ -159.571212899081445, 22.137641375193848 ], [ -159.57182070012675, 22.135966594160774 ], [ -159.570764613650738, 22.135493817397723 ], [ -159.570774410838794, 22.134946419185571 ], [ -159.570760295568562, 22.134404422789277 ], [ -159.570772409092342, 22.133726823181121 ], [ -159.570758283569916, 22.133182221384608 ], [ -159.571054216769852, 22.132915374081424 ], [ -159.571043548274474, 22.1325062716509 ], [ -159.571052650604145, 22.13199817102884 ], [ -159.570580927770919, 22.13129099893797 ], [ -159.568109955834501, 22.132234848844668 ], [ -159.568141285250704, 22.130483726265442 ], [ -159.568122375894774, 22.129752936155608 ], [ -159.566961603482696, 22.129406448027389 ], [ -159.566391532631172, 22.128322009911884 ], [ -159.565374332630427, 22.12801836015667 ], [ -159.564630571709785, 22.12696989176353 ], [ -159.564183923998314, 22.126573031206238 ], [ -159.563702143148788, 22.126109254397431 ], [ -159.562865130334075, 22.124516868776411 ], [ -159.562285866541515, 22.124002151686081 ], [ -159.561999572786789, 22.1237265805451 ], [ -159.561703107020833, 22.123733241512493 ], [ -159.561123862840731, 22.122916629157341 ], [ -159.560532950748126, 22.122110856509895 ], [ -159.560542738014561, 22.121568825247728 ], [ -159.560239005471658, 22.121298951467619 ], [ -159.559940416434614, 22.120730840754881 ], [ -159.559949794494145, 22.120210480790128 ], [ -159.559361039593455, 22.119946842689888 ], [ -159.559074902231572, 22.119671373029782 ], [ -159.558486151145132, 22.119407731677228 ], [ -159.558496117278992, 22.118855021766759 ], [ -159.557318554954833, 22.118327683090211 ], [ -159.556749676737923, 22.11724521356151 ], [ -159.556149771282548, 22.116976547904326 ], [ -159.554328315079232, 22.116110042695734 ], [ -159.553823365007247, 22.115623907468258 ], [ -159.55321010852893, 22.115078859218219 ], [ -159.552081615867934, 22.115104140871367 ], [ -159.551641112695023, 22.114680003535359 ], [ -159.55032196273325, 22.114286047608811 ], [ -159.550034803081985, 22.113739540608147 ], [ -159.549588237844205, 22.11334263777734 ], [ -159.549159080568387, 22.112929414341281 ], [ -159.548861373486403, 22.112664816420867 ], [ -159.548432220381244, 22.112251590955534 ], [ -159.547985664308897, 22.111854683483539 ], [ -159.547556516208147, 22.111441455574344 ], [ -159.547092294205271, 22.111028865019112 ], [ -159.547116515138725, 22.10968668841295 ], [ -159.546521994260729, 22.109420366840755 ], [ -159.546220409934477, 22.108846407802151 ], [ -159.544196052304585, 22.108891665364855 ], [ -159.543905994696701, 22.108339573360368 ], [ -159.543608164597856, 22.10807485827311 ], [ -159.543613327104282, 22.107791401640945 ], [ -159.541768629053479, 22.10724036050021 ], [ -159.542154121135297, 22.106178546862189 ], [ -159.541557266235287, 22.105647971885492 ], [ -159.540984976934567, 22.105096867316995 ], [ -159.540398864509314, 22.105109956252246 ], [ -159.540107438545078, 22.10374475362239 ], [ -159.539226955269953, 22.103481723443782 ], [ -159.539519669206584, 22.102125475249807 ], [ -159.539512167791969, 22.10183328466147 ], [ -159.538923035724991, 22.101309538761878 ], [ -159.538937718758433, 22.100501642505129 ], [ -159.538349520652019, 22.099978734889351 ], [ -159.53776121963125, 22.098603015937087 ], [ -159.537462537679573, 22.09806737394598 ], [ -159.537165019674774, 22.097500975810092 ], [ -159.536573919743546, 22.096975473726985 ], [ -159.535982089281731, 22.096988664299801 ], [ -159.535134574075272, 22.096172410451238 ], [ -159.534255284005638, 22.095909687504687 ], [ -159.533969243944142, 22.095634171089152 ], [ -159.533671601585979, 22.095369543631449 ], [ -159.532774013885501, 22.09450500526793 ], [ -159.529884855164397, 22.093755710840707 ], [ -159.529307796991134, 22.093481029881364 ], [ -159.52873188279051, 22.093493844673819 ], [ -159.528143518607152, 22.093213770305223 ], [ -159.527558304934473, 22.093226792956603 ], [ -159.527267686924432, 22.09240194930744 ], [ -159.526396485312091, 22.092682978680443 ], [ -159.525957674415395, 22.092676053988914 ], [ -159.525230685527475, 22.092692220756348 ], [ -159.524940735458671, 22.092140083600729 ], [ -159.524352302601869, 22.091876372224664 ], [ -159.524065289263348, 22.091329815189102 ], [ -159.522895235684985, 22.091067962030923 ], [ -159.522609227189974, 22.090792424946166 ], [ -159.522299577638364, 22.090517095205719 ], [ -159.52144211200627, 22.090536143092191 ], [ -159.519641878212752, 22.090507633337072 ], [ -159.518824562248312, 22.089720277131555 ], [ -159.518250223368028, 22.089733016679489 ], [ -159.515070714784684, 22.088418553867911 ], [ -159.51473007986192, 22.088090372196785 ], [ -159.514744659251193, 22.087294137104035 ], [ -159.514422781253018, 22.087007896106577 ], [ -159.513277815421986, 22.087033264100526 ], [ -159.513333405727167, 22.089212945336666 ], [ -159.512276592765858, 22.089196161642512 ], [ -159.511589233158645, 22.089211382356702 ], [ -159.509022757957183, 22.091232918710855 ], [ -159.510398020042345, 22.091644086109135 ], [ -159.511407655418765, 22.0922773061708 ], [ -159.511997104678585, 22.093950946421135 ], [ -159.512446439957927, 22.09516101695122 ], [ -159.512734396081925, 22.095978617805944 ], [ -159.513164765254061, 22.096750743294901 ], [ -159.511744709379713, 22.097185108904316 ], [ -159.508366961878068, 22.097884017643715 ], [ -159.508386915124731, 22.096794094473221 ], [ -159.507781662036024, 22.096807489371848 ], [ -159.507221350927637, 22.097893002983689 ], [ -159.506926476550291, 22.098430759375585 ], [ -159.506933496700924, 22.098706478219235 ], [ -159.506540800106166, 22.100524235671649 ], [ -159.507232955410018, 22.101139854046274 ], [ -159.507519925257952, 22.101686440853303 ], [ -159.507817533425339, 22.101951116426537 ], [ -159.508364460461848, 22.10247806035223 ], [ -159.509306487201258, 22.103049419278495 ], [ -159.509878505108219, 22.103600530427904 ], [ -159.511669939197247, 22.104687015170661 ], [ -159.512647130265236, 22.105628406611967 ], [ -159.513218130724084, 22.108306060834511 ], [ -159.512818078587486, 22.10797525942564 ], [ -159.511913367252106, 22.106659435453214 ], [ -159.510746737129693, 22.106273487174672 ], [ -159.509275264355608, 22.106022306546709 ], [ -159.507814793173736, 22.104974915091265 ], [ -159.502426549752812, 22.104692359157866 ], [ -159.500163796783255, 22.105264545724467 ], [ -159.49924635435346, 22.105216401900986 ], [ -159.497716886644213, 22.105306036797316 ], [ -159.494995203765512, 22.104724652535985 ], [ -159.496467194809185, 22.102942701548621 ], [ -159.496104629345751, 22.097984577531115 ], [ -159.494382583862802, 22.096560058121046 ], [ -159.496148864124478, 22.095079692207495 ], [ -159.495818062571885, 22.093940776497323 ], [ -159.494652169531008, 22.092195869361323 ], [ -159.494741520713887, 22.090717706039253 ], [ -159.493789687678401, 22.089205388029384 ], [ -159.491469927328836, 22.087647025885129 ], [ -159.49093417412675, 22.08501887637296 ], [ -159.490236030226725, 22.084003064600463 ], [ -159.487963477199514, 22.082779040942476 ], [ -159.487412646520056, 22.082208142069664 ], [ -159.486796571928465, 22.081698409988419 ], [ -159.486492585404932, 22.080791247496911 ], [ -159.485627831368134, 22.080075721056271 ], [ -159.485341610461035, 22.078671542562248 ], [ -159.48474898170943, 22.078181136625219 ], [ -159.48418091086441, 22.07735448506801 ], [ -159.483872924919297, 22.077099620963331 ], [ -159.483354905487346, 22.076562736945604 ], [ -159.482774787953758, 22.076532226109506 ], [ -159.481271260613937, 22.076836269752089 ], [ -159.479801868022605, 22.077096362657681 ], [ -159.478212102066067, 22.077515186150698 ], [ -159.478999290406563, 22.075939056205485 ], [ -159.478550896960087, 22.074125455694247 ], [ -159.480229404848302, 22.073781801326291 ], [ -159.485452449049518, 22.071798422902187 ], [ -159.487121212036556, 22.070654613572458 ], [ -159.488075000847601, 22.070541136395892 ], [ -159.488827432965138, 22.07062610031182 ], [ -159.488765755566561, 22.070175740948756 ], [ -159.491475822233099, 22.069444727214545 ], [ -159.493838758102612, 22.067885936088889 ], [ -159.494430895882886, 22.06387112341606 ], [ -159.493825619729108, 22.061303812534344 ], [ -159.492567901935018, 22.059849455681114 ], [ -159.490787602586607, 22.060794750269544 ], [ -159.489348663793891, 22.06192983644214 ], [ -159.488785494405619, 22.06107177031403 ], [ -159.488089831226318, 22.060800966025248 ], [ -159.487287448534346, 22.058387281074584 ], [ -159.487323551376704, 22.058109809879781 ], [ -159.487286421323518, 22.057838892401829 ], [ -159.487390922239484, 22.057034843461562 ], [ -159.486643398611392, 22.055168307123928 ], [ -159.486113431833815, 22.054334002186572 ], [ -159.48598088282651, 22.053370809780517 ], [ -159.487502821207272, 22.05387477638082 ], [ -159.48978169377267, 22.053298506818809 ], [ -159.490479349385851, 22.05294241390099 ], [ -159.491031896853968, 22.052971443223072 ], [ -159.492565924121919, 22.052453131728551 ], [ -159.492470676175373, 22.051040826674953 ], [ -159.493102269247544, 22.050511343720228 ], [ -159.493649872266872, 22.049936256551465 ], [ -159.494261010448497, 22.050243454770293 ], [ -159.494536720663888, 22.049678680585764 ], [ -159.49670601146741, 22.049356818280238 ], [ -159.497471694409882, 22.048552740786242 ], [ -159.497374976768128, 22.047118723135583 ], [ -159.498209160552051, 22.047983446918384 ], [ -159.498598717284466, 22.047322258800328 ], [ -159.497395025350272, 22.045726979845917 ], [ -159.497877330046435, 22.044026195292236 ], [ -159.499571032093854, 22.042606095804388 ], [ -159.500044032724134, 22.042630921215604 ], [ -159.500658771527299, 22.042594883152514 ], [ -159.499924089045805, 22.043582268032445 ], [ -159.498068670786466, 22.045137980175809 ], [ -159.499477635589159, 22.045055393861691 ], [ -159.500058474813159, 22.045347345058154 ], [ -159.500334152736684, 22.044782561380071 ], [ -159.501047274413253, 22.044524604681062 ], [ -159.501508220775975, 22.045900318350625 ], [ -159.502084900188436, 22.044488093703404 ], [ -159.502370197372528, 22.045062607301517 ], [ -159.502755008031585, 22.045717656702891 ], [ -159.503279779346599, 22.046128674021183 ], [ -159.503204801593427, 22.045017580619039 ], [ -159.503883913625856, 22.045358908954817 ], [ -159.504712757101458, 22.045310302630394 ], [ -159.505254353685814, 22.046400866130568 ], [ -159.506475345174209, 22.046748235621816 ], [ -159.506447062602149, 22.047217493709596 ], [ -159.506755947711468, 22.047473091323941 ], [ -159.507271259295777, 22.048510677941305 ], [ -159.5076117960148, 22.047470440116957 ], [ -159.507961564754993, 22.046671523934659 ], [ -159.508746152836181, 22.047484669067295 ], [ -159.509291862139435, 22.047452634046458 ], [ -159.50972098594886, 22.046141667631787 ], [ -159.510369435632072, 22.046813710012049 ], [ -159.511731922834372, 22.047186586718372 ], [ -159.511677119998495, 22.046375180321519 ], [ -159.512111568676687, 22.045623880649948 ], [ -159.51166604121093, 22.044478384855271 ], [ -159.512375584227158, 22.044218521067268 ], [ -159.514041767908793, 22.044769977605426 ], [ -159.514644731529984, 22.044734569061983 ], [ -159.515158850330806, 22.044194536376185 ], [ -159.51554584621627, 22.043869967725087 ], [ -159.517176217277097, 22.044271533323712 ], [ -159.51777411117493, 22.04364337228149 ], [ -159.518078942082212, 22.043659347344736 ], [ -159.519224675942979, 22.043026237706425 ], [ -159.518631969584504, 22.042017552265644 ], [ -159.519569837318414, 22.041744296108018 ], [ -159.520226818497576, 22.041054070914509 ], [ -159.520685967153213, 22.040668948194313 ], [ -159.520955337582649, 22.039297701559253 ], [ -159.522019685290132, 22.038838177518016 ], [ -159.522429014300968, 22.037587108111236 ], [ -159.523288407113483, 22.0368662671289 ], [ -159.523575600691771, 22.035988545779606 ], [ -159.524738639434645, 22.036049437817482 ], [ -159.525015716253591, 22.035202564584818 ], [ -159.525607596452659, 22.035233552306721 ], [ -159.525880335768306, 22.034674492995819 ], [ -159.526529543498697, 22.034394167425905 ], [ -159.527071575582625, 22.033824645856917 ], [ -159.527037117173307, 22.03331605057345 ], [ -159.527652658993446, 22.03305025376747 ], [ -159.52759784864611, 22.032240176102441 ], [ -159.528507308015236, 22.031696793825727 ], [ -159.527805312676918, 22.030138398108402 ], [ -159.52823943134652, 22.02977421153625 ], [ -159.529046013653272, 22.029816421746421 ], [ -159.529760382926327, 22.029451491396742 ], [ -159.530219602590677, 22.028968925106998 ], [ -159.531065681006851, 22.028603546308204 ], [ -159.531376277679044, 22.027339011656721 ], [ -159.531681315886374, 22.026811218615826 ], [ -159.531815936971611, 22.026125586479534 ], [ -159.532587481453959, 22.025988724554839 ], [ -159.533128750752354, 22.025419930178334 ], [ -159.534456665826099, 22.025489382514337 ], [ -159.535586517513792, 22.02510720746745 ], [ -159.536013932066794, 22.023800546422564 ], [ -159.537719666750064, 22.023063825238033 ], [ -159.538635472023856, 22.02187841324233 ], [ -159.53941759453221, 22.021919297061565 ], [ -159.539990879948789, 22.020166283384736 ], [ -159.540997786468921, 22.018649895868911 ], [ -159.541574010546839, 22.019246920238437 ], [ -159.542173283370261, 22.02161049151038 ], [ -159.542704601905513, 22.021052054468477 ], [ -159.543562029431001, 22.02109685434985 ], [ -159.543850763109134, 22.020793422183278 ], [ -159.544325981225398, 22.020394633020668 ], [ -159.54473101944788, 22.020814286350703 ], [ -159.545149024397745, 22.020374941551644 ], [ -159.545608038661953, 22.01998975070137 ], [ -159.545995504950895, 22.019582498074307 ], [ -159.54646579533312, 22.020528947732423 ], [ -159.547180672917335, 22.020782337941284 ], [ -159.547856330785436, 22.018715779425182 ], [ -159.547107311966556, 22.017441372104614 ], [ -159.548162674959542, 22.016555732800654 ], [ -159.54859279001596, 22.015673553639662 ], [ -159.549966521390871, 22.015096689167308 ], [ -159.549931251079954, 22.015684601673964 ], [ -159.549355693281399, 22.016167595539162 ], [ -159.549083503151053, 22.016725814451373 ], [ -159.548182362260121, 22.017818134958539 ], [ -159.548226596602859, 22.018470014478886 ], [ -159.550995663950232, 22.017533075318156 ], [ -159.551537858414008, 22.018624161542519 ], [ -159.551996959445404, 22.01859709133673 ], [ -159.552387824752316, 22.019383596384426 ], [ -159.551642175341783, 22.019705736126646 ], [ -159.550894554537365, 22.020491656082864 ], [ -159.550239721127383, 22.020774543930532 ], [ -159.550850718170125, 22.022130357116072 ], [ -159.550697508627621, 22.022810888365616 ] ], [ [ -159.494777505297435, 22.07475563873972 ], [ -159.494658864365476, 22.074140082142179 ], [ -159.494399022688015, 22.074606050734065 ], [ -159.494777505297435, 22.07475563873972 ], [ -159.494896147312261, 22.075371195186065 ], [ -159.495155988688481, 22.074905225852088 ], [ -159.494777505297435, 22.07475563873972 ] ], [ [ -159.49709142596987, 22.071225268654885 ], [ -159.498124336118963, 22.071671015606864 ], [ -159.498373673226297, 22.071332067612339 ], [ -159.498839871561415, 22.071029942703206 ], [ -159.498606942694806, 22.070076069050774 ], [ -159.497330003744196, 22.07034698009377 ], [ -159.49709142596987, 22.071225268654885 ], [ -159.49612584168392, 22.071680265041131 ], [ -159.495931169527978, 22.072041872198003 ], [ -159.495562463916116, 22.072190248206105 ], [ -159.49581550061572, 22.07266549962101 ], [ -159.495931169527978, 22.072041872198003 ], [ -159.496815418391094, 22.072241466968173 ], [ -159.49709142596987, 22.071225268654885 ] ], [ [ -159.498244068427113, 22.068240461506555 ], [ -159.498461152522708, 22.068888287455529 ], [ -159.499254610628441, 22.068527944531333 ], [ -159.498244068427113, 22.068240461506555 ] ], [ [ -159.497618899848646, 22.055775094826593 ], [ -159.497479557577321, 22.055916193475728 ], [ -159.495341770984993, 22.056303396473083 ], [ -159.494848653573627, 22.056732091120566 ], [ -159.496161156836934, 22.057858381594123 ], [ -159.497201097049128, 22.059430077998265 ], [ -159.497484601643919, 22.06052364944939 ], [ -159.49802674312059, 22.061950619027364 ], [ -159.498378343016327, 22.063491911055674 ], [ -159.498866637577009, 22.066742752592017 ], [ -159.500397601684909, 22.066329154303727 ], [ -159.498945781309686, 22.064576309919666 ], [ -159.499978977572823, 22.06426791940369 ], [ -159.500563238186459, 22.063230508494833 ], [ -159.500116396919907, 22.063215365672242 ], [ -159.499359859895463, 22.063245632465446 ], [ -159.49993487939733, 22.062224579024946 ], [ -159.499406572272193, 22.061771264927199 ], [ -159.500667294797069, 22.06121192526151 ], [ -159.498953518179718, 22.05974147838781 ], [ -159.498108755560168, 22.058086885532418 ], [ -159.497366664698859, 22.057450149493821 ], [ -159.498212495443795, 22.055948289254829 ], [ -159.497618899848646, 22.055775094826593 ] ] ] } }
]
}
