{
"type": "FeatureCollection",
"name": "bidwieb",
"crs": { "type": "name", "properties": { "name": "urn:ogc:def:crs:OGC:1.3:CRS84" } },
"features": [
{ "type": "Feature", "properties": { "ID": 1, "GRIDCODE": 2 }, "geometry": { "type": "Polygon", "coordinates": [ [ [ -156.823376752026491, 21.164863892854775 ], [ -156.824067780400867, 21.165481163028037 ], [ -156.824415079506849, 21.167153012307988 ], [ -156.821111925053941, 21.168191505233807 ], [ -156.818718669254281, 21.168517482380089 ], [ -156.816491065584074, 21.16991329439572 ], [ -156.814193436763702, 21.170294080648041 ], [ -156.811550363227866, 21.170822026474411 ], [ -156.805853483811944, 21.171304368689686 ], [ -156.805518018626032, 21.171004758143685 ], [ -156.805248668520761, 21.170449111341725 ], [ -156.799378647536344, 21.169995135876398 ], [ -156.798512613456353, 21.169221316520794 ], [ -156.800418297156597, 21.168203665033143 ], [ -156.801809331092244, 21.166833974919967 ], [ -156.803387702557558, 21.168476874252548 ], [ -156.806003509232795, 21.16937524452338 ], [ -156.810964658594116, 21.169106794333977 ], [ -156.813131353851759, 21.168652263072143 ], [ -156.816246077759189, 21.167157366730237 ], [ -156.817710423251555, 21.166817584836583 ], [ -156.822127924065256, 21.166513868973759 ], [ -156.823076940829367, 21.165711283901615 ], [ -156.823376752026491, 21.164863892854775 ] ] ] } },
{ "type": "Feature", "properties": { "ID": 2, "GRIDCODE": 2 }, "geometry": { "type": "Polygon", "coordinates": [ [ [ -156.752992853957863, 21.15906688833066 ], [ -156.752642348410376, 21.158969503001867 ], [ -156.752898866830179, 21.158735336710979 ], [ -156.752992853957863, 21.15906688833066 ] ] ] } },
{ "type": "Feature", "properties": { "ID": 3, "GRIDCODE": 2 }, "geometry": { "type": "Polygon", "coordinates": [ [ [ -156.841378728153842, 21.158321631032241 ], [ -156.843267621349383, 21.158473978451447 ], [ -156.841954363836663, 21.16176529765054 ], [ -156.842366745172967, 21.162638949284585 ], [ -156.843422261868255, 21.163548120234555 ], [ -156.838830333810108, 21.163904741905711 ], [ -156.838876468250078, 21.163311171116163 ], [ -156.838130056643962, 21.163259894523904 ], [ -156.836358224500032, 21.163336183510683 ], [ -156.835912608875248, 21.16168591014732 ], [ -156.836448363945436, 21.161249212133693 ], [ -156.8371702753835, 21.160307379827998 ], [ -156.837692943351669, 21.159276084951504 ], [ -156.83862297666488, 21.158684353561583 ], [ -156.839500384356086, 21.158744707689166 ], [ -156.841240451730698, 21.158462933262243 ], [ -156.841378728153842, 21.158321631032241 ] ] ] } },
{ "type": "Feature", "properties": { "ID": 4, "GRIDCODE": 2 }, "geometry": { "type": "Polygon", "coordinates": [ [ [ -156.819200042890742, 21.154244267339465 ], [ -156.819585517351015, 21.154441180939781 ], [ -156.819310475493722, 21.155138345822849 ], [ -156.819200042890742, 21.154244267339465 ] ] ] } },
{ "type": "Feature", "properties": { "ID": 5, "GRIDCODE": 2 }, "geometry": { "type": "Polygon", "coordinates": [ [ [ -156.874070774167393, 21.154400891907297 ], [ -156.874507690035216, 21.154536685697039 ], [ -156.874867434264502, 21.155277453896382 ], [ -156.875984912180485, 21.155789487019998 ], [ -156.876609947702292, 21.156934283595806 ], [ -156.876162943929216, 21.159165132357884 ], [ -156.87617059412409, 21.159439395238888 ], [ -156.876147593698875, 21.159845495045424 ], [ -156.876181024270153, 21.161040673511362 ], [ -156.875543183401106, 21.162135612820627 ], [ -156.875153267774976, 21.163921362635758 ], [ -156.873839446311734, 21.164552529924034 ], [ -156.871779942406818, 21.163421954790419 ], [ -156.870934975942674, 21.162667531870131 ], [ -156.873117626641829, 21.16230507836304 ], [ -156.874411844972627, 21.160083040014971 ], [ -156.874525740497916, 21.158072306768855 ], [ -156.874199768956231, 21.155084986248305 ], [ -156.874070774167393, 21.154400891907297 ] ] ] } },
{ "type": "Feature", "properties": { "ID": 6, "GRIDCODE": 2 }, "geometry": { "type": "Polygon", "coordinates": [ [ [ -156.896597867054737, 21.154411562695373 ], [ -156.896948485532647, 21.154508656677447 ], [ -156.896692180553345, 21.154743061811416 ], [ -156.896597867054737, 21.154411562695373 ] ] ] } },
{ "type": "Feature", "properties": { "ID": 7, "GRIDCODE": 2 }, "geometry": { "type": "Polygon", "coordinates": [ [ [ -156.873789754426014, 21.153855508895468 ], [ -156.874140352229773, 21.153952648830668 ], [ -156.873884015649907, 21.154187016461599 ], [ -156.873789754426014, 21.153855508895468 ] ] ] } },
{ "type": "Feature", "properties": { "ID": 8, "GRIDCODE": 2 }, "geometry": { "type": "Polygon", "coordinates": [ [ [ -156.818927170361803, 21.153157075962955 ], [ -156.81911758175832, 21.153250542422075 ], [ -156.819423170714373, 21.153837194395766 ], [ -156.819200042890742, 21.154244267339465 ], [ -156.818911296246739, 21.15424054467357 ], [ -156.818927170361803, 21.153157075962955 ] ] ] } },
{ "type": "Feature", "properties": { "ID": 9, "GRIDCODE": 2 }, "geometry": { "type": "Polygon", "coordinates": [ [ [ -156.818927170361803, 21.153157075962955 ], [ -156.81855406634665, 21.153001593370206 ], [ -156.818820578125269, 21.152540050288167 ], [ -156.818927170361803, 21.153157075962955 ] ] ] } },
{ "type": "Feature", "properties": { "ID": 10, "GRIDCODE": 2 }, "geometry": { "type": "Polygon", "coordinates": [ [ [ -156.742717263190542, 21.151073726377881 ], [ -156.74306774206724, 21.151171130131182 ], [ -156.742811223938048, 21.151405281476414 ], [ -156.742717263190542, 21.151073726377881 ] ] ] } },
{ "type": "Feature", "properties": { "ID": 11, "GRIDCODE": 2 }, "geometry": { "type": "Polygon", "coordinates": [ [ [ -156.869644424181104, 21.140798946189872 ], [ -156.870295450096563, 21.141006298542244 ], [ -156.870636591422311, 21.142038930407356 ], [ -156.871789865024652, 21.142031344207417 ], [ -156.872070623703962, 21.142593195638774 ], [ -156.872385144946549, 21.142884347027781 ], [ -156.874214744202845, 21.143466916412727 ], [ -156.874637255449073, 21.144866936209873 ], [ -156.873179223431492, 21.145852816298266 ], [ -156.872013654817124, 21.146659538622032 ], [ -156.871183038436271, 21.144473088543595 ], [ -156.869644424181104, 21.140798946189872 ] ] ] } },
{ "type": "Feature", "properties": { "ID": 12, "GRIDCODE": 2 }, "geometry": { "type": "Polygon", "coordinates": [ [ [ -156.869367316325651, 21.139982681910389 ], [ -156.869740452989276, 21.140138054342163 ], [ -156.869474117305373, 21.140599693693886 ], [ -156.869367316325651, 21.139982681910389 ] ] ] } },
{ "type": "Feature", "properties": { "ID": 13, "GRIDCODE": 2 }, "geometry": { "type": "Polygon", "coordinates": [ [ [ -156.839066869139344, 21.138514864410933 ], [ -156.839934254959275, 21.138772053532715 ], [ -156.840794317416311, 21.139943373280087 ], [ -156.842565723831797, 21.144044141929026 ], [ -156.843619594055639, 21.148467197166514 ], [ -156.844072576855723, 21.153488792434533 ], [ -156.843570749857975, 21.157154984494099 ], [ -156.842429694846714, 21.156293076560619 ], [ -156.840370004868248, 21.1550459273831 ], [ -156.840513755108645, 21.153613322066615 ], [ -156.839942190239526, 21.153138659495589 ], [ -156.839568174136986, 21.150653658599442 ], [ -156.840005353423095, 21.14958197137868 ], [ -156.839922453170374, 21.14841441703598 ], [ -156.83994950405804, 21.14814384107229 ], [ -156.83993031155498, 21.14787267475899 ], [ -156.839984412767279, 21.147331522756865 ], [ -156.839928705165562, 21.146544637075419 ], [ -156.840420027202015, 21.145744361378181 ], [ -156.840586569599225, 21.144080610657106 ], [ -156.840059227161248, 21.143164680163409 ], [ -156.8399924605188, 21.142226318076954 ], [ -156.840340416252474, 21.141373744371002 ], [ -156.839973456170469, 21.140736338061132 ], [ -156.839194476244955, 21.138932929361705 ], [ -156.839066869139344, 21.138514864410933 ] ] ] } },
{ "type": "Feature", "properties": { "ID": 14, "GRIDCODE": 2 }, "geometry": { "type": "Polygon", "coordinates": [ [ [ -156.828672989288606, 21.138381852903933 ], [ -156.82961877259774, 21.138676147015619 ], [ -156.829932968303893, 21.140705991830629 ], [ -156.830788171635504, 21.141470054811755 ], [ -156.830213241802625, 21.142064186077896 ], [ -156.829829208127336, 21.142388784605586 ], [ -156.830195279883384, 21.143413397430873 ], [ -156.829881520025111, 21.1442180337413 ], [ -156.829907967469296, 21.145170693938748 ], [ -156.829832195937882, 21.146499849577591 ], [ -156.830694261164808, 21.149408412033953 ], [ -156.830664732106783, 21.149925334582186 ], [ -156.830969957882843, 21.151081848562857 ], [ -156.830461406418664, 21.153833803358115 ], [ -156.82938894311286, 21.154890165511418 ], [ -156.823786146213166, 21.149905192463368 ], [ -156.820694495105585, 21.14925669103652 ], [ -156.819148278140005, 21.150057526830096 ], [ -156.818760367940143, 21.15247247038614 ], [ -156.818836690990793, 21.149245517127437 ], [ -156.819976173770613, 21.147639122493146 ], [ -156.822431073385587, 21.146796397626026 ], [ -156.824992042406279, 21.146258790477923 ], [ -156.82690345733846, 21.14464241892086 ], [ -156.827797042406161, 21.142678346282477 ], [ -156.828207963623385, 21.140954785851317 ], [ -156.828672989288606, 21.138381852903933 ] ] ] } },
{ "type": "Feature", "properties": { "ID": 15, "GRIDCODE": 2 }, "geometry": { "type": "Polygon", "coordinates": [ [ [ -156.839066869139344, 21.138514864410933 ], [ -156.838404462394635, 21.138396609334308 ], [ -156.838915092202797, 21.138168917329377 ], [ -156.839066869139344, 21.138514864410933 ] ] ] } },
{ "type": "Feature", "properties": { "ID": 16, "GRIDCODE": 2 }, "geometry": { "type": "Polygon", "coordinates": [ [ [ -156.868813108572027, 21.138350152540976 ], [ -156.869811318972495, 21.138653155446132 ], [ -156.869017280322566, 21.139000999345257 ], [ -156.868813108572027, 21.138350152540976 ] ] ] } },
{ "type": "Feature", "properties": { "ID": 17, "GRIDCODE": 2 }, "geometry": { "type": "Polygon", "coordinates": [ [ [ -156.868813108572027, 21.138350152540976 ], [ -156.868462551084093, 21.138253004792411 ], [ -156.86871886556014, 21.13801864337286 ], [ -156.868813108572027, 21.138350152540976 ] ] ] } },
{ "type": "Feature", "properties": { "ID": 18, "GRIDCODE": 2 }, "geometry": { "type": "Polygon", "coordinates": [ [ [ -156.741788238800552, 21.136161382969807 ], [ -156.741684276011398, 21.136490297765821 ], [ -156.741434984736145, 21.136249397889575 ], [ -156.741788238800552, 21.136161382969807 ] ] ] } },
{ "type": "Feature", "properties": { "ID": 19, "GRIDCODE": 2 }, "geometry": { "type": "Polygon", "coordinates": [ [ [ -156.875850649871381, 21.130852672622169 ], [ -156.875632041841271, 21.130006195066056 ], [ -156.874875749241568, 21.130202876152254 ], [ -156.875850649871381, 21.130852672622169 ], [ -156.876028534382243, 21.131727213427386 ], [ -156.875173746023478, 21.133234231615152 ], [ -156.876233064136073, 21.134214881438499 ], [ -156.875653088457881, 21.13478133914051 ], [ -156.874777504718708, 21.135035852264579 ], [ -156.874478891071305, 21.136121231937938 ], [ -156.873977123938431, 21.136561601987665 ], [ -156.874568126870884, 21.137674489438655 ], [ -156.874107768946516, 21.138947802373799 ], [ -156.873284524314897, 21.138536760372943 ], [ -156.87269821036773, 21.140157329210229 ], [ -156.871835308002943, 21.139383378704959 ], [ -156.871568536348605, 21.137704663545176 ], [ -156.869073940597815, 21.137721034481196 ], [ -156.86817363203167, 21.137297159130476 ], [ -156.867022066893355, 21.133996560044181 ], [ -156.867007688093935, 21.132065440915319 ], [ -156.867735406439806, 21.128801343524344 ], [ -156.869805426926717, 21.125392605251442 ], [ -156.872510167163966, 21.12326243577035 ], [ -156.875285101202962, 21.12217705156926 ], [ -156.879347907900552, 21.121579092232658 ], [ -156.882417820537768, 21.121558697535992 ], [ -156.886814425033549, 21.122017683695862 ], [ -156.889570340926412, 21.123762611475168 ], [ -156.891051108759058, 21.125133384657389 ], [ -156.891903617205344, 21.12718310752846 ], [ -156.891985340722727, 21.137893277264556 ], [ -156.890835988369616, 21.141071627075323 ], [ -156.88860011888508, 21.145013676163337 ], [ -156.887314068089921, 21.147877884764302 ], [ -156.88718122018787, 21.151575748440344 ], [ -156.887998762510335, 21.153211851717458 ], [ -156.889742583613526, 21.155780769286125 ], [ -156.891060213243207, 21.156642792575663 ], [ -156.892764300308215, 21.156227277526341 ], [ -156.895060675634113, 21.154535182713193 ], [ -156.895588147116655, 21.154531625048712 ], [ -156.89585587500116, 21.155624225214144 ], [ -156.896303682674727, 21.156907180146685 ], [ -156.895830881173509, 21.157791341427316 ], [ -156.895503304366287, 21.158078897656655 ], [ -156.895517346109102, 21.159938264797351 ], [ -156.895218868091263, 21.160222081140464 ], [ -156.894216272438229, 21.160513535382059 ], [ -156.893272561809653, 21.161825400721821 ], [ -156.892620456205947, 21.161804774892122 ], [ -156.891707653040697, 21.162605850533811 ], [ -156.891133830484392, 21.163151398845351 ], [ -156.890261566748109, 21.163916988392941 ], [ -156.889955672466726, 21.164762267361429 ], [ -156.889343195745511, 21.165585926127115 ], [ -156.889355447487304, 21.167187698489087 ], [ -156.887393737613451, 21.166805888184044 ], [ -156.889075478250987, 21.165330243550045 ], [ -156.888242290180443, 21.163380819237677 ], [ -156.887392978700916, 21.162171147135361 ], [ -156.887735745300802, 21.161669622879092 ], [ -156.889120101302808, 21.160454902060131 ], [ -156.889217983836943, 21.157729651489753 ], [ -156.888896993703128, 21.157432691992113 ], [ -156.889251471210997, 21.15650189987312 ], [ -156.888812018977717, 21.155171212460491 ], [ -156.88493267417698, 21.156172065982258 ], [ -156.884241603302826, 21.154191927578946 ], [ -156.884922676883264, 21.151714344350616 ], [ -156.885855882880094, 21.15006948921301 ], [ -156.88524917184526, 21.150073482378918 ], [ -156.883604354571588, 21.149736018808362 ], [ -156.882944241334968, 21.150044591579345 ], [ -156.882357325176486, 21.150302749788899 ], [ -156.881068601500573, 21.150905195696946 ], [ -156.880058811340859, 21.149466610079397 ], [ -156.879518326534054, 21.148385193152144 ], [ -156.878932938088411, 21.14784321293989 ], [ -156.878928898947635, 21.147295158010035 ], [ -156.879393577411889, 21.146074404530591 ], [ -156.879845679591682, 21.144825181798627 ], [ -156.881776103638373, 21.144886330338803 ], [ -156.880976421122, 21.143746906022965 ], [ -156.880449656899032, 21.142692915668661 ], [ -156.880147366356965, 21.142413109756077 ], [ -156.880176769075433, 21.141595472351298 ], [ -156.879600867750327, 21.141062147245222 ], [ -156.87932170779348, 21.140782299212631 ], [ -156.878461126082584, 21.140377228930959 ], [ -156.878780872500954, 21.139628647753099 ], [ -156.879352477390171, 21.138620694813543 ], [ -156.879865572352656, 21.137661217793248 ], [ -156.881098545021018, 21.137282502138373 ], [ -156.882258445519199, 21.136945327548126 ], [ -156.881364731169043, 21.136451621919893 ], [ -156.879678169831095, 21.136462784112872 ], [ -156.879670019216093, 21.135370838823501 ], [ -156.879708799730111, 21.134290328854245 ], [ -156.878828034788086, 21.135048090277252 ], [ -156.878337891454322, 21.137247923810467 ], [ -156.877917337125211, 21.136402091849291 ], [ -156.877982559023337, 21.134594526923657 ], [ -156.877432816665561, 21.132464472705909 ], [ -156.877420010715724, 21.130749920348492 ], [ -156.878022550599098, 21.130221109012989 ], [ -156.877152861303273, 21.130459902182579 ], [ -156.876577140781222, 21.130729033647398 ], [ -156.875850649871381, 21.130852672622169 ] ] ] } },
{ "type": "Feature", "properties": { "ID": 20, "GRIDCODE": 2 }, "geometry": { "type": "Polygon", "coordinates": [ [ [ -156.920982658899931, 21.145501318877937 ], [ -156.920888293926311, 21.145169828974947 ], [ -156.920632040715986, 21.145404275100301 ], [ -156.920982658899931, 21.145501318877937 ], [ -156.921241253889463, 21.146836798154727 ], [ -156.921816730959449, 21.147413511667672 ], [ -156.922451293041064, 21.148000738479219 ], [ -156.921941520657526, 21.148899746162165 ], [ -156.922272133522483, 21.149521605200981 ], [ -156.92160489202459, 21.15238650524762 ], [ -156.921611441173269, 21.153230601789886 ], [ -156.921563758605288, 21.154565161950984 ], [ -156.921859995454781, 21.154861957957365 ], [ -156.922439465157652, 21.155134583395128 ], [ -156.922871242686711, 21.156895849624402 ], [ -156.924103786884416, 21.158131034023604 ], [ -156.924725305301223, 21.158423483251934 ], [ -156.925268570918377, 21.15896777874401 ], [ -156.925559286851268, 21.159236852699955 ], [ -156.925838572332083, 21.159516633918248 ], [ -156.926418067939437, 21.159789247669071 ], [ -156.926693582322997, 21.16033991366152 ], [ -156.927079479549633, 21.161065961265955 ], [ -156.92612458703428, 21.161904357409735 ], [ -156.926074535659467, 21.16330986540283 ], [ -156.926080664462603, 21.1641046129205 ], [ -156.925755054959865, 21.164678731145248 ], [ -156.925761181427163, 21.165473478418747 ], [ -156.925742101371554, 21.166012528653944 ], [ -156.926098552687165, 21.166342336698559 ], [ -156.925725077150332, 21.167638176073197 ], [ -156.925733492251084, 21.168693498237648 ], [ -156.92236915311986, 21.168716616363131 ], [ -156.921327288304553, 21.168385320865077 ], [ -156.918118457581727, 21.166286805362585 ], [ -156.916805011649529, 21.165631600081561 ], [ -156.914492796881461, 21.165337592304585 ], [ -156.913924739052703, 21.165054231083868 ], [ -156.913010692955709, 21.164763489598052 ], [ -156.911914646589906, 21.164216631365097 ], [ -156.908515056223393, 21.162983679473477 ], [ -156.908066204204715, 21.161625926094345 ], [ -156.907624799659288, 21.16118337970817 ], [ -156.907045339361332, 21.160910703959988 ], [ -156.906151569083249, 21.160464804431697 ], [ -156.904429334267405, 21.160965621810764 ], [ -156.904442888669081, 21.162747137049536 ], [ -156.903294467128347, 21.163839042481413 ], [ -156.902971940277894, 21.16302767978911 ], [ -156.902551814787302, 21.161756722768985 ], [ -156.901560499286006, 21.161108245099584 ], [ -156.900690227813357, 21.160557372998021 ], [ -156.900714431742017, 21.15988127714899 ], [ -156.9007114210319, 21.159474846375385 ], [ -156.900720881990452, 21.159204034855961 ], [ -156.900712968304106, 21.15814535578761 ], [ -156.901284737629254, 21.157601597349341 ], [ -156.902772097174108, 21.156713067232346 ], [ -156.902202958774637, 21.156510419654353 ], [ -156.900468463497873, 21.156223395118456 ], [ -156.900199367827526, 21.155125292860411 ], [ -156.899051617444599, 21.155133002225931 ], [ -156.899045474771043, 21.154309225478062 ], [ -156.901816822303147, 21.154850488629382 ], [ -156.904376760958229, 21.155664979237333 ], [ -156.906126283925545, 21.156488056140724 ], [ -156.909035296199249, 21.158478493506959 ], [ -156.911490902020148, 21.160464544303931 ], [ -156.914206753386622, 21.162240852216136 ], [ -156.917059961894353, 21.163196362598779 ], [ -156.919637234096825, 21.162848875636101 ], [ -156.92032116773666, 21.161642792709674 ], [ -156.919844365743955, 21.159128961618602 ], [ -156.918848594705679, 21.155485994278603 ], [ -156.917294707475008, 21.151278283829001 ], [ -156.915680094065749, 21.147203429003447 ], [ -156.914838770035601, 21.143075320458795 ], [ -156.914825424125979, 21.141328985695107 ], [ -156.915277810603556, 21.137175404581168 ], [ -156.91662984877749, 21.135294800663484 ], [ -156.918899510099038, 21.134887677503542 ], [ -156.920845295047428, 21.135802962634987 ], [ -156.923883991049507, 21.138614734046204 ], [ -156.926823176883801, 21.141897651776613 ], [ -156.930904294106512, 21.147707635281456 ], [ -156.93340070228237, 21.151540337807511 ], [ -156.93566039450775, 21.156058502545541 ], [ -156.936499964049801, 21.156899803160453 ], [ -156.937678979399408, 21.1574878653384 ], [ -156.93881685892589, 21.157523496727936 ], [ -156.94050480095089, 21.156780599264177 ], [ -156.944457201925871, 21.153309632391011 ], [ -156.946451098498301, 21.151052926038176 ], [ -156.946513256508439, 21.149306691814179 ], [ -156.946084410430586, 21.147558599225164 ], [ -156.944433255692871, 21.144664959778023 ], [ -156.934639781997504, 21.13306609114791 ], [ -156.926149601643004, 21.125733370974299 ], [ -156.921619567075965, 21.121836495051305 ], [ -156.913315820609739, 21.115982592903435 ], [ -156.905447270411429, 21.110226903978646 ], [ -156.903930683448294, 21.109117284858474 ], [ -156.901735589630363, 21.107857438979028 ], [ -156.901731396138445, 21.10733351751918 ], [ -156.90175553965679, 21.106659135923088 ], [ -156.900894667552166, 21.105862142388062 ], [ -156.901474430647482, 21.105295711185711 ], [ -156.902636489457308, 21.104784241068785 ], [ -156.902163187446121, 21.101788621113158 ], [ -156.901529656076093, 21.101768741021317 ], [ -156.900152539612947, 21.103078690887326 ], [ -156.898781683109547, 21.103681878983405 ], [ -156.898218398757649, 21.105240284024219 ], [ -156.896857013554239, 21.105249457449016 ], [ -156.896584531603168, 21.104137485833416 ], [ -156.895721755729255, 21.103338593088242 ], [ -156.89493692119089, 21.102551512272445 ], [ -156.893291797504759, 21.103568622724104 ], [ -156.892487675656639, 21.103269837778235 ], [ -156.891027347855697, 21.102540749524913 ], [ -156.875568007120705, 21.096129203349552 ], [ -156.865625849523639, 21.092454646571465 ], [ -156.849538151757315, 21.089275453987817 ], [ -156.843086437017945, 21.089069964509601 ], [ -156.835555887322016, 21.089467580421516 ], [ -156.824291468406159, 21.091486702792619 ], [ -156.812424073773826, 21.095160357550728 ], [ -156.792399950159762, 21.103895022196529 ], [ -156.787600458895525, 21.106909870528863 ], [ -156.784639171409992, 21.109935513739256 ], [ -156.781444223283216, 21.114483516370615 ], [ -156.776631930468255, 21.125184018737322 ], [ -156.775300297599728, 21.130598616853135 ], [ -156.77498305996437, 21.139248448785093 ], [ -156.776171241395275, 21.144453474431394 ], [ -156.778389321696579, 21.150477683622388 ], [ -156.782003375872648, 21.155401278228108 ], [ -156.785328088458527, 21.159087425927897 ], [ -156.789721645181999, 21.161804105935193 ], [ -156.795529993143361, 21.163825203543428 ], [ -156.793871550544594, 21.164719565722208 ], [ -156.793472754437403, 21.165421809182629 ], [ -156.79318151493203, 21.165965261089646 ], [ -156.792883172670201, 21.166226857939776 ], [ -156.79228359005316, 21.167059155972819 ], [ -156.788317290982235, 21.166931324125706 ], [ -156.787675723962366, 21.167493463473804 ], [ -156.787248394966895, 21.168291088148944 ], [ -156.782894727860537, 21.168566674935175 ], [ -156.779591798610824, 21.170347690064254 ], [ -156.779242554430795, 21.170653765804705 ], [ -156.778695791951037, 21.171172665843056 ], [ -156.775996246580632, 21.17222637671771 ], [ -156.773540127324992, 21.17224107125411 ], [ -156.772315097242682, 21.171829676376749 ], [ -156.771132644505769, 21.172172505161377 ], [ -156.770218521707761, 21.172452526050925 ], [ -156.766591865730106, 21.172335201783522 ], [ -156.765053446657902, 21.173052928254243 ], [ -156.757067750645433, 21.173371841149301 ], [ -156.755413620310378, 21.172950729856037 ], [ -156.749698044970216, 21.172984133548578 ], [ -156.745375932325828, 21.171411943385674 ], [ -156.743713618692254, 21.170456138525971 ], [ -156.744880518322191, 21.170118126353451 ], [ -156.744600280207834, 21.169924104267952 ], [ -156.744308612601174, 21.169925834716764 ], [ -156.743875595461958, 21.169911722907099 ], [ -156.742867454792787, 21.169917578629072 ], [ -156.74369544244874, 21.168753794232519 ], [ -156.746082600302628, 21.167029826568648 ], [ -156.745118190956589, 21.166905720574523 ], [ -156.743512069826579, 21.167269026845148 ], [ -156.743205779195364, 21.166654735124347 ], [ -156.742352195598698, 21.165863157577537 ], [ -156.742350031986291, 21.165559680455818 ], [ -156.744097616234967, 21.16518471278938 ], [ -156.744091515444893, 21.164266415182865 ], [ -156.744505984148986, 21.163493679165587 ], [ -156.745261903542911, 21.164253188646352 ], [ -156.745556498925652, 21.163703858310679 ], [ -156.746140409174956, 21.163995976652565 ], [ -156.746136658225254, 21.163442998879258 ], [ -156.74758507903195, 21.163023394925439 ], [ -156.747599000365682, 21.162644070518862 ], [ -156.746170351826635, 21.162652351113611 ], [ -156.74547465732573, 21.161659646589342 ], [ -156.746752812400132, 21.161289301388724 ], [ -156.747044202693644, 21.160745943440709 ], [ -156.74793680772791, 21.16048732066988 ], [ -156.748502225082348, 21.159950783214377 ], [ -156.749075771024451, 21.160237726221602 ], [ -156.750042264314374, 21.159941714093929 ], [ -156.751970710171378, 21.160004330943085 ], [ -156.752257990305452, 21.15973168448436 ], [ -156.752845126451945, 21.15947400111833 ], [ -156.752992853957863, 21.15906688833066 ], [ -156.753721196342013, 21.159226105908395 ], [ -156.753999023223059, 21.158663835843665 ], [ -156.754601721659469, 21.158421035532299 ], [ -156.755176660019885, 21.158130045229971 ], [ -156.755863367641751, 21.158899371867157 ], [ -156.756455777870798, 21.15827255131002 ], [ -156.759976359587114, 21.159041928926026 ], [ -156.760502560793014, 21.159009279415347 ], [ -156.761318522305402, 21.159081658473227 ], [ -156.764979808702861, 21.158598379563283 ], [ -156.766661089703518, 21.157747204658563 ], [ -156.767042125020168, 21.156618588517937 ], [ -156.767631746407488, 21.156155319027722 ], [ -156.767908304846145, 21.155542142723828 ], [ -156.766799384915288, 21.154620191445478 ], [ -156.766513664406801, 21.153682251637949 ], [ -156.764308572899324, 21.152589586035436 ], [ -156.762119719320054, 21.153120588556035 ], [ -156.761458413699501, 21.15306190304641 ], [ -156.760711768579142, 21.153108240455381 ], [ -156.759600340907781, 21.152507191663076 ], [ -156.75900522304218, 21.152248505586105 ], [ -156.75875045663085, 21.151412293271932 ], [ -156.758155344733467, 21.151153604692578 ], [ -156.757891039884186, 21.150857564143912 ], [ -156.756231509403392, 21.150960501379043 ], [ -156.75587042350756, 21.150555762871697 ], [ -156.755000878294254, 21.150842187554613 ], [ -156.75427312053057, 21.150777632539796 ], [ -156.753405954240748, 21.150831399671819 ], [ -156.752684957966579, 21.150767390633799 ], [ -156.751588861964024, 21.150835369777813 ], [ -156.751253658690842, 21.150641092952355 ], [ -156.752442633290059, 21.149707320673617 ], [ -156.751250418805995, 21.149436509131824 ], [ -156.750987518304697, 21.149141998880651 ], [ -156.750622789314434, 21.148886347622348 ], [ -156.749981104942208, 21.149565207491857 ], [ -156.749510191753814, 21.14993508179289 ], [ -156.749009503923673, 21.15046481534829 ], [ -156.748319884519191, 21.150731970784783 ], [ -156.748422757839677, 21.149710420964126 ], [ -156.74802018979284, 21.149122635575313 ], [ -156.747493992823479, 21.149679340689552 ], [ -156.746916922880956, 21.149628070671447 ], [ -156.746343976706243, 21.150459555194004 ], [ -156.745191881732353, 21.150147236949145 ], [ -156.744752373568701, 21.150174448697218 ], [ -156.74431048770316, 21.150135223314681 ], [ -156.744017000413407, 21.150445738228047 ], [ -156.743365577375243, 21.150387908722546 ], [ -156.742717263190542, 21.151073726377881 ], [ -156.741734618513391, 21.150485528454162 ], [ -156.740733884300397, 21.150978466118346 ], [ -156.739132597975953, 21.150867389269564 ], [ -156.738500952298864, 21.151178599211978 ], [ -156.738567012346437, 21.150338584466308 ], [ -156.737150244793042, 21.149907327423605 ], [ -156.736769320978112, 21.148492337186518 ], [ -156.737435361302687, 21.147624433875606 ], [ -156.737716186730438, 21.147071161925147 ], [ -156.73860257261282, 21.146827315256488 ], [ -156.739458979277487, 21.146551845320225 ], [ -156.739934224430556, 21.146584781844947 ], [ -156.740929598529988, 21.145774040323051 ], [ -156.740915871165271, 21.145489192093077 ], [ -156.741380144715066, 21.145111118355988 ], [ -156.742072172212033, 21.144404987053711 ], [ -156.743541328873846, 21.143795925559804 ], [ -156.742985805642178, 21.143347960662489 ], [ -156.741967408189851, 21.143391255272984 ], [ -156.740526207209399, 21.143291394797927 ], [ -156.739501934381593, 21.143573227727561 ], [ -156.738431063460155, 21.14410073510053 ], [ -156.738932737395771, 21.143023808133528 ], [ -156.740108210090398, 21.141641979177717 ], [ -156.739524502884592, 21.141138467420049 ], [ -156.741167991865439, 21.140802793395103 ], [ -156.741920789106956, 21.13954646214129 ], [ -156.739934451802782, 21.139228869348226 ], [ -156.741047865845587, 21.137920013580626 ], [ -156.74166786515417, 21.137033482703377 ], [ -156.742249741062665, 21.136559483078358 ], [ -156.741788238800552, 21.136161382969807 ], [ -156.742775691137041, 21.134620797964519 ], [ -156.744268904049932, 21.134967763058743 ], [ -156.745323295532955, 21.135523627388874 ], [ -156.747716095712491, 21.135066376048858 ], [ -156.746558188397415, 21.134232154406231 ], [ -156.745716501869481, 21.134173856787257 ], [ -156.745164304319445, 21.134197323857013 ], [ -156.744584985520646, 21.133162190465672 ], [ -156.745544443575113, 21.133077347606502 ], [ -156.746027816925562, 21.133110901209427 ], [ -156.746596582886525, 21.132830631861605 ], [ -156.747107279708615, 21.132866067235298 ], [ -156.747770709698614, 21.132591021786553 ], [ -156.747757150822935, 21.132312722929726 ], [ -156.747800051003878, 21.131769027974379 ], [ -156.745784997262746, 21.131155681808028 ], [ -156.745737497290435, 21.130176046708783 ], [ -156.747087270828985, 21.128798724062975 ], [ -156.74767500116323, 21.128773671465542 ], [ -156.749174098718044, 21.128877537378241 ], [ -156.747558299350118, 21.127483778609282 ], [ -156.748329686546043, 21.127414868222246 ], [ -156.749275276308083, 21.127480351444483 ], [ -156.749753824312251, 21.126991917820728 ], [ -156.750957669834037, 21.128292748434344 ], [ -156.7524504157482, 21.128574748378995 ], [ -156.753007120007339, 21.128868259207309 ], [ -156.753735080925082, 21.129005766955071 ], [ -156.753829057895729, 21.129337317675674 ], [ -156.754085518834472, 21.129103144110047 ], [ -156.753735080925082, 21.129005766955071 ], [ -156.753313204394686, 21.12805443156936 ], [ -156.753323243895636, 21.127781207472324 ], [ -156.753319849898389, 21.127239342185845 ], [ -156.753349536081316, 21.126429585069783 ], [ -156.753053378259864, 21.126154877790945 ], [ -156.752778584839831, 21.125603987707223 ], [ -156.752340188503268, 21.124776775040857 ], [ -156.754228164443788, 21.124838000993851 ], [ -156.753949620676252, 21.124535882331823 ], [ -156.753365651218587, 21.123994318856038 ], [ -156.753828545040363, 21.123588802233684 ], [ -156.753386675287032, 21.123179155280457 ], [ -156.753397193605139, 21.122892775462518 ], [ -156.752257916487366, 21.121836215963199 ], [ -156.752545948078307, 21.12180762958025 ], [ -156.753191288349683, 21.122130357688693 ], [ -156.755426883610596, 21.122117207405044 ], [ -156.756015051850397, 21.122136311191088 ], [ -156.755244649205309, 21.121036639636838 ], [ -156.756019274245574, 21.121312391314046 ], [ -156.756591297349075, 21.121598551981354 ], [ -156.756894170478375, 21.121033161338794 ], [ -156.757761632551762, 21.120273053859055 ], [ -156.757185180997425, 21.120243992361484 ], [ -156.756119536810331, 21.120570567168457 ], [ -156.755160169092136, 21.119680900966447 ], [ -156.755765017435209, 21.119415359671805 ], [ -156.755761611658755, 21.118873493165832 ], [ -156.755781730706502, 21.118323472346958 ], [ -156.754620536129863, 21.118330307210677 ], [ -156.755772744902629, 21.116709595714401 ], [ -156.756110835830668, 21.116707592621403 ], [ -156.756936601283343, 21.117537346257507 ], [ -156.757516914246281, 21.117533917865408 ], [ -156.758671236910601, 21.117571285775877 ], [ -156.759820585480867, 21.117564464385811 ], [ -156.761506439784284, 21.118669602800274 ], [ -156.762404600245361, 21.118698666164907 ], [ -156.762415027672205, 21.118417111377148 ], [ -156.761302294107963, 21.116829389485648 ], [ -156.760800306975881, 21.115822578290111 ], [ -156.758438549711173, 21.114912206246807 ], [ -156.758429054836597, 21.113498924236076 ], [ -156.75952041944393, 21.113164402986087 ], [ -156.759889977177721, 21.113507267467146 ], [ -156.760436049678674, 21.114055780568616 ], [ -156.761030671134108, 21.114075015997237 ], [ -156.761449694466307, 21.113677228119936 ], [ -156.762616792998756, 21.114759624418813 ], [ -156.76330287518357, 21.115448741260593 ], [ -156.763618351053253, 21.115187285492787 ], [ -156.763614673010352, 21.11464276754046 ], [ -156.763634673776551, 21.114098562125395 ], [ -156.763049540346941, 21.113822571067601 ], [ -156.763089066602532, 21.112747250097556 ], [ -156.762223130811066, 21.111944377190174 ], [ -156.762510687026605, 21.111645383228517 ], [ -156.762802075756468, 21.111654786728465 ], [ -156.763093631145978, 21.111653080308173 ], [ -156.764780846154309, 21.112759127427815 ], [ -156.764819065638562, 21.112447580038463 ], [ -156.764815572051958, 21.111946849185056 ], [ -156.765123263518234, 21.111677350183793 ], [ -156.764245642646046, 21.110863618282927 ], [ -156.764839884526396, 21.110342861977607 ], [ -156.763983945754376, 21.110039491967676 ], [ -156.762547285553154, 21.109580957303478 ], [ -156.763637318568101, 21.108185360754256 ], [ -156.764769319083285, 21.107656884266316 ], [ -156.765398036954309, 21.108918277714913 ], [ -156.767235167123118, 21.110763613629377 ], [ -156.768694937628595, 21.111809083507666 ], [ -156.77072797749031, 21.113851156251172 ], [ -156.771834015636301, 21.114552777429886 ], [ -156.773944641002174, 21.116672560940568 ], [ -156.773993998203082, 21.116407058390784 ], [ -156.773985174698851, 21.115127908960492 ], [ -156.774389502549099, 21.113728916236475 ], [ -156.77326762924875, 21.113199863274421 ], [ -156.774619216508341, 21.112807811959719 ], [ -156.773773843331696, 21.111793877069164 ], [ -156.772647507867021, 21.111262646015305 ], [ -156.771771810621829, 21.110147373002455 ], [ -156.77149176870256, 21.109585990177148 ], [ -156.770170881257201, 21.108963027811765 ], [ -156.769223492019137, 21.107176264617511 ], [ -156.769564002130693, 21.106803611491976 ], [ -156.771014402243935, 21.107172844505147 ], [ -156.772107849213654, 21.107166322578184 ], [ -156.77325928673099, 21.107203547197081 ], [ -156.772412838571938, 21.106755231293544 ], [ -156.770966547957073, 21.106073085610074 ], [ -156.770695759020725, 21.105251493168556 ], [ -156.769557863286877, 21.104196125743336 ], [ -156.769550326369739, 21.103096897558224 ], [ -156.770416865981502, 21.102273732710042 ], [ -156.770740263654545, 21.102271901435579 ], [ -156.771595158792621, 21.102832245146345 ], [ -156.772466445109501, 21.102294727958078 ], [ -156.773342237414028, 21.102040613057515 ], [ -156.773336711257571, 21.101239308251028 ], [ -156.774794679133237, 21.101230542775777 ], [ -156.777388843182649, 21.101314184192713 ], [ -156.776825849876104, 21.10072647875959 ], [ -156.776535533364694, 21.100457048120536 ], [ -156.776256650269517, 21.100177184466094 ], [ -156.775891530055475, 21.099838513919924 ], [ -156.776277030967833, 21.098827908340144 ], [ -156.77627319073909, 21.098290791990266 ], [ -156.777734439764316, 21.097756748758439 ], [ -156.778154428823541, 21.098178281828766 ], [ -156.778854920399368, 21.098827972789124 ], [ -156.780518684727582, 21.101283365698322 ], [ -156.781997396992892, 21.102022867870815 ], [ -156.78172460091659, 21.101332486793503 ], [ -156.78088323816533, 21.099745724304405 ], [ -156.780879306705032, 21.099156750900324 ], [ -156.780899232970199, 21.098612801278513 ], [ -156.78034522295161, 21.097022258458114 ], [ -156.780930962902914, 21.096440078332979 ], [ -156.781508054631104, 21.096458610393018 ], [ -156.78225382423409, 21.096110410678651 ], [ -156.783232140117121, 21.097017568956211 ], [ -156.784052142909417, 21.097841034613225 ], [ -156.784090200158488, 21.097575246806031 ], [ -156.784087240085483, 21.097166851120832 ], [ -156.784102325092135, 21.0967582944306 ], [ -156.783650489650995, 21.095461440424881 ], [ -156.786430702661733, 21.09460868803982 ], [ -156.786722096623237, 21.094901133651113 ], [ -156.787738532940097, 21.095843687792986 ], [ -156.788719952127821, 21.096829168830354 ], [ -156.789297092188377, 21.096825716132699 ], [ -156.789869661052563, 21.097112034334625 ], [ -156.79016652493172, 21.096292838039691 ], [ -156.79131026548967, 21.096864787132475 ], [ -156.79177948866311, 21.096419019698967 ], [ -156.793908714589662, 21.096960660705975 ], [ -156.792876347855753, 21.095662090512668 ], [ -156.790553710325497, 21.094189553822652 ], [ -156.789948290510182, 21.093628190404996 ], [ -156.79745885731441, 21.091519030048385 ], [ -156.815420815524561, 21.086241055948541 ], [ -156.81684640327768, 21.08797686949119 ], [ -156.817933558985658, 21.088489443506017 ], [ -156.818568003686124, 21.089077411482759 ], [ -156.818894934681737, 21.090415183633496 ], [ -156.820482200628163, 21.090466017114867 ], [ -156.819159393550763, 21.088579158898742 ], [ -156.819155387863077, 21.088003931184289 ], [ -156.81916529803911, 21.08773062502631 ], [ -156.81859365452047, 21.08691553979806 ], [ -156.818603883999145, 21.08663972440139 ], [ -156.818041734037678, 21.085580429097039 ], [ -156.818942956385939, 21.085118307020199 ], [ -156.833799370644044, 21.081179908914244 ], [ -156.847254332310797, 21.079182603663682 ], [ -156.853765294560986, 21.079140349408952 ], [ -156.861412310940921, 21.080240850846838 ], [ -156.863779342710274, 21.080994951283603 ], [ -156.869191108428623, 21.084228015902635 ], [ -156.872426408118997, 21.084713381804967 ], [ -156.876308328879162, 21.0842541716823 ], [ -156.881529989669559, 21.082433550146817 ], [ -156.885966749515632, 21.081288239358724 ], [ -156.888853433878495, 21.081268890521912 ], [ -156.891674927470689, 21.081674391473349 ], [ -156.896222287936723, 21.083279965019337 ], [ -156.899896062771575, 21.085009148793844 ], [ -156.906361569088347, 21.089345667122586 ], [ -156.911743671553722, 21.092395189866771 ], [ -156.920397245152259, 21.095852748216654 ], [ -156.934537573626955, 21.100350765094927 ], [ -156.947000143944877, 21.105970753975896 ], [ -156.958443346102001, 21.113624192800646 ], [ -156.968516204541402, 21.12263973711952 ], [ -156.976700750094551, 21.129976668226799 ], [ -156.979638192976012, 21.132532023082149 ], [ -156.988329131826333, 21.140084520331136 ], [ -156.995627263645247, 21.146534647934743 ], [ -156.999046689586635, 21.149560896407653 ], [ -157.009839356882395, 21.159091139077535 ], [ -157.012508864046822, 21.163081363307029 ], [ -157.01436680011571, 21.170253344157043 ], [ -157.013945695403095, 21.175403917958384 ], [ -157.012045813977437, 21.177594635102896 ], [ -157.009696351680304, 21.178130037930607 ], [ -157.005310803406104, 21.177812822322416 ], [ -156.998563219407004, 21.176533999940865 ], [ -156.99673723348721, 21.176949935805254 ], [ -156.993085578687754, 21.176836700788805 ], [ -156.985641850954096, 21.177045224161333 ], [ -156.984679897912713, 21.177960943288749 ], [ -156.981142484910833, 21.178596604017791 ], [ -156.979181977634255, 21.178610746671517 ], [ -156.97757264595441, 21.178296018786128 ], [ -156.976683003903531, 21.177998491864891 ], [ -156.974764264287245, 21.178012223769883 ], [ -156.972679462578299, 21.177419161306712 ], [ -156.971522162728121, 21.177139763087737 ], [ -156.97097503856449, 21.176591784505309 ], [ -156.970665994001024, 21.176582121269124 ], [ -156.968339329338022, 21.176598688711064 ], [ -156.968378959644241, 21.175473678180211 ], [ -156.967772407916698, 21.175188504674466 ], [ -156.96694980682949, 21.174364611769107 ], [ -156.965809628927047, 21.17331047417801 ], [ -156.965804860115895, 21.172731037963906 ], [ -156.966278410497864, 21.171086044286906 ], [ -156.964397989700757, 21.168842738073526 ], [ -156.964443022929999, 21.167571874932317 ], [ -156.96385301656872, 21.168079855217762 ], [ -156.963818557256047, 21.169051796104107 ], [ -156.963836320380409, 21.171257339213486 ], [ -156.963419892683703, 21.172704638580541 ], [ -156.96377057653919, 21.174060833666747 ], [ -156.964093337766826, 21.175375879508895 ], [ -156.965148971597813, 21.176877485209854 ], [ -156.965160587629612, 21.178316777409865 ], [ -156.963996261972397, 21.178674896679237 ], [ -156.961816185285926, 21.179046889246386 ], [ -156.959691759643505, 21.179700382558924 ], [ -156.958936788023095, 21.179705686667219 ], [ -156.954755828951676, 21.178021461557829 ], [ -156.954030943021081, 21.176230508719964 ], [ -156.953636096636018, 21.175835002853375 ], [ -156.95102445784255, 21.173646932596956 ], [ -156.952221071271254, 21.173298685983681 ], [ -156.951662906220918, 21.172288948098323 ], [ -156.950339961287142, 21.170710473823572 ], [ -156.950830000438685, 21.16984586327624 ], [ -156.951120698398711, 21.169302092140292 ], [ -156.951705467316714, 21.168788540020461 ], [ -156.951426331066415, 21.168492990121372 ], [ -156.950832785612647, 21.167944059860446 ], [ -156.950871396325709, 21.166861118061309 ], [ -156.950569889851607, 21.165384518922174 ], [ -156.950639856892025, 21.163417515004724 ], [ -156.950360698107573, 21.161977633012235 ], [ -156.94980283239903, 21.161461544902107 ], [ -156.949794871758002, 21.160483343377223 ], [ -156.949828561599475, 21.159532435866691 ], [ -156.949516009159225, 21.159534600230614 ], [ -156.949543973399102, 21.158753685486221 ], [ -156.949260739610224, 21.157897295454195 ], [ -156.948387668002908, 21.158436978940927 ], [ -156.9466348178793, 21.15881536447294 ], [ -156.946642304050357, 21.159765182394594 ], [ -156.946338224146615, 21.160032292999539 ], [ -156.945780032383936, 21.160563150449306 ], [ -156.945171877179064, 21.160830930856061 ], [ -156.94468747101908, 21.161737199921205 ], [ -156.943685692832162, 21.162178189512698 ], [ -156.943697363956488, 21.1636605327278 ], [ -156.943683005968722, 21.164066759601688 ], [ -156.943685150022873, 21.164340233520161 ], [ -156.94337695389035, 21.164883645815166 ], [ -156.943381383189092, 21.165420276463557 ], [ -156.9427961971044, 21.166452709359781 ], [ -156.94277543826604, 21.167035997022495 ], [ -156.94278127869822, 21.167796747296102 ], [ -156.940568538622585, 21.168174028837417 ], [ -156.941156239524389, 21.169855670949595 ], [ -156.936727111168864, 21.169220520827004 ], [ -156.933526419788905, 21.168202937989598 ], [ -156.933520592014958, 21.167465011150195 ], [ -156.933548905330156, 21.166665390648884 ], [ -156.9332523927811, 21.165816556581106 ], [ -156.935858149949723, 21.165898324766331 ], [ -156.935883438172795, 21.165193783613532 ], [ -156.934446756850946, 21.163149071029316 ], [ -156.934466228410741, 21.16259976960712 ], [ -156.934464348182473, 21.162328813465102 ], [ -156.934474065417504, 21.162055485418716 ], [ -156.934186808071331, 21.161515336025129 ], [ -156.933915023806406, 21.160693792653273 ], [ -156.933628050005808, 21.160153844459135 ], [ -156.93335627069925, 21.159332300521935 ], [ -156.932509136830873, 21.158548703702511 ], [ -156.931349086929572, 21.156840660279663 ], [ -156.930792980587285, 21.156326124017252 ], [ -156.930517456451156, 21.155775463827336 ], [ -156.92993796696976, 21.155502864677381 ], [ -156.929149627127231, 21.154712895316727 ], [ -156.92851463122642, 21.154396154540979 ], [ -156.927942865475586, 21.154400132524003 ], [ -156.927352408712011, 21.154105695069671 ], [ -156.926520290567709, 21.154111439282083 ], [ -156.925687786121927, 21.153719838148689 ], [ -156.925355978591142, 21.152716574361065 ], [ -156.924685187282904, 21.152095839350885 ], [ -156.925091442909462, 21.151379306243744 ], [ -156.925089084060119, 21.151103317954103 ], [ -156.925495334675304, 21.150386783414927 ], [ -156.924818983494873, 21.149760888105465 ], [ -156.92483852284704, 21.149208812116605 ], [ -156.924263808962934, 21.148677162194808 ], [ -156.923488982762251, 21.146760877429355 ], [ -156.922842565667253, 21.146740574748588 ], [ -156.922267728249381, 21.146744564011538 ], [ -156.921564308852282, 21.146039479759047 ], [ -156.920982658899931, 21.145501318877937 ] ] ] } }
]
}
