{
"type": "FeatureCollection",
"name": "calhill",
"crs": { "type": "name", "properties": { "name": "urn:ogc:def:crs:OGC:1.3:CRS84" } },
"features": [
{ "type": "Feature", "properties": { "ID": 1, "GRIDCODE": 2 }, "geometry": { "type": "Polygon", "coordinates": [ [ [ -156.602463851460385, 20.929180833705839 ], [ -156.602370297266447, 20.928849235011192 ], [ -156.602113999164771, 20.92908319439162 ], [ -156.602463851460385, 20.929180833705839 ], [ -156.603156007901191, 20.9301512527895 ], [ -156.604314413611974, 20.9314968607667 ], [ -156.604567208921566, 20.932067330215084 ], [ -156.60538287946531, 20.933452960355943 ], [ -156.605430943824302, 20.933971878740103 ], [ -156.60505166431355, 20.93457275915102 ], [ -156.60515956607145, 20.935737742711559 ], [ -156.602609106088096, 20.936717370623178 ], [ -156.601930580283494, 20.936339454410756 ], [ -156.600976529793741, 20.93593464558592 ], [ -156.599902527929629, 20.935070614938123 ], [ -156.598780121240083, 20.933340441205047 ], [ -156.598495877070548, 20.932377335599721 ], [ -156.597808349052485, 20.931824282700479 ], [ -156.597714804392552, 20.931492682376241 ], [ -156.597458494864327, 20.931726633556377 ], [ -156.597808349052485, 20.931824282700479 ], [ -156.59811334327361, 20.934963687583046 ], [ -156.598480235177107, 20.936112079992025 ], [ -156.599572546819502, 20.938123440286244 ], [ -156.599602173316129, 20.939249889017951 ], [ -156.599032580697695, 20.939810244255288 ], [ -156.597570075812826, 20.938498278904845 ], [ -156.597157654516991, 20.937644474312592 ], [ -156.596459356767213, 20.93802946693123 ], [ -156.59697909920078, 20.938986766641371 ], [ -156.596962803537082, 20.939266688785032 ], [ -156.597815926844049, 20.940032127476851 ], [ -156.596847671305454, 20.941151394856561 ], [ -156.595662338101675, 20.940539994222235 ], [ -156.595244780851885, 20.939232553520281 ], [ -156.594677892089919, 20.93872404365089 ], [ -156.594669846236258, 20.938416927631003 ], [ -156.594698573630552, 20.937923165764538 ], [ -156.594121932953072, 20.937320471876781 ], [ -156.593555054896058, 20.936811959232578 ], [ -156.593547011015431, 20.936504843328755 ], [ -156.593562948175759, 20.936230075473663 ], [ -156.593275965277968, 20.935422608776356 ], [ -156.592856842376676, 20.933651398137943 ], [ -156.592290748558611, 20.933059694847756 ], [ -156.591552492367612, 20.934323974311241 ], [ -156.591570829930134, 20.93502593350118 ], [ -156.591194563131154, 20.936737371807254 ], [ -156.590745275830727, 20.935726424942072 ], [ -156.590426272835458, 20.934017601870742 ], [ -156.589968236303832, 20.93360677781132 ], [ -156.58851098327284, 20.931764676122125 ], [ -156.58915724514253, 20.92958127960371 ], [ -156.588760128159407, 20.927652706677943 ], [ -156.589095036355701, 20.926413823226536 ], [ -156.589614142501006, 20.924660888010074 ], [ -156.589777960835988, 20.921848331779874 ], [ -156.589039479950969, 20.920806977274172 ], [ -156.588389649381327, 20.918977080002485 ], [ -156.588038080331387, 20.916895582870758 ], [ -156.58813128326193, 20.915294033945802 ], [ -156.587590036923103, 20.914808489448422 ], [ -156.586996709960573, 20.913390751979527 ], [ -156.587056087482921, 20.912372439717853 ], [ -156.586776529782696, 20.909856653728568 ], [ -156.586485548156475, 20.90932107430843 ], [ -156.586005681343039, 20.908326884746899 ], [ -156.584699439923924, 20.907917816314654 ], [ -156.583470562946559, 20.907284443048606 ], [ -156.582816719720171, 20.907836680403914 ], [ -156.5821051689027, 20.909055273315847 ], [ -156.581187459096242, 20.914295552238393 ], [ -156.58144832294596, 20.919759526515065 ], [ -156.583109359303023, 20.922102692657315 ], [ -156.582823900838974, 20.922275496260767 ], [ -156.58157477030602, 20.921441688323473 ], [ -156.580829677968069, 20.922253853517102 ], [ -156.581665656158719, 20.922234617722502 ], [ -156.581379631084161, 20.922793377221101 ], [ -156.580773663016117, 20.923830918555254 ], [ -156.580781463012158, 20.924134193907157 ], [ -156.58074140385105, 20.924822757072494 ], [ -156.581022203413056, 20.927114626381154 ], [ -156.581006267512123, 20.927388068793469 ], [ -156.581020038593124, 20.927915627767032 ], [ -156.580700687812708, 20.92846214015314 ], [ -156.580042504147315, 20.931117532316946 ], [ -156.579187197028375, 20.932248480930429 ], [ -156.579243258120641, 20.934401054787955 ], [ -156.578291464597015, 20.934123797859247 ], [ -156.578335060460489, 20.933374045967849 ], [ -156.578027303717704, 20.932410583250668 ], [ -156.57683565248405, 20.933986065087105 ], [ -156.576864884665184, 20.935109059418661 ], [ -156.57612632130062, 20.936523911666516 ], [ -156.575365261738227, 20.935610614785737 ], [ -156.575434896729803, 20.934416410028543 ], [ -156.575149418225294, 20.93352190849776 ], [ -156.573512265350956, 20.935132298406945 ], [ -156.572836442332118, 20.933229897884665 ], [ -156.573440051026665, 20.932432165776607 ], [ -156.57343294794893, 20.93215654591209 ], [ -156.573478158948973, 20.931377852888129 ], [ -156.573145644776645, 20.930764680280568 ], [ -156.573206384709863, 20.929721270957387 ], [ -156.572642018703135, 20.929692211653805 ], [ -156.572314885087877, 20.929968366720267 ], [ -156.571229090060655, 20.931036469696675 ], [ -156.57115705886946, 20.930230184135834 ], [ -156.571185063000627, 20.929750839271552 ], [ -156.570902297025867, 20.92886470468779 ], [ -156.570459598923918, 20.928467543563087 ], [ -156.570015174112484, 20.928003031443076 ], [ -156.570068740225679, 20.930058079617179 ], [ -156.569312990629783, 20.931803065159048 ], [ -156.568443434996055, 20.933026735316972 ], [ -156.566365384704568, 20.931790142217555 ], [ -156.566204262600138, 20.932090079933857 ], [ -156.566225114890187, 20.932890476650876 ], [ -156.565476314551546, 20.933522754807004 ], [ -156.565040559640153, 20.934751007312766 ], [ -156.564736813243087, 20.935007242195759 ], [ -156.564354442772554, 20.936085334586473 ], [ -156.563338555898412, 20.934793896474424 ], [ -156.562689815257471, 20.932966188699524 ], [ -156.563269235010466, 20.931856656897615 ], [ -156.563933339689527, 20.931203338657536 ], [ -156.564237078896127, 20.930947104484467 ], [ -156.564659686781539, 20.930531329887518 ], [ -156.566851503563015, 20.928680668579776 ], [ -156.566965999449906, 20.926717433643393 ], [ -156.5657159724868, 20.925228766036945 ], [ -156.565832400034253, 20.923233550505081 ], [ -156.565519926820514, 20.922254265275825 ], [ -156.564676744708834, 20.923869020171416 ], [ -156.563670687300032, 20.924498416271334 ], [ -156.56117134017137, 20.923346229156024 ], [ -156.561528066876207, 20.921311467202258 ], [ -156.56150485803721, 20.920414348593223 ], [ -156.562966922801849, 20.917614185183403 ], [ -156.564939334968216, 20.915948619713895 ], [ -156.566489083363393, 20.914424087234785 ], [ -156.568247343449997, 20.91293927895223 ], [ -156.568841362939793, 20.911265395204428 ], [ -156.570035003184046, 20.910431889917831 ], [ -156.571245962720468, 20.9096234882681 ], [ -156.571190105896051, 20.907480972416419 ], [ -156.571529758478817, 20.907473105098802 ], [ -156.572404592492461, 20.907518214926924 ], [ -156.573049477735537, 20.906282716149047 ], [ -156.5752292001863, 20.906852550520266 ], [ -156.576454368751058, 20.905647099488217 ], [ -156.577338820949905, 20.905128184626037 ], [ -156.578988253731808, 20.904095788603641 ], [ -156.579974143780873, 20.903675515605798 ], [ -156.579949936946065, 20.902745439398217 ], [ -156.580302803412593, 20.901843191528332 ], [ -156.577009534624409, 20.900145499977782 ], [ -156.57498594638551, 20.90056822313672 ], [ -156.574336622904241, 20.90120726186132 ], [ -156.573346117525176, 20.901827165379085 ], [ -156.573083581655766, 20.900419912153485 ], [ -156.571786994405898, 20.900449763689085 ], [ -156.570260747081846, 20.900371183640289 ], [ -156.569269949849598, 20.90099119068493 ], [ -156.567887719571758, 20.900919929270497 ], [ -156.566843746108674, 20.900943948345219 ], [ -156.565590371550826, 20.900616180576328 ], [ -156.565009667393895, 20.90062959549201 ], [ -156.564430226668577, 20.900599641894061 ], [ -156.562649570080168, 20.90086497109542 ], [ -156.561921610947365, 20.900827466497187 ], [ -156.560672528032569, 20.901088192513022 ], [ -156.559601215778684, 20.901601438546766 ], [ -156.558282480664161, 20.9019731831741 ], [ -156.557770856099324, 20.902953259551552 ], [ -156.557154988092435, 20.904007368521981 ], [ -156.556447813031582, 20.905362006534567 ], [ -156.556850854844356, 20.902188282532226 ], [ -156.557498442986315, 20.899244497388398 ], [ -156.559159315743443, 20.896064007257294 ], [ -156.562070975873638, 20.893762687026619 ], [ -156.563207190973486, 20.893218203761084 ], [ -156.564839673091399, 20.893302455193613 ], [ -156.565128040910139, 20.893295718807668 ], [ -156.566227804045269, 20.893352391692545 ], [ -156.566882201575169, 20.892799828143747 ], [ -156.567445417343379, 20.892245434458101 ], [ -156.568148037530761, 20.891652018843793 ], [ -156.569516276256678, 20.889842715485866 ], [ -156.569120148616918, 20.889112503367809 ], [ -156.57213491540162, 20.887436108449187 ], [ -156.572726728540943, 20.887183941784052 ], [ -156.573267593148188, 20.886651429042356 ], [ -156.573715893890324, 20.886641128013739 ], [ -156.574874389157998, 20.888558568194835 ], [ -156.577014427833916, 20.888236290007956 ], [ -156.577048949903912, 20.887646453867792 ], [ -156.577036130688526, 20.887164937816497 ], [ -156.578508063960442, 20.886182126717724 ], [ -156.578458546780183, 20.884285450199926 ], [ -156.578891467407971, 20.884601891467266 ], [ -156.579546490220508, 20.885286678215557 ], [ -156.582036984402833, 20.887034713135382 ], [ -156.582374117355783, 20.885792956652619 ], [ -156.581992164323111, 20.884596052196837 ], [ -156.581610508225623, 20.883521502519521 ], [ -156.582276752596272, 20.88350619312962 ], [ -156.582858291560882, 20.883805944452725 ], [ -156.584018093955734, 20.884082917269591 ], [ -156.584986692844723, 20.88441749688657 ], [ -156.58676273999032, 20.88391640547956 ], [ -156.585995427313549, 20.883562721716245 ], [ -156.585476318092503, 20.883019953521373 ], [ -156.584983749219845, 20.882577953214909 ], [ -156.584199294317699, 20.881132514525543 ], [ -156.587498093047031, 20.881056222365014 ], [ -156.58972504916153, 20.881488421463306 ], [ -156.594343455474046, 20.883956604327008 ], [ -156.599106441801979, 20.887344148301775 ], [ -156.601996516905615, 20.890997493238729 ], [ -156.603814140440761, 20.89481208148041 ], [ -156.605092167371993, 20.899691032249169 ], [ -156.606972820996759, 20.908360900943258 ], [ -156.608164748599052, 20.917611576942932 ], [ -156.607905193522583, 20.922078498335726 ], [ -156.607927319158023, 20.922919402334628 ], [ -156.606516153257701, 20.92197767617748 ], [ -156.605046884867903, 20.921220570647993 ], [ -156.603886749705737, 20.920943710406018 ], [ -156.602860935180615, 20.920259081238012 ], [ -156.602429303391403, 20.920683830026459 ], [ -156.601020120658546, 20.920611516802822 ], [ -156.601422003688214, 20.921047579379053 ], [ -156.602736540174106, 20.921459029630149 ], [ -156.603240877637319, 20.921986208298915 ], [ -156.604206305435156, 20.922591418572392 ], [ -156.607954044917363, 20.925953057135001 ], [ -156.607179091460011, 20.93012253906257 ], [ -156.604673354628744, 20.928067048171258 ], [ -156.604124071678626, 20.926929861463069 ], [ -156.603053846656024, 20.926874885000124 ], [ -156.60351287666947, 20.927720072061344 ], [ -156.603449319470599, 20.928812278848881 ], [ -156.604610025365815, 20.929853557636342 ], [ -156.604324198799588, 20.929890548987188 ], [ -156.602899812613202, 20.929317247484995 ], [ -156.602463851460385, 20.929180833705839 ] ] ] } },
{ "type": "Feature", "properties": { "ID": 2, "GRIDCODE": 1 }, "geometry": { "type": "Polygon", "coordinates": [ [ [ -156.195188951504321, 20.800015122773601 ], [ -156.195084148996216, 20.800343616115857 ], [ -156.194836322330673, 20.800102055047748 ], [ -156.195188951504321, 20.800015122773601 ] ] ] } },
{ "type": "Feature", "properties": { "ID": 3, "GRIDCODE": 1 }, "geometry": { "type": "Polygon", "coordinates": [ [ [ -156.195188951504321, 20.800015122773601 ], [ -156.195413541118171, 20.799247429905574 ], [ -156.196484454491838, 20.798616429691055 ], [ -156.196061406912918, 20.799469481237708 ], [ -156.195188951504321, 20.800015122773601 ] ] ] } },
{ "type": "Feature", "properties": { "ID": 4, "GRIDCODE": 1 }, "geometry": { "type": "Polygon", "coordinates": [ [ [ -156.06193429137619, 20.765557197086991 ], [ -156.062885717978617, 20.766026500645761 ], [ -156.062641526203691, 20.76725418358453 ], [ -156.06200204116945, 20.767534411337955 ], [ -156.06193429137619, 20.765557197086991 ] ] ] } },
{ "type": "Feature", "properties": { "ID": 5, "GRIDCODE": 1 }, "geometry": { "type": "Polygon", "coordinates": [ [ [ -156.203552092158446, 20.815047530365295 ], [ -156.203840052567301, 20.815052229753956 ], [ -156.203845050362901, 20.814781478827033 ], [ -156.20419771203288, 20.814694531419946 ], [ -156.203949848565713, 20.814452979582992 ], [ -156.203845050362901, 20.814781478827033 ], [ -156.203557090467115, 20.814776779505038 ], [ -156.203552092158446, 20.815047530365295 ], [ -156.202677687349933, 20.815298667834284 ], [ -156.201250539082935, 20.815732127278608 ], [ -156.200230185761882, 20.815402175928025 ], [ -156.19995295238877, 20.815121524212749 ], [ -156.198535262148823, 20.814663142839485 ], [ -156.198531928236292, 20.81361136784615 ], [ -156.198573566824393, 20.812576593738232 ], [ -156.197315065327615, 20.811771159542069 ], [ -156.198266098965036, 20.810006865786562 ], [ -156.19920410066652, 20.808885444698664 ], [ -156.199788678048947, 20.8078009574273 ], [ -156.200669724973181, 20.806259122734655 ], [ -156.20100179965911, 20.8051231625188 ], [ -156.201309212358922, 20.803768730802247 ], [ -156.201840932896999, 20.801949556614179 ], [ -156.202020514512583, 20.797477270987539 ], [ -156.200575740574976, 20.796985815473963 ], [ -156.198786823212316, 20.796990850591428 ], [ -156.199172221102316, 20.795068525326499 ], [ -156.198887762268271, 20.79452618202231 ], [ -156.197924705086194, 20.792107740172899 ], [ -156.196235699157285, 20.791671243468418 ], [ -156.193111574079353, 20.792278573102138 ], [ -156.189719510878803, 20.79193870309981 ], [ -156.189154424114435, 20.791653322290671 ], [ -156.187360371564864, 20.790953578105988 ], [ -156.186212902114875, 20.790194337759154 ], [ -156.184532417823391, 20.78939328186048 ], [ -156.182469533735429, 20.788028137845025 ], [ -156.180536120636106, 20.788384627119658 ], [ -156.179150053560619, 20.789206987543988 ], [ -156.178632767071974, 20.79825126883539 ], [ -156.176612026614549, 20.797837417590518 ], [ -156.173634527542703, 20.795684819303805 ], [ -156.173175717308453, 20.794753956272594 ], [ -156.171530650075823, 20.794347962367674 ], [ -156.170102508906609, 20.793501075446038 ], [ -156.169255904353832, 20.793503368183764 ], [ -156.16868185238954, 20.792675988974725 ], [ -156.168409777817288, 20.79212442139006 ], [ -156.167830942739243, 20.79212597140473 ], [ -156.167285459313803, 20.791019505984622 ], [ -156.165910900972534, 20.791326734584427 ], [ -156.163612845986194, 20.790935929331901 ], [ -156.163267156968374, 20.789870446599366 ], [ -156.162134327913293, 20.790395870469428 ], [ -156.161816993422804, 20.789844736299827 ], [ -156.161849511752052, 20.789038747938775 ], [ -156.160979283554951, 20.788757090659796 ], [ -156.160698154831039, 20.787263689903209 ], [ -156.159146317952292, 20.78798316185949 ], [ -156.157842897455566, 20.787361601669641 ], [ -156.157017894296871, 20.78568820115596 ], [ -156.156035424280702, 20.787044949626328 ], [ -156.155544738169368, 20.786771278226357 ], [ -156.154414117288695, 20.785934762768726 ], [ -156.153504230578534, 20.785640246665594 ], [ -156.15241411446209, 20.785089101160551 ], [ -156.150398244040019, 20.784790091925988 ], [ -156.148974694039651, 20.784219502168966 ], [ -156.147539711621789, 20.783659290538367 ], [ -156.146121277890927, 20.782817941035695 ], [ -156.145533728349363, 20.782537607550672 ], [ -156.144925328344414, 20.78130296207117 ], [ -156.143833388119361, 20.781972820116323 ], [ -156.143542798613339, 20.781962428187391 ], [ -156.142966824449331, 20.781963945450364 ], [ -156.142692156187081, 20.781406750402173 ], [ -156.140634027543257, 20.781056282000186 ], [ -156.139849066726043, 20.779463623081107 ], [ -156.138682104337875, 20.77917532810088 ], [ -156.137871674209265, 20.778353180975266 ], [ -156.137563670941262, 20.77834209243192 ], [ -156.137256849002739, 20.77834292438946 ], [ -156.13613732711309, 20.777776781392252 ], [ -156.13498522491264, 20.777492017071378 ], [ -156.133996639271885, 20.776992050222319 ], [ -156.122995120269309, 20.776367075127069 ], [ -156.121198861949409, 20.775901894253202 ], [ -156.119183221274028, 20.775602538881017 ], [ -156.118330491017986, 20.775312113698458 ], [ -156.116890593437574, 20.77502239965354 ], [ -156.115257521210395, 20.774466014246602 ], [ -156.112444367550069, 20.773770618889206 ], [ -156.111488909712023, 20.772392652246392 ], [ -156.112560886405419, 20.769610745477667 ], [ -156.11315562981369, 20.766651805861073 ], [ -156.111342034185839, 20.765450488461397 ], [ -156.10926298349068, 20.765728888944395 ], [ -156.108408897014613, 20.766473664601794 ], [ -156.107834217176418, 20.767016327798864 ], [ -156.107236891008966, 20.767537184979545 ], [ -156.105867877137285, 20.768830238953441 ], [ -156.10519097632789, 20.769143724513583 ], [ -156.10462110803374, 20.769123269514907 ], [ -156.103800137950799, 20.769898725768158 ], [ -156.101798796709517, 20.769903292117728 ], [ -156.100580795200727, 20.769602120864274 ], [ -156.098077620736916, 20.768748828483474 ], [ -156.097001403949292, 20.768710001849879 ], [ -156.094980404275276, 20.768714554197288 ], [ -156.093405343836139, 20.768397505598248 ], [ -156.091724127318173, 20.767824360025099 ], [ -156.087641603233408, 20.767441485956425 ], [ -156.085099999277901, 20.766355690778571 ], [ -156.082523565187728, 20.765972614046458 ], [ -156.079293723341976, 20.764871074116709 ], [ -156.074391157222891, 20.764881744369422 ], [ -156.073324284410148, 20.764535757196484 ], [ -156.072571325376089, 20.764154654146207 ], [ -156.069891202205355, 20.763393956616728 ], [ -156.069326492586782, 20.76310821867369 ], [ -156.066062155767781, 20.762375441576928 ], [ -156.064187712371279, 20.760986578124619 ], [ -156.063323226409324, 20.76057364723755 ], [ -156.063335428308051, 20.760276997718108 ], [ -156.06233682715299, 20.759340911714393 ], [ -156.061921540688132, 20.758919527432838 ], [ -156.061324524000725, 20.758634139023439 ], [ -156.060771095857206, 20.758072339468939 ], [ -156.059618579811655, 20.757521702644702 ], [ -156.058941626070521, 20.756834676461388 ], [ -156.0576600232001, 20.755633359448552 ], [ -156.057672717701564, 20.755326273540671 ], [ -156.055979821613732, 20.754777199259927 ], [ -156.055379211873628, 20.754214444518833 ], [ -156.054687407133258, 20.753512075931159 ], [ -156.054254981989033, 20.753106514805115 ], [ -156.053839735340858, 20.752685115414987 ], [ -156.053192205289719, 20.752078046044751 ], [ -156.05228235701162, 20.75090621476906 ], [ -156.051245171086236, 20.749357190137367 ], [ -156.050603307408693, 20.748705649142039 ], [ -156.050315041608997, 20.748435181998509 ], [ -156.049760938283441, 20.747607957620197 ], [ -156.049184883078084, 20.747332546247172 ], [ -156.048055207451569, 20.74649542999968 ], [ -156.046372202771835, 20.745415542555389 ], [ -156.045783984567123, 20.744566036311952 ], [ -156.045229919181963, 20.743738801640077 ], [ -156.044176162934605, 20.74306257089744 ], [ -156.043268931147935, 20.741328642010838 ], [ -156.043267662642677, 20.740728828288635 ], [ -156.043313493209581, 20.739615188630971 ], [ -156.040929286708916, 20.73773590058277 ], [ -156.038733889917523, 20.738752477622771 ], [ -156.039103074815671, 20.737304982214763 ], [ -156.03989921482389, 20.736611404254486 ], [ -156.039898176637934, 20.736202534296428 ], [ -156.039915234466974, 20.735788290152232 ], [ -156.038476135475094, 20.735791133861149 ], [ -156.038475370280565, 20.735498365928017 ], [ -156.039073040275554, 20.734977764465917 ], [ -156.038234744755044, 20.733375516142949 ], [ -156.038860188511592, 20.733333929680946 ], [ -156.03939280306443, 20.733353286282053 ], [ -156.03938879179762, 20.731652752238912 ], [ -156.040894859945979, 20.731196578096682 ], [ -156.042015694808867, 20.731237422447418 ], [ -156.042591431977399, 20.731236221517147 ], [ -156.043463380816036, 20.731268014021762 ], [ -156.043461723086153, 20.730427535534098 ], [ -156.044618231395219, 20.730469637032918 ], [ -156.044661344798158, 20.729422327201693 ], [ -156.043829530759581, 20.726992457602503 ], [ -156.043826514625778, 20.725555997009316 ], [ -156.045982065694346, 20.72391571170678 ], [ -156.047860293271356, 20.724556755539592 ], [ -156.048869251008398, 20.724146047480268 ], [ -156.049499036360601, 20.722979611729059 ], [ -156.051325954253826, 20.72297590877497 ], [ -156.052532824393069, 20.723288961317461 ], [ -156.053402580661214, 20.723025522997833 ], [ -156.054465321393963, 20.724104880350318 ], [ -156.055972360775854, 20.724159648797592 ], [ -156.056550702246227, 20.72389186579305 ], [ -156.057118306662829, 20.724179265749385 ], [ -156.058212954795096, 20.724176972731879 ], [ -156.059721189235802, 20.724766735136505 ], [ -156.060547445944934, 20.725605719384404 ], [ -156.061274705875064, 20.724919177938926 ], [ -156.061871697406559, 20.724398604739402 ], [ -156.062590071086191, 20.723720367385031 ], [ -156.0634509394811, 20.722970113641992 ], [ -156.063778506716687, 20.722397327672482 ], [ -156.064187208117062, 20.721640273166464 ], [ -156.065396138058134, 20.721293833661001 ], [ -156.065835387963403, 20.720526320099804 ], [ -156.065832181936969, 20.719205140354575 ], [ -156.067470110931026, 20.717658198208586 ], [ -156.070387590023529, 20.717173833221818 ], [ -156.071086864397756, 20.716564119990679 ], [ -156.071400429933959, 20.71570862867538 ], [ -156.072430954264064, 20.713907318306298 ], [ -156.069812865829022, 20.713356160263803 ], [ -156.068256071981608, 20.713802495714656 ], [ -156.066564194773861, 20.714315272929348 ], [ -156.065082606194693, 20.713090131412152 ], [ -156.065153227413902, 20.711365450250717 ], [ -156.064871499734323, 20.710494923989426 ], [ -156.064089234383118, 20.710496518256864 ], [ -156.062532780536458, 20.710183007726972 ], [ -156.06294383853745, 20.707538125433203 ], [ -156.062626130538092, 20.706931049108697 ], [ -156.062669686290349, 20.705867462266937 ], [ -156.061092294214262, 20.705068429807721 ], [ -156.059274257060451, 20.704447883364121 ], [ -156.058696511353048, 20.704427033913941 ], [ -156.057489588246767, 20.704952778337692 ], [ -156.055011584325825, 20.706239569475962 ], [ -156.05356040793211, 20.706546360178194 ], [ -156.051118232776759, 20.707286268728044 ], [ -156.050244320561546, 20.707536807095686 ], [ -156.04872018598391, 20.708242696479406 ], [ -156.047941996307998, 20.70751292374916 ], [ -156.047964346318537, 20.706968783845564 ], [ -156.046303242758029, 20.705867230655532 ], [ -156.045397894065388, 20.705434634282629 ], [ -156.045682845670115, 20.705292090589747 ], [ -156.046269036592378, 20.705036636242966 ], [ -156.04672912519689, 20.704602224008152 ], [ -156.048314979386618, 20.704248743407401 ], [ -156.049392933315062, 20.70428799034665 ], [ -156.050317981614171, 20.704022860065287 ], [ -156.050610657421259, 20.703480971977964 ], [ -156.050909124932076, 20.703220568624737 ], [ -156.051300760556131, 20.701820215950338 ], [ -156.052383497465172, 20.700797845510369 ], [ -156.053267995538079, 20.700026748840866 ], [ -156.053687244142196, 20.698882726324939 ], [ -156.055046659358226, 20.69732834598587 ], [ -156.055345387781898, 20.697067937208974 ], [ -156.055344539313012, 20.696791824712331 ], [ -156.056223892203548, 20.696270537008356 ], [ -156.057623736682359, 20.694948623225454 ], [ -156.058844522965501, 20.694690477476371 ], [ -156.059131924960468, 20.694419288831742 ], [ -156.059729072471129, 20.693898580614579 ], [ -156.06115491637641, 20.692551952425347 ], [ -156.062048005752871, 20.692584385579465 ], [ -156.062764385544142, 20.691256839147563 ], [ -156.066872523137732, 20.691248065332918 ], [ -156.067990405769166, 20.694701700427501 ], [ -156.068599789104411, 20.695940117330167 ], [ -156.069148195444626, 20.696988402856061 ], [ -156.069150113430169, 20.697707116778503 ], [ -156.069133272687935, 20.698115162612623 ], [ -156.069405286591603, 20.699798348040986 ], [ -156.06937411496304, 20.700556961478494 ], [ -156.069798924594721, 20.701368694565797 ], [ -156.07019067477961, 20.703008298286143 ], [ -156.070607407785843, 20.704225977674898 ], [ -156.071006977664439, 20.705459496783277 ], [ -156.071855043115619, 20.706551887186972 ], [ -156.072256744883902, 20.707368116180156 ], [ -156.072702216417696, 20.707384158497458 ], [ -156.07347558278255, 20.707025873529744 ], [ -156.074370763696464, 20.707934855695733 ], [ -156.075051745099046, 20.708259956810167 ], [ -156.076419496491326, 20.709648769087796 ], [ -156.078420638418152, 20.709376908577291 ], [ -156.079144562734598, 20.708035136038127 ], [ -156.080162682696823, 20.70858875344063 ], [ -156.081574852423643, 20.709701255261823 ], [ -156.08381759461534, 20.711256263891283 ], [ -156.085187438702775, 20.714039452483707 ], [ -156.085526036783563, 20.714383045821947 ], [ -156.08719548594641, 20.714379322998195 ], [ -156.088282921902135, 20.714898634362726 ], [ -156.08924065409667, 20.715512936459078 ], [ -156.09001079647885, 20.716294774084226 ], [ -156.089445642070416, 20.714053239658949 ], [ -156.090015587917975, 20.712013788251472 ], [ -156.091012355213934, 20.712011472226632 ], [ -156.091884001668689, 20.712452795856979 ], [ -156.091343565262008, 20.71162394125523 ], [ -156.090111298201066, 20.711035422775851 ], [ -156.089626156144874, 20.710108456306489 ], [ -156.089354491195081, 20.70955694183214 ], [ -156.088805903305342, 20.708508700128316 ], [ -156.088798102160524, 20.705578269347882 ], [ -156.089348262831919, 20.704616583643077 ], [ -156.087350682563994, 20.702588569105195 ], [ -156.084911383112171, 20.701086484956708 ], [ -156.082912391185914, 20.699974649230381 ], [ -156.080466984500418, 20.698047806410692 ], [ -156.078356974052639, 20.697687769112676 ], [ -156.080109010888606, 20.696135859366024 ], [ -156.080542412533902, 20.696134879709302 ], [ -156.084438483027469, 20.696275757001676 ], [ -156.086772138321408, 20.695698793969587 ], [ -156.087847174117655, 20.69468331267959 ], [ -156.089048408517669, 20.69394632580887 ], [ -156.094572136781835, 20.695452429783181 ], [ -156.099692201539568, 20.69817976245454 ], [ -156.103282744499154, 20.701077989742068 ], [ -156.105815070894607, 20.704337611710319 ], [ -156.107186600626903, 20.708339634220941 ], [ -156.107643653932229, 20.711165914167719 ], [ -156.108109595518954, 20.718393927530876 ], [ -156.10834727926408, 20.727470848379582 ], [ -156.107205910481952, 20.727798236122563 ], [ -156.106829336976091, 20.728826771038005 ], [ -156.105745470066609, 20.727726581153515 ], [ -156.10497879987588, 20.727360738161611 ], [ -156.105884802469717, 20.726150305455537 ], [ -156.103615567273522, 20.725239476316862 ], [ -156.103414137530393, 20.72582360223117 ], [ -156.103418931688026, 20.727668886924111 ], [ -156.100508894651625, 20.728388381441423 ], [ -156.101062416815836, 20.729258694892547 ], [ -156.101350752646539, 20.729529083725456 ], [ -156.102164048318883, 20.730354583185107 ], [ -156.10248346336266, 20.730366050031201 ], [ -156.103056130193266, 20.730364725927188 ], [ -156.103056951608551, 20.730646399662113 ], [ -156.10232227106124, 20.731286991892983 ], [ -156.102727184879825, 20.732536558093297 ], [ -156.103087413717958, 20.733224695811614 ], [ -156.101812086963264, 20.735224137914297 ], [ -156.101814417825977, 20.73603133674893 ], [ -156.101216928850732, 20.736552181793609 ], [ -156.10153704726244, 20.737560050400354 ], [ -156.10314966570516, 20.737070996246189 ], [ -156.103741808872059, 20.737672197393053 ], [ -156.104350783495704, 20.737980251696328 ], [ -156.104969003359287, 20.738275368576954 ], [ -156.106045757694659, 20.739368308950151 ], [ -156.107114711941705, 20.740369606126482 ], [ -156.108615995769838, 20.742217865729881 ], [ -156.11004133286562, 20.742679542626089 ], [ -156.110795987508226, 20.743445577730544 ], [ -156.11258125748472, 20.744349002925464 ], [ -156.113674988976214, 20.743842008598477 ], [ -156.114813076770474, 20.747352803028914 ], [ -156.115405625741374, 20.747374125798345 ], [ -156.116277224726929, 20.746839451667331 ], [ -156.120924505985727, 20.751079790154193 ], [ -156.126979237951758, 20.755427812294098 ], [ -156.142457846478209, 20.763257725951757 ], [ -156.14656097203644, 20.765067808315901 ], [ -156.160517297262629, 20.770701314330072 ], [ -156.172969563896174, 20.774982111166956 ], [ -156.184190554781793, 20.778384547916691 ], [ -156.193698572696292, 20.781634905030618 ], [ -156.199800724143586, 20.784349304449869 ], [ -156.208856206376112, 20.78906468669464 ], [ -156.218429586492618, 20.795095273924073 ], [ -156.222687760596727, 20.79782041722201 ], [ -156.23132163845662, 20.803869014943714 ], [ -156.238875033645655, 20.81093095312405 ], [ -156.243994197582992, 20.817107372555547 ], [ -156.251910110180859, 20.827745990409177 ], [ -156.253824536585967, 20.831390861276567 ], [ -156.253784902669508, 20.832381280332957 ], [ -156.253789920335748, 20.833779205306019 ], [ -156.252604072596228, 20.834120156382475 ], [ -156.251109189311137, 20.83514910741598 ], [ -156.247117567681698, 20.835563705064637 ], [ -156.243220366382843, 20.834902720282148 ], [ -156.239388868185728, 20.833665194302686 ], [ -156.23851635155529, 20.832544629768815 ], [ -156.238247835949721, 20.831718792505963 ], [ -156.236354562562042, 20.833161588159484 ], [ -156.234329296353792, 20.831664541626914 ], [ -156.234206320261109, 20.831928102922248 ], [ -156.233715020264668, 20.833272236951736 ], [ -156.233031337966963, 20.833274282497577 ], [ -156.232686402815204, 20.832213660342386 ], [ -156.23130850953487, 20.833516609137945 ], [ -156.229301086662304, 20.832661313246028 ], [ -156.226802740966946, 20.832237228864241 ], [ -156.22643521475328, 20.831536862302919 ], [ -156.225896219502602, 20.830445184385603 ], [ -156.22530609434574, 20.830424250610669 ], [ -156.224478380799695, 20.830426706445053 ], [ -156.223147708364422, 20.829996764859338 ], [ -156.222731755250749, 20.829575699561889 ], [ -156.221588972670759, 20.828749946764923 ], [ -156.221316644020959, 20.828198568263215 ], [ -156.221027621748846, 20.827928333263095 ], [ -156.221048414105439, 20.827408688309784 ], [ -156.220670593312491, 20.826642817300062 ], [ -156.219908488150395, 20.827363210390605 ], [ -156.218190905362803, 20.826818248839821 ], [ -156.217335275008821, 20.825585858292992 ], [ -156.217333867161273, 20.825157366668765 ], [ -156.217355750570221, 20.824609573093436 ], [ -156.216475378737499, 20.824876946877541 ], [ -156.216121003129814, 20.823786130808859 ], [ -156.215625936575577, 20.824043628601661 ], [ -156.214901618769005, 20.824728113583234 ], [ -156.213937519389191, 20.823751291044751 ], [ -156.213617872905218, 20.823740008433802 ], [ -156.212738718488879, 20.823742631993586 ], [ -156.212804754249191, 20.82209608989325 ], [ -156.211110189828872, 20.822475156652935 ], [ -156.210513570266954, 20.821266527877707 ], [ -156.209822487593613, 20.820620242903296 ], [ -156.210388146642373, 20.819630359795735 ], [ -156.209882036286189, 20.819922705928757 ], [ -156.208683324194595, 20.821055674621419 ], [ -156.207916028556212, 20.820668130103996 ], [ -156.207008908915725, 20.820235853052264 ], [ -156.20764297366901, 20.818588130477259 ], [ -156.206201376977333, 20.81902589029696 ], [ -156.205639419737366, 20.819005881392258 ], [ -156.204502048714971, 20.819009146262669 ], [ -156.204200949995737, 20.81843572273527 ], [ -156.204222661921591, 20.817899569556442 ], [ -156.20363401244893, 20.817619130401464 ], [ -156.203677736691191, 20.816530695764943 ], [ -156.202786817136456, 20.816533212348624 ], [ -156.203403377290755, 20.81545399666124 ], [ -156.203552092158446, 20.815047530365295 ] ] ] } }
]
}
