{
"type": "FeatureCollection",
"name": "clegran",
"crs": { "type": "name", "properties": { "name": "urn:ogc:def:crs:OGC:1.3:CRS84" } },
"features": [
{ "type": "Feature", "properties": { "ID": 1, "GRIDCODE": 2 }, "geometry": { "type": "Polygon", "coordinates": [ [ [ -156.783126163930461, 21.113680090318752 ], [ -156.783476592134178, 21.113777405282079 ], [ -156.783220201714386, 21.114011630208108 ], [ -156.783126163930461, 21.113680090318752 ] ] ] } },
{ "type": "Feature", "properties": { "ID": 2, "GRIDCODE": 2 }, "geometry": { "type": "Polygon", "coordinates": [ [ [ -156.795109420700186, 21.103812559303975 ], [ -156.794759005272169, 21.103715269702025 ], [ -156.795015359987644, 21.103481023890996 ], [ -156.795109420700186, 21.103812559303975 ] ] ] } },
{ "type": "Feature", "properties": { "ID": 3, "GRIDCODE": 2 }, "geometry": { "type": "Polygon", "coordinates": [ [ [ -156.795109420700186, 21.103812559303975 ], [ -156.795542295678274, 21.103958013660037 ], [ -156.795834252272869, 21.103412966538166 ], [ -156.796374666660199, 21.102939010580155 ], [ -156.798161233000542, 21.102635752442517 ], [ -156.798158989351947, 21.102348270896233 ], [ -156.79903707097381, 21.102376475180165 ], [ -156.799030158679614, 21.101411243337154 ], [ -156.799903625137716, 21.101847875143029 ], [ -156.800196085204789, 21.101286422220923 ], [ -156.799615352972182, 21.10074802983997 ], [ -156.811263886811474, 21.095666453429349 ], [ -156.811970006804899, 21.095903494141705 ], [ -156.812064103028092, 21.09623502328763 ], [ -156.812320419144555, 21.09600074759727 ], [ -156.811970006804899, 21.095903494141705 ], [ -156.81221828308756, 21.095217362611621 ], [ -156.815605813973747, 21.094177891607416 ], [ -156.815911348641635, 21.097593720288067 ], [ -156.816409039684572, 21.098531814081948 ], [ -156.817131926033198, 21.100323134379419 ], [ -156.818650397485413, 21.101847555807947 ], [ -156.819265661712592, 21.101262703157968 ], [ -156.820717908109884, 21.100624452077174 ], [ -156.820711051306716, 21.099665031803429 ], [ -156.821853459867498, 21.09970154156585 ], [ -156.822456610018151, 21.09917260892102 ], [ -156.822156102325778, 21.098243016084865 ], [ -156.820472547110654, 21.097038088781932 ], [ -156.821634470322465, 21.096160758087528 ], [ -156.822221250829386, 21.095902667424831 ], [ -156.82268580940999, 21.095461377212235 ], [ -156.823458293641465, 21.096601145444673 ], [ -156.824508306637767, 21.097288881343605 ], [ -156.824797617738483, 21.097014132638652 ], [ -156.825244829993096, 21.09662155822954 ], [ -156.825962389506373, 21.095939569079388 ], [ -156.827938314879532, 21.096002728426868 ], [ -156.828857426339738, 21.095573327898666 ], [ -156.830022443, 21.095061215862192 ], [ -156.829460830275821, 21.094364685688767 ], [ -156.828895583873987, 21.093840872715518 ], [ -156.828600830147195, 21.093250013955736 ], [ -156.828035590884298, 21.092726198675471 ], [ -156.827191181056236, 21.09162640447672 ], [ -156.826541392941948, 21.091024114443723 ], [ -156.831709564460738, 21.09019999165486 ], [ -156.832660418582975, 21.09115455285631 ], [ -156.832696060842835, 21.090524532908773 ], [ -156.832692055453265, 21.089945730054829 ], [ -156.835520024391514, 21.089530090968363 ], [ -156.836164041280938, 21.089851960444946 ], [ -156.836655413994549, 21.089384908909068 ], [ -156.844366062607378, 21.089048665091724 ], [ -156.851009117178563, 21.089514755379305 ], [ -156.866045926318208, 21.092591824945728 ], [ -156.876902926759783, 21.09664610904241 ], [ -156.891456312789217, 21.102751267478173 ], [ -156.903695690408512, 21.108945310971663 ], [ -156.912535954361346, 21.115413395399777 ], [ -156.916880952056289, 21.118495811895318 ], [ -156.921697477140242, 21.121891293599571 ], [ -156.933967386369773, 21.132482549701582 ], [ -156.934841957052612, 21.133291733927354 ], [ -156.944891140564465, 21.145226545994454 ], [ -156.946483508499483, 21.148682373132644 ], [ -156.946497754783422, 21.150471669924503 ], [ -156.946057602358877, 21.151690032625268 ], [ -156.941741111385369, 21.15579651067398 ], [ -156.939282291910644, 21.157500063358651 ], [ -156.937760459980552, 21.157510620753342 ], [ -156.936602276948719, 21.156966072647961 ], [ -156.935745391363639, 21.156173376833152 ], [ -156.935281120560433, 21.155299943090263 ], [ -156.933205039666831, 21.151148877954885 ], [ -156.928366440860771, 21.144024745263259 ], [ -156.925486923086964, 21.140279363003639 ], [ -156.922273659950264, 21.137058546210373 ], [ -156.920233445113979, 21.135471466233732 ], [ -156.917314205399009, 21.134412771101676 ], [ -156.916260731994697, 21.131641742310272 ], [ -156.91528959484873, 21.130668232204584 ], [ -156.915262986411648, 21.130937513299752 ], [ -156.915542530759467, 21.132020580375503 ], [ -156.915780077003859, 21.135280107734687 ], [ -156.916068320209348, 21.135822476594178 ], [ -156.915354576996549, 21.1374130842336 ], [ -156.914559611782806, 21.139868926133982 ], [ -156.914864345473347, 21.140442257862507 ], [ -156.914819940954658, 21.141680414404874 ], [ -156.915183352370633, 21.145255085078976 ], [ -156.915894483312201, 21.147744360205895 ], [ -156.917799512633508, 21.152552172747701 ], [ -156.919188019145423, 21.156526601459444 ], [ -156.920324595698332, 21.161397501714401 ], [ -156.919837119659405, 21.162654022850155 ], [ -156.918033757096993, 21.163208353876655 ], [ -156.915480676467212, 21.162794848736116 ], [ -156.913840304253455, 21.162023278754646 ], [ -156.911099618888784, 21.160148036460757 ], [ -156.908275896910794, 21.157864406366848 ], [ -156.905612968968626, 21.15624655610733 ], [ -156.902387138952406, 21.154728843491753 ], [ -156.901382484639782, 21.153249092599939 ], [ -156.901091546909214, 21.152979845712199 ], [ -156.901101643283909, 21.152703816355871 ], [ -156.900187421360727, 21.152412943876175 ], [ -156.899091516718443, 21.151866013219564 ], [ -156.898512109510506, 21.151593312258495 ], [ -156.897753725274811, 21.150833081829724 ], [ -156.896395860521039, 21.149944682211785 ], [ -156.895099925195609, 21.149903760852467 ], [ -156.893939900896214, 21.150921842956805 ], [ -156.892719789178926, 21.153474051841638 ], [ -156.892668233547624, 21.154904512978646 ], [ -156.892679610127772, 21.156392046827499 ], [ -156.892094277995994, 21.156119249740875 ], [ -156.890999933897461, 21.15450716175673 ], [ -156.889807136832275, 21.153634393466714 ], [ -156.887532595069786, 21.152910564424623 ], [ -156.887521640936228, 21.151456309291145 ], [ -156.888130236887946, 21.150922184362958 ], [ -156.889035863445173, 21.149807442968264 ], [ -156.889883765481926, 21.149063377080545 ], [ -156.889601222773479, 21.147268528281021 ], [ -156.887664129276374, 21.146799801505061 ], [ -156.889171756900339, 21.143980685067145 ], [ -156.890862143799836, 21.141196238663778 ], [ -156.892496210100376, 21.141610881629827 ], [ -156.891364168831387, 21.139998397670876 ], [ -156.891775496992381, 21.138234020654739 ], [ -156.892116143618154, 21.134168911946581 ], [ -156.892423093995433, 21.133362130423329 ], [ -156.892135223781111, 21.132819930609479 ], [ -156.891817054451082, 21.126584280267281 ], [ -156.890456798199693, 21.124367700378826 ], [ -156.88714932399327, 21.122203428502587 ], [ -156.885654100466695, 21.121896578331718 ], [ -156.881329303808201, 21.12144507515011 ], [ -156.881622107026629, 21.120762489052868 ], [ -156.882017187195117, 21.120065504836468 ], [ -156.881090289325755, 21.11913569607966 ], [ -156.880189804464237, 21.119919286904356 ], [ -156.880195669830471, 21.120696887442737 ], [ -156.879883954008591, 21.121558948111115 ], [ -156.876637991346342, 21.12194273531054 ], [ -156.874959007463872, 21.122304587565296 ], [ -156.873806867866989, 21.1226585514503 ], [ -156.873803941493321, 21.122290290190183 ], [ -156.874396607354356, 21.121245705792095 ], [ -156.874118990156234, 21.120662930990719 ], [ -156.872966727431816, 21.120670491563317 ], [ -156.872685998616021, 21.120108643472978 ], [ -156.872399321003769, 21.119568614026822 ], [ -156.872124076967907, 21.119017880201294 ], [ -156.87155258151256, 21.11820334535772 ], [ -156.87127186200749, 21.117641495613945 ], [ -156.870692159652151, 21.118192532393756 ], [ -156.870392045287986, 21.118456048026065 ], [ -156.870876420796577, 21.119368244513662 ], [ -156.868920584451018, 21.120063760130453 ], [ -156.870204242567695, 21.120668124012134 ], [ -156.86977237272572, 21.121429765685022 ], [ -156.87061939416779, 21.122636962224384 ], [ -156.87062441435711, 21.123292446755293 ], [ -156.870237750474331, 21.124698834095312 ], [ -156.869008860587741, 21.124659828580597 ], [ -156.868286916002688, 21.124664567150642 ], [ -156.866269399327194, 21.124600466621022 ], [ -156.867106052009035, 21.126275186498386 ], [ -156.868217489743785, 21.126798489482468 ], [ -156.868632436433955, 21.127182915807175 ], [ -156.867627834498222, 21.129283765524757 ], [ -156.867030294429583, 21.131963665708071 ], [ -156.866433709200606, 21.132487151827139 ], [ -156.865859928890501, 21.133032618151017 ], [ -156.864687866622205, 21.133825191010484 ], [ -156.864312906530017, 21.134861101360094 ], [ -156.862656896109371, 21.134081335222671 ], [ -156.861831519945611, 21.133253178488239 ], [ -156.860515188864213, 21.133211282238424 ], [ -156.860064295659669, 21.134054206633451 ], [ -156.858611814445368, 21.134008060627735 ], [ -156.859149427229539, 21.135020308813274 ], [ -156.859736354263561, 21.136703081715822 ], [ -156.859738620407882, 21.137016498792583 ], [ -156.859719286822269, 21.137557507482537 ], [ -156.861162822993208, 21.138386409678478 ], [ -156.862162204407753, 21.139687381056682 ], [ -156.863150063283001, 21.140180653769512 ], [ -156.864018996720915, 21.140589873003723 ], [ -156.864586854552726, 21.140873386876716 ], [ -156.867536325416125, 21.141452291537156 ], [ -156.868923664588721, 21.143140030541002 ], [ -156.86946223771352, 21.143638657314124 ], [ -156.869741382415469, 21.143918520421593 ], [ -156.870031962043669, 21.1441876794579 ], [ -156.870398805887248, 21.14492199567222 ], [ -156.871172823690387, 21.145286398009464 ], [ -156.86996283919882, 21.149020603657654 ], [ -156.870249406837075, 21.151207487410183 ], [ -156.872141587320556, 21.1549950820691 ], [ -156.87316956475351, 21.156025964467641 ], [ -156.874460893944445, 21.157221343803979 ], [ -156.873906849653139, 21.159282238091826 ], [ -156.872909921894376, 21.161563109933596 ], [ -156.872181936803628, 21.161188639782715 ], [ -156.871654920712558, 21.160133562432858 ], [ -156.870094112780066, 21.159636620292051 ], [ -156.867262018065787, 21.158517233306593 ], [ -156.863145647615056, 21.158804661251569 ], [ -156.861074651701159, 21.160330144362764 ], [ -156.857669397287509, 21.160021544902907 ], [ -156.854249902603954, 21.159567380304637 ], [ -156.851960745411731, 21.160060192546581 ], [ -156.849845777214398, 21.160989681469154 ], [ -156.847626564372234, 21.162026554353847 ], [ -156.843427565888049, 21.162053424244927 ], [ -156.84192893691727, 21.161690430170513 ], [ -156.842737183182379, 21.160180315247501 ], [ -156.844670794755757, 21.159330557858155 ], [ -156.845340526817409, 21.158150898362795 ], [ -156.844901733019213, 21.156821786751689 ], [ -156.843593475428264, 21.155158021389987 ], [ -156.84387944714328, 21.154964296002049 ], [ -156.845039549022914, 21.154627396226768 ], [ -156.84476106417091, 21.153875572515439 ], [ -156.844080893902998, 21.153245558350086 ], [ -156.843613336564232, 21.148626654363508 ], [ -156.843058911089599, 21.14589819991054 ], [ -156.843454817477266, 21.145200476167226 ], [ -156.842588681034471, 21.143568998635971 ], [ -156.842703292981156, 21.140406574151825 ], [ -156.842087559584741, 21.13949891536042 ], [ -156.841516170460949, 21.138684288198924 ], [ -156.84098971195408, 21.137630199632444 ], [ -156.840388771524914, 21.136773456334883 ], [ -156.840113625250041, 21.136222678859081 ], [ -156.839683756670695, 21.135412564353924 ], [ -156.839261183660881, 21.134566361944554 ], [ -156.838695760002309, 21.134042634037662 ], [ -156.83785106399074, 21.132942738779832 ], [ -156.837560567877858, 21.132673530959778 ], [ -156.837285438610195, 21.132122750184376 ], [ -156.835597452041867, 21.131053212199248 ], [ -156.834559729504292, 21.129733159457615 ], [ -156.835298191232113, 21.129388142211408 ], [ -156.835885087251285, 21.129130146635976 ], [ -156.837334824015244, 21.128330480780836 ], [ -156.838206641031292, 21.12794733481962 ], [ -156.837927855199695, 21.126949051413877 ], [ -156.837364343632629, 21.125887470972433 ], [ -156.837384551422389, 21.125330276133976 ], [ -156.836378440309716, 21.124398038406916 ], [ -156.835959875257601, 21.123978172839369 ], [ -156.835369737954323, 21.123431500377361 ], [ -156.837797333741406, 21.123018954857745 ], [ -156.838972390537066, 21.122469817995277 ], [ -156.840171959870787, 21.123673445593404 ], [ -156.841733713095238, 21.124051850508046 ], [ -156.842221225268617, 21.124540907290822 ], [ -156.842607837910492, 21.123526236093419 ], [ -156.842601829571663, 21.122713723254108 ], [ -156.843899961947955, 21.123870099198061 ], [ -156.844784848447404, 21.125174395709912 ], [ -156.845190119804641, 21.124643131215233 ], [ -156.846349202068296, 21.123032337840137 ], [ -156.846941922896917, 21.123305372878399 ], [ -156.847790232991542, 21.124156505618956 ], [ -156.848144668522764, 21.122867841181019 ], [ -156.850117539340999, 21.123345712867181 ], [ -156.852407974051033, 21.124310172232061 ], [ -156.852138390074344, 21.123371352819976 ], [ -156.851761451378536, 21.122290285985237 ], [ -156.853014671503075, 21.122282166402687 ], [ -156.853379151075217, 21.12338708328036 ], [ -156.854884721587808, 21.122655892558065 ], [ -156.853887920201402, 21.122186477836021 ], [ -156.854765699026586, 21.121971849806595 ], [ -156.855906986803944, 21.122335406821126 ], [ -156.856761447242491, 21.122762132270793 ], [ -156.856474935988359, 21.122037871933792 ], [ -156.855349334103721, 21.120995421356287 ], [ -156.855346147050142, 21.120570011660725 ], [ -156.855361050833721, 21.120161102320427 ], [ -156.853634346783821, 21.119742965620528 ], [ -156.853941668451512, 21.118490793579706 ], [ -156.855100525008936, 21.117473895438938 ], [ -156.855692498277534, 21.116367001989488 ], [ -156.856575754942895, 21.11559199595224 ], [ -156.856222488548411, 21.114863650129823 ], [ -156.854979703775939, 21.115954237904351 ], [ -156.854549180049617, 21.116363374322141 ], [ -156.854254941635418, 21.116354091746619 ], [ -156.853680900937121, 21.116899912452602 ], [ -156.853081433515939, 21.116880807480293 ], [ -156.851687479984463, 21.118205914961575 ], [ -156.849949264645005, 21.118217132331235 ], [ -156.848791752920931, 21.117671967104354 ], [ -156.848186006734608, 21.117110786101197 ], [ -156.847768617643794, 21.115846114296684 ], [ -156.847039609169315, 21.116539029173559 ], [ -156.845912832513221, 21.116503143025209 ], [ -156.845224421166051, 21.11682484016767 ], [ -156.84445332252929, 21.115687949426899 ], [ -156.843882000258446, 21.114873202584128 ], [ -156.843578496582865, 21.113632725785955 ], [ -156.841750482758556, 21.113189705088523 ], [ -156.842487699766394, 21.111890516872958 ], [ -156.842485673241583, 21.111601709762741 ], [ -156.84249554852093, 21.111328267130467 ], [ -156.841332898659005, 21.111046505398651 ], [ -156.841361633406166, 21.11024918456128 ], [ -156.840209450450942, 21.109673608976195 ], [ -156.839053001642299, 21.109393234679327 ], [ -156.838745908804498, 21.108462256322831 ], [ -156.837552147600263, 21.108987019500358 ], [ -156.836734734133415, 21.111245822223022 ], [ -156.835587582370579, 21.111782011745518 ], [ -156.835549342157975, 21.110997331870305 ], [ -156.835975842090335, 21.110245706338088 ], [ -156.835296449800921, 21.109616210373986 ], [ -156.83502016018727, 21.108779146638703 ], [ -156.83445011581955, 21.108250788519978 ], [ -156.83413858464229, 21.106637019387914 ], [ -156.832458976378035, 21.106583400364684 ], [ -156.832162211483279, 21.107137850777047 ], [ -156.831858060451822, 21.107404881201376 ], [ -156.831861878909763, 21.107957091013688 ], [ -156.831253289269597, 21.108491146098899 ], [ -156.83126709314763, 21.110412376346716 ], [ -156.830679620778568, 21.109822799362629 ], [ -156.82983973589495, 21.109044391517354 ], [ -156.829544670310497, 21.108453661114869 ], [ -156.828974648282355, 21.107925286325003 ], [ -156.828431066610108, 21.106277715701594 ], [ -156.827573795573301, 21.106250325534472 ], [ -156.82699405003433, 21.106758674266739 ], [ -156.826667931918337, 21.107333241374892 ], [ -156.826670113456998, 21.10760934913074 ], [ -156.825840961016041, 21.107973742785848 ], [ -156.826530291133452, 21.109272500588602 ], [ -156.825472265295076, 21.109766902701963 ], [ -156.823840396427869, 21.108951448386808 ], [ -156.822037341089128, 21.108893757764335 ], [ -156.82145027334505, 21.109167846460384 ], [ -156.820842154202666, 21.109435312552502 ], [ -156.820278044551543, 21.109971087286183 ], [ -156.819429776623764, 21.109943902486904 ], [ -156.818837418809636, 21.11046356644631 ], [ -156.818535377277897, 21.111027841873028 ], [ -156.815719561223375, 21.110448670545367 ], [ -156.815359074545597, 21.110709650934901 ], [ -156.814482778989003, 21.111787317746153 ], [ -156.812748381923655, 21.112160600597637 ], [ -156.812723394788378, 21.112845643983455 ], [ -156.812730898873355, 21.113929944450039 ], [ -156.810696881275703, 21.114275392134406 ], [ -156.810670105518057, 21.115004726480802 ], [ -156.811536619222807, 21.115807776199421 ], [ -156.811815600643911, 21.116087589633885 ], [ -156.812695146246739, 21.116368146782843 ], [ -156.812655993550436, 21.117442121526157 ], [ -156.813235129659887, 21.117731496603106 ], [ -156.813825988334912, 21.118009975385366 ], [ -156.813787666759055, 21.119066169249276 ], [ -156.814611895096931, 21.120717860517818 ], [ -156.815503624195372, 21.120746428155524 ], [ -156.816361450417247, 21.120741086036269 ], [ -156.816940327182749, 21.121030314175023 ], [ -156.818630463970464, 21.12156912423567 ], [ -156.819260015368087, 21.12188366871537 ], [ -156.820964405131264, 21.121872996469815 ], [ -156.821248576107052, 21.1229767996753 ], [ -156.821554552503244, 21.124228843748362 ], [ -156.822665304881582, 21.12600179020761 ], [ -156.822626675074446, 21.127063541702665 ], [ -156.823238931422082, 21.128217067024927 ], [ -156.822789239101866, 21.130142711761408 ], [ -156.823400196601597, 21.131366662193546 ], [ -156.824501013382729, 21.132936283366266 ], [ -156.824847362352926, 21.133588930062626 ], [ -156.825122445813861, 21.134139727248094 ], [ -156.82569372481413, 21.134954400974891 ], [ -156.825964861557736, 21.135776066217662 ], [ -156.826251388661547, 21.136316161637247 ], [ -156.826502772992683, 21.13849217162749 ], [ -156.827000642172749, 21.139430446070904 ], [ -156.827531677602678, 21.143199847187727 ], [ -156.826442745190747, 21.145234562419276 ], [ -156.824683743174347, 21.146320374620377 ], [ -156.821856925242543, 21.146928502164975 ], [ -156.819881369935331, 21.147796311710767 ], [ -156.818004752347008, 21.148916381858207 ], [ -156.817135644129792, 21.150084155237906 ], [ -156.816725200854677, 21.15216795811493 ], [ -156.816742559264981, 21.154618945531059 ], [ -156.816715522460754, 21.155366266801732 ], [ -156.816997820188021, 21.156521377903378 ], [ -156.818123083614779, 21.158969000640127 ], [ -156.818103340490893, 21.159507671859295 ], [ -156.81868046603941, 21.160330516327971 ], [ -156.81925995635126, 21.16118487337393 ], [ -156.819821502472536, 21.16170511194694 ], [ -156.819792150689437, 21.162514908700718 ], [ -156.820377591298296, 21.162790727925213 ], [ -156.820358258504427, 21.163321071140686 ], [ -156.820787991759829, 21.163752300542942 ], [ -156.821224881837651, 21.164157230498397 ], [ -156.820912302602636, 21.165240183115735 ], [ -156.821204216186516, 21.165510629966601 ], [ -156.821184438380612, 21.166052211755559 ], [ -156.821709555167928, 21.166538574403646 ], [ -156.817048560964281, 21.16686684923506 ], [ -156.815091726377858, 21.167726288813391 ], [ -156.812785019444618, 21.16880341481794 ], [ -156.807945645397922, 21.16940288418408 ], [ -156.806703940541126, 21.169121287320507 ], [ -156.805782503271899, 21.168812024356352 ], [ -156.80412638985581, 21.168822204576994 ], [ -156.803715134949471, 21.16844111237641 ], [ -156.805326368344765, 21.164609019929763 ], [ -156.805072934577879, 21.162592709232854 ], [ -156.804786446681277, 21.162052581752359 ], [ -156.804362061421045, 21.160765577991469 ], [ -156.802542214113458, 21.159856107354621 ], [ -156.801638191876464, 21.160109851212408 ], [ -156.80019168713693, 21.160638429831522 ], [ -156.799678333346719, 21.160621896619773 ], [ -156.797872362213269, 21.160873605197011 ], [ -156.797296401666472, 21.161142443375343 ], [ -156.795289420935944, 21.161482912637748 ], [ -156.792576273618238, 21.162901900222849 ], [ -156.788851080672799, 21.16136075781364 ], [ -156.784952558467438, 21.158736722884004 ], [ -156.781360069800598, 21.154606360015748 ], [ -156.778112837152406, 21.149974490977158 ], [ -156.778718471793127, 21.149776017808083 ], [ -156.780707718617833, 21.149840220008677 ], [ -156.780718649985232, 21.149542001619672 ], [ -156.779858056629195, 21.149136378909326 ], [ -156.780436112422308, 21.148725489405912 ], [ -156.781876479190089, 21.147866290629434 ], [ -156.781923511674307, 21.146583110455815 ], [ -156.781619272751158, 21.146844612033334 ], [ -156.781054303206759, 21.14738108134113 ], [ -156.779842273532523, 21.147641453179375 ], [ -156.778164163875459, 21.148424757182308 ], [ -156.777275582123394, 21.148024707417513 ], [ -156.778826675055228, 21.146757180958087 ], [ -156.780927595826881, 21.145834763523556 ], [ -156.781574106357681, 21.144140308257462 ], [ -156.78102698555827, 21.14442594118886 ], [ -156.779994319191587, 21.145406495530075 ], [ -156.77817074146833, 21.145715713443387 ], [ -156.776752794317446, 21.146036788967802 ], [ -156.776430186744534, 21.14511041465293 ], [ -156.776468271731403, 21.144070585951209 ], [ -156.776464507615827, 21.143510455887604 ], [ -156.777641480094047, 21.142479038320005 ], [ -156.776550152179084, 21.142382689215452 ], [ -156.775923970583733, 21.142977070315577 ], [ -156.775090846123135, 21.139923972904608 ], [ -156.775060327836485, 21.135452848442903 ], [ -156.775571320127909, 21.129084508664253 ], [ -156.776131847736565, 21.127537758081317 ], [ -156.776430416031388, 21.127276056900307 ], [ -156.776428217720678, 21.126988645623996 ], [ -156.777589113320545, 21.127026108767168 ], [ -156.777587355306508, 21.126746838450838 ], [ -156.777597351079322, 21.126473542789611 ], [ -156.77705677398103, 21.125454622840664 ], [ -156.779847546973087, 21.125126332742674 ], [ -156.778780061341791, 21.124592466202525 ], [ -156.777059729837475, 21.123781294754721 ], [ -156.777397045374727, 21.123756950579043 ], [ -156.778786201013105, 21.123801830548359 ], [ -156.778222880326126, 21.123230589108886 ], [ -156.777718084410537, 21.122762566447673 ], [ -156.779397902635822, 21.122166180415451 ], [ -156.778824687953858, 21.12163469451939 ], [ -156.778820762085246, 21.121065366896509 ], [ -156.780501726521294, 21.121905898911272 ], [ -156.780845097389744, 21.121644907738926 ], [ -156.781132246497606, 21.12137233210635 ], [ -156.781430509572942, 21.121110748625274 ], [ -156.782004807457156, 21.120565263742051 ], [ -156.78285311017504, 21.120592640737996 ], [ -156.784620143840471, 21.119816642939909 ], [ -156.784177828292144, 21.119773090660757 ], [ -156.782905783161965, 21.11978078547126 ], [ -156.782603738207825, 21.119500626043052 ], [ -156.782328840484666, 21.118949774951584 ], [ -156.782036471483991, 21.118398364068891 ], [ -156.783863538654487, 21.118457265750504 ], [ -156.785481944052918, 21.117491735244339 ], [ -156.784666375513581, 21.117083959282979 ], [ -156.783527032414923, 21.116720425322903 ], [ -156.783516371841301, 21.115160939579745 ], [ -156.784411990161885, 21.115189851491536 ], [ -156.784405109557071, 21.114191424811732 ], [ -156.785580554962621, 21.113850290753053 ], [ -156.786058831203121, 21.112115568414872 ], [ -156.788277710856988, 21.110007913880924 ], [ -156.789645663387375, 21.110467456447182 ], [ -156.788620207128218, 21.109004123407825 ], [ -156.789399687699444, 21.109029241774035 ], [ -156.789967615545294, 21.108489791567923 ], [ -156.790421019374662, 21.108486973449168 ], [ -156.791139628325368, 21.108510099348326 ], [ -156.790858830593749, 21.107652022391772 ], [ -156.789445141699105, 21.106341579268232 ], [ -156.789897470433885, 21.106296682026439 ], [ -156.792001977290994, 21.106364460309536 ], [ -156.79262867942802, 21.105814785772274 ], [ -156.79297545572814, 21.104556922685546 ], [ -156.794961875582942, 21.104219660192047 ], [ -156.795109420700186, 21.103812559303975 ] ] ] } },
{ "type": "Feature", "properties": { "ID": 4, "GRIDCODE": 2 }, "geometry": { "type": "Polygon", "coordinates": [ [ [ -156.586813703452009, 20.970135624450741 ], [ -156.587482120916633, 20.970465187230772 ], [ -156.586907419449517, 20.970929518052539 ], [ -156.586813703452009, 20.970135624450741 ] ] ] } },
{ "type": "Feature", "properties": { "ID": 5, "GRIDCODE": 2 }, "geometry": { "type": "Polygon", "coordinates": [ [ [ -156.577044960516133, 20.967829847408467 ], [ -156.576940802486035, 20.968158644215244 ], [ -156.576692054010238, 20.967917549172032 ], [ -156.577044960516133, 20.967829847408467 ] ] ] } },
{ "type": "Feature", "properties": { "ID": 6, "GRIDCODE": 2 }, "geometry": { "type": "Polygon", "coordinates": [ [ [ -156.593773016781824, 20.967796045749374 ], [ -156.594145393446126, 20.96795196173608 ], [ -156.593878613286734, 20.968413127497524 ], [ -156.593773016781824, 20.967796045749374 ] ] ] } },
{ "type": "Feature", "properties": { "ID": 7, "GRIDCODE": 2 }, "geometry": { "type": "Polygon", "coordinates": [ [ [ -156.598572452013627, 20.847586931134543 ], [ -156.599586979461236, 20.847728937757914 ], [ -156.601002393124759, 20.848305916825758 ], [ -156.604957039714833, 20.848710634326771 ], [ -156.605579762226967, 20.850421708276262 ], [ -156.60511029633048, 20.851508380445516 ], [ -156.600930813861737, 20.854467655975267 ], [ -156.598431795466212, 20.854849129495058 ], [ -156.597494555704742, 20.854037970329802 ], [ -156.595798563809893, 20.850378102122292 ], [ -156.596197530512285, 20.848896958636796 ], [ -156.597837680345663, 20.847975291775438 ], [ -156.598434283090086, 20.847728112079292 ], [ -156.598572452013627, 20.847586931134543 ] ] ] } },
{ "type": "Feature", "properties": { "ID": 8, "GRIDCODE": 2 }, "geometry": { "type": "Polygon", "coordinates": [ [ [ -156.597577734560161, 20.96432814362954 ], [ -156.597930624952596, 20.964240396531551 ], [ -156.597681845212719, 20.963999329429789 ], [ -156.597577734560161, 20.96432814362954 ], [ -156.59593663842773, 20.96552401026031 ], [ -156.596471048908541, 20.965938416947875 ], [ -156.596573032621478, 20.966817344445481 ], [ -156.595804405274947, 20.96701204946417 ], [ -156.595710851750653, 20.966680447596996 ], [ -156.59545447342569, 20.96691438878538 ], [ -156.595804405274947, 20.96701204946417 ], [ -156.59534588667654, 20.968473129044291 ], [ -156.593912512139127, 20.967351203644249 ], [ -156.593773016781824, 20.967796045749374 ], [ -156.593596804904962, 20.967649116676224 ], [ -156.592593253582436, 20.965313050619251 ], [ -156.592260904185366, 20.963836705370245 ], [ -156.591959525222052, 20.963310768978317 ], [ -156.591681054766696, 20.962392178395547 ], [ -156.590159188246048, 20.960681693579769 ], [ -156.589634758781557, 20.960244263559257 ], [ -156.589831333613404, 20.958311785998671 ], [ -156.589458708655286, 20.957312234495827 ], [ -156.589500519566855, 20.956900007867041 ], [ -156.58945547846028, 20.956248729479842 ], [ -156.589818088508849, 20.955658902084174 ], [ -156.589707147479373, 20.954058572452556 ], [ -156.59101695949343, 20.95353146980796 ], [ -156.590262663360676, 20.951042575412657 ], [ -156.589005485957358, 20.950360270055949 ], [ -156.587946764262938, 20.950895673663947 ], [ -156.587054750643063, 20.949675416367853 ], [ -156.586989812029856, 20.948737754183281 ], [ -156.587128555038248, 20.947373755159699 ], [ -156.586632572824612, 20.946816355866829 ], [ -156.586174060770617, 20.946433686710279 ], [ -156.585916171693441, 20.945868148667834 ], [ -156.585074648848064, 20.944399665212003 ], [ -156.585357291077997, 20.943422217540707 ], [ -156.585764112924409, 20.942760802899773 ], [ -156.585119011191779, 20.941635037614862 ], [ -156.585426809584391, 20.939088946921768 ], [ -156.586027033109303, 20.937622092111919 ], [ -156.585766895359995, 20.937197523768816 ], [ -156.585040267660759, 20.936591224313194 ], [ -156.584607202912593, 20.93583551280183 ], [ -156.585605129134137, 20.934554574848303 ], [ -156.584678732563077, 20.93378143124999 ], [ -156.584614437250281, 20.93285700473038 ], [ -156.58469767123529, 20.932039028730379 ], [ -156.584239274407906, 20.930809560609635 ], [ -156.584722061690115, 20.93043056136348 ], [ -156.584993600315642, 20.930143408845698 ], [ -156.585307282942864, 20.929897062677735 ], [ -156.585578819479082, 20.929609909009258 ], [ -156.585944969849663, 20.929322373986889 ], [ -156.585621922847196, 20.928256062528451 ], [ -156.584602480466856, 20.927405284251321 ], [ -156.585236207903591, 20.926374470494427 ], [ -156.584226056087942, 20.92689401852201 ], [ -156.584170257269136, 20.9274412275103 ], [ -156.585528670778928, 20.929032100425946 ], [ -156.583576999865812, 20.930564342634653 ], [ -156.583524505443535, 20.931080778578632 ], [ -156.583602463986836, 20.932206185875675 ], [ -156.583032021897509, 20.933133657179155 ], [ -156.583906071655662, 20.934658821299028 ], [ -156.582718309760281, 20.935591037378696 ], [ -156.583687416030244, 20.937282095287152 ], [ -156.583737013016503, 20.937999044750082 ], [ -156.583417514011586, 20.938518707663548 ], [ -156.583119864188859, 20.94043082972847 ], [ -156.582694646795062, 20.940764606852131 ], [ -156.582820872432251, 20.942583664054073 ], [ -156.58276600088081, 20.943124667266837 ], [ -156.582785225436169, 20.943400459740584 ], [ -156.582414983453901, 20.944886563364442 ], [ -156.582727530752663, 20.945572188595754 ], [ -156.583179505635485, 20.946361109181073 ], [ -156.583566324742321, 20.947209420950397 ], [ -156.583869013960509, 20.947737899646654 ], [ -156.583840894030004, 20.948015931114231 ], [ -156.583860105343007, 20.948292649259788 ], [ -156.583480462918118, 20.949522015969688 ], [ -156.58382415192122, 20.950443655680747 ], [ -156.584068989989731, 20.951821683096377 ], [ -156.584619061216614, 20.95278156289282 ], [ -156.584653369386814, 20.953275683490499 ], [ -156.584330852143296, 20.954805189098195 ], [ -156.583986721156236, 20.955646050368319 ], [ -156.584270301607262, 20.95724234435643 ], [ -156.584820390229225, 20.95820222499767 ], [ -156.584860173033945, 20.958776314540561 ], [ -156.5845152367786, 20.959473915507743 ], [ -156.583711750594148, 20.96010456669233 ], [ -156.583119592133016, 20.96155180691807 ], [ -156.584139829578618, 20.962698642666933 ], [ -156.58587595069784, 20.964147142376238 ], [ -156.585923957826139, 20.964840656506073 ], [ -156.585831974129519, 20.965745539701722 ], [ -156.586110255676743, 20.968374923432165 ], [ -156.586663252276281, 20.969858105498663 ], [ -156.586243029535126, 20.970086138538271 ], [ -156.585533542384326, 20.969701096839081 ], [ -156.584939484398689, 20.969441890974011 ], [ -156.584267877545187, 20.968400261505789 ], [ -156.584459285959156, 20.971158303032503 ], [ -156.583946807004452, 20.971991217070556 ], [ -156.584333647697321, 20.972666389068586 ], [ -156.584278777770919, 20.973206200332132 ], [ -156.584854372292057, 20.973686171774766 ], [ -156.583830032750342, 20.97476922399057 ], [ -156.581112563491502, 20.97426360554153 ], [ -156.580745623425287, 20.972633057511299 ], [ -156.580557989751298, 20.97288117673077 ], [ -156.580101968892563, 20.974229145105948 ], [ -156.577687825510907, 20.973726327972852 ], [ -156.577627039841246, 20.972849571624245 ], [ -156.577710374671142, 20.972030550460996 ], [ -156.577403009719433, 20.971494057072093 ], [ -156.577731976513746, 20.970690433269496 ], [ -156.577695892799227, 20.970168247166633 ], [ -156.578036313632168, 20.969614775594057 ], [ -156.578316670846505, 20.968785988834654 ], [ -156.578893739918925, 20.968332965102736 ], [ -156.578929189986013, 20.967985598414273 ], [ -156.578574705082673, 20.967034961195022 ], [ -156.578719581578866, 20.9656118093062 ], [ -156.57836948856729, 20.965000771902861 ], [ -156.578693240534903, 20.964746784871426 ], [ -156.578673809581659, 20.964466889589595 ], [ -156.578727705386513, 20.963935929346675 ], [ -156.577861624164143, 20.96456803995051 ], [ -156.577489710660672, 20.966342446435984 ], [ -156.57755800527795, 20.967330019906587 ], [ -156.577201850397046, 20.967706686681446 ], [ -156.577044960516133, 20.967829847408467 ], [ -156.5768292680456, 20.966673914259331 ], [ -156.576350882709733, 20.965792804962817 ], [ -156.576381664364618, 20.965263633774057 ], [ -156.575507335449885, 20.965218656011494 ], [ -156.575459059266024, 20.966046507861698 ], [ -156.575486870080795, 20.96711604136058 ], [ -156.575167109060146, 20.967663188211819 ], [ -156.575192009590666, 20.968616150266197 ], [ -156.575128633021762, 20.969698802851873 ], [ -156.575139461691521, 20.970109919413645 ], [ -156.574504890208857, 20.970948602391591 ], [ -156.574553013449815, 20.97280066773196 ], [ -156.573007482241906, 20.972126695721887 ], [ -156.568856441345645, 20.968822402550344 ], [ -156.568539863365231, 20.967830625696145 ], [ -156.567988362640506, 20.968372861860551 ], [ -156.566694975992903, 20.966568360992682 ], [ -156.567363430707616, 20.966003990219221 ], [ -156.567716811961333, 20.96539953828399 ], [ -156.568007192095507, 20.964580703294267 ], [ -156.568600408619631, 20.963565271826138 ], [ -156.567559813825, 20.963440503987975 ], [ -156.566574311887223, 20.964018469904694 ], [ -156.566191857252761, 20.965096557159324 ], [ -156.565952116249775, 20.963396117958101 ], [ -156.566338502452226, 20.962092303302864 ], [ -156.56631122831763, 20.961045663547925 ], [ -156.566939479696401, 20.959970687358943 ], [ -156.56738845919287, 20.957929963174653 ], [ -156.567857007087866, 20.956733130416538 ], [ -156.568164881026405, 20.954830990717578 ], [ -156.568476815767042, 20.954297103796502 ], [ -156.567904705810321, 20.95378353977264 ], [ -156.568297400273025, 20.952295422207598 ], [ -156.569349215883193, 20.951407418271319 ], [ -156.569672075959801, 20.950789163480259 ], [ -156.571150926196765, 20.949195225436316 ], [ -156.57143687551897, 20.948647204673467 ], [ -156.572320828475199, 20.947478755843687 ], [ -156.572029868035713, 20.947290625230117 ], [ -156.571170652951395, 20.947310396808106 ], [ -156.571007057697102, 20.94024353204043 ], [ -156.570859387402322, 20.9401111429179 ], [ -156.57075048034821, 20.939217034323672 ], [ -156.570474822052205, 20.93991374140116 ], [ -156.570859387402322, 20.9401111429179 ], [ -156.570685039356817, 20.941317606365935 ], [ -156.570365358024901, 20.944583820857527 ], [ -156.56994157379853, 20.946605080843181 ], [ -156.570057792395289, 20.948284182305596 ], [ -156.569679038078334, 20.948684719454448 ], [ -156.56802765566394, 20.949348972937621 ], [ -156.567662099296598, 20.949942938970441 ], [ -156.56738611132505, 20.950500882052062 ], [ -156.566104764385017, 20.951911896530259 ], [ -156.56468786099785, 20.954214573836182 ], [ -156.563914394821012, 20.956501169754461 ], [ -156.562500649221647, 20.957995834802134 ], [ -156.562303632812984, 20.957675703426098 ], [ -156.562380645788295, 20.956920622657165 ], [ -156.562344622396012, 20.956397909111391 ], [ -156.563121717801948, 20.955400866186313 ], [ -156.562266924107917, 20.954936679396965 ], [ -156.561820573561903, 20.955839115803979 ], [ -156.561244083252319, 20.956291561026475 ], [ -156.560938069311817, 20.956910036686764 ], [ -156.560622579666102, 20.957157626075965 ], [ -156.560691248883103, 20.958150096918608 ], [ -156.560335079922709, 20.958526726768469 ], [ -156.558908845546966, 20.958809728440322 ], [ -156.558844485578049, 20.959443432196363 ], [ -156.558961942830081, 20.961142255436524 ], [ -156.557393120915322, 20.961238023285393 ], [ -156.557146329340782, 20.959544489055808 ], [ -156.556778262443089, 20.958902074544895 ], [ -156.557278853067317, 20.957679680795543 ], [ -156.556685496474643, 20.957626336232703 ], [ -156.555998070811341, 20.957902708982921 ], [ -156.555429591193558, 20.958190043728493 ], [ -156.554126014065616, 20.957719114456712 ], [ -156.553708223093935, 20.958160846704651 ], [ -156.55304403553302, 20.958427884801676 ], [ -156.553491504181466, 20.9605068224108 ], [ -156.552663750990092, 20.960925205485644 ], [ -156.549397164255652, 20.958937358559158 ], [ -156.549038993701998, 20.958312002774758 ], [ -156.549388508893117, 20.956962735812294 ], [ -156.550641190874956, 20.956459077372486 ], [ -156.549690144256857, 20.955665157295346 ], [ -156.549262929474594, 20.95376414167362 ], [ -156.548741089647933, 20.954818750895171 ], [ -156.548441331313768, 20.954411418866773 ], [ -156.549263447681795, 20.953075561114812 ], [ -156.548878180950851, 20.952402861110308 ], [ -156.548600314075486, 20.95179294511486 ], [ -156.547800561871554, 20.952638142638712 ], [ -156.547436670001389, 20.952382127239275 ], [ -156.547173127520608, 20.952085758429259 ], [ -156.546234712762413, 20.952143016310796 ], [ -156.546323538946638, 20.951272516792969 ], [ -156.546288891369556, 20.950772441986821 ], [ -156.546910944818109, 20.949253830982403 ], [ -156.546505528937473, 20.94859181539131 ], [ -156.545202220172797, 20.949250530718821 ], [ -156.545618360236261, 20.947079920832369 ], [ -156.546747625746349, 20.944797222102657 ], [ -156.547688600136865, 20.943802477616302 ], [ -156.548473013797121, 20.943186937668393 ], [ -156.54898403410931, 20.942153993615985 ], [ -156.55004024746728, 20.941620125199652 ], [ -156.550939699122523, 20.941565190970216 ], [ -156.551648833126336, 20.941629074406173 ], [ -156.551387034890865, 20.941312500675618 ], [ -156.550614980987206, 20.940668112408432 ], [ -156.550268915962789, 20.939127770133279 ], [ -156.549403304675536, 20.939180542914361 ], [ -156.549680038896014, 20.938579126687429 ], [ -156.551160111652564, 20.937536945492951 ], [ -156.551431722749101, 20.937249854197027 ], [ -156.552268144654306, 20.936913464164313 ], [ -156.552964747324268, 20.934853984154774 ], [ -156.553724044435057, 20.933319050269315 ], [ -156.555537920356898, 20.932974566680564 ], [ -156.557292983543761, 20.932748924383667 ], [ -156.558685484422625, 20.932412260167929 ], [ -156.558983213609167, 20.934455316849093 ], [ -156.559560491120578, 20.933844821514622 ], [ -156.560137463881489, 20.933391852065384 ], [ -156.560187666066042, 20.932900264047323 ], [ -156.559900877302198, 20.931953479544269 ], [ -156.559593920683881, 20.931417366686457 ], [ -156.560038115026344, 20.930695445732063 ], [ -156.559353856910036, 20.930124440206619 ], [ -156.559914589577915, 20.929786576669226 ], [ -156.562876576956398, 20.928994689229004 ], [ -156.562821808477281, 20.928203200020995 ], [ -156.564838677490656, 20.927802914126243 ], [ -156.564924414455845, 20.926958273382002 ], [ -156.559818332882628, 20.926012880794495 ], [ -156.557486503081066, 20.926251199808089 ], [ -156.556087629227477, 20.927730307239575 ], [ -156.555617049452252, 20.928099739304347 ], [ -156.554858725204269, 20.92890153381849 ], [ -156.553907421193003, 20.928166371673086 ], [ -156.554269659226208, 20.926683672060914 ], [ -156.556791430831851, 20.924109336230998 ], [ -156.557488878015306, 20.921850242919607 ], [ -156.557455373415308, 20.921363938778693 ], [ -156.55749658227009, 20.920958197643628 ], [ -156.557459199035037, 20.920415888108167 ], [ -156.557500407335425, 20.920010146904751 ], [ -156.557464844958588, 20.919494449503972 ], [ -156.557811274456668, 20.918931045882896 ], [ -156.557498598848923, 20.918384797146423 ], [ -156.557824205544165, 20.917855220715641 ], [ -156.557789998447589, 20.917360044348495 ], [ -156.558103094254562, 20.917028956507721 ], [ -156.559582888219751, 20.915986673201132 ], [ -156.560227972147857, 20.9153043895084 ], [ -156.561649872895799, 20.914375538928454 ], [ -156.56019097068247, 20.914042142382346 ], [ -156.560754210223593, 20.913545318252755 ], [ -156.561380208166156, 20.913293425706232 ], [ -156.561323390120435, 20.912472278307348 ], [ -156.564373653062376, 20.912223769062276 ], [ -156.564845515195088, 20.91145672143373 ], [ -156.565213393712497, 20.910712791448418 ], [ -156.566220229888188, 20.910307718082727 ], [ -156.566322637463003, 20.90930061928486 ], [ -156.566303487691215, 20.909021918054361 ], [ -156.566788056878067, 20.908233748775931 ], [ -156.566196434291157, 20.908538003634277 ], [ -156.564867389502155, 20.910102590199074 ], [ -156.563972895595839, 20.910611502782849 ], [ -156.56346734573944, 20.911146066042043 ], [ -156.561926188710828, 20.910869314545014 ], [ -156.562022263938189, 20.909924826220774 ], [ -156.561736665492674, 20.907599812709485 ], [ -156.561583887601671, 20.9074722395357 ], [ -156.561490434136914, 20.90714062773819 ], [ -156.5612341199691, 20.907374523629464 ], [ -156.561583887601671, 20.9074722395357 ], [ -156.561422838138441, 20.90869158200325 ], [ -156.561124691857259, 20.908952921193983 ], [ -156.560679153028445, 20.910563287637288 ], [ -156.559132561915192, 20.910570813409269 ], [ -156.558487728404288, 20.910265310431644 ], [ -156.557679691084445, 20.909450747052745 ], [ -156.557359977635201, 20.909982790272959 ], [ -156.557365925029416, 20.911040500645115 ], [ -156.556757071740606, 20.912110841546486 ], [ -156.556448454858611, 20.913225554517016 ], [ -156.556150291060646, 20.91348688315497 ], [ -156.555858821937932, 20.914029775756724 ], [ -156.555560655483418, 20.914291103084039 ], [ -156.555088601709684, 20.915170678291233 ], [ -156.554080657319446, 20.915640476331735 ], [ -156.553173738490131, 20.915610019951067 ], [ -156.552341057101756, 20.918479956244262 ], [ -156.552296835461021, 20.919642361776035 ], [ -156.552835585761443, 20.922320330175374 ], [ -156.552263690969454, 20.92237574999006 ], [ -156.548928973497311, 20.922633958348705 ], [ -156.547938563375851, 20.924374800782672 ], [ -156.548451280439167, 20.926381669411274 ], [ -156.548138962318944, 20.927458079408968 ], [ -156.547515200385021, 20.931233311946702 ], [ -156.54603266915214, 20.932048986663251 ], [ -156.544645275715169, 20.932002438125398 ], [ -156.544023908113132, 20.932274827975242 ], [ -156.542861469727939, 20.932816259747074 ], [ -156.541889166493206, 20.932783602561003 ], [ -156.540351670225505, 20.93701279073213 ], [ -156.538454223876471, 20.937349418066674 ], [ -156.537900747823556, 20.936791593337897 ], [ -156.537339101766946, 20.936268700052199 ], [ -156.537334619355931, 20.935423842870829 ], [ -156.538510990444337, 20.934394189208657 ], [ -156.53823330420181, 20.934087421484595 ], [ -156.53793312289622, 20.934088776672287 ], [ -156.537974403272699, 20.933010730462989 ], [ -156.537563919470443, 20.932628901348206 ], [ -156.538701527816613, 20.928335905801887 ], [ -156.538098779277675, 20.924679003044833 ], [ -156.538387036459568, 20.924337942749151 ], [ -156.538691248938306, 20.924071446439669 ], [ -156.538688514360643, 20.923532283675403 ], [ -156.538698891431835, 20.923259035903897 ], [ -156.538346312987301, 20.922591421368722 ], [ -156.539173346847491, 20.921050524758947 ], [ -156.542202375114528, 20.919007643786916 ], [ -156.54287052577854, 20.917261404284492 ], [ -156.542565055148145, 20.916000724192472 ], [ -156.541757952920506, 20.914045423846897 ], [ -156.542344225152704, 20.91243291872793 ], [ -156.542928254885567, 20.911406193950288 ], [ -156.543521223041722, 20.910055008649028 ], [ -156.543819398826457, 20.909793703485573 ], [ -156.544786183784367, 20.908876967698269 ], [ -156.546443096117429, 20.907659047385621 ], [ -156.550222345588878, 20.905716709894786 ], [ -156.548085634052484, 20.905834582600587 ], [ -156.547047101840207, 20.906318585483668 ], [ -156.54532535761436, 20.906816437998526 ], [ -156.543859382147673, 20.907719650078754 ], [ -156.543601863008604, 20.905451115266189 ], [ -156.543194001185185, 20.902976195294833 ], [ -156.546289052973378, 20.902454447541459 ], [ -156.546829380269571, 20.90198128058163 ], [ -156.547116447459075, 20.901709226564886 ], [ -156.547995411850422, 20.901185365379742 ], [ -156.549241286408488, 20.899754241377138 ], [ -156.550919596452076, 20.898284731812286 ], [ -156.549482669849681, 20.89822153397375 ], [ -156.549049673362731, 20.898223654858491 ], [ -156.548344033070009, 20.898199905240013 ], [ -156.547735470686263, 20.898732942778029 ], [ -156.547161629111258, 20.899277190094374 ], [ -156.54658133228051, 20.899785365312542 ], [ -156.545994016022689, 20.900880445306083 ], [ -156.542399901453365, 20.900553783862794 ], [ -156.541310833507907, 20.898768493824942 ], [ -156.537863495037044, 20.895558956493428 ], [ -156.53630854987739, 20.893330442636209 ], [ -156.536295963085792, 20.891032502063766 ], [ -156.539491586852449, 20.888471277337146 ], [ -156.541296316275691, 20.888085237142782 ], [ -156.541292766524776, 20.887387338032919 ], [ -156.54373651167262, 20.886496334871975 ], [ -156.544189878505421, 20.887039331806452 ], [ -156.547295680571381, 20.891412696062616 ], [ -156.548089913621908, 20.891439305872108 ], [ -156.547602680153602, 20.889531610460352 ], [ -156.547342219186618, 20.888168148696213 ], [ -156.546232922593248, 20.885480791761953 ], [ -156.549438863826055, 20.885786699001141 ], [ -156.551119314043234, 20.886326106781645 ], [ -156.553108884859427, 20.887714332238762 ], [ -156.554800327921413, 20.888515757338315 ], [ -156.55512798227636, 20.88884609264597 ], [ -156.55852536374195, 20.888582773606046 ], [ -156.562610079471256, 20.887504355109847 ], [ -156.567498147799199, 20.884205736642212 ], [ -156.570066409204856, 20.88158389474879 ], [ -156.571983725554901, 20.87656858105429 ], [ -156.572107593767754, 20.873293065708705 ], [ -156.571672187877169, 20.869999952412648 ], [ -156.570610213084734, 20.868426190352562 ], [ -156.567929617358715, 20.867079670449176 ], [ -156.564483925487252, 20.866476557466321 ], [ -156.55662774790639, 20.866650738362544 ], [ -156.553959785171401, 20.867820621471235 ], [ -156.549742087275007, 20.872166267996757 ], [ -156.546411960485784, 20.873510515733848 ], [ -156.540532590469127, 20.8735387411188 ], [ -156.535845306300246, 20.872854753068115 ], [ -156.534058390537467, 20.872281270414778 ], [ -156.533749676216615, 20.87107172406348 ], [ -156.534890071089251, 20.866384050496674 ], [ -156.536705131330365, 20.865538024015091 ], [ -156.537043456506382, 20.865536415059118 ], [ -156.541377062063049, 20.865681960765155 ], [ -156.543159409380905, 20.865166460369959 ], [ -156.552527746893333, 20.859983401969028 ], [ -156.553288602906775, 20.857993442295953 ], [ -156.553456652549954, 20.853556742080531 ], [ -156.552968845789678, 20.852067023804985 ], [ -156.551095789894475, 20.85060100511005 ], [ -156.545977407294828, 20.848617985028447 ], [ -156.54512859378886, 20.847009323503443 ], [ -156.545786266026681, 20.845690639195215 ], [ -156.54774807015869, 20.842751555654296 ], [ -156.548390561907695, 20.841324972446269 ], [ -156.549222932043222, 20.839033018355877 ], [ -156.549862440720716, 20.837840765721236 ], [ -156.55242024265641, 20.836263654927599 ], [ -156.554178081760796, 20.83572596280289 ], [ -156.55564482376812, 20.835718732413891 ], [ -156.557250830207636, 20.836741744816763 ], [ -156.55765328527977, 20.838743178924034 ], [ -156.55790321637889, 20.844284236081034 ], [ -156.559497360902668, 20.845333652606332 ], [ -156.562999431634609, 20.846790375909766 ], [ -156.568271950467562, 20.849439353970574 ], [ -156.570931085846468, 20.849528171424474 ], [ -156.572184928129218, 20.84897812210361 ], [ -156.573883505370645, 20.847930678265843 ], [ -156.57505486884304, 20.84792479163352 ], [ -156.57678317751936, 20.848743559435896 ], [ -156.577242065581345, 20.850068009314633 ], [ -156.576742617561422, 20.852293416308612 ], [ -156.576009187035879, 20.855156625108535 ], [ -156.576366386730626, 20.857435033088347 ], [ -156.577786696190117, 20.859075207090893 ], [ -156.57912973014345, 20.860832661114944 ], [ -156.584878402989858, 20.863464645707168 ], [ -156.596885236636297, 20.863864165309369 ], [ -156.605427535903402, 20.862449456500485 ], [ -156.609317644752451, 20.862866295744745 ], [ -156.610816702939871, 20.863575988818013 ], [ -156.612345608037117, 20.864998381388425 ], [ -156.615077816603844, 20.869218342519311 ], [ -156.615088216049656, 20.870948764063229 ], [ -156.6142269497158, 20.871766769662035 ], [ -156.613030369642672, 20.87203710562666 ], [ -156.610191183501058, 20.87251702165964 ], [ -156.608068545997668, 20.873783094440352 ], [ -156.606947798860716, 20.875288160044569 ], [ -156.606881085781538, 20.877064715640227 ], [ -156.60820655778204, 20.879340377399345 ], [ -156.610005970066908, 20.880663543493647 ], [ -156.611691834588527, 20.881461699832169 ], [ -156.612847919573909, 20.882938546898984 ], [ -156.612855273002538, 20.884164694444706 ], [ -156.612381543863989, 20.885800519323041 ], [ -156.613308357425836, 20.889619903813649 ], [ -156.615667389739741, 20.894499611316249 ], [ -156.618968178353782, 20.90665955312577 ], [ -156.621807880803203, 20.919963951859934 ], [ -156.622453053984543, 20.929483430327601 ], [ -156.621060929790474, 20.929037443194066 ], [ -156.619558426408162, 20.927932902459489 ], [ -156.619690687567982, 20.928419001258685 ], [ -156.621610981556984, 20.930723135993713 ], [ -156.621305761577645, 20.931506570710461 ], [ -156.616993046875962, 20.931363583099941 ], [ -156.619234002711181, 20.93217515100719 ], [ -156.620802005495051, 20.932576121546489 ], [ -156.622446880537836, 20.932567571930587 ], [ -156.622003415030861, 20.941924646922011 ], [ -156.620849660293203, 20.945560229481124 ], [ -156.619925902118212, 20.945529613346277 ], [ -156.620494085344859, 20.946604725343363 ], [ -156.620498629002128, 20.947385863362467 ], [ -156.617888428359663, 20.956362510423855 ], [ -156.614581618145735, 20.962074099396357 ], [ -156.613491207303412, 20.962582499472532 ], [ -156.613004586081786, 20.961603479198828 ], [ -156.611354805095885, 20.959242046760355 ], [ -156.61108509974261, 20.958420292594621 ], [ -156.610798564224979, 20.957878058785713 ], [ -156.6112392469432, 20.956357677448302 ], [ -156.610845460689859, 20.95515654579939 ], [ -156.610441496000732, 20.956617124745648 ], [ -156.609661506356161, 20.957300486050048 ], [ -156.60961169620964, 20.958626877520633 ], [ -156.610479730052703, 20.960591393056685 ], [ -156.610459411114363, 20.961125621442893 ], [ -156.611221804013553, 20.962969078942525 ], [ -156.610136720228695, 20.963283090134954 ], [ -156.610139230606251, 20.963692111833183 ], [ -156.610118793213616, 20.964233613208837 ], [ -156.610121303276713, 20.964642634862592 ], [ -156.60923814891359, 20.965168858487331 ], [ -156.609803778336385, 20.965694773068662 ], [ -156.609810045312059, 20.966770764809315 ], [ -156.607947551194655, 20.969882784657354 ], [ -156.60643856728376, 20.970812890230338 ], [ -156.605420303725595, 20.970818023394418 ], [ -156.605415479033894, 20.969989535759193 ], [ -156.605776088478365, 20.968746088167226 ], [ -156.605318702759121, 20.967825924066791 ], [ -156.605157628315908, 20.968089262200667 ], [ -156.604866197238039, 20.968632374637203 ], [ -156.604286867665678, 20.968613117888641 ], [ -156.603691500615753, 20.969723368195691 ], [ -156.602839113835444, 20.968864835803007 ], [ -156.602534540288673, 20.96996634245502 ], [ -156.602268852029027, 20.968577320157188 ], [ -156.601697415184304, 20.96804587702071 ], [ -156.601427753774203, 20.967224111887429 ], [ -156.601126358331555, 20.96694381718228 ], [ -156.601177004885159, 20.965605675227792 ], [ -156.600875612877587, 20.965325380387977 ], [ -156.60057957539243, 20.965027303815425 ], [ -156.600584541694758, 20.965863066721663 ], [ -156.600135236115392, 20.966256331480803 ], [ -156.600559502981724, 20.969301646788857 ], [ -156.600221186286461, 20.970186937415377 ], [ -156.599731556046919, 20.971534500578723 ], [ -156.598799605213117, 20.96962789850615 ], [ -156.598796716524873, 20.969085941130746 ], [ -156.598815957320227, 20.968569162697921 ], [ -156.598238578971632, 20.967987362004205 ], [ -156.597733690237561, 20.969813261983518 ], [ -156.597360666216986, 20.969063048335183 ], [ -156.597074172996287, 20.968520398131449 ], [ -156.597676163190329, 20.966945465760677 ], [ -156.597697683308297, 20.966374356179788 ], [ -156.597410687860219, 20.965546125420428 ], [ -156.597577734560161, 20.96432814362954 ] ], [ [ -156.576525049904006, 20.964300895845053 ], [ -156.57643154114632, 20.963969287576376 ], [ -156.576175141071644, 20.964203197331067 ], [ -156.576525049904006, 20.964300895845053 ], [ -156.576618710633255, 20.965094789971996 ], [ -156.577193415778083, 20.964630494523043 ], [ -156.576525049904006, 20.964300895845053 ] ], [ [ -156.585219917536421, 20.925686959099508 ], [ -156.585313431701962, 20.926018563466659 ], [ -156.585569747410659, 20.925784631293958 ], [ -156.585219917536421, 20.925686959099508 ] ], [ [ -156.5673395452786, 20.908096109261201 ], [ -156.567692310884013, 20.908008413136415 ], [ -156.567443667533837, 20.907767314208311 ], [ -156.5673395452786, 20.908096109261201 ], [ -156.566986779337753, 20.908183804615419 ], [ -156.567235422496196, 20.908424904194487 ], [ -156.5673395452786, 20.908096109261201 ] ] ] } },
{ "type": "Feature", "properties": { "ID": 9, "GRIDCODE": 2 }, "geometry": { "type": "Polygon", "coordinates": [ [ [ -156.866292371674746, 20.807784310524653 ], [ -156.868570635406172, 20.80797404445789 ], [ -156.872624383321096, 20.81025537069862 ], [ -156.881678400522844, 20.818295667224639 ], [ -156.885746889265846, 20.820684716174025 ], [ -156.888727405406883, 20.822175101124163 ], [ -156.890719773545811, 20.822584346369609 ], [ -156.894027992572376, 20.82306015022731 ], [ -156.896521318634086, 20.824969082577244 ], [ -156.897550293045327, 20.826908835638346 ], [ -156.897574856910438, 20.830044896305704 ], [ -156.897020982223239, 20.83253805175401 ], [ -156.895770241018539, 20.834281534678109 ], [ -156.893601636076966, 20.835077611440845 ], [ -156.891990695404331, 20.83479214663388 ], [ -156.890554388033536, 20.832336033533203 ], [ -156.889996397184547, 20.833136678820932 ], [ -156.889412644780919, 20.834755105313494 ], [ -156.886386888890257, 20.834370920408269 ], [ -156.882811699426668, 20.831698635864015 ], [ -156.877285515794881, 20.827097242172659 ], [ -156.87454123892536, 20.82590129507939 ], [ -156.870968995401967, 20.825491419374508 ], [ -156.865062124780081, 20.819131016403755 ], [ -156.863721685420813, 20.816602753962847 ], [ -156.864259359772433, 20.810838753049339 ], [ -156.865218051759456, 20.809041733980212 ], [ -156.866292371674746, 20.807784310524653 ] ] ] } },
{ "type": "Feature", "properties": { "ID": 10, "GRIDCODE": 2 }, "geometry": { "type": "Polygon", "coordinates": [ [ [ -156.032533679073566, 20.767217910589089 ], [ -156.033804176531248, 20.768088377672537 ], [ -156.032183733458623, 20.768693606903131 ], [ -156.031634855012726, 20.768335033827451 ], [ -156.032533679073566, 20.767217910589089 ] ] ] } },
{ "type": "Feature", "properties": { "ID": 11, "GRIDCODE": 2 }, "geometry": { "type": "Polygon", "coordinates": [ [ [ -156.05029489899843, 20.682761399447262 ], [ -156.049946091949892, 20.682662731508021 ], [ -156.050202676363284, 20.682429640286312 ], [ -156.05029489899843, 20.682761399447262 ] ] ] } },
{ "type": "Feature", "properties": { "ID": 12, "GRIDCODE": 2 }, "geometry": { "type": "Polygon", "coordinates": [ [ [ -156.081426043062663, 20.680042001340077 ], [ -156.081518335230243, 20.680373751814304 ], [ -156.081774873370762, 20.680140607183894 ], [ -156.081426043062663, 20.680042001340077 ], [ -156.081041421050429, 20.677730921361288 ], [ -156.080091835820866, 20.675558897007072 ], [ -156.106098500425929, 20.677235044335877 ], [ -156.111629566777879, 20.678438785256962 ], [ -156.113445727391081, 20.6793060184844 ], [ -156.114656024277565, 20.680439989624354 ], [ -156.114950613145794, 20.683497202138952 ], [ -156.116177397274441, 20.684742389150507 ], [ -156.118885687227021, 20.685311771980945 ], [ -156.120330190965632, 20.684897170545632 ], [ -156.123004953909259, 20.683431199318935 ], [ -156.124775076045182, 20.684004650518119 ], [ -156.126152027727954, 20.685294597644365 ], [ -156.130583302886265, 20.692443462220698 ], [ -156.132737724898789, 20.695215750070549 ], [ -156.133600064714187, 20.698217361616546 ], [ -156.132919488166124, 20.700434628296815 ], [ -156.12903844583991, 20.70125671751363 ], [ -156.12745167111359, 20.701815258202888 ], [ -156.12661547656478, 20.702605565400226 ], [ -156.124642610729211, 20.703023410472802 ], [ -156.123995862701264, 20.704154997502886 ], [ -156.124775129578239, 20.704967523422471 ], [ -156.126260851067315, 20.70584950136816 ], [ -156.126836933389143, 20.706124653184364 ], [ -156.127401578894791, 20.706410191309704 ], [ -156.127977665775148, 20.706685339776747 ], [ -156.128542594361193, 20.706971011517062 ], [ -156.129094664368409, 20.706969644480719 ], [ -156.124677760487913, 20.714696807791647 ], [ -156.124051850702131, 20.716835190747602 ], [ -156.12390972160722, 20.720341184997572 ], [ -156.124272386842478, 20.724892090872814 ], [ -156.123068419753196, 20.723670317690978 ], [ -156.122747169137057, 20.724202484000124 ], [ -156.123011491650942, 20.725834209117558 ], [ -156.122631614083105, 20.726820287030261 ], [ -156.123533856148271, 20.728121780857254 ], [ -156.123535264617999, 20.728552895455419 ], [ -156.12250254302856, 20.729453598893038 ], [ -156.123210874410034, 20.730172389498584 ], [ -156.123505057886007, 20.73044813248303 ], [ -156.123477697515199, 20.731122080719004 ], [ -156.123479671902061, 20.731790833598698 ], [ -156.121912135470666, 20.73251768173888 ], [ -156.117489189831161, 20.733050268779554 ], [ -156.116708479378246, 20.732398607977267 ], [ -156.115226228537438, 20.730894417733452 ], [ -156.11347700624529, 20.730009226021014 ], [ -156.112845549317058, 20.730264151219664 ], [ -156.11284717561179, 20.730800658166139 ], [ -156.11250813572309, 20.731393461617621 ], [ -156.112513771920391, 20.733495968514717 ], [ -156.111325832652938, 20.735266872275986 ], [ -156.111293176635229, 20.736068595338896 ], [ -156.112157692285763, 20.736481416608797 ], [ -156.113235875998441, 20.737575530013043 ], [ -156.115661149528421, 20.737950542523773 ], [ -156.117772705478501, 20.737479108183489 ], [ -156.119316247457448, 20.738215756161889 ], [ -156.118741267827374, 20.739301824586725 ], [ -156.117927411201464, 20.740011639928618 ], [ -156.119275941400616, 20.740655231693346 ], [ -156.119231666823026, 20.741745700850934 ], [ -156.120659500535766, 20.741142172171816 ], [ -156.121053371540967, 20.739731993334512 ], [ -156.12215890173411, 20.740440651787441 ], [ -156.122114785633784, 20.741523853458379 ], [ -156.124142491414517, 20.742098780719672 ], [ -156.125272573804978, 20.742670439306114 ], [ -156.126423643985021, 20.742667609769832 ], [ -156.12830617896546, 20.743309222748962 ], [ -156.129019705662841, 20.742998091959091 ], [ -156.129597743848365, 20.742730184075501 ], [ -156.130198166497706, 20.743033911421318 ], [ -156.131607351933184, 20.743030333116113 ], [ -156.132145397634105, 20.744122335999752 ], [ -156.133025648031577, 20.744153952589066 ], [ -156.134321254975191, 20.744150705786875 ], [ -156.135897731419902, 20.744207274330549 ], [ -156.136966545243922, 20.742900067686445 ], [ -156.137440717090755, 20.743862590744033 ], [ -156.13820922918174, 20.74422939269132 ], [ -156.139338555820274, 20.744800555912406 ], [ -156.141382191338323, 20.745462303011259 ], [ -156.143783469488795, 20.747052334053233 ], [ -156.153190230765972, 20.751450557144558 ], [ -156.163889979192078, 20.755346135746233 ], [ -156.170681304886614, 20.758244055775879 ], [ -156.187393319704341, 20.763650091017819 ], [ -156.195482833674475, 20.766436656149548 ], [ -156.202814666828203, 20.769506217173117 ], [ -156.206292990421588, 20.771568462787194 ], [ -156.210405766643646, 20.7727320506342 ], [ -156.212847041243577, 20.773895386597157 ], [ -156.220112589728302, 20.778062146419433 ], [ -156.23012033519413, 20.786004749272195 ], [ -156.244962405995722, 20.799766322599311 ], [ -156.252931375133727, 20.808092424634523 ], [ -156.258141202985513, 20.814713609323746 ], [ -156.262579298101855, 20.820351649472045 ], [ -156.272387718732205, 20.836089554419043 ], [ -156.278205599070702, 20.845119219395762 ], [ -156.283502468877032, 20.855791728688615 ], [ -156.287033713093962, 20.864735280788423 ], [ -156.287511705983121, 20.868221005939777 ], [ -156.286639658254671, 20.868626002390194 ], [ -156.285618358803532, 20.867157174520642 ], [ -156.28491937431437, 20.865010131160936 ], [ -156.284053952536453, 20.863873202894592 ], [ -156.283909489017162, 20.863738131203515 ], [ -156.283781940513791, 20.863131729809734 ], [ -156.28323750749243, 20.863377925461723 ], [ -156.283909489017162, 20.863738131203515 ], [ -156.284281948737316, 20.866171203396089 ], [ -156.283841675158641, 20.866884171962848 ], [ -156.282990485848984, 20.866770934857172 ], [ -156.282042397519376, 20.866866428428626 ], [ -156.280968011546861, 20.866458555377168 ], [ -156.280338878182334, 20.867797879450265 ], [ -156.279440465793925, 20.868275419142471 ], [ -156.279074168491519, 20.867332613307482 ], [ -156.278764244338049, 20.866244305472879 ], [ -156.27850830598905, 20.866752032599717 ], [ -156.278159360538126, 20.867829854717705 ], [ -156.276630719004089, 20.867472780591477 ], [ -156.276042248145444, 20.866757600923588 ], [ -156.275531877814132, 20.866689694525281 ], [ -156.275949200010331, 20.868156755527991 ], [ -156.275859034294655, 20.86875612094768 ], [ -156.275929983474697, 20.869378419204676 ], [ -156.274662460097687, 20.869506074308127 ], [ -156.273019655198453, 20.867507012928662 ], [ -156.272758571331394, 20.86689570061224 ], [ -156.271861226185763, 20.866986127239439 ], [ -156.270482019679349, 20.866194041936982 ], [ -156.270879971725407, 20.86693912733254 ], [ -156.271895068296203, 20.867730030322953 ], [ -156.272140756126589, 20.868305523535177 ], [ -156.272993248986126, 20.868969779030561 ], [ -156.27173440244519, 20.869193694738097 ], [ -156.270523635729432, 20.867722163518462 ], [ -156.269274659421825, 20.86744725028958 ], [ -156.268855111328946, 20.866465094305251 ], [ -156.268156628976016, 20.86553349701337 ], [ -156.26762778594977, 20.864682633810776 ], [ -156.267181823728208, 20.864555031004382 ], [ -156.267089052223497, 20.864223327447228 ], [ -156.26683241490187, 20.864456742077557 ], [ -156.267181823728208, 20.864555031004382 ], [ -156.267573802140078, 20.866329438713425 ], [ -156.267890470759028, 20.866604546955266 ], [ -156.267828251113883, 20.867368602747394 ], [ -156.26812546777461, 20.867692463685643 ], [ -156.268425242219365, 20.867952754170275 ], [ -156.26897011643905, 20.868789325001373 ], [ -156.269700717536949, 20.869424009296559 ], [ -156.269239167716194, 20.869893125637827 ], [ -156.268058222541413, 20.869808005239346 ], [ -156.268644434966518, 20.87086423925636 ], [ -156.267590515372831, 20.872266014443763 ], [ -156.26718611235745, 20.872282165115777 ], [ -156.266466630434962, 20.872230327929092 ], [ -156.264934065956368, 20.872291646053775 ], [ -156.264307169608657, 20.871416457518965 ], [ -156.264906317302462, 20.87042070238083 ], [ -156.264357849292821, 20.869783623246676 ], [ -156.264058079514541, 20.869523326044806 ], [ -156.263536502960449, 20.868955575710881 ], [ -156.262933573803906, 20.868979648590702 ], [ -156.262920059933549, 20.868684918787388 ], [ -156.262963773254455, 20.868151606135466 ], [ -156.262361914292484, 20.868613695480278 ], [ -156.262622593365876, 20.869229509840835 ], [ -156.263088862538865, 20.870069466961283 ], [ -156.262035267132916, 20.871140592145903 ], [ -156.261490508407888, 20.870547866732213 ], [ -156.261122157142694, 20.870562597110418 ], [ -156.261244439624789, 20.869064350577744 ], [ -156.260327794449267, 20.868651075203264 ], [ -156.260068443721025, 20.86620935183587 ], [ -156.259646727873161, 20.866591399242779 ], [ -156.259418039404125, 20.869393871989342 ], [ -156.259744492745568, 20.869982178700102 ], [ -156.25972174663471, 20.870258738243624 ], [ -156.259734447680216, 20.870535865875951 ], [ -156.259139333337316, 20.871524655150086 ], [ -156.259394786562751, 20.872427893424913 ], [ -156.260045718321607, 20.872721333990683 ], [ -156.259492052667923, 20.874309996372098 ], [ -156.258217876247244, 20.873763225671247 ], [ -156.257400090499175, 20.872507655022524 ], [ -156.256930003674398, 20.875055506383347 ], [ -156.255939540357986, 20.875095021634909 ], [ -156.25530317984331, 20.874541803472244 ], [ -156.255400558469887, 20.873349052772046 ], [ -156.255089876418396, 20.872342697809145 ], [ -156.253320198833222, 20.872413328487664 ], [ -156.253437476558446, 20.870978096193411 ], [ -156.251802354712879, 20.872269122145141 ], [ -156.2513142353219, 20.873669031013428 ], [ -156.250592231104406, 20.873616953900719 ], [ -156.250159665655389, 20.873634197679451 ], [ -156.249727981469277, 20.873603052643542 ], [ -156.249135737768995, 20.87362671764669 ], [ -156.24811307247009, 20.871434159990905 ], [ -156.24757145782479, 20.871969234834378 ], [ -156.247605679438891, 20.872731916139571 ], [ -156.246548233081768, 20.87380697074051 ], [ -156.245542576531335, 20.873846974848458 ], [ -156.245275262260748, 20.872981486825722 ], [ -156.244380285026381, 20.873017184632332 ], [ -156.244470145599195, 20.871917163057173 ], [ -156.243838688495742, 20.872162482231307 ], [ -156.242707144574467, 20.872717122391059 ], [ -156.242115176505138, 20.872402352805089 ], [ -156.241020301660825, 20.872751667238862 ], [ -156.240193922316337, 20.871851760135868 ], [ -156.238923296906989, 20.872655790625746 ], [ -156.238357563970339, 20.872615046631683 ], [ -156.236739582101393, 20.873131237987501 ], [ -156.234260084468445, 20.872178128968883 ], [ -156.233496956883442, 20.87151474368682 ], [ -156.233482074396505, 20.871190372199752 ], [ -156.233508495394886, 20.870869446157474 ], [ -156.23073957605348, 20.869620274510428 ], [ -156.228956037103558, 20.86750390884966 ], [ -156.229241133494156, 20.866780657933127 ], [ -156.229701156683689, 20.866016731832872 ], [ -156.228684589321517, 20.865703637485442 ], [ -156.227756052304215, 20.865071273204268 ], [ -156.225541273929963, 20.865159400488899 ], [ -156.225829103705507, 20.864287823187631 ], [ -156.226148109765973, 20.863495832417779 ], [ -156.226435043603715, 20.862672640012224 ], [ -156.226744103774138, 20.862422156699385 ], [ -156.227031031703604, 20.861598962608738 ], [ -156.227506428195795, 20.860809503314385 ], [ -156.226825002544246, 20.861172574235344 ], [ -156.226465987021953, 20.861875976336975 ], [ -156.225868872249094, 20.862121787273775 ], [ -156.225182947174943, 20.863464835420022 ], [ -156.224679204332318, 20.863192042146284 ], [ -156.224792035212488, 20.861813514036974 ], [ -156.223843069654578, 20.86185114323731 ], [ -156.223069267058008, 20.861008356820843 ], [ -156.222984607835144, 20.861634080963885 ], [ -156.223021393891628, 20.862449694852263 ], [ -156.221875388025012, 20.863011235399743 ], [ -156.220374257400834, 20.862333959846325 ], [ -156.219424480025623, 20.861299323061679 ], [ -156.218975723398387, 20.861755142552941 ], [ -156.218536782758179, 20.861723407622275 ], [ -156.217624988932045, 20.861759622967327 ], [ -156.217247407472314, 20.860336496212824 ], [ -156.217859263919991, 20.859840355252327 ], [ -156.21800274827396, 20.859428768116565 ], [ -156.218578845113683, 20.859438136877053 ], [ -156.218583828175468, 20.859167383939571 ], [ -156.218952221849833, 20.859026187181204 ], [ -156.218712025666292, 20.858546603158441 ], [ -156.218583828175468, 20.859167383939571 ], [ -156.218117267996206, 20.858939744222639 ], [ -156.21800274827396, 20.859428768116565 ], [ -156.217441659505823, 20.8592155905319 ], [ -156.216473045109183, 20.859312766536942 ], [ -156.216126595163445, 20.858736103360584 ], [ -156.215825086291062, 20.857675104104644 ], [ -156.215114874657587, 20.856011300777155 ], [ -156.214960845551985, 20.856399438747687 ], [ -156.215257466950447, 20.858992789750999 ], [ -156.215687183542997, 20.859707945723077 ], [ -156.21520015265267, 20.860744074504325 ], [ -156.212245516958461, 20.860246847497685 ], [ -156.211533990742083, 20.860318297601097 ], [ -156.210620250546782, 20.859667841516384 ], [ -156.210060672704003, 20.859724043020599 ], [ -156.209778869525195, 20.859381170274535 ], [ -156.208555977083165, 20.859503907176421 ], [ -156.208805243943544, 20.858195602050294 ], [ -156.209158008597967, 20.858108655929989 ], [ -156.208910073936664, 20.85786710341457 ], [ -156.208805243943544, 20.858195602050294 ], [ -156.20799119712774, 20.858501417710368 ], [ -156.207244508261425, 20.857445969717642 ], [ -156.206312861129476, 20.857994637656841 ], [ -156.206358417648602, 20.856641222163326 ], [ -156.206869574919779, 20.85593096480299 ], [ -156.206303865849975, 20.855802048321785 ], [ -156.205812202614993, 20.856447030106906 ], [ -156.205398693374434, 20.85586277437071 ], [ -156.205121975738194, 20.856584923823721 ], [ -156.205308536468692, 20.85743656896652 ], [ -156.203986940992991, 20.857115841401296 ], [ -156.204169423849606, 20.856407891163073 ], [ -156.203654152650756, 20.856290369605158 ], [ -156.203086559968341, 20.856400240623007 ], [ -156.202106098818263, 20.855739925679213 ], [ -156.202360941313941, 20.854680075683206 ], [ -156.203099923075683, 20.854218203488671 ], [ -156.203948403619165, 20.853038588571724 ], [ -156.203432612413764, 20.85269122244005 ], [ -156.203437620817937, 20.852420472794357 ], [ -156.203806007222227, 20.852279308337092 ], [ -156.203565869872477, 20.851799709323796 ], [ -156.203437620817937, 20.852420472794357 ], [ -156.203066076118461, 20.852549815227466 ], [ -156.203432612413764, 20.85269122244005 ], [ -156.203302565988764, 20.853135281038281 ], [ -156.20169389435938, 20.854082938548874 ], [ -156.200245200759241, 20.853273853993027 ], [ -156.200447690344618, 20.852488874737116 ], [ -156.199684581189132, 20.851974926375469 ], [ -156.200462852858635, 20.851715641124578 ], [ -156.200398236884638, 20.851421668500834 ], [ -156.200871428508066, 20.849738038240258 ], [ -156.199565851736565, 20.850030221229574 ], [ -156.199101287822344, 20.850639789073433 ], [ -156.198574832239046, 20.850519823206668 ], [ -156.197201080568533, 20.850785744912262 ], [ -156.196904833171061, 20.849433616383333 ], [ -156.197640695462979, 20.848410614971261 ], [ -156.197519037620054, 20.847854927466884 ], [ -156.197661211430415, 20.847303560515893 ], [ -156.197092101996788, 20.846449613804175 ], [ -156.197828898843284, 20.845375183117227 ], [ -156.198733505587199, 20.844809848058194 ], [ -156.199110153618022, 20.843522821099665 ], [ -156.199652764938122, 20.842768929520293 ], [ -156.198692182184345, 20.843152183861744 ], [ -156.198522745245469, 20.843808899681147 ], [ -156.198622623139983, 20.844264652266173 ], [ -156.197989993559929, 20.844637532358679 ], [ -156.197103896824984, 20.844932732596146 ], [ -156.195938749164782, 20.846499749970576 ], [ -156.195526858698287, 20.846757086587445 ], [ -156.195747608367327, 20.847764548158843 ], [ -156.194633378260079, 20.847980220420382 ], [ -156.193859696875734, 20.847007331885564 ], [ -156.193755148396036, 20.846303681247562 ], [ -156.194107889077884, 20.846216763928105 ], [ -156.193859998381015, 20.845975194214901 ], [ -156.193755148396036, 20.846303681247562 ], [ -156.191829783961879, 20.846034726151586 ], [ -156.192067260336415, 20.844109357719113 ], [ -156.192419996255239, 20.844022443392085 ], [ -156.192172111722954, 20.843780871891756 ], [ -156.192067260336415, 20.844109357719113 ], [ -156.191616973021581, 20.844222441213088 ], [ -156.190738980079004, 20.845217030593442 ], [ -156.190162968485055, 20.844767476829105 ], [ -156.190244469135223, 20.844227156051645 ], [ -156.189357023336555, 20.84353471798725 ], [ -156.189683082500949, 20.842687911821677 ], [ -156.190796188133788, 20.841879413851686 ], [ -156.189740592404092, 20.841651955133685 ], [ -156.187895100008575, 20.842114771220253 ], [ -156.187972105592877, 20.841604661336699 ], [ -156.187924992206092, 20.841187857891605 ], [ -156.188423422867885, 20.840421643481694 ], [ -156.186857389401411, 20.839972743787627 ], [ -156.186522294721016, 20.83918714883486 ], [ -156.184929524767114, 20.839586513501278 ], [ -156.18539154012376, 20.838161945328679 ], [ -156.185840734756624, 20.837471496368735 ], [ -156.184244580437763, 20.837872255298567 ], [ -156.182827174047475, 20.838357929142003 ], [ -156.183122829253364, 20.836228831034063 ], [ -156.183837311562172, 20.835342407932234 ], [ -156.184634614192561, 20.834116955616111 ], [ -156.18490621012333, 20.833279048744576 ], [ -156.185235777935929, 20.832772695661763 ], [ -156.185371573052521, 20.832353741469241 ], [ -156.185724282731485, 20.832266838168589 ], [ -156.185476427020262, 20.832025260080425 ], [ -156.185371573052521, 20.832353741469241 ], [ -156.184652635878308, 20.832482890664657 ], [ -156.182857329831279, 20.832386316734031 ], [ -156.181404002136617, 20.832718919490933 ], [ -156.180077198675548, 20.832647483413542 ], [ -156.179479584467174, 20.833149938574039 ], [ -156.17833419676623, 20.834755239040565 ], [ -156.177750523139508, 20.83291052457604 ], [ -156.176010363390162, 20.833386857044804 ], [ -156.175170728255068, 20.834209290920498 ], [ -156.174125756431238, 20.834231057764796 ], [ -156.172094743155156, 20.833740636756602 ], [ -156.171441276343955, 20.833150898309267 ], [ -156.173658051246633, 20.831677856889232 ], [ -156.176989971637425, 20.828257025720927 ], [ -156.177539786442992, 20.827209357988956 ], [ -156.178693915845258, 20.825690289361791 ], [ -156.178748258564696, 20.824796976513305 ], [ -156.17873718484384, 20.824319407083973 ], [ -156.179202833423631, 20.823016443501619 ], [ -156.179954551992267, 20.821290918972188 ], [ -156.182781352022289, 20.819855543722721 ], [ -156.183205206037741, 20.819133206456854 ], [ -156.181573878287992, 20.819167207055902 ], [ -156.17932613723687, 20.817559595515938 ], [ -156.178675201686559, 20.816201349282451 ], [ -156.177825181835033, 20.815307952943186 ], [ -156.176289312996687, 20.815610604193896 ], [ -156.171059622305989, 20.81953675224802 ], [ -156.170729333617913, 20.818123739972197 ], [ -156.170221996341667, 20.817590370013814 ], [ -156.168511699523947, 20.817050081808677 ], [ -156.168240247050221, 20.81676445453768 ], [ -156.167082051067496, 20.81648479667291 ], [ -156.165930072846322, 20.816083574174222 ], [ -156.16306591521419, 20.815605868710389 ], [ -156.162694891504628, 20.815215571089752 ], [ -156.16086220577813, 20.816285836250273 ], [ -156.160433943558104, 20.817718553950549 ], [ -156.160005481146044, 20.820961348490119 ], [ -156.159226067648092, 20.820687915039787 ], [ -156.158979751334726, 20.819048171744068 ], [ -156.15822671339302, 20.819063716592932 ], [ -156.15783708012745, 20.81795663230389 ], [ -156.157496671373138, 20.816879853433591 ], [ -156.156782118046266, 20.820090249013401 ], [ -156.156074099190107, 20.820104944152384 ], [ -156.155210831023822, 20.820058344532331 ], [ -156.15379564135543, 20.820087600677279 ], [ -156.153089478559451, 20.819345251546785 ], [ -156.152074174616075, 20.818663086904298 ], [ -156.150940239125788, 20.817947603927188 ], [ -156.15092033977453, 20.817091429542998 ], [ -156.151239803404849, 20.816482628927098 ], [ -156.15170621128928, 20.815688227926415 ], [ -156.150896932341027, 20.815958158421989 ], [ -156.149562948202259, 20.817264695652071 ], [ -156.148954842245161, 20.817277322117498 ], [ -156.148108201552361, 20.816513179225655 ], [ -156.148081492710588, 20.815362134957368 ], [ -156.148700756095849, 20.81454714590333 ], [ -156.148101511309932, 20.81426899501632 ], [ -156.148134853106285, 20.813723143925106 ], [ -156.147840290883863, 20.813457336253862 ], [ -156.14750199037465, 20.81275084550354 ], [ -156.146483303080515, 20.812222125553429 ], [ -156.145879390512306, 20.813371922999547 ], [ -156.144295163983401, 20.811941828626992 ], [ -156.145496814613324, 20.809895242449233 ], [ -156.144981311872215, 20.80826410174565 ], [ -156.144759852297653, 20.808791742464955 ], [ -156.144433182922285, 20.81026021785679 ], [ -156.143279347669932, 20.810933646650788 ], [ -156.14200879906349, 20.811724926961716 ], [ -156.141495679665837, 20.811430339498994 ], [ -156.140987097635872, 20.810895419372521 ], [ -156.140151154570589, 20.810507372425828 ], [ -156.139870096047787, 20.808976005726933 ], [ -156.138761470077185, 20.809504167983267 ], [ -156.13868641653454, 20.808756966540273 ], [ -156.138772624358353, 20.807349421390537 ], [ -156.138451180250001, 20.807332021324271 ], [ -156.137686520527609, 20.809470217101293 ], [ -156.136752892468905, 20.809489399554327 ], [ -156.136428683861624, 20.808099993196308 ], [ -156.135110698256113, 20.808127158914118 ], [ -156.133838714768132, 20.807536481401741 ], [ -156.133066621206609, 20.807135586227929 ], [ -156.132401470736283, 20.807786963031877 ], [ -156.131833822280839, 20.80749223068349 ], [ -156.131263468095653, 20.807503975065657 ], [ -156.130124483742776, 20.806738433661447 ], [ -156.128964456443043, 20.806371621804448 ], [ -156.128650064660633, 20.805715092596849 ], [ -156.127092295085504, 20.804668260314507 ], [ -156.125326807044814, 20.805217059994721 ], [ -156.122224501154136, 20.803971444581112 ], [ -156.121334658260906, 20.8030350864335 ], [ -156.120692967706447, 20.802701919311687 ], [ -156.120110836877927, 20.802431636806322 ], [ -156.117873206576149, 20.800757487718212 ], [ -156.117006327696203, 20.800775177048937 ], [ -156.116058808067379, 20.800138264347755 ], [ -156.11497989861536, 20.799637189469735 ], [ -156.114106262918, 20.799049908680196 ], [ -156.112180080338987, 20.799089146140407 ], [ -156.111800177016988, 20.79874620936917 ], [ -156.111195646815645, 20.797483497941315 ], [ -156.109923028168055, 20.796892252638155 ], [ -156.108203329943251, 20.795736091255346 ], [ -156.107283871757261, 20.795445270242947 ], [ -156.105340094446291, 20.794655823454303 ], [ -156.10284330333036, 20.794520431898778 ], [ -156.101285194542385, 20.794552150363177 ], [ -156.100203117994567, 20.793824685405305 ], [ -156.098255327818805, 20.793145510871568 ], [ -156.096738899350015, 20.792778549562296 ], [ -156.096101471528073, 20.790759528370241 ], [ -156.094367844733966, 20.790340077036582 ], [ -156.093123748310148, 20.789030779446811 ], [ -156.091999238938655, 20.788320534654272 ], [ -156.09079018608, 20.787048181778207 ], [ -156.090171107669846, 20.786760520301375 ], [ -156.089047224155024, 20.786004649341844 ], [ -156.086737998998188, 20.785879229506353 ], [ -156.085611272390736, 20.785902139571522 ], [ -156.085112903533485, 20.785377700197945 ], [ -156.083293287115481, 20.785018833602148 ], [ -156.082357765629865, 20.784692442686694 ], [ -156.08006073229555, 20.784739044222739 ], [ -156.079133618989232, 20.783333766786011 ], [ -156.077572346270472, 20.783025787200703 ], [ -156.077151482597003, 20.78169153861365 ], [ -156.075881662186617, 20.781101303569713 ], [ -156.075281945684281, 20.780789592723874 ], [ -156.074448399807409, 20.780806455362537 ], [ -156.073888502596191, 20.780515385996271 ], [ -156.072135377584175, 20.780169576151295 ], [ -156.072198493474957, 20.779142818546969 ], [ -156.071595261311302, 20.779393019538226 ], [ -156.070983927497167, 20.77968407158475 ], [ -156.069868713241107, 20.779623376510322 ], [ -156.067792890736854, 20.779665267805644 ], [ -156.065891494110048, 20.779063243514457 ], [ -156.064430994367939, 20.778187356542627 ], [ -156.062415046083174, 20.777621551541042 ], [ -156.061855188224541, 20.777330446910931 ], [ -156.061074273992006, 20.777346163895295 ], [ -156.059465195845377, 20.777000714419675 ], [ -156.058112947867869, 20.777027915088958 ], [ -156.057106196355562, 20.776973097954812 ], [ -156.05653007910044, 20.776984637311536 ], [ -156.055879229628658, 20.776949273128626 ], [ -156.054936332740766, 20.777212229551282 ], [ -156.054189034260901, 20.77756792599309 ], [ -156.053674467916522, 20.777103030464023 ], [ -156.052083434032738, 20.775265347269269 ], [ -156.052131428282053, 20.774488132402713 ], [ -156.051593541089005, 20.773921808164161 ], [ -156.050974606425314, 20.7736340199131 ], [ -156.050644956760493, 20.772944199044474 ], [ -156.048953036297775, 20.772496078501707 ], [ -156.048266670650605, 20.772509794995138 ], [ -156.047597590758329, 20.772473294507666 ], [ -156.045688240471236, 20.772752232836851 ], [ -156.042252104026517, 20.771988531191653 ], [ -156.041800597458234, 20.771580492709166 ], [ -156.041529480797294, 20.771294701025084 ], [ -156.040401008798256, 20.770274670418768 ], [ -156.040393179478457, 20.769926245099377 ], [ -156.040409700107489, 20.769655725653784 ], [ -156.040397486184588, 20.769113906385165 ], [ -156.040431181656857, 20.768568118469542 ], [ -156.04013691042644, 20.76830215706898 ], [ -156.039769368692305, 20.767914868047722 ], [ -156.038921054709306, 20.768318607087096 ], [ -156.037551723734083, 20.767986754509799 ], [ -156.036108370020287, 20.767399735068704 ], [ -156.035039484031444, 20.767421075962538 ], [ -156.034136546356365, 20.766604703287118 ], [ -156.034126249563144, 20.7661529662603 ], [ -156.035030654263551, 20.764964387394819 ], [ -156.035585857792341, 20.763414342957098 ], [ -156.036561387956482, 20.762210320149791 ], [ -156.037116512679319, 20.76174387870363 ], [ -156.036526916260328, 20.76146964270691 ], [ -156.036544193742259, 20.761189352216537 ], [ -156.036249942794626, 20.760923386490322 ], [ -156.035978854111193, 20.760637589272893 ], [ -156.035673829287418, 20.760361916324804 ], [ -156.035768372748805, 20.758830889531595 ], [ -156.033155388074618, 20.758393043633891 ], [ -156.032090886766554, 20.75743053941137 ], [ -156.031441737713351, 20.756507474140736 ], [ -156.031101017920776, 20.755426305814531 ], [ -156.030605312205296, 20.755399223378408 ], [ -156.030057973202815, 20.755410253809853 ], [ -156.029528088798969, 20.754931151276292 ], [ -156.028621652384686, 20.753479212095154 ], [ -156.028647578163401, 20.75305917623897 ], [ -156.026862029444118, 20.75177912095598 ], [ -156.025969792259673, 20.750839270701558 ], [ -156.023832041677764, 20.749400367564633 ], [ -156.021181460889125, 20.749012614888446 ], [ -156.020094975154393, 20.748447407786358 ], [ -156.017336925210969, 20.74777860306839 ], [ -156.016376210757215, 20.745991931917075 ], [ -156.016412455566041, 20.745405738957576 ], [ -156.016069277908201, 20.744427515340803 ], [ -156.016998209731668, 20.742847404184403 ], [ -156.017090089970935, 20.741359595795217 ], [ -156.017072017495821, 20.740546880037165 ], [ -156.017105401490909, 20.740005858185299 ], [ -156.017087234758321, 20.739197900876626 ], [ -156.017408790230832, 20.738927921429362 ], [ -156.017098041516988, 20.738646966684051 ], [ -156.017131049715459, 20.738110698333415 ], [ -156.017119814643081, 20.737608569893368 ], [ -156.017598390682195, 20.735638760378212 ], [ -156.016942854423746, 20.734419358017359 ], [ -156.016916756634885, 20.733255968975641 ], [ -156.017242736222698, 20.732429918454461 ], [ -156.017230089142856, 20.731870643216613 ], [ -156.017849787420573, 20.730816703309586 ], [ -156.018162632182481, 20.729943084623333 ], [ -156.019307004991617, 20.72898167306731 ], [ -156.019612998247965, 20.728399757105727 ], [ -156.019917087962796, 20.728144540969954 ], [ -156.020199100136153, 20.727868314054504 ], [ -156.021069073014587, 20.727137628421968 ], [ -156.021388420919976, 20.726246262827729 ], [ -156.022554505197945, 20.725753021486369 ], [ -156.02314543441264, 20.724398929436955 ], [ -156.023454804690402, 20.72387299466191 ], [ -156.023970674567863, 20.722432179534611 ], [ -156.024349333522338, 20.72171174440502 ], [ -156.024939468800568, 20.721216183958813 ], [ -156.025403792862761, 20.719520592517835 ], [ -156.027199677713156, 20.717762997344373 ], [ -156.028703444463702, 20.716885732758449 ], [ -156.028071087671151, 20.716219484357662 ], [ -156.027440515587159, 20.715649262615074 ], [ -156.02708553138666, 20.714122372044255 ], [ -156.02631579801772, 20.712690656604828 ], [ -156.026275645177435, 20.71091810661181 ], [ -156.026309344402364, 20.710372587216309 ], [ -156.025903875231222, 20.709618357438895 ], [ -156.026917443938885, 20.708766740636467 ], [ -156.026593210518428, 20.706428236529593 ], [ -156.027250807744423, 20.705784540680249 ], [ -156.027858582388689, 20.705274060592252 ], [ -156.028422765148122, 20.704721569875179 ], [ -156.029952331951108, 20.704474132260021 ], [ -156.029583635471852, 20.703044328983729 ], [ -156.030411213070977, 20.700022644766946 ], [ -156.031546955324018, 20.698910756860602 ], [ -156.032284236291702, 20.698559709909606 ], [ -156.032876220782725, 20.698309293212894 ], [ -156.032858817114374, 20.697543123979894 ], [ -156.034397883909691, 20.695388002670541 ], [ -156.036237463372032, 20.695351058223544 ], [ -156.03797387046734, 20.695445870261292 ], [ -156.03898068601228, 20.695164882350394 ], [ -156.039859009937999, 20.693815644653579 ], [ -156.04081027759031, 20.693413095963368 ], [ -156.040287315107776, 20.692440549222272 ], [ -156.041922350655483, 20.692529740669826 ], [ -156.041881335474386, 20.690718414858061 ], [ -156.042955906133841, 20.689666209345766 ], [ -156.043648134086453, 20.68908425215945 ], [ -156.044002688280159, 20.688481024040687 ], [ -156.044580012152835, 20.686867150183986 ], [ -156.045395875108511, 20.686850737972883 ], [ -156.046042874982675, 20.687151686524043 ], [ -156.0474562683915, 20.687886928959657 ], [ -156.047193589336075, 20.687171422788079 ], [ -156.046642310499692, 20.68667284920696 ], [ -156.046280530409973, 20.685270425902498 ], [ -156.046649689663155, 20.685537250786648 ], [ -156.047227220025292, 20.686145760734888 ], [ -156.047189727348922, 20.684497132446225 ], [ -156.048108193191979, 20.684478630526502 ], [ -156.049185758115271, 20.685039109996119 ], [ -156.049270082409606, 20.683963405790898 ], [ -156.04925687353861, 20.683382423392523 ], [ -156.050537272548524, 20.683452091455404 ], [ -156.05029489899843, 20.682761399447262 ], [ -156.050744808771697, 20.682645468844886 ], [ -156.050707658677254, 20.682226851805197 ], [ -156.05078978088909, 20.681584030602924 ], [ -156.053015246572045, 20.679907751052305 ], [ -156.05364324752756, 20.680260707989142 ], [ -156.05394073438427, 20.680237366832582 ], [ -156.05451500509426, 20.680302328522938 ], [ -156.056300496333904, 20.680161877655291 ], [ -156.057560120700231, 20.681642704017968 ], [ -156.05821778349511, 20.680283757790651 ], [ -156.058967569805219, 20.680705024518545 ], [ -156.059680873551883, 20.680336640789214 ], [ -156.060290181789185, 20.680100297121378 ], [ -156.060175160689653, 20.678806829309671 ], [ -156.060606318504767, 20.678481889466731 ], [ -156.061131911846189, 20.677908112928357 ], [ -156.062316990135116, 20.678241848327701 ], [ -156.064044923920221, 20.68027329741783 ], [ -156.065206825937253, 20.682119749835188 ], [ -156.066266417314438, 20.683427856880375 ], [ -156.066799260491678, 20.684274490296666 ], [ -156.067888531977189, 20.68561893046104 ], [ -156.068388281453139, 20.68602426734607 ], [ -156.068898899985925, 20.686624566016285 ], [ -156.069208549915004, 20.686875656030494 ], [ -156.069442268030343, 20.687802217762602 ], [ -156.069892700251273, 20.687337681732672 ], [ -156.069208549915004, 20.686875656030494 ], [ -156.06910682222491, 20.685105980270535 ], [ -156.068550611487836, 20.684099879420241 ], [ -156.068869448311574, 20.684004280864045 ], [ -156.069651292959435, 20.684061486990917 ], [ -156.070215391866498, 20.683604039815616 ], [ -156.069450058828977, 20.682219505610767 ], [ -156.070227458512221, 20.681234773994746 ], [ -156.072033215412489, 20.681723004860441 ], [ -156.071770921675665, 20.677936299652885 ], [ -156.070152005174293, 20.677203444945757 ], [ -156.070093259383668, 20.675872452496495 ], [ -156.076684590596045, 20.675614967217182 ], [ -156.079946408885831, 20.678458952086309 ], [ -156.081276502147887, 20.67991173004128 ], [ -156.081426043062663, 20.680042001340077 ] ], [ [ -156.185957619295294, 20.831821715874906 ], [ -156.186050196162057, 20.832153442318521 ], [ -156.186306881674966, 20.831920156069458 ], [ -156.185957619295294, 20.831821715874906 ] ], [ [ -156.138037306724954, 20.806653611992079 ], [ -156.138129766891467, 20.806985351349589 ], [ -156.13838646919649, 20.806752139986738 ], [ -156.138037306724954, 20.806653611992079 ] ], [ [ -156.037532354382989, 20.761888175460712 ], [ -156.037624573036084, 20.762219941253839 ], [ -156.037881324802385, 20.761986888780537 ], [ -156.037532354382989, 20.761888175460712 ] ] ] } }
]
}
