{
"type": "FeatureCollection",
"name": "clemicr",
"crs": { "type": "name", "properties": { "name": "urn:ogc:def:crs:OGC:1.3:CRS84" } },
"features": [
{ "type": "Feature", "properties": { "ID": 1, "GRIDCODE": 2 }, "geometry": { "type": "Polygon", "coordinates": [ [ [ -156.585647272757456, 20.970931767266222 ], [ -156.585997205093861, 20.97102944835618 ], [ -156.585740805069321, 20.971263372621376 ], [ -156.585647272757456, 20.970931767266222 ] ] ] } },
{ "type": "Feature", "properties": { "ID": 2, "GRIDCODE": 2 }, "geometry": { "type": "Polygon", "coordinates": [ [ [ -156.586813703452009, 20.970135624450741 ], [ -156.587507807029425, 20.970654698168453 ], [ -156.586963032975177, 20.971044323207451 ], [ -156.586813703452009, 20.970135624450741 ] ] ] } },
{ "type": "Feature", "properties": { "ID": 3, "GRIDCODE": 2 }, "geometry": { "type": "Polygon", "coordinates": [ [ [ -156.585371981810965, 20.970115194734053 ], [ -156.585744353223333, 20.970271128775888 ], [ -156.585477543802199, 20.970732278359165 ], [ -156.585371981810965, 20.970115194734053 ] ] ] } },
{ "type": "Feature", "properties": { "ID": 4, "GRIDCODE": 2 }, "geometry": { "type": "Polygon", "coordinates": [ [ [ -156.594323689853184, 20.969429171825638 ], [ -156.594673626394439, 20.969526835297785 ], [ -156.594417241279103, 20.969760774227549 ], [ -156.594323689853184, 20.969429171825638 ] ] ] } },
{ "type": "Feature", "properties": { "ID": 5, "GRIDCODE": 1 }, "geometry": { "type": "Polygon", "coordinates": [ [ [ -156.20791610303786, 20.859535252089795 ], [ -156.207811269337157, 20.859863749684546 ], [ -156.207563334556255, 20.859622195176019 ], [ -156.20791610303786, 20.859535252089795 ] ] ] } },
{ "type": "Feature", "properties": { "ID": 6, "GRIDCODE": 1 }, "geometry": { "type": "Polygon", "coordinates": [ [ [ -156.187767213962189, 20.842955440288247 ], [ -156.188116502799403, 20.843053879736921 ], [ -156.187859798602034, 20.843287166602156 ], [ -156.187767213962189, 20.842955440288247 ] ] ] } },
{ "type": "Feature", "properties": { "ID": 7, "GRIDCODE": 1 }, "geometry": { "type": "Polygon", "coordinates": [ [ [ -156.187504375583472, 20.841596976568894 ], [ -156.187499341524756, 20.841867722848676 ], [ -156.187132849501836, 20.841726285980375 ], [ -156.187504375583472, 20.841596976568894 ] ] ] } },
{ "type": "Feature", "properties": { "ID": 8, "GRIDCODE": 2 }, "geometry": { "type": "Polygon", "coordinates": [ [ [ -156.598572452013627, 20.847586931134543 ], [ -156.599586979461236, 20.847728937757914 ], [ -156.601002393124759, 20.848305916825758 ], [ -156.604957039714833, 20.848710634326771 ], [ -156.605579762226967, 20.850421708276262 ], [ -156.60511029633048, 20.851508380445516 ], [ -156.600930813861737, 20.854467655975267 ], [ -156.598431795466212, 20.854849129495058 ], [ -156.597494555704742, 20.854037970329802 ], [ -156.595798563809893, 20.850378102122292 ], [ -156.596197530512285, 20.848896958636796 ], [ -156.597837680345663, 20.847975291775438 ], [ -156.598434283090086, 20.847728112079292 ], [ -156.598572452013627, 20.847586931134543 ] ] ] } },
{ "type": "Feature", "properties": { "ID": 9, "GRIDCODE": 1 }, "geometry": { "type": "Polygon", "coordinates": [ [ [ -156.187236506241305, 20.840509259055345 ], [ -156.187131647697555, 20.840837741003433 ], [ -156.18688377717956, 20.840596163310863 ], [ -156.187236506241305, 20.840509259055345 ] ] ] } },
{ "type": "Feature", "properties": { "ID": 10, "GRIDCODE": 1 }, "geometry": { "type": "Polygon", "coordinates": [ [ [ -156.176984579009229, 20.834111463726011 ], [ -156.176879705223996, 20.834439937566252 ], [ -156.17663186219022, 20.834198347918338 ], [ -156.176984579009229, 20.834111463726011 ] ] ] } },
{ "type": "Feature", "properties": { "ID": 11, "GRIDCODE": 1 }, "geometry": { "type": "Polygon", "coordinates": [ [ [ -156.176994680545391, 20.833569975583792 ], [ -156.177391521493917, 20.833847345503301 ], [ -156.176984579009229, 20.834111463726011 ], [ -156.176994680545391, 20.833569975583792 ] ] ] } },
{ "type": "Feature", "properties": { "ID": 12, "GRIDCODE": 2 }, "geometry": { "type": "Polygon", "coordinates": [ [ [ -156.610268875472087, 20.96423571818897 ], [ -156.610175290203301, 20.963904121268115 ], [ -156.609918937247301, 20.964138086935069 ], [ -156.610268875472087, 20.96423571818897 ], [ -156.610514199774883, 20.964925917454959 ], [ -156.609544444128232, 20.964876204470727 ], [ -156.609526982450348, 20.965177276038276 ], [ -156.609902179967634, 20.966609097738495 ], [ -156.607960452189729, 20.969868548136233 ], [ -156.606461197832999, 20.970806726880653 ], [ -156.605423480533403, 20.970830766167037 ], [ -156.605401363712303, 20.96999158596827 ], [ -156.605495598299399, 20.968372710046133 ], [ -156.60514622153471, 20.968628375004979 ], [ -156.60485453625688, 20.969187356372789 ], [ -156.603996483752155, 20.969143280538528 ], [ -156.603979804676982, 20.969429811551304 ], [ -156.603993790937295, 20.969965841937363 ], [ -156.603662727012079, 20.969973486468788 ], [ -156.602873175426822, 20.969148509180442 ], [ -156.602826184975896, 20.96941053989848 ], [ -156.602839890808809, 20.969928577122559 ], [ -156.602526565364514, 20.970236726130008 ], [ -156.602270183018959, 20.968564508521613 ], [ -156.601497135418356, 20.967871104131962 ], [ -156.600848410118715, 20.966676814839758 ], [ -156.601433031120507, 20.965675547870564 ], [ -156.600732140388857, 20.965456160968643 ], [ -156.600638576281256, 20.96512456079941 ], [ -156.600382207743138, 20.965358510444961 ], [ -156.600732140388857, 20.965456160968643 ], [ -156.6005920261791, 20.965870579342646 ], [ -156.600106830876456, 20.9666594923597 ], [ -156.600851262829764, 20.969374140426716 ], [ -156.600312184460108, 20.969797356499349 ], [ -156.599864304039784, 20.971528963864113 ], [ -156.599227896638581, 20.971220929522794 ], [ -156.598566744763104, 20.96828417602168 ], [ -156.598225593802908, 20.968253573849346 ], [ -156.597736281592233, 20.970144506347019 ], [ -156.596958269961561, 20.968423792380371 ], [ -156.59762479226589, 20.967340100974493 ], [ -156.597723372756093, 20.966370617984065 ], [ -156.597328695151788, 20.966041648743296 ], [ -156.597488402213344, 20.964472382749602 ], [ -156.596835532343817, 20.964984854620536 ], [ -156.596563944020971, 20.965272021046644 ], [ -156.596244208073813, 20.965523058929183 ], [ -156.596640662684052, 20.966586162080517 ], [ -156.595778994455941, 20.967262477427646 ], [ -156.595354455382392, 20.968518486790312 ], [ -156.59416958110387, 20.967619773353093 ], [ -156.59424767867182, 20.968740816982084 ], [ -156.59343031929032, 20.967703906165024 ], [ -156.593082540681024, 20.966557228186034 ], [ -156.592505829319322, 20.965214728291905 ], [ -156.591682437211233, 20.962393785187839 ], [ -156.590290320829808, 20.960829046090154 ], [ -156.58963138131864, 20.960279267610737 ], [ -156.589759798091734, 20.959014720911092 ], [ -156.589459032613092, 20.957309593656657 ], [ -156.589500519566855, 20.956900007867041 ], [ -156.589442210788718, 20.956057410141725 ], [ -156.589829549113176, 20.953889276641608 ], [ -156.59085562823924, 20.953476413536045 ], [ -156.590345058870241, 20.951208153183753 ], [ -156.588890218711668, 20.950418426399974 ], [ -156.587946764262938, 20.950895673663947 ], [ -156.587029122371888, 20.949640398641421 ], [ -156.586957072162505, 20.948601845315789 ], [ -156.587055024017616, 20.947639108351979 ], [ -156.586174060770617, 20.946433686710279 ], [ -156.585916171693441, 20.945868148667834 ], [ -156.585074648848064, 20.944399665212003 ], [ -156.585357291077997, 20.943422217540707 ], [ -156.585774807617952, 20.942743626809637 ], [ -156.585072984395708, 20.941783322921172 ], [ -156.585167271376491, 20.940856116034517 ], [ -156.585084441782101, 20.939665165950345 ], [ -156.586010865576498, 20.937401102902417 ], [ -156.585040267660759, 20.936591224313194 ], [ -156.584607202912593, 20.93583551280183 ], [ -156.585605129134137, 20.934554574848303 ], [ -156.584397536420653, 20.933546769050523 ], [ -156.584368269960635, 20.933124410174766 ], [ -156.584464552989431, 20.932177654968701 ], [ -156.584363663527625, 20.930726007059036 ], [ -156.585875963833701, 20.929060162096466 ], [ -156.585402268686465, 20.928082192228448 ], [ -156.584608655648765, 20.927845437544544 ], [ -156.584515142386834, 20.927513832895936 ], [ -156.58425882197173, 20.92774776299424 ], [ -156.584608655648765, 20.927845437544544 ], [ -156.585554898534753, 20.929082205519833 ], [ -156.58384004246912, 20.930333022459681 ], [ -156.583543838725262, 20.932315008100826 ], [ -156.583031911001143, 20.933105481907557 ], [ -156.583957112275868, 20.934636661342456 ], [ -156.582835664153009, 20.935454874164421 ], [ -156.582920749565119, 20.936188595814695 ], [ -156.583474770391717, 20.936618389692079 ], [ -156.583884909333079, 20.938047831489271 ], [ -156.583283155001453, 20.938977238715559 ], [ -156.583421218205473, 20.940164738519961 ], [ -156.582668088468239, 20.94110324038602 ], [ -156.582871421803276, 20.942855271071917 ], [ -156.582508693141193, 20.945293698480647 ], [ -156.583318222612434, 20.946368233914722 ], [ -156.583560896847445, 20.947214238040782 ], [ -156.584076070201633, 20.948066484404311 ], [ -156.583521306486233, 20.949363605489307 ], [ -156.583829579936577, 20.950438838594135 ], [ -156.584067911588619, 20.951555671368595 ], [ -156.584691967531427, 20.953151895890993 ], [ -156.584567899708503, 20.95398582446796 ], [ -156.584631719478665, 20.954536181471255 ], [ -156.584152124748897, 20.955657918336588 ], [ -156.584325535010635, 20.957152521808062 ], [ -156.584950750871371, 20.958186744861987 ], [ -156.58478500551135, 20.959300628485629 ], [ -156.583933520033099, 20.959921473953152 ], [ -156.583287133074748, 20.96088793630426 ], [ -156.58343952620254, 20.962200237355205 ], [ -156.586036246303962, 20.964214622889024 ], [ -156.585862604118518, 20.965381567966801 ], [ -156.586183490293109, 20.96812901174669 ], [ -156.586696694209422, 20.96944179429973 ], [ -156.586813703452009, 20.970135624450741 ], [ -156.586089302945567, 20.969995074371994 ], [ -156.585527556856619, 20.969705509204339 ], [ -156.585229461103097, 20.969712394626814 ], [ -156.584598162375812, 20.969387053523793 ], [ -156.584655289205074, 20.971580512185319 ], [ -156.584019128859609, 20.972117767544617 ], [ -156.584579703950851, 20.972620673857431 ], [ -156.584615644071079, 20.973994283543512 ], [ -156.583814616110914, 20.974782100057755 ], [ -156.581117710936326, 20.974258784646469 ], [ -156.580796251884664, 20.972899772012809 ], [ -156.580558618770198, 20.973156969043885 ], [ -156.57999685601439, 20.974232545642899 ], [ -156.577723194784909, 20.973698789744255 ], [ -156.577349492900424, 20.973363461163029 ], [ -156.577426975577652, 20.972034059487182 ], [ -156.577406051235926, 20.971235512486611 ], [ -156.577725813604303, 20.970688361583544 ], [ -156.577711857633773, 20.970156305338527 ], [ -156.578031323979673, 20.969609810661574 ], [ -156.578321660484988, 20.96879095375747 ], [ -156.578651844443584, 20.96822569513926 ], [ -156.578613919896355, 20.966768597399533 ], [ -156.578669521134202, 20.965817174789347 ], [ -156.578382317460495, 20.965008625907146 ], [ -156.578429740843944, 20.964197690238731 ], [ -156.577824746213082, 20.964671876820383 ], [ -156.577797904422653, 20.965131662939225 ], [ -156.577808749992272, 20.965542251250909 ], [ -156.577495628048212, 20.966342266034133 ], [ -156.577530299982726, 20.967668501842702 ], [ -156.57689393895717, 20.967973328744716 ], [ -156.576642184367415, 20.966329070787801 ], [ -156.576335683686352, 20.966054218787097 ], [ -156.576382413009185, 20.965252136933429 ], [ -156.57544513769497, 20.965512732876071 ], [ -156.575493662191775, 20.967375916119899 ], [ -156.575139171572573, 20.970110444363264 ], [ -156.574510925104136, 20.97118545124269 ], [ -156.574553013449815, 20.97280066773196 ], [ -156.573007482241906, 20.972126695721887 ], [ -156.569187894992865, 20.969086248188553 ], [ -156.568386088870113, 20.968248253922511 ], [ -156.568738999124037, 20.968160569933254 ], [ -156.56849026513882, 20.967919464185574 ], [ -156.568386088870113, 20.968248253922511 ], [ -156.567864628856427, 20.968100075545472 ], [ -156.566508918551392, 20.966457375020656 ], [ -156.567822779018684, 20.965499591690296 ], [ -156.56814001580625, 20.963368762725889 ], [ -156.566737032325562, 20.963900693219035 ], [ -156.566182160648054, 20.965086630722737 ], [ -156.565939758794798, 20.964802889424085 ], [ -156.566036770054438, 20.964151394265439 ], [ -156.565945089826727, 20.963360437155114 ], [ -156.566367098965856, 20.962048136960441 ], [ -156.566248220796183, 20.96102346832939 ], [ -156.566625420941619, 20.96021698584191 ], [ -156.566987632274817, 20.959657764142481 ], [ -156.566928338185505, 20.959145035096736 ], [ -156.567265525226418, 20.958356761351919 ], [ -156.567871646379842, 20.956472239356518 ], [ -156.568154621758652, 20.954821056400458 ], [ -156.568496302779948, 20.954293678232599 ], [ -156.567629378239189, 20.953621019982194 ], [ -156.568538880883864, 20.952025597803029 ], [ -156.569172940919401, 20.951563363814667 ], [ -156.569666192165414, 20.950508403311982 ], [ -156.571009805347217, 20.949528783386402 ], [ -156.571426616390056, 20.948637270567016 ], [ -156.572309464086146, 20.947537321875522 ], [ -156.572053557989932, 20.947288449454419 ], [ -156.5711610838799, 20.947379834430212 ], [ -156.571017632122874, 20.94023389467198 ], [ -156.570859387402322, 20.9401111429179 ], [ -156.570753894088966, 20.939494056150913 ], [ -156.570487106313124, 20.939955184600787 ], [ -156.570859387402322, 20.9401111429179 ], [ -156.570690027906551, 20.941322571413465 ], [ -156.57036036939067, 20.944578855792692 ], [ -156.570034430475886, 20.946191077147656 ], [ -156.570041546481747, 20.946465373804976 ], [ -156.570009994226211, 20.947006701099532 ], [ -156.570044100722953, 20.94831242516047 ], [ -156.569455483422701, 20.948891312288772 ], [ -156.568287405539223, 20.949220408472026 ], [ -156.567381122624141, 20.95049591689353 ], [ -156.56579223098683, 20.952273820180441 ], [ -156.564709537108484, 20.954510769911327 ], [ -156.563556571969713, 20.957171818125133 ], [ -156.562065405321107, 20.958212614860969 ], [ -156.56237233411278, 20.956373571132399 ], [ -156.562895560985595, 20.955036934689133 ], [ -156.562346166875699, 20.955312266522064 ], [ -156.561815584905247, 20.955834150485877 ], [ -156.561218261419157, 20.95633827931081 ], [ -156.56123302172972, 20.956904205013831 ], [ -156.56062473988149, 20.957163344559458 ], [ -156.561002922106269, 20.95786012690499 ], [ -156.560330091240644, 20.958521761404338 ], [ -156.558886359606277, 20.958928448269653 ], [ -156.558863792607042, 20.959312365854391 ], [ -156.559415071919375, 20.960865426046446 ], [ -156.557417589672298, 20.961326729483943 ], [ -156.557136781814449, 20.95982013234374 ], [ -156.556557083286748, 20.958752482117969 ], [ -156.557016020061951, 20.957580547747927 ], [ -156.556301617355075, 20.957922669401356 ], [ -156.556003628879637, 20.95790728582023 ], [ -156.555574906763439, 20.958328761486236 ], [ -156.554028749368058, 20.957794831057431 ], [ -156.553698540835057, 20.958427096322922 ], [ -156.553376353256681, 20.958410434835226 ], [ -156.553431436283802, 20.960546434150135 ], [ -156.55264378161155, 20.960923596006847 ], [ -156.549204498354953, 20.958766739758602 ], [ -156.548801782903212, 20.957505194934917 ], [ -156.548090118013931, 20.956866684837451 ], [ -156.549395044776617, 20.956457962368191 ], [ -156.550546460110837, 20.956517501190977 ], [ -156.550274516822014, 20.956200117073241 ], [ -156.549406705911565, 20.955655923821066 ], [ -156.549467557035342, 20.954617567888924 ], [ -156.549146630436184, 20.954282151034008 ], [ -156.547783445081961, 20.955622524620416 ], [ -156.548168074181859, 20.954537904727484 ], [ -156.549262041398208, 20.953092735756773 ], [ -156.548607570868825, 20.952107979874203 ], [ -156.547732130352074, 20.952655411183173 ], [ -156.547164945605914, 20.952363006723935 ], [ -156.54627033497556, 20.952082685817519 ], [ -156.546317626551541, 20.951272431692356 ], [ -156.546297952601861, 20.950510417293849 ], [ -156.546921495740548, 20.948917625185295 ], [ -156.546274746416913, 20.948721820178779 ], [ -156.545197359620175, 20.949237763012562 ], [ -156.545649788365779, 20.946983156293296 ], [ -156.546870314126124, 20.944647143469847 ], [ -156.547709112196742, 20.943822480562812 ], [ -156.548468025998403, 20.943181972037245 ], [ -156.549018533794538, 20.942127771279328 ], [ -156.549632119479384, 20.941833959092893 ], [ -156.551098252260203, 20.941321845390316 ], [ -156.550547090419883, 20.940306441358675 ], [ -156.550259617029212, 20.939405003415587 ], [ -156.549401027459851, 20.939009090418029 ], [ -156.549726585736721, 20.938521994128667 ], [ -156.551436710480459, 20.937254819734807 ], [ -156.552321432361282, 20.936736063078502 ], [ -156.553140990522991, 20.934127844186225 ], [ -156.55424523900092, 20.933041881046528 ], [ -156.557961185615994, 20.932678071366176 ], [ -156.558658506137164, 20.931992184186232 ], [ -156.559024101229568, 20.934382228043308 ], [ -156.559565479046398, 20.933849786831541 ], [ -156.560148436963004, 20.933357619012511 ], [ -156.560178433755539, 20.932844446665413 ], [ -156.55989573084679, 20.931958299894777 ], [ -156.559602084424824, 20.931417483465271 ], [ -156.55991601629529, 20.930880199093355 ], [ -156.559397634127521, 20.92992507541798 ], [ -156.562847688794363, 20.928952876245514 ], [ -156.56282820814971, 20.928207920864562 ], [ -156.565145655448845, 20.927554792215485 ], [ -156.563984297245213, 20.926712589154878 ], [ -156.560648677620321, 20.926255430660191 ], [ -156.559693820465384, 20.926277358227669 ], [ -156.559261699921308, 20.926255041012812 ], [ -156.558829056691025, 20.926264988919826 ], [ -156.55772906266543, 20.926208245192406 ], [ -156.557074476643066, 20.92676075410175 ], [ -156.555139074240941, 20.928664425060539 ], [ -156.554465847587551, 20.928629645847153 ], [ -156.55389546034354, 20.928642764733635 ], [ -156.553863375849716, 20.927411014348039 ], [ -156.554499789085753, 20.92619241705183 ], [ -156.556760443903187, 20.924283884579367 ], [ -156.557474411186206, 20.921874241131516 ], [ -156.557461284685985, 20.921364023378036 ], [ -156.557476934763088, 20.921093360096577 ], [ -156.557437077020637, 20.919557409070563 ], [ -156.557803111402933, 20.918930929084858 ], [ -156.55744552725622, 20.918271873418902 ], [ -156.558078965566239, 20.917058504191115 ], [ -156.558411798323249, 20.916777695802299 ], [ -156.558834376556888, 20.916361932693039 ], [ -156.559593096973117, 20.915721354474805 ], [ -156.560156431969517, 20.915166997252566 ], [ -156.5613165044835, 20.914672748434956 ], [ -156.561334051558077, 20.91437129228105 ], [ -156.559897833305342, 20.914028032570975 ], [ -156.560759197594422, 20.913550283483278 ], [ -156.561355670646492, 20.913296117409384 ], [ -156.560928369922522, 20.912508432588496 ], [ -156.562558482552731, 20.912212149517785 ], [ -156.563935464820474, 20.91228312315576 ], [ -156.5651889558996, 20.910831353573037 ], [ -156.566012412370839, 20.910136111556479 ], [ -156.566173543608585, 20.908892160882569 ], [ -156.566836801472647, 20.908562737547484 ], [ -156.566329916367835, 20.908256716087894 ], [ -156.566173543608585, 20.908892160882569 ], [ -156.565525425695085, 20.909364781015132 ], [ -156.564871799028765, 20.910108472960477 ], [ -156.563383542218247, 20.911192487197919 ], [ -156.561871963303133, 20.910862455822642 ], [ -156.562027077343373, 20.909818682421136 ], [ -156.561680229476764, 20.909244176654095 ], [ -156.561906692105083, 20.907722738064376 ], [ -156.561583887601671, 20.9074722395357 ], [ -156.561490434136914, 20.90714062773819 ], [ -156.5612341199691, 20.907374523629464 ], [ -156.561583887601671, 20.9074722395357 ], [ -156.561422838138441, 20.90869158200325 ], [ -156.561115643684957, 20.909494832733095 ], [ -156.561118706942466, 20.910036388157032 ], [ -156.560665487741375, 20.910433468257011 ], [ -156.55995925459257, 20.911103374517079 ], [ -156.558848438323764, 20.910591618074221 ], [ -156.558363903821004, 20.910140529262634 ], [ -156.557679691084445, 20.909450747052745 ], [ -156.557635826242176, 20.909881846703851 ], [ -156.557642473544973, 20.911070249329484 ], [ -156.557050164996241, 20.911588868504619 ], [ -156.556444064304088, 20.913496378980053 ], [ -156.556145899910689, 20.913757707549284 ], [ -156.555858821937932, 20.914029775756724 ], [ -156.555560655483418, 20.914291103084039 ], [ -156.554987274832342, 20.915359826774971 ], [ -156.554103070039758, 20.915629951406022 ], [ -156.552960552450145, 20.915960386635266 ], [ -156.552922563788286, 20.916964821110327 ], [ -156.552924034184059, 20.917238374242082 ], [ -156.552613582891411, 20.917509968488876 ], [ -156.552618210996798, 20.918317139376644 ], [ -156.552266582899421, 20.919528838098277 ], [ -156.55284421198445, 20.921789262304333 ], [ -156.552320927947392, 20.922370751079868 ], [ -156.549360379205467, 20.922630101362948 ], [ -156.548207593020635, 20.923639550188589 ], [ -156.548196226699162, 20.923940033073521 ], [ -156.548197448705821, 20.924210936408159 ], [ -156.548187095014441, 20.92448378971584 ], [ -156.548482308026905, 20.926274448678107 ], [ -156.548127327301842, 20.927498254079289 ], [ -156.548131567687307, 20.928275524090076 ], [ -156.547815143780497, 20.92962090759417 ], [ -156.547817985262895, 20.930120790508859 ], [ -156.547401242728029, 20.931626097777276 ], [ -156.546002466050254, 20.932053578393877 ], [ -156.544627738232862, 20.932007344168749 ], [ -156.543731227587216, 20.932541499046575 ], [ -156.542863141026999, 20.933076190318744 ], [ -156.541786992198269, 20.93304005259866 ], [ -156.540652986768976, 20.936752732468481 ], [ -156.539374734288089, 20.937348150940096 ], [ -156.537912087168479, 20.937355084380979 ], [ -156.537053141412542, 20.935727565216975 ], [ -156.537354761664005, 20.935139229479784 ], [ -156.538240610852512, 20.934363833902111 ], [ -156.537650774009364, 20.934084436700434 ], [ -156.537676809686104, 20.933404957349602 ], [ -156.537670421422632, 20.932228742047684 ], [ -156.538601448555596, 20.928601907326485 ], [ -156.538628248292667, 20.927892413288273 ], [ -156.538098779277675, 20.924679003044833 ], [ -156.538387036459568, 20.924337942749151 ], [ -156.538691248938306, 20.924071446439669 ], [ -156.538688514360643, 20.923532283675403 ], [ -156.538698891431835, 20.923259035903897 ], [ -156.538346312987301, 20.922591421368722 ], [ -156.539173346847491, 20.921050524758947 ], [ -156.542215753571952, 20.918998709935742 ], [ -156.542833545319752, 20.91687028414583 ], [ -156.542565055148145, 20.916000724192472 ], [ -156.541757952920506, 20.914045423846897 ], [ -156.542344225152704, 20.91243291872793 ], [ -156.542928254885567, 20.911406193950288 ], [ -156.543722979287878, 20.90959470762288 ], [ -156.546443096117429, 20.907659047385621 ], [ -156.548483768526467, 20.90661010227852 ], [ -156.549351673036853, 20.906075496080451 ], [ -156.550222719414307, 20.905693700481272 ], [ -156.547934150530807, 20.905905287587743 ], [ -156.547047101840207, 20.906318585483668 ], [ -156.545518903723377, 20.906859826449541 ], [ -156.543850303722792, 20.907637513132379 ], [ -156.543601863008604, 20.905451115266189 ], [ -156.543194001185185, 20.902976195294833 ], [ -156.546289052973378, 20.902454447541459 ], [ -156.546829380269571, 20.90198128058163 ], [ -156.547116447459075, 20.901709226564886 ], [ -156.547995411850422, 20.901185365379742 ], [ -156.549241286408488, 20.899754241377138 ], [ -156.550917882020485, 20.898286294460156 ], [ -156.548344033070009, 20.898199905240013 ], [ -156.547735470686263, 20.898732942778029 ], [ -156.547161629111258, 20.899277190094374 ], [ -156.54658133228051, 20.899785365312542 ], [ -156.546003020629172, 20.900863379763017 ], [ -156.544348714225379, 20.900871348325641 ], [ -156.542393314790587, 20.900543372163998 ], [ -156.541310833507907, 20.898768493824942 ], [ -156.537863495037044, 20.895558956493428 ], [ -156.53630854987739, 20.893330442636209 ], [ -156.536295963085792, 20.891032502063766 ], [ -156.539491586852449, 20.888471277337146 ], [ -156.541296316275691, 20.888085237142782 ], [ -156.541292766524776, 20.887387338032919 ], [ -156.54373651167262, 20.886496334871975 ], [ -156.544189878505421, 20.887039331806452 ], [ -156.546720524296006, 20.890602493615386 ], [ -156.547010020356367, 20.890872245464688 ], [ -156.547554517656238, 20.89142130526314 ], [ -156.548148152708706, 20.891441199729876 ], [ -156.547878974341529, 20.890613831167144 ], [ -156.547598279174593, 20.889802433876159 ], [ -156.547337818054643, 20.888438972102133 ], [ -156.54623163710437, 20.885559870040524 ], [ -156.549403017980779, 20.885775338955209 ], [ -156.551119314043234, 20.886326106781645 ], [ -156.553254733244501, 20.887816283779031 ], [ -156.555804933558136, 20.888831174376939 ], [ -156.558546283550754, 20.88857725262141 ], [ -156.562610079471256, 20.887504355109847 ], [ -156.567498147799199, 20.884205736642212 ], [ -156.570066409204856, 20.88158389474879 ], [ -156.571983725554901, 20.87656858105429 ], [ -156.572107593767754, 20.873293065708705 ], [ -156.571672187877169, 20.869999952412648 ], [ -156.570610213084734, 20.868426190352562 ], [ -156.567929617358715, 20.867079670449176 ], [ -156.564483925487252, 20.866476557466321 ], [ -156.55662774790639, 20.866650738362544 ], [ -156.553959785171401, 20.867820621471235 ], [ -156.549742087275007, 20.872166267996757 ], [ -156.546411960485784, 20.873510515733848 ], [ -156.540532590469127, 20.8735387411188 ], [ -156.535845306300246, 20.872854753068115 ], [ -156.534058390537467, 20.872281270414778 ], [ -156.533749676216615, 20.87107172406348 ], [ -156.534890071089251, 20.866384050496674 ], [ -156.536705131330365, 20.865538024015091 ], [ -156.537043456506382, 20.865536415059118 ], [ -156.541377062063049, 20.865681960765155 ], [ -156.543159409380905, 20.865166460369959 ], [ -156.552527746893333, 20.859983401969028 ], [ -156.553288602906775, 20.857993442295953 ], [ -156.553456652549954, 20.853556742080531 ], [ -156.552968845789678, 20.852067023804985 ], [ -156.551095789894475, 20.85060100511005 ], [ -156.545977407294828, 20.848617985028447 ], [ -156.54512859378886, 20.847009323503443 ], [ -156.545786266026681, 20.845690639195215 ], [ -156.54774807015869, 20.842751555654296 ], [ -156.548390561907695, 20.841324972446269 ], [ -156.549222932043222, 20.839033018355877 ], [ -156.549862440720716, 20.837840765721236 ], [ -156.55242024265641, 20.836263654927599 ], [ -156.554178081760796, 20.83572596280289 ], [ -156.55564482376812, 20.835718732413891 ], [ -156.557250830207636, 20.836741744816763 ], [ -156.55765328527977, 20.838743178924034 ], [ -156.55790321637889, 20.844284236081034 ], [ -156.559497360902668, 20.845333652606332 ], [ -156.562999431634609, 20.846790375909766 ], [ -156.568271950467562, 20.849439353970574 ], [ -156.570931085846468, 20.849528171424474 ], [ -156.572184928129218, 20.84897812210361 ], [ -156.573883505370645, 20.847930678265843 ], [ -156.57505486884304, 20.84792479163352 ], [ -156.57678317751936, 20.848743559435896 ], [ -156.577242065581345, 20.850068009314633 ], [ -156.576742617561422, 20.852293416308612 ], [ -156.576009187035879, 20.855156625108535 ], [ -156.576366386730626, 20.857435033088347 ], [ -156.577786696190117, 20.859075207090893 ], [ -156.57912973014345, 20.860832661114944 ], [ -156.584878402989858, 20.863464645707168 ], [ -156.596885236636297, 20.863864165309369 ], [ -156.605427535903402, 20.862449456500485 ], [ -156.609317644752451, 20.862866295744745 ], [ -156.610816702939871, 20.863575988818013 ], [ -156.612345608037117, 20.864998381388425 ], [ -156.615077816603844, 20.869218342519311 ], [ -156.615088216049656, 20.870948764063229 ], [ -156.6142269497158, 20.871766769662035 ], [ -156.613030369642672, 20.87203710562666 ], [ -156.610191183501058, 20.87251702165964 ], [ -156.608068545997668, 20.873783094440352 ], [ -156.606947798860716, 20.875288160044569 ], [ -156.606881085781538, 20.877064715640227 ], [ -156.60820655778204, 20.879340377399345 ], [ -156.610005970066908, 20.880663543493647 ], [ -156.611691834588527, 20.881461699832169 ], [ -156.612847919573909, 20.882938546898984 ], [ -156.612855273002538, 20.884164694444706 ], [ -156.612381543863989, 20.885800519323041 ], [ -156.613308357425836, 20.889619903813649 ], [ -156.615667389739741, 20.894499611316249 ], [ -156.618968178353782, 20.90665955312577 ], [ -156.621807880803203, 20.919963951859934 ], [ -156.622453053984543, 20.929483430327601 ], [ -156.621060929790474, 20.929037443194066 ], [ -156.619558426408162, 20.927932902459489 ], [ -156.619727146351096, 20.928552973940644 ], [ -156.620474107237726, 20.929305580032064 ], [ -156.621324654656263, 20.930096531958672 ], [ -156.621690398660036, 20.931524763625156 ], [ -156.619295660794847, 20.931445464678646 ], [ -156.618863113228002, 20.931447761484566 ], [ -156.617512787800507, 20.931402984343393 ], [ -156.618141081534645, 20.931700377801928 ], [ -156.61904064379226, 20.932151685630274 ], [ -156.621083895904007, 20.932574629344035 ], [ -156.622446880537836, 20.932567571930587 ], [ -156.622005537329443, 20.941879438942639 ], [ -156.620800589028107, 20.945831895866959 ], [ -156.620136192334343, 20.945498554217224 ], [ -156.620562946926213, 20.947165202961738 ], [ -156.617888428359663, 20.956362510423855 ], [ -156.614581618145735, 20.962074099396357 ], [ -156.613520716007287, 20.962568759564327 ], [ -156.612488034093019, 20.960878002171302 ], [ -156.611611063026913, 20.959758062444816 ], [ -156.611080797152312, 20.958691126579673 ], [ -156.610746417537911, 20.958058144387792 ], [ -156.611211229580704, 20.956454901990057 ], [ -156.610836528263007, 20.955701119275176 ], [ -156.610532889331154, 20.956537058404106 ], [ -156.609667505447163, 20.957295147013099 ], [ -156.609617327601768, 20.958626956505764 ], [ -156.610186882375558, 20.959772884635758 ], [ -156.610758321612821, 20.960853892040401 ], [ -156.610728755302318, 20.961633356434074 ], [ -156.611019141651667, 20.962217178298534 ], [ -156.611481766022848, 20.963092694321698 ], [ -156.61042075170252, 20.963557967602554 ], [ -156.610423968113253, 20.964099800828286 ], [ -156.610268875472087, 20.96423571818897 ] ], [ [ -156.584914289180546, 20.926766198871096 ], [ -156.585267093518212, 20.92667846983295 ], [ -156.585018391657457, 20.926437391255966 ], [ -156.584914289180546, 20.926766198871096 ], [ -156.584626028176615, 20.926762118743142 ], [ -156.584621685148591, 20.927032948457661 ], [ -156.584268879727887, 20.927120676039397 ], [ -156.584517581276202, 20.927361755685368 ], [ -156.584621685148591, 20.927032948457661 ], [ -156.584909946669626, 20.927037028643255 ], [ -156.584914289180546, 20.926766198871096 ] ] ] } },
{ "type": "Feature", "properties": { "ID": 13, "GRIDCODE": 2 }, "geometry": { "type": "Polygon", "coordinates": [ [ [ -156.866292371674746, 20.807784310524653 ], [ -156.868570635406172, 20.80797404445789 ], [ -156.872624383321096, 20.81025537069862 ], [ -156.881678400522844, 20.818295667224639 ], [ -156.885746889265846, 20.820684716174025 ], [ -156.888727405406883, 20.822175101124163 ], [ -156.890719773545811, 20.822584346369609 ], [ -156.894027992572376, 20.82306015022731 ], [ -156.896521318634086, 20.824969082577244 ], [ -156.897550293045327, 20.826908835638346 ], [ -156.897574856910438, 20.830044896305704 ], [ -156.897020982223239, 20.83253805175401 ], [ -156.895770241018539, 20.834281534678109 ], [ -156.893601636076966, 20.835077611440845 ], [ -156.891828983052193, 20.834763565273207 ], [ -156.891431423230415, 20.833967160534684 ], [ -156.891145123867858, 20.833427054166904 ], [ -156.890684055688325, 20.832502996942615 ], [ -156.890293869725923, 20.832874698196179 ], [ -156.889996397184547, 20.833136678820932 ], [ -156.889552215673717, 20.834756825170892 ], [ -156.886394129353079, 20.834376433770149 ], [ -156.882811699426668, 20.831698635864015 ], [ -156.877285515794881, 20.827097242172659 ], [ -156.87454123892536, 20.82590129507939 ], [ -156.870968995401967, 20.825491419374508 ], [ -156.865062124780081, 20.819131016403755 ], [ -156.863721685420813, 20.816602753962847 ], [ -156.864259359772433, 20.810838753049339 ], [ -156.865218051759456, 20.809041733980212 ], [ -156.866292371674746, 20.807784310524653 ] ] ] } },
{ "type": "Feature", "properties": { "ID": 14, "GRIDCODE": 1 }, "geometry": { "type": "Polygon", "coordinates": [ [ [ -156.032245852947767, 20.767212934479939 ], [ -156.033028075119603, 20.767342817548027 ], [ -156.034074583855187, 20.768049547298098 ], [ -156.033473502574424, 20.768535015211871 ], [ -156.032942208092805, 20.768413173669398 ], [ -156.031626401127113, 20.768666779649127 ], [ -156.031774948482223, 20.767856940270697 ], [ -156.032119938874558, 20.767641820579332 ], [ -156.032245852947767, 20.767212934479939 ] ] ] } },
{ "type": "Feature", "properties": { "ID": 15, "GRIDCODE": 1 }, "geometry": { "type": "Polygon", "coordinates": [ [ [ -156.016968270464332, 20.738784874549427 ], [ -156.016962960200232, 20.739055583065664 ], [ -156.016596911975626, 20.738913827992494 ], [ -156.016968270464332, 20.738784874549427 ] ] ] } },
{ "type": "Feature", "properties": { "ID": 16, "GRIDCODE": 1 }, "geometry": { "type": "Polygon", "coordinates": [ [ [ -156.017703044910917, 20.730673600107266 ], [ -156.017697738221358, 20.730944309059975 ], [ -156.017409984611163, 20.730939316425026 ], [ -156.017415291810863, 20.730668607543357 ], [ -156.017703044910917, 20.730673600107266 ] ] ] } },
{ "type": "Feature", "properties": { "ID": 17, "GRIDCODE": 1 }, "geometry": { "type": "Polygon", "coordinates": [ [ [ -156.026555548559088, 20.704829873018827 ], [ -156.026206714864003, 20.704731152869698 ], [ -156.026463372608305, 20.704498106501077 ], [ -156.026555548559088, 20.704829873018827 ] ] ] } },
{ "type": "Feature", "properties": { "ID": 18, "GRIDCODE": 1 }, "geometry": { "type": "Polygon", "coordinates": [ [ [ -156.284187827988006, 20.864284241324331 ], [ -156.284197561597267, 20.863742705822354 ], [ -156.283909489017162, 20.863738131203515 ], [ -156.283816679891004, 20.863406432714108 ], [ -156.283560066860019, 20.863639875495913 ], [ -156.283909489017162, 20.863738131203515 ], [ -156.283899754378524, 20.864279666575957 ], [ -156.284187827988006, 20.864284241324331 ], [ -156.284391950177877, 20.866063183922027 ], [ -156.283861749284654, 20.867191968539142 ], [ -156.282841274854803, 20.867056204380475 ], [ -156.282526714837985, 20.867725937173123 ], [ -156.281038535148696, 20.867527845842645 ], [ -156.279558214144629, 20.869206335466064 ], [ -156.279049783424796, 20.868686445645793 ], [ -156.278818699716453, 20.867298660166121 ], [ -156.27866079472534, 20.867175669377435 ], [ -156.278567996316269, 20.86684396918908 ], [ -156.278311369638914, 20.86707740246851 ], [ -156.27866079472534, 20.867175669377435 ], [ -156.278302524652219, 20.868255591577118 ], [ -156.27675339671211, 20.868379045384067 ], [ -156.276506339793286, 20.867535072165989 ], [ -156.276196246257911, 20.867284416624837 ], [ -156.275727195618089, 20.866735257734366 ], [ -156.27616695309024, 20.868909011510784 ], [ -156.276706135395187, 20.8698298453733 ], [ -156.274535557149306, 20.870363132559664 ], [ -156.274142717316352, 20.869021433433566 ], [ -156.273022511409749, 20.867504678020179 ], [ -156.27277002624021, 20.86693145789485 ], [ -156.272180760601401, 20.866978396626713 ], [ -156.270762813817981, 20.866819689594895 ], [ -156.271892212065126, 20.867732365210141 ], [ -156.272148501807095, 20.868032423745319 ], [ -156.2729848731, 20.868389343103782 ], [ -156.273095112994866, 20.869609233588896 ], [ -156.271579224401393, 20.869730127050296 ], [ -156.270715035548847, 20.867766479685237 ], [ -156.269862971740622, 20.867671149171731 ], [ -156.269237066778857, 20.867721063067624 ], [ -156.268742948049294, 20.866598724113416 ], [ -156.268587909343097, 20.866473390156539 ], [ -156.268592804683038, 20.866202626004593 ], [ -156.268304731167973, 20.866198024604408 ], [ -156.268309626944443, 20.865927260507949 ], [ -156.267733481178482, 20.86591805638605 ], [ -156.267753067619566, 20.864835000424826 ], [ -156.267464996912764, 20.864830397898622 ], [ -156.267372224672698, 20.864498694417314 ], [ -156.267115587214391, 20.864732109463123 ], [ -156.267464996912764, 20.864830397898622 ], [ -156.267541865510992, 20.866539333634694 ], [ -156.268304731167973, 20.866198024604408 ], [ -156.268299835313314, 20.866468788691204 ], [ -156.268587909343097, 20.866473390156539 ], [ -156.268457189754429, 20.866621667299221 ], [ -156.267799060101368, 20.867099939106819 ], [ -156.268433250806027, 20.86794560850489 ], [ -156.268962107824876, 20.86879647068918 ], [ -156.269820157375023, 20.869152561256026 ], [ -156.269544672116922, 20.870163689247505 ], [ -156.268152511095479, 20.869978259087194 ], [ -156.268804080164955, 20.870486049779586 ], [ -156.269487348989713, 20.871622254569044 ], [ -156.269223289564593, 20.871783081793012 ], [ -156.268726383376162, 20.871716955748322 ], [ -156.268327729585849, 20.872006555981152 ], [ -156.267742483477633, 20.872670209774036 ], [ -156.266330932463859, 20.872482204730272 ], [ -156.266039882300248, 20.872812400064799 ], [ -156.265139191921776, 20.873038948337122 ], [ -156.264667996399709, 20.873573093146991 ], [ -156.264554597730978, 20.87332384496122 ], [ -156.264712264800039, 20.872278708143092 ], [ -156.263700476802796, 20.871678780648409 ], [ -156.26457536658512, 20.87104291935939 ], [ -156.264669068554127, 20.870421800226829 ], [ -156.264360954328168, 20.870047240885832 ], [ -156.264045166322603, 20.869801234488293 ], [ -156.263597459160763, 20.869256751427805 ], [ -156.262907568627298, 20.868970504038181 ], [ -156.262456008556825, 20.8684215927453 ], [ -156.262614584462284, 20.869236655194875 ], [ -156.263182883426623, 20.869679521538153 ], [ -156.262915108087867, 20.870324831217687 ], [ -156.262587167197097, 20.870563179633034 ], [ -156.262674307795095, 20.871329357360114 ], [ -156.262002196105584, 20.871397017762504 ], [ -156.261551460677794, 20.870849042749498 ], [ -156.260756548853863, 20.870519182153483 ], [ -156.2613274016812, 20.869191445879167 ], [ -156.26002807845029, 20.868652091706441 ], [ -156.260183858890116, 20.867619097591206 ], [ -156.259926078602717, 20.867418184363849 ], [ -156.259833322568653, 20.867086478532421 ], [ -156.259576669963423, 20.867319880412289 ], [ -156.259926078602717, 20.867418184363849 ], [ -156.259312924782193, 20.869340082096429 ], [ -156.260013945749449, 20.869927647151016 ], [ -156.259731151372193, 20.870810621173614 ], [ -156.259137376335218, 20.871772056775065 ], [ -156.25945520749147, 20.872246361912961 ], [ -156.26024799743098, 20.872910646438896 ], [ -156.259643897134794, 20.874797377995908 ], [ -156.258507155489212, 20.874012123727034 ], [ -156.258211644662907, 20.87432345324325 ], [ -156.257578899015982, 20.872671995987126 ], [ -156.257300327391931, 20.872995894645769 ], [ -156.25737873716011, 20.874163828691316 ], [ -156.25698096537414, 20.875332983095117 ], [ -156.255674339387895, 20.875410535439578 ], [ -156.255009913802581, 20.874497024226425 ], [ -156.255163434832753, 20.87301793689111 ], [ -156.254789238311304, 20.872595353772653 ], [ -156.254460726563337, 20.872941588378673 ], [ -156.253337557282151, 20.8726039092078 ], [ -156.253034993680842, 20.871244850276991 ], [ -156.252188797508381, 20.872296492838053 ], [ -156.252247265014546, 20.873166287465136 ], [ -156.251577958874236, 20.872800978041649 ], [ -156.251655672578437, 20.873958319682405 ], [ -156.250875488987077, 20.873886661675694 ], [ -156.25029852692623, 20.87392102377553 ], [ -156.249564980975748, 20.87385368059633 ], [ -156.249620745387432, 20.874685608903157 ], [ -156.249046317308796, 20.87471974272048 ], [ -156.248734951217386, 20.873320732139668 ], [ -156.248425907878357, 20.873339033649618 ], [ -156.247798917157297, 20.871702322346529 ], [ -156.24758444524241, 20.871951458539044 ], [ -156.247671693295985, 20.873247942568678 ], [ -156.246751471276383, 20.873711192228505 ], [ -156.245394565753344, 20.874154837325289 ], [ -156.244986084243948, 20.873252955028136 ], [ -156.243404933749702, 20.874048974004886 ], [ -156.24352341165357, 20.873509208582277 ], [ -156.244414220159712, 20.872067285670663 ], [ -156.243759303109869, 20.872287364279469 ], [ -156.242680669253076, 20.872980391943138 ], [ -156.241885446224671, 20.872546496688134 ], [ -156.241236402624367, 20.873230442608282 ], [ -156.239872184061539, 20.872287734911492 ], [ -156.238821419276036, 20.873394979985839 ], [ -156.238358767280658, 20.872872414153466 ], [ -156.237780581461635, 20.87348171369554 ], [ -156.236908265167045, 20.873401627253294 ], [ -156.235763651046369, 20.873469479461146 ], [ -156.235199001184043, 20.872831526670971 ], [ -156.234892775984321, 20.872849716906792 ], [ -156.234055760688676, 20.872271494076262 ], [ -156.233484725695973, 20.872305366386442 ], [ -156.233464382371068, 20.872002594608091 ], [ -156.233514937364873, 20.871516357071854 ], [ -156.232966570405637, 20.870896779302264 ], [ -156.23237103193847, 20.870932103215498 ], [ -156.231780362320109, 20.870609651261667 ], [ -156.231484002812124, 20.870627202032978 ], [ -156.231196327335425, 20.870600855635246 ], [ -156.230897996233608, 20.87061850569869 ], [ -156.23046688603975, 20.869666903992087 ], [ -156.230079538478094, 20.869229381769433 ], [ -156.229469833364732, 20.868718034625715 ], [ -156.228947127072416, 20.868127691266036 ], [ -156.227931019562561, 20.86768156142702 ], [ -156.229533203244245, 20.866428860317587 ], [ -156.229193186315541, 20.865820054401755 ], [ -156.228672449045092, 20.866227391143006 ], [ -156.228166567134906, 20.866760466232062 ], [ -156.227708570518445, 20.865235940539154 ], [ -156.226665944291483, 20.865653191590397 ], [ -156.225432107425291, 20.866445682493957 ], [ -156.225218945890191, 20.86591734884831 ], [ -156.225247672669809, 20.865640235584625 ], [ -156.225201955912723, 20.864957910107293 ], [ -156.225538556156266, 20.864280729463694 ], [ -156.22605593411788, 20.863443291313896 ], [ -156.226594543345868, 20.862276643755624 ], [ -156.226976767781821, 20.86207191245596 ], [ -156.226745387345545, 20.861094978687863 ], [ -156.226594543345868, 20.862276643755624 ], [ -156.225807347099504, 20.862392285694131 ], [ -156.225291678923242, 20.863489213188796 ], [ -156.224679069980283, 20.863720220949006 ], [ -156.224207778546827, 20.86425424192679 ], [ -156.223858347494996, 20.863485392540891 ], [ -156.224780378106971, 20.862340976996769 ], [ -156.223430908681593, 20.861954479363774 ], [ -156.223324090650664, 20.861060365974204 ], [ -156.223047079528442, 20.861756362551716 ], [ -156.223430908681593, 20.861954479363774 ], [ -156.223292408858157, 20.862371046100726 ], [ -156.222973396709421, 20.862611575009076 ], [ -156.222296255792941, 20.864225321435043 ], [ -156.221349798823894, 20.863115897345221 ], [ -156.220682494556428, 20.86316892792146 ], [ -156.220402361187411, 20.862840643796137 ], [ -156.219840903276634, 20.862386651734081 ], [ -156.219552188049335, 20.861729734900241 ], [ -156.218666731465675, 20.8623071261148 ], [ -156.218394870536343, 20.861988363025358 ], [ -156.217254700473063, 20.86236998340538 ], [ -156.217220634926889, 20.861988966034399 ], [ -156.217271997097981, 20.861583551188506 ], [ -156.217144748034968, 20.860165951669142 ], [ -156.217735978552156, 20.859720256877413 ], [ -156.21800274827396, 20.859428768116565 ], [ -156.218355513022345, 20.85934180274257 ], [ -156.218107560166857, 20.85910026172165 ], [ -156.21800274827396, 20.859428768116565 ], [ -156.217282994144227, 20.859274899141937 ], [ -156.21648247161437, 20.859656487166127 ], [ -156.215263264973061, 20.856372094613668 ], [ -156.21529935690225, 20.85789519458762 ], [ -156.21528276459054, 20.858169592950915 ], [ -156.215590664119077, 20.85935698884072 ], [ -156.215530885053113, 20.860341225216402 ], [ -156.215825936169011, 20.860607340134838 ], [ -156.215800925310873, 20.861017943933046 ], [ -156.215824118583498, 20.861988852035154 ], [ -156.215229604140887, 20.861680568851082 ], [ -156.214647049001002, 20.861410564500765 ], [ -156.214082920954951, 20.861117980503717 ], [ -156.212537127030316, 20.861599152307264 ], [ -156.211923779668155, 20.860954787578141 ], [ -156.212276549999359, 20.860867835566854 ], [ -156.212028605800327, 20.860626286572881 ], [ -156.211923779668155, 20.860954787578141 ], [ -156.21096413642411, 20.861159854710621 ], [ -156.210885755343867, 20.860802447578834 ], [ -156.211078800532249, 20.860054457994281 ], [ -156.210626273136853, 20.859951335343872 ], [ -156.210370777566339, 20.860286767210866 ], [ -156.210064515967076, 20.860216973210562 ], [ -156.209753037398116, 20.860277352338933 ], [ -156.209517776906864, 20.859653958844799 ], [ -156.208622116236683, 20.859990580255143 ], [ -156.20791610303786, 20.859535252089795 ], [ -156.207926107308424, 20.858993751141799 ], [ -156.208502197534074, 20.859003153627029 ], [ -156.208512199427304, 20.858461652373947 ], [ -156.208864964814637, 20.858374706950311 ], [ -156.208617030293937, 20.858133154019797 ], [ -156.208512199427304, 20.858461652373947 ], [ -156.208085460247105, 20.85860795662775 ], [ -156.207646188943187, 20.858549211935411 ], [ -156.207156243848459, 20.858598474120736 ], [ -156.207347939687281, 20.857330359445719 ], [ -156.206759364047997, 20.857996904021427 ], [ -156.206200638975815, 20.858052975005418 ], [ -156.206073351985282, 20.85693226002541 ], [ -156.20622079599417, 20.85595779540926 ], [ -156.205829081667105, 20.856401550034196 ], [ -156.205202207257742, 20.856856669597263 ], [ -156.205336290710278, 20.858035549898553 ], [ -156.204919474982631, 20.857979942387807 ], [ -156.204523407291617, 20.858019622694432 ], [ -156.203429588541951, 20.857706183192885 ], [ -156.203618431713465, 20.856456939485305 ], [ -156.203210041994936, 20.856919457449543 ], [ -156.201733021504481, 20.856042740396585 ], [ -156.201813817573424, 20.855508482802328 ], [ -156.201781646239766, 20.855224826951563 ], [ -156.202109631971069, 20.854986601916302 ], [ -156.202371165341305, 20.854690161010954 ], [ -156.203280959732183, 20.854029412219173 ], [ -156.203909400968001, 20.853063209389902 ], [ -156.203432612413764, 20.85269122244005 ], [ -156.203339989368118, 20.852359500351803 ], [ -156.203083288091875, 20.852592810733981 ], [ -156.203432612413764, 20.85269122244005 ], [ -156.203274168808832, 20.853179779104579 ], [ -156.202679241626413, 20.853611873245868 ], [ -156.202351322815872, 20.853983532892293 ], [ -156.200379768994054, 20.854181382547775 ], [ -156.200119009603299, 20.853569993863658 ], [ -156.19980004603525, 20.853321184604876 ], [ -156.199844333339968, 20.853026481627776 ], [ -156.199272977077811, 20.852580732380055 ], [ -156.199547179626023, 20.851661116244006 ], [ -156.200161845035723, 20.851743247243299 ], [ -156.200124360204597, 20.851412426377241 ], [ -156.200602429034262, 20.849936628731108 ], [ -156.200955176341267, 20.849849697825931 ], [ -156.200707268199494, 20.849608136218173 ], [ -156.200602429034262, 20.849936628731108 ], [ -156.199565851736565, 20.850030221229574 ], [ -156.199292087652793, 20.850683378145771 ], [ -156.198714080193383, 20.850551592818466 ], [ -156.197279460427779, 20.850943999385919 ], [ -156.197021482241581, 20.85025939134972 ], [ -156.196474035446613, 20.849890858338846 ], [ -156.197397036425116, 20.848608160575356 ], [ -156.197290409197706, 20.848122013687789 ], [ -156.197429548532085, 20.847582631326254 ], [ -156.1971480965517, 20.846297527489838 ], [ -156.197871309648434, 20.845348767996633 ], [ -156.198561009144385, 20.844917710852112 ], [ -156.198691575504284, 20.844217909385407 ], [ -156.198979590170097, 20.844222623223779 ], [ -156.198994632366919, 20.843410376558133 ], [ -156.199347364450176, 20.84332344729205 ], [ -156.199099468553698, 20.843081884694435 ], [ -156.198994632366919, 20.843410376558133 ], [ -156.198706619242898, 20.843405662920123 ], [ -156.198691575504284, 20.844217909385407 ], [ -156.197679489420437, 20.844889922841258 ], [ -156.197130103974445, 20.844839402569701 ], [ -156.195880851515881, 20.846860613707459 ], [ -156.195921353102108, 20.847468265251539 ], [ -156.195604255243268, 20.848106026448153 ], [ -156.195306806394882, 20.848078670556752 ], [ -156.194524342938365, 20.848124823954763 ], [ -156.19397053205094, 20.847660304974131 ], [ -156.193587703978864, 20.846988060635407 ], [ -156.193462106429621, 20.846569705696332 ], [ -156.193814847843441, 20.846482789073693 ], [ -156.193566957287857, 20.846241218945693 ], [ -156.193462106429621, 20.846569705696332 ], [ -156.192364595610144, 20.846794498040051 ], [ -156.191405715450372, 20.846099177301447 ], [ -156.192174113489529, 20.844976364163728 ], [ -156.191910097434629, 20.844118548656038 ], [ -156.190949201665177, 20.845289907696323 ], [ -156.189537517494642, 20.84496495756505 ], [ -156.189698320614156, 20.844169392206737 ], [ -156.189060473389418, 20.844261933104015 ], [ -156.189419250284772, 20.842699316357784 ], [ -156.190501349391923, 20.841969788144681 ], [ -156.190229498032295, 20.841731391519495 ], [ -156.188604890502887, 20.842116909796239 ], [ -156.188040389537775, 20.842804677870983 ], [ -156.187312061130115, 20.842558644638789 ], [ -156.187499341524756, 20.841867722848676 ], [ -156.187870867758647, 20.841738412646407 ], [ -156.187504375583472, 20.841596976568894 ], [ -156.187634987232968, 20.840897188800074 ], [ -156.188217947729669, 20.840532788927213 ], [ -156.187973166559203, 20.840351961954006 ], [ -156.187236506241305, 20.840509259055345 ], [ -156.187111330382663, 20.840356844421155 ], [ -156.186638227518898, 20.83998778786852 ], [ -156.186234090327275, 20.839495822131852 ], [ -156.185089437659116, 20.839610698412134 ], [ -156.184835962010936, 20.838083119159315 ], [ -156.182700858579864, 20.838297267900096 ], [ -156.182848422092746, 20.837322572236356 ], [ -156.182743048814388, 20.836394097676965 ], [ -156.183258918058186, 20.835809752116532 ], [ -156.183778812354575, 20.83543216265274 ], [ -156.184634614192561, 20.834116955616111 ], [ -156.185078548390464, 20.83261975332611 ], [ -156.185431258800548, 20.832532850722135 ], [ -156.18518340323098, 20.8322912722195 ], [ -156.185078548390464, 20.83261975332611 ], [ -156.183226520014443, 20.832199980577304 ], [ -156.181180821313148, 20.832980519519214 ], [ -156.180621757878214, 20.832667162342833 ], [ -156.180067574188598, 20.832711064680478 ], [ -156.178280897466777, 20.834822464238876 ], [ -156.177932357778332, 20.835062421528075 ], [ -156.178061893911973, 20.834044986242056 ], [ -156.177349914309161, 20.833182153834294 ], [ -156.176994680545391, 20.833569975583792 ], [ -156.17626416947067, 20.833685673345382 ], [ -156.175498801138815, 20.834463049691006 ], [ -156.174290734754322, 20.834510822749234 ], [ -156.173670390558641, 20.834180431309072 ], [ -156.17306563314034, 20.834476581851657 ], [ -156.171955595265302, 20.833885388787262 ], [ -156.170831625336746, 20.833377798891288 ], [ -156.172917545242484, 20.832178457693367 ], [ -156.174031279358246, 20.831275660788165 ], [ -156.175958056138512, 20.829134218422375 ], [ -156.176932362485502, 20.828344280133603 ], [ -156.177380250290753, 20.827467506037681 ], [ -156.1784189284447, 20.82574341608543 ], [ -156.179006495819863, 20.823045873457062 ], [ -156.179965251056956, 20.821169566252319 ], [ -156.183154058879609, 20.819493514600378 ], [ -156.182705319829523, 20.819406262310984 ], [ -156.18090841377753, 20.819827245730565 ], [ -156.180479952679036, 20.818907735858321 ], [ -156.178865485115153, 20.81776504995144 ], [ -156.178125460602956, 20.816176162742824 ], [ -156.176993520412594, 20.81557327933513 ], [ -156.176496024944839, 20.815537179220541 ], [ -156.172515520177939, 20.818457511808184 ], [ -156.17223852971324, 20.818739106803875 ], [ -156.171620728957038, 20.819240014534113 ], [ -156.171052702082278, 20.819816853626108 ], [ -156.170757201973174, 20.818167839251796 ], [ -156.170217697084581, 20.817579587601884 ], [ -156.168509121708354, 20.817052551754596 ], [ -156.167825357687775, 20.816688303359875 ], [ -156.165713662052354, 20.816118872697217 ], [ -156.163063337348007, 20.815608338567245 ], [ -156.162694507391336, 20.815206043527827 ], [ -156.160808208100718, 20.816735478808358 ], [ -156.160426383686314, 20.817986740934188 ], [ -156.16000124456977, 20.820947260960246 ], [ -156.158989508801, 20.82098708266874 ], [ -156.158689300360209, 20.819311270017678 ], [ -156.158282246555785, 20.819327263388484 ], [ -156.157824340428419, 20.81850058218761 ], [ -156.157514830085319, 20.817141325618579 ], [ -156.157253799249958, 20.818204952079189 ], [ -156.156909163205285, 20.820605045623608 ], [ -156.155797776166423, 20.820648880895266 ], [ -156.155205663007393, 20.820333446412132 ], [ -156.154127377246681, 20.820861283163975 ], [ -156.153668413757401, 20.820540914711582 ], [ -156.153100303526173, 20.819921592527219 ], [ -156.151783706524952, 20.81892656875506 ], [ -156.150661598542996, 20.818419687342015 ], [ -156.150635059558908, 20.81782682045743 ], [ -156.151353820666657, 20.815684881976846 ], [ -156.150959555005983, 20.815933810076846 ], [ -156.149351696988191, 20.817802826575576 ], [ -156.14721233491386, 20.817347494309303 ], [ -156.147194954642998, 20.816956046241362 ], [ -156.147509996752149, 20.816433399334102 ], [ -156.147807415559527, 20.815068898026897 ], [ -156.148116480207932, 20.814818559385003 ], [ -156.14825499141665, 20.81467778359929 ], [ -156.148607669938002, 20.814590954387171 ], [ -156.148359905814772, 20.814349332219326 ], [ -156.14825499141665, 20.81467778359929 ], [ -156.147605506634278, 20.814543198315036 ], [ -156.147982337765626, 20.813860777381191 ], [ -156.148335014403955, 20.813773948521785 ], [ -156.14808725193538, 20.813532326143967 ], [ -156.147982337765626, 20.813860777381191 ], [ -156.147463144537056, 20.813753221160926 ], [ -156.147628655774128, 20.813448259466028 ], [ -156.147421743934331, 20.813038977798076 ], [ -156.147774418765891, 20.812952149902557 ], [ -156.147526658473112, 20.812710526951843 ], [ -156.147421743934331, 20.813038977798076 ], [ -156.146706077885341, 20.812610381916528 ], [ -156.146126487135376, 20.814230953969176 ], [ -156.145334373575935, 20.813873677261853 ], [ -156.144854531774627, 20.812872315180183 ], [ -156.14440100538485, 20.812847831487048 ], [ -156.143830345244709, 20.812859610831016 ], [ -156.144127850184674, 20.811760255409663 ], [ -156.145296719777747, 20.810378675572828 ], [ -156.145339074495467, 20.809683283073177 ], [ -156.144976210695717, 20.808534839078593 ], [ -156.144743557336142, 20.809089269681877 ], [ -156.144761507429735, 20.809853239865436 ], [ -156.144175192298832, 20.810427562895384 ], [ -156.143415518726727, 20.811066170308248 ], [ -156.142772164882729, 20.811696398666733 ], [ -156.141589732318579, 20.812259580500626 ], [ -156.141243157865603, 20.81199329194245 ], [ -156.140694051278388, 20.811161351590194 ], [ -156.13985559954213, 20.810772071144239 ], [ -156.139835989195888, 20.809933493578885 ], [ -156.139899089428354, 20.808900321068794 ], [ -156.138860546955726, 20.809917607836873 ], [ -156.138438200898975, 20.808108696393425 ], [ -156.137574275845708, 20.809753973865998 ], [ -156.136489544724498, 20.809776184758459 ], [ -156.136130467109581, 20.808639428707885 ], [ -156.135836152341653, 20.808927679027125 ], [ -156.135269327762387, 20.808633367515121 ], [ -156.134105241599229, 20.808092893561568 ], [ -156.132683326569975, 20.807354637394855 ], [ -156.132712615841427, 20.808616133672796 ], [ -156.131789107345753, 20.808294289071078 ], [ -156.130933713447774, 20.808311840431237 ], [ -156.130282717978389, 20.806952661012204 ], [ -156.12953081572789, 20.8069120358902 ], [ -156.1289865922964, 20.807444956189933 ], [ -156.128666271610683, 20.806908265631947 ], [ -156.128377840824015, 20.805994971778631 ], [ -156.126753973510176, 20.804903655594483 ], [ -156.125873872628659, 20.805765359570074 ], [ -156.125482760978031, 20.805773478978981 ], [ -156.123813811128116, 20.805191678500705 ], [ -156.122177406695812, 20.804674146900663 ], [ -156.121519565637186, 20.804080207033056 ], [ -156.120950418741302, 20.803481407517975 ], [ -156.119241945154101, 20.802687855186353 ], [ -156.11895844029894, 20.802095833814384 ], [ -156.11825196260682, 20.801457693068059 ], [ -156.11783421660823, 20.80101826117378 ], [ -156.116710171226657, 20.801041146034052 ], [ -156.11555630167453, 20.800177811724677 ], [ -156.11502565254824, 20.800188717966357 ], [ -156.114257263216047, 20.799494776060133 ], [ -156.11384559947706, 20.799061785688789 ], [ -156.11264789959867, 20.799807390505656 ], [ -156.111284793734399, 20.798576200187036 ], [ -156.110996739411775, 20.797664084850382 ], [ -156.109765553321381, 20.797274665127006 ], [ -156.108148130134538, 20.795990769377266 ], [ -156.107579517431702, 20.796002335975071 ], [ -156.105848579295184, 20.794965107031629 ], [ -156.103269463035474, 20.794825290250287 ], [ -156.102981359182564, 20.794831266179415 ], [ -156.102421428204053, 20.794800912306066 ], [ -156.101403924740367, 20.795285278148803 ], [ -156.100310530238374, 20.794134606344027 ], [ -156.098250147341076, 20.793416237522099 ], [ -156.096575271970693, 20.793010890263371 ], [ -156.095795242235937, 20.79102224768171 ], [ -156.094020744786775, 20.790592844180956 ], [ -156.092700566454567, 20.789203443582494 ], [ -156.09070003236738, 20.788273642195364 ], [ -156.090754103489417, 20.787389920909323 ], [ -156.089590157370878, 20.787021476738499 ], [ -156.089318362035442, 20.786735340999019 ], [ -156.088752604908422, 20.786746764537707 ], [ -156.087705371169818, 20.786202833070071 ], [ -156.086728023307472, 20.78614974024757 ], [ -156.085759641525584, 20.786610782071389 ], [ -156.084799015955099, 20.785599673597591 ], [ -156.084152325620181, 20.785564483344814 ], [ -156.082727113977398, 20.785593407968175 ], [ -156.082095903720557, 20.784928915674431 ], [ -156.079951479066381, 20.785418443876907 ], [ -156.079556155727289, 20.784684437791995 ], [ -156.079018190876781, 20.78355963707547 ], [ -156.077905834610078, 20.783582213738509 ], [ -156.077284205009619, 20.783020481636566 ], [ -156.077316134543508, 20.782501619030327 ], [ -156.076532817723688, 20.781677030319997 ], [ -156.075876445103148, 20.781372025192177 ], [ -156.075317378284581, 20.78108137087721 ], [ -156.073871838657681, 20.780796226038692 ], [ -156.073600085943269, 20.780510070021943 ], [ -156.072802550751504, 20.780526216688255 ], [ -156.072155111377924, 20.780225317866822 ], [ -156.071831560046519, 20.779548854125704 ], [ -156.070978702072239, 20.779954792062625 ], [ -156.069863485845019, 20.779894096719048 ], [ -156.06928735009015, 20.779905809949764 ], [ -156.068994923360378, 20.779889839350886 ], [ -156.068362865750885, 20.780190709049236 ], [ -156.065184459338354, 20.779184175199667 ], [ -156.06469693339784, 20.778743837421732 ], [ -156.064425757674627, 20.778458075473409 ], [ -156.062409805952711, 20.777892269998475 ], [ -156.061829899414903, 20.777590904661402 ], [ -156.061265592182735, 20.777602265314204 ], [ -156.059702156805372, 20.777266591124491 ], [ -156.058107700233649, 20.777298632515812 ], [ -156.055991385226235, 20.777183393322446 ], [ -156.053930070714813, 20.777653792770664 ], [ -156.052954299130761, 20.776626272133548 ], [ -156.052137699651354, 20.775888155581686 ], [ -156.05180387677953, 20.775267949360806 ], [ -156.052236593863455, 20.774531591284415 ], [ -156.051551220182517, 20.774175226378663 ], [ -156.050969347007793, 20.773904735702306 ], [ -156.050562357071897, 20.773476061227171 ], [ -156.050121599054052, 20.773077747270541 ], [ -156.049849908140772, 20.772791560369892 ], [ -156.049412770636764, 20.772800309439901 ], [ -156.047830792116486, 20.772714128893096 ], [ -156.04502203411829, 20.772770382290705 ], [ -156.042657207038985, 20.772397091378053 ], [ -156.042340467830314, 20.772403401343073 ], [ -156.041535368658344, 20.771555293168419 ], [ -156.040414358035065, 20.770541870288536 ], [ -156.040000779151171, 20.768938870613358 ], [ -156.040711996507383, 20.768341559960977 ], [ -156.03972769298835, 20.7682785714095 ], [ -156.038291434690279, 20.768307347530993 ], [ -156.03642442930871, 20.767715796548462 ], [ -156.036131836379013, 20.767407545046755 ], [ -156.035063924733237, 20.767738978080477 ], [ -156.034683738767853, 20.767395228710662 ], [ -156.034701016635694, 20.767115203432247 ], [ -156.033741994465089, 20.766248142418895 ], [ -156.034145571262457, 20.76548039101834 ], [ -156.03498647365339, 20.765124678311491 ], [ -156.035343404508382, 20.763822047371061 ], [ -156.035936390323684, 20.762813599492045 ], [ -156.036242409817135, 20.762231656381928 ], [ -156.036827837034082, 20.761739690071497 ], [ -156.035956569071033, 20.761188861330012 ], [ -156.035973844917152, 20.760908703196197 ], [ -156.035657772921724, 20.760622790106062 ], [ -156.035755269827433, 20.759041303136634 ], [ -156.035052196166362, 20.758675585743998 ], [ -156.033225912778533, 20.758712138633893 ], [ -156.031996194853036, 20.757600270317848 ], [ -156.031725120186451, 20.757314467962242 ], [ -156.031431158719272, 20.757048897196508 ], [ -156.031063967429105, 20.755883570809647 ], [ -156.02949171718538, 20.755152136041197 ], [ -156.028616626883689, 20.753750588806223 ], [ -156.02835031898789, 20.752905409141533 ], [ -156.027129720704465, 20.752337524080644 ], [ -156.026232247558028, 20.751392030541158 ], [ -156.025791618232006, 20.750993668576754 ], [ -156.025309011568851, 20.750484962099726 ], [ -156.023711523434883, 20.749654139386717 ], [ -156.021218765172534, 20.749289616593895 ], [ -156.020118362630342, 20.748717160063837 ], [ -156.019791552432196, 20.748723655274901 ], [ -156.018943826327245, 20.748427434336456 ], [ -156.017223469503875, 20.74808749834926 ], [ -156.016363557813889, 20.747309748534793 ], [ -156.016108473572075, 20.746211802785364 ], [ -156.015808761377741, 20.7459409532687 ], [ -156.016400172973988, 20.745444268092623 ], [ -156.016135041649392, 20.744858262287213 ], [ -156.015545832891405, 20.744584103283703 ], [ -156.01641707919643, 20.743852286700253 ], [ -156.016463153736709, 20.743108914347388 ], [ -156.016453786415752, 20.742698055203011 ], [ -156.017063371065262, 20.741661138149123 ], [ -156.016962960200232, 20.739055583065664 ], [ -156.01763445260076, 20.738931838033064 ], [ -156.016968270464332, 20.738784874549427 ], [ -156.016798200381146, 20.738383258111476 ], [ -156.016869979839498, 20.7381061665494 ], [ -156.01677944905606, 20.737691121466817 ], [ -156.017419347892684, 20.735422371172433 ], [ -156.016777935047259, 20.734457618121748 ], [ -156.016954932245227, 20.733774829003284 ], [ -156.016737776186147, 20.732778564489429 ], [ -156.017273091811262, 20.732444461281197 ], [ -156.01718024457179, 20.732018533637536 ], [ -156.017285155041975, 20.731614152767072 ], [ -156.01717064688421, 20.731088679016587 ], [ -156.017409984611163, 20.730939316425026 ], [ -156.017547064349742, 20.731288526406239 ], [ -156.017697738221358, 20.730944309059975 ], [ -156.018069075687407, 20.730815350651206 ], [ -156.017703044910917, 20.730673600107266 ], [ -156.017973433531324, 20.729355887783246 ], [ -156.019048136105937, 20.728951664540126 ], [ -156.019315043369801, 20.728384806494979 ], [ -156.019883920300799, 20.727972202766253 ], [ -156.020851899983882, 20.726772752262651 ], [ -156.020772864304291, 20.726071635350159 ], [ -156.021124147547198, 20.725674031797467 ], [ -156.021883634894323, 20.72577631031087 ], [ -156.022285686593392, 20.725484704254587 ], [ -156.022238309664971, 20.72506154897993 ], [ -156.022559743569047, 20.724379003343365 ], [ -156.023219272594673, 20.723900519571639 ], [ -156.023126847600878, 20.723078579190442 ], [ -156.023784514638407, 20.722263672898286 ], [ -156.024056682888954, 20.721426092725928 ], [ -156.024668898734177, 20.721195767586515 ], [ -156.024977412455371, 20.719691856776105 ], [ -156.025862161606568, 20.719049987361867 ], [ -156.027301096678968, 20.71742016398791 ], [ -156.02804407499093, 20.717041741188339 ], [ -156.028136258361513, 20.717373507780628 ], [ -156.028392937535727, 20.717140461053287 ], [ -156.02804407499093, 20.717041741188339 ], [ -156.027919160092182, 20.71688923924664 ], [ -156.027584722509346, 20.716627598311348 ], [ -156.027955378581254, 20.716358572413828 ], [ -156.027126199635717, 20.716012746564211 ], [ -156.026801995135969, 20.714046861561805 ], [ -156.026234187483851, 20.71309875601716 ], [ -156.026010800956897, 20.71144019259691 ], [ -156.025697502699671, 20.710629375291081 ], [ -156.026051322827584, 20.710372622791319 ], [ -156.02546498025734, 20.709913836204652 ], [ -156.0261464151111, 20.709130000550367 ], [ -156.026664737895572, 20.708753778690525 ], [ -156.026027133880774, 20.708487822638663 ], [ -156.02636162417005, 20.706571800915206 ], [ -156.026700458197126, 20.705786270966666 ], [ -156.026555548559088, 20.704829873018827 ], [ -156.027005926400818, 20.704953222445571 ], [ -156.027611469559474, 20.705320435497246 ], [ -156.028196187880383, 20.704608568577097 ], [ -156.028087258424904, 20.703939595522534 ], [ -156.028987518329643, 20.704485509208876 ], [ -156.030004035882513, 20.704734192463327 ], [ -156.029573940874371, 20.703671321147425 ], [ -156.029630227547671, 20.70339355517973 ], [ -156.029491656202254, 20.702543578913676 ], [ -156.030028682447352, 20.701350361949498 ], [ -156.029921253111041, 20.700690538934666 ], [ -156.030099381137802, 20.699813896541425 ], [ -156.031149107721063, 20.699106733444996 ], [ -156.031400707656957, 20.698800600335925 ], [ -156.032441510354829, 20.698161371809181 ], [ -156.032533697833458, 20.698493136445926 ], [ -156.03279033534929, 20.698260078031165 ], [ -156.032441510354829, 20.698161371809181 ], [ -156.032654903645891, 20.697565525551241 ], [ -156.033477177658938, 20.696413837378511 ], [ -156.03378117615307, 20.69615858530458 ], [ -156.034200860917991, 20.695359749200268 ], [ -156.034654640346673, 20.695350641521369 ], [ -156.035224551305532, 20.695381747021962 ], [ -156.035559754847441, 20.695053509330389 ], [ -156.037873558092912, 20.695473763491631 ], [ -156.039098519601794, 20.69513200062806 ], [ -156.039571320609127, 20.693810697548443 ], [ -156.040717713937312, 20.69349071033524 ], [ -156.039994034424183, 20.692144734282138 ], [ -156.041913766498851, 20.692653492381321 ], [ -156.041862556299691, 20.690397170736873 ], [ -156.042245098375872, 20.690075680869022 ], [ -156.042668223820442, 20.689661268356616 ], [ -156.043504437243115, 20.688958414379684 ], [ -156.044535834855537, 20.68659452712863 ], [ -156.045614434533434, 20.686912933616508 ], [ -156.047456572975136, 20.687871198785167 ], [ -156.047188347113831, 20.68744214036581 ], [ -156.046068114356359, 20.685848727212353 ], [ -156.046358354532003, 20.685256950946172 ], [ -156.046935666212988, 20.685557361529476 ], [ -156.04730039460938, 20.684224255464351 ], [ -156.048113432963078, 20.684207912630605 ], [ -156.048965085179788, 20.684781181814049 ], [ -156.049276806770507, 20.683383426067657 ], [ -156.050707393625487, 20.683461351932568 ], [ -156.050436600022323, 20.683164881556337 ], [ -156.049837539372504, 20.682623186394185 ], [ -156.0504523897078, 20.682362909199206 ], [ -156.050440109685383, 20.681820818053495 ], [ -156.050755480117999, 20.681555807063773 ], [ -156.051802712112504, 20.680530171454336 ], [ -156.052507651472865, 20.680231758381492 ], [ -156.053072220101114, 20.679678776411599 ], [ -156.053732720727908, 20.680022239429174 ], [ -156.056232786408543, 20.679971762214873 ], [ -156.057577941790413, 20.681388992320631 ], [ -156.058051403816279, 20.680066040274653 ], [ -156.059115073492421, 20.68061921255137 ], [ -156.059400646799702, 20.680339261849248 ], [ -156.060015192214962, 20.680079074722759 ], [ -156.059984719314031, 20.678743942593226 ], [ -156.060311210382594, 20.678469448503613 ], [ -156.061126364199168, 20.67767092708095 ], [ -156.062469284173574, 20.678286495152513 ], [ -156.064235977416701, 20.680406802213053 ], [ -156.066502255828283, 20.683629428691336 ], [ -156.066988810355582, 20.68464730708428 ], [ -156.067931678458251, 20.685640425528266 ], [ -156.068931272996508, 20.686329313687498 ], [ -156.068920866047762, 20.686870759497445 ], [ -156.069208549915004, 20.686875656030494 ], [ -156.069198143649885, 20.687417101941051 ], [ -156.06948582861861, 20.687421998134589 ], [ -156.069578096214343, 20.687753752195245 ], [ -156.069834664185208, 20.687520629220831 ], [ -156.06948582861861, 20.687421998134589 ], [ -156.069496233865834, 20.686880552084443 ], [ -156.069208549915004, 20.686875656030494 ], [ -156.069218955845884, 20.686334210080936 ], [ -156.068931272996508, 20.686329313687498 ], [ -156.068803300659482, 20.685647462122017 ], [ -156.068004720133786, 20.684121528893662 ], [ -156.069630870832327, 20.683413069194533 ], [ -156.06904756843349, 20.682866280574949 ], [ -156.069709058391908, 20.681639842319967 ], [ -156.070048510079403, 20.681319267792876 ], [ -156.072044916892764, 20.681391564672186 ], [ -156.071711574921466, 20.67789509213673 ], [ -156.07011550283994, 20.677377503090469 ], [ -156.070111497093052, 20.675727571499415 ], [ -156.076922429647055, 20.675712359358442 ], [ -156.079898648744916, 20.678502308369797 ], [ -156.081489233551792, 20.68011751941112 ], [ -156.081041421050429, 20.677730921361288 ], [ -156.080091835820866, 20.675558897007072 ], [ -156.106098500425929, 20.677235044335877 ], [ -156.111629566777879, 20.678438785256962 ], [ -156.113445727391081, 20.6793060184844 ], [ -156.114656024277565, 20.680439989624354 ], [ -156.114950613145794, 20.683497202138952 ], [ -156.116177397274441, 20.684742389150507 ], [ -156.118885687227021, 20.685311771980945 ], [ -156.120330190965632, 20.684897170545632 ], [ -156.123004953909259, 20.683431199318935 ], [ -156.124775076045182, 20.684004650518119 ], [ -156.126152027727954, 20.685294597644365 ], [ -156.130544028015805, 20.692379862579745 ], [ -156.132048841750532, 20.694424205059789 ], [ -156.128753974921494, 20.694872711576796 ], [ -156.127328723133218, 20.695305285163851 ], [ -156.125688009501914, 20.69577630003684 ], [ -156.12500616941395, 20.696073687415428 ], [ -156.124431150593921, 20.696340193732325 ], [ -156.123269658316332, 20.696586319032242 ], [ -156.121250940666016, 20.697099502023921 ], [ -156.119954271897967, 20.697374154144814 ], [ -156.115685051066919, 20.699462484334557 ], [ -156.114594970080333, 20.700492581109756 ], [ -156.113698556693976, 20.700764502729712 ], [ -156.111672849414816, 20.701345812622002 ], [ -156.112041636530392, 20.702768114566709 ], [ -156.113380063359699, 20.702384076379214 ], [ -156.114247974781534, 20.70185157135634 ], [ -156.114538403187311, 20.701861994816639 ], [ -156.114826232148147, 20.701861266382799 ], [ -156.115401469830346, 20.701882016686795 ], [ -156.116239097341065, 20.701879921245165 ], [ -156.117126012102204, 20.702303390165618 ], [ -156.119054816635412, 20.703279460364787 ], [ -156.119835667586017, 20.703307605451968 ], [ -156.120535292437239, 20.703305824864191 ], [ -156.121573094481448, 20.703971145682615 ], [ -156.123042447199538, 20.707668062546919 ], [ -156.127370223965272, 20.708072945991379 ], [ -156.126492922058787, 20.7091032336624 ], [ -156.12563269119326, 20.709853855228118 ], [ -156.125232784963941, 20.710892109406903 ], [ -156.126166107193228, 20.712092942021574 ], [ -156.124677760487913, 20.714696807791647 ], [ -156.124345419938521, 20.715832587521707 ], [ -156.123515342745208, 20.719775228271025 ], [ -156.123019048085581, 20.720244036295909 ], [ -156.122257232510094, 20.719858515733531 ], [ -156.121667933892695, 20.720131640047516 ], [ -156.120822100957554, 20.720101348843556 ], [ -156.120511310804858, 20.72064532301706 ], [ -156.120991377509569, 20.722045677131614 ], [ -156.120335315474222, 20.724286940816167 ], [ -156.121012311859829, 20.725263602383791 ], [ -156.120990649132295, 20.725799457956963 ], [ -156.120991909245447, 20.726327234196997 ], [ -156.120421446732109, 20.726866197131287 ], [ -156.119256724059341, 20.727374043939641 ], [ -156.118581547148409, 20.728276084441703 ], [ -156.12063057069372, 20.729467480805507 ], [ -156.120631780267274, 20.729864077560027 ], [ -156.118600087177867, 20.729791027153137 ], [ -156.119157142218739, 20.731416155871877 ], [ -156.118298124485278, 20.731173386194058 ], [ -156.117137343769173, 20.730313828770708 ], [ -156.116021545401168, 20.729781112932603 ], [ -156.115634437163578, 20.728995352830331 ], [ -156.113895152529636, 20.728565356865552 ], [ -156.113398250455816, 20.727032866583869 ], [ -156.112908037586777, 20.727015246854592 ], [ -156.111469000878088, 20.727267316299027 ], [ -156.107298137056887, 20.727545764265155 ], [ -156.106829336976091, 20.728826771038005 ], [ -156.105745470066609, 20.727726581153515 ], [ -156.10497879987588, 20.727360738161611 ], [ -156.106018633548217, 20.725971792857237 ], [ -156.103451290413744, 20.725289470666294 ], [ -156.103409532287145, 20.726316628117285 ], [ -156.103412837906774, 20.727605047104991 ], [ -156.101208445808055, 20.728071443016063 ], [ -156.100503214370747, 20.728686474414431 ], [ -156.102114369969712, 20.730335629613084 ], [ -156.103064037779518, 20.730643345444822 ], [ -156.102189239759383, 20.731024511677955 ], [ -156.10217197650519, 20.731443801068973 ], [ -156.102455440418566, 20.731985055223806 ], [ -156.102727184879825, 20.732536558093297 ], [ -156.103020419754557, 20.733096356979487 ], [ -156.101806280863855, 20.735219015098593 ], [ -156.101807658272378, 20.735781167287644 ], [ -156.101026342158264, 20.73646261805699 ], [ -156.101562778357447, 20.737552285824616 ], [ -156.10314966570516, 20.737070996246189 ], [ -156.103741808872059, 20.737672197393053 ], [ -156.104350783495704, 20.737980251696328 ], [ -156.104969003359287, 20.738275368576954 ], [ -156.106045757694659, 20.739368308950151 ], [ -156.106868881131646, 20.740139213522017 ], [ -156.108633606206837, 20.742311916711554 ], [ -156.109737043924355, 20.742669531768438 ], [ -156.111361415568268, 20.743872419146857 ], [ -156.112675794417157, 20.744537704696068 ], [ -156.113435302213873, 20.743820262441041 ], [ -156.113761843152133, 20.744109657636056 ], [ -156.114813076770474, 20.747352803028914 ], [ -156.115405625741374, 20.747374125798345 ], [ -156.117095487983335, 20.746136995957549 ], [ -156.11768277415382, 20.747948165694133 ], [ -156.117985372082273, 20.747959060822886 ], [ -156.118561173788095, 20.747692346772247 ], [ -156.11912956466611, 20.747712722691031 ], [ -156.120329181242255, 20.745831678214 ], [ -156.120624055019704, 20.74528532828392 ], [ -156.122630824106437, 20.747755797563002 ], [ -156.123882803979143, 20.747800829581024 ], [ -156.127335557877416, 20.747406086671646 ], [ -156.128546759441605, 20.746662932787732 ], [ -156.129731625590665, 20.747864929771382 ], [ -156.131401133802711, 20.748297328359868 ], [ -156.135163993784175, 20.748813694607534 ], [ -156.136120064635122, 20.748523506566176 ], [ -156.137170651870406, 20.749589131808978 ], [ -156.139431707272536, 20.749083963079428 ], [ -156.141171075694814, 20.749676515834295 ], [ -156.142928846754074, 20.749739613077256 ], [ -156.145050532564142, 20.749483831856157 ], [ -156.145880530084639, 20.749513624845694 ], [ -156.148941149677739, 20.749505602773556 ], [ -156.15324189652469, 20.751469265653686 ], [ -156.163889979192078, 20.755346135746233 ], [ -156.170681304886614, 20.758244055775879 ], [ -156.187393319704341, 20.763650091017819 ], [ -156.195482833674475, 20.766436656149548 ], [ -156.202814666828203, 20.769506217173117 ], [ -156.206292990421588, 20.771568462787194 ], [ -156.210501167135931, 20.772758991931227 ], [ -156.211081524853427, 20.773865383419086 ], [ -156.211454170542993, 20.775012039108134 ], [ -156.212476198994892, 20.776325555795349 ], [ -156.213047215043929, 20.777176296516291 ], [ -156.215215365623067, 20.778209407089726 ], [ -156.216174070125021, 20.7788231021214 ], [ -156.216462323744054, 20.779114879911333 ], [ -156.217600248353762, 20.779111515342773 ], [ -156.218456623582341, 20.779677915429392 ], [ -156.219033175974914, 20.779952807010542 ], [ -156.21992570999015, 20.780403544089666 ], [ -156.221059744635085, 20.779707134326088 ], [ -156.221027984324905, 20.780504714212544 ], [ -156.222120288458797, 20.78161156660525 ], [ -156.224714597612206, 20.782493832457771 ], [ -156.225851710940958, 20.78249040229279 ], [ -156.226747061367462, 20.783327703961415 ], [ -156.227268393395661, 20.783855852288021 ], [ -156.229484039714293, 20.785456633886305 ], [ -156.238200667951617, 20.793475983768907 ], [ -156.245248929451151, 20.800065702949141 ], [ -156.252931375133727, 20.808092424634523 ], [ -156.258141202985513, 20.814713609323746 ], [ -156.262579298101855, 20.820351649472045 ], [ -156.272387718732205, 20.836089554419043 ], [ -156.278205599070702, 20.845119219395762 ], [ -156.283502468877032, 20.855791728688615 ], [ -156.287033713093962, 20.864735280788423 ], [ -156.287580873327784, 20.868725838689905 ], [ -156.286485488632962, 20.869234544866977 ], [ -156.285992639693319, 20.868237503163318 ], [ -156.285703701648714, 20.86796736179004 ], [ -156.285435938750766, 20.867145285955612 ], [ -156.285151869455177, 20.866604376068072 ], [ -156.284711729092976, 20.864773547997849 ], [ -156.284187827988006, 20.864284241324331 ] ], [ [ -156.280970293229814, 20.866941562279596 ], [ -156.281063097115691, 20.867273261746071 ], [ -156.281319720420754, 20.867039823905696 ], [ -156.280970293229814, 20.866941562279596 ] ], [ [ -156.218588811157616, 20.858896630992394 ], [ -156.218681470945739, 20.859228348818206 ], [ -156.218938163694361, 20.858995013714015 ], [ -156.218588811157616, 20.858896630992394 ] ], [ [ -156.185270849132451, 20.837768661091381 ], [ -156.185363426404763, 20.838100387947982 ], [ -156.185620124129599, 20.837867104143147 ], [ -156.185270849132451, 20.837768661091381 ] ], [ [ -156.138597826443913, 20.807475434206722 ], [ -156.1385053650597, 20.807143694964847 ], [ -156.138248662171094, 20.807376906440915 ], [ -156.138597826443913, 20.807475434206722 ], [ -156.138690288144659, 20.807807173434473 ], [ -156.138946991256404, 20.807573961311981 ], [ -156.138597826443913, 20.807475434206722 ] ], [ [ -156.037532354382989, 20.761888175460712 ], [ -156.037624573036084, 20.762219941253839 ], [ -156.037881324802385, 20.761986888780537 ], [ -156.037532354382989, 20.761888175460712 ] ] ] } }
]
}
