{
"type": "FeatureCollection",
"name": "clepall",
"crs": { "type": "name", "properties": { "name": "urn:ogc:def:crs:OGC:1.3:CRS84" } },
"features": [
{ "type": "Feature", "properties": { "ID": 1, "GRIDCODE": 2 }, "geometry": { "type": "Polygon", "coordinates": [ [ [ -156.938420169210673, 21.137586617890939 ], [ -156.938770784493727, 21.137683624316779 ], [ -156.938514570906221, 21.137918101100357 ], [ -156.938420169210673, 21.137586617890939 ] ] ] } },
{ "type": "Feature", "properties": { "ID": 2, "GRIDCODE": 2 }, "geometry": { "type": "Polygon", "coordinates": [ [ [ -156.844997964635155, 21.127753583957546 ], [ -156.850438648646019, 21.127965670943176 ], [ -156.855039091662633, 21.129134291604391 ], [ -156.857250380597833, 21.129119956540752 ], [ -156.857827632557218, 21.129138306266153 ], [ -156.859773264927043, 21.129125670229531 ], [ -156.861495413943771, 21.128061943787209 ], [ -156.862459128897001, 21.128385119459455 ], [ -156.863037416296464, 21.128114812872475 ], [ -156.863337315804017, 21.128124351733977 ], [ -156.863317713792242, 21.128665623540623 ], [ -156.864174582155698, 21.129754974401827 ], [ -156.864159625070471, 21.130169044346875 ], [ -156.863308178942759, 21.129743911355174 ], [ -156.862137899583388, 21.129371236023903 ], [ -156.860701959439695, 21.130258276786407 ], [ -156.858950525886769, 21.130767140348812 ], [ -156.85708841621755, 21.131637646157817 ], [ -156.855708355691917, 21.132949327666459 ], [ -156.855724335094891, 21.135111694924554 ], [ -156.856585043731059, 21.137578966296765 ], [ -156.858256116435314, 21.139704276390439 ], [ -156.859716300173517, 21.141691378010496 ], [ -156.860707926819032, 21.142609817871605 ], [ -156.862916739176256, 21.143313182920938 ], [ -156.86674510869662, 21.145224885782209 ], [ -156.86718163018341, 21.14654770768119 ], [ -156.866666670639347, 21.150345937387531 ], [ -156.867629833824736, 21.153632724422657 ], [ -156.868425420397386, 21.155546302296074 ], [ -156.868949708635341, 21.156907532559917 ], [ -156.867836263329451, 21.156351651595159 ], [ -156.867097218859016, 21.156003744729759 ], [ -156.863503944919955, 21.156302477686214 ], [ -156.863213291631212, 21.156293250280815 ], [ -156.862756340524186, 21.156296208314572 ], [ -156.861471804286367, 21.157089504131019 ], [ -156.860574820294488, 21.157625234159919 ], [ -156.859985053039026, 21.157606462946514 ], [ -156.858833278277871, 21.157031321147397 ], [ -156.857142566672991, 21.156492867949364 ], [ -156.856870414602952, 21.155668845162509 ], [ -156.856289734043997, 21.15594021543999 ], [ -156.855702756281573, 21.15619827506222 ], [ -156.854541575664626, 21.157001744002418 ], [ -156.852529344183182, 21.15734383330075 ], [ -156.852240917474575, 21.155851154666784 ], [ -156.851065036614585, 21.156968592096625 ], [ -156.850100615625109, 21.156937816850199 ], [ -156.849651526518102, 21.155576636598624 ], [ -156.848766774051938, 21.156122775367425 ], [ -156.848139667634001, 21.152171081482642 ], [ -156.847110493979045, 21.151217962091089 ], [ -156.846802408775119, 21.15060135789178 ], [ -156.846878326262839, 21.14851087888195 ], [ -156.846484531712122, 21.148146379575454 ], [ -156.846705457330074, 21.142053506026414 ], [ -156.845257793196339, 21.139544726772289 ], [ -156.844986542122399, 21.13872308306285 ], [ -156.844703858633153, 21.137912140973036 ], [ -156.844031163999716, 21.135873576380153 ], [ -156.843584261650619, 21.135459582812736 ], [ -156.843305184621812, 21.135179681813138 ], [ -156.84299881242282, 21.134895794775495 ], [ -156.842197211465248, 21.133290407127642 ], [ -156.840438695151136, 21.131324240248262 ], [ -156.840514787244899, 21.129225367872102 ], [ -156.84252915253623, 21.128944009384234 ], [ -156.844506477508418, 21.128220649127599 ], [ -156.844997964635155, 21.127753583957546 ] ], [ [ -156.849265940614032, 21.13214261332023 ], [ -156.849042531133534, 21.133339283830029 ], [ -156.850547447957979, 21.132818402717916 ], [ -156.850855657468401, 21.132858363510778 ], [ -156.851411557431845, 21.132422126287409 ], [ -156.849265940614032, 21.13214261332023 ] ] ] } },
{ "type": "Feature", "properties": { "ID": 3, "GRIDCODE": 2 }, "geometry": { "type": "Polygon", "coordinates": [ [ [ -156.863926596170984, 21.11661455582589 ], [ -156.864336716243344, 21.116919887437003 ], [ -156.863874569782581, 21.119420251923749 ], [ -156.863330227722827, 21.119488724478892 ], [ -156.862549497039879, 21.118225978500572 ], [ -156.861764972985071, 21.117641751145161 ], [ -156.862073120968915, 21.117172712047509 ], [ -156.863676295094052, 21.117415709102563 ], [ -156.863926596170984, 21.11661455582589 ] ] ] } },
{ "type": "Feature", "properties": { "ID": 4, "GRIDCODE": 2 }, "geometry": { "type": "Polygon", "coordinates": [ [ [ -156.813547075815165, 21.10648968288136 ], [ -156.815703180866848, 21.106733242511698 ], [ -156.814545073449949, 21.107726850298114 ], [ -156.812937397361367, 21.108671787107333 ], [ -156.811630712214594, 21.109585671299264 ], [ -156.809671693282667, 21.110895373959753 ], [ -156.80839976552636, 21.113336768221625 ], [ -156.808017384867384, 21.113992713289303 ], [ -156.808382499415274, 21.115932092710878 ], [ -156.809314664978984, 21.118273343386893 ], [ -156.810321668429907, 21.119321818224719 ], [ -156.810765579978721, 21.119718456044009 ], [ -156.811173018146576, 21.120986507243 ], [ -156.811755816314445, 21.121507366813578 ], [ -156.81172502914859, 21.122048937839928 ], [ -156.812809241925635, 21.122546243253655 ], [ -156.813730203618888, 21.123158705097989 ], [ -156.814315031927748, 21.123426853789368 ], [ -156.816043192590627, 21.124835820246897 ], [ -156.81878420882029, 21.125689062043911 ], [ -156.819167692467602, 21.12647983833547 ], [ -156.819715554043171, 21.127484121518851 ], [ -156.819732661264482, 21.128107469079143 ], [ -156.819688559091333, 21.128886322886679 ], [ -156.82026938064601, 21.129951417346124 ], [ -156.820285963768612, 21.130552865014522 ], [ -156.820254860454014, 21.131098536010494 ], [ -156.820824158601823, 21.132451067964499 ], [ -156.821094197570261, 21.133885732360497 ], [ -156.822605379657119, 21.13747686552141 ], [ -156.823214023059904, 21.140404748789081 ], [ -156.822557634600287, 21.143405915845943 ], [ -156.821429868708265, 21.142827406139109 ], [ -156.820365676324968, 21.143281924919894 ], [ -156.819266565211223, 21.143809602860063 ], [ -156.818924217494953, 21.142421892081078 ], [ -156.81898375903117, 21.141379265340941 ], [ -156.818388876088648, 21.141349506783332 ], [ -156.817449909335693, 21.141938038197065 ], [ -156.817602995282357, 21.139246172049457 ], [ -156.817234850996954, 21.137291684500966 ], [ -156.816106277519935, 21.138350483318423 ], [ -156.815580199119097, 21.139360498465969 ], [ -156.814970154948128, 21.139961330412167 ], [ -156.813776531750761, 21.139685317124414 ], [ -156.813125962256152, 21.138051404940331 ], [ -156.812926436989869, 21.13858034479647 ], [ -156.812613582731132, 21.140777642176243 ], [ -156.812280254112977, 21.139740525878 ], [ -156.810702642551945, 21.139016905503674 ], [ -156.810261964653705, 21.13810889599376 ], [ -156.808099170301716, 21.138788820079675 ], [ -156.80802111357329, 21.138248223490429 ], [ -156.808910998895925, 21.136721547769373 ], [ -156.808453890851325, 21.136567472463724 ], [ -156.807473794973845, 21.1370379475071 ], [ -156.807765444353663, 21.136075325219533 ], [ -156.808098422597453, 21.135504268338057 ], [ -156.806737028424692, 21.135537234026199 ], [ -156.806325634613103, 21.134385400023142 ], [ -156.806400175493906, 21.133076293371477 ], [ -156.805938111089972, 21.133087436577362 ], [ -156.804990759606852, 21.133039903008392 ], [ -156.804336858361467, 21.133592637224318 ], [ -156.803772008725502, 21.134148971050521 ], [ -156.80290186051991, 21.134105337095868 ], [ -156.801626179300001, 21.134904766971719 ], [ -156.800575662043798, 21.134930145281405 ], [ -156.800556237004855, 21.134221052331853 ], [ -156.801456952813453, 21.133836496925557 ], [ -156.802048528499313, 21.133552559391781 ], [ -156.802869924025345, 21.133593778951834 ], [ -156.80319716206705, 21.133317253625371 ], [ -156.803483012165543, 21.132768413922399 ], [ -156.804058972883354, 21.132797315392494 ], [ -156.804088993228135, 21.13227181109842 ], [ -156.803794961306949, 21.131156351578522 ], [ -156.803841311224147, 21.130345524803367 ], [ -156.803514660502032, 21.130601886397368 ], [ -156.802714037436999, 21.131390623395184 ], [ -156.801011640232986, 21.131431819049286 ], [ -156.801504902286354, 21.130586120578666 ], [ -156.801811016090312, 21.128930928733563 ], [ -156.802409799434997, 21.128424448569451 ], [ -156.801533576169703, 21.127877326181402 ], [ -156.80074320362192, 21.12705431304186 ], [ -156.80038695385042, 21.127310284395733 ], [ -156.799948797953562, 21.128549511864662 ], [ -156.79758672558242, 21.12909747872553 ], [ -156.798083486161573, 21.127824693583587 ], [ -156.797225756320472, 21.127057935940623 ], [ -156.798364431344169, 21.125928162380472 ], [ -156.798962340230077, 21.125958224388189 ], [ -156.798995030570097, 21.125386523520771 ], [ -156.79812812418794, 21.124611582418083 ], [ -156.798960658758574, 21.123780156040372 ], [ -156.799914291356146, 21.124353164426978 ], [ -156.800479703059892, 21.124941894759207 ], [ -156.802451311001192, 21.124384185431314 ], [ -156.80160491981465, 21.12380418270606 ], [ -156.800857674095909, 21.123461391343156 ], [ -156.801609617947406, 21.122720576313746 ], [ -156.802194380673654, 21.122226149045645 ], [ -156.801284554441963, 21.121589101891278 ], [ -156.800167346897837, 21.121076481591867 ], [ -156.801636950776071, 21.119833774430678 ], [ -156.801697822732422, 21.118764786372697 ], [ -156.799420118845944, 21.11832599291952 ], [ -156.79936526224725, 21.116330047555898 ], [ -156.800585362847244, 21.115809085399523 ], [ -156.800559344701327, 21.114858289577551 ], [ -156.801755054291164, 21.114058940613806 ], [ -156.800981697365586, 21.113367511296286 ], [ -156.803861255669744, 21.112890276537126 ], [ -156.805233250740031, 21.111930872677835 ], [ -156.805825682770745, 21.11167794600189 ], [ -156.806598710178719, 21.110916209205847 ], [ -156.808466051811195, 21.109918343062137 ], [ -156.808433358211886, 21.108727361970164 ], [ -156.812469395072782, 21.107727584462999 ], [ -156.813081470050406, 21.107209785361722 ], [ -156.813547075815165, 21.10648968288136 ] ] ] } },
{ "type": "Feature", "properties": { "ID": 5, "GRIDCODE": 2 }, "geometry": { "type": "Polygon", "coordinates": [ [ [ -156.824844074300103, 21.103925849503192 ], [ -156.824326222982563, 21.104791492547385 ], [ -156.822977497667949, 21.105057131839217 ], [ -156.823947361435927, 21.104129567443753 ], [ -156.824844074300103, 21.103925849503192 ] ] ] } },
{ "type": "Feature", "properties": { "ID": 6, "GRIDCODE": 2 }, "geometry": { "type": "Polygon", "coordinates": [ [ [ -156.938420169210673, 21.137586617890939 ], [ -156.937987559804554, 21.137953089740321 ], [ -156.938270438862503, 21.138278071400446 ], [ -156.939091677746177, 21.138257578486417 ], [ -156.941708216756837, 21.141546187117772 ], [ -156.940386969355558, 21.142665247942901 ], [ -156.94224250231872, 21.142618827698264 ], [ -156.942251015348546, 21.142921285344837 ], [ -156.941288185880779, 21.143736601370822 ], [ -156.943613755801778, 21.143678421433336 ], [ -156.944826326883572, 21.14520221084058 ], [ -156.944727229407079, 21.146967376122927 ], [ -156.9453527010767, 21.147525374489089 ], [ -156.945070936110255, 21.147832707992368 ], [ -156.944767302570568, 21.148089636495715 ], [ -156.94429149836958, 21.149438530806417 ], [ -156.943308404283215, 21.149165968204358 ], [ -156.941863938262372, 21.148033445630432 ], [ -156.940585585136461, 21.148065451249312 ], [ -156.939292483193867, 21.148001554216936 ], [ -156.939877197693335, 21.148609412472144 ], [ -156.941009747798489, 21.149127693712295 ], [ -156.941283339995522, 21.149412275910098 ], [ -156.941727715263482, 21.149808605561308 ], [ -156.942275469907457, 21.150377774512176 ], [ -156.942992328227916, 21.151017326894266 ], [ -156.943001270451731, 21.151329579227205 ], [ -156.94211952911715, 21.151579737150715 ], [ -156.942149154866001, 21.15261964965244 ], [ -156.941812597155518, 21.152951643896891 ], [ -156.940951815547237, 21.152909088963554 ], [ -156.94066090005964, 21.153468715554183 ], [ -156.939670410910054, 21.153749616504495 ], [ -156.940057091259661, 21.154545101024286 ], [ -156.940460922182183, 21.155283643515215 ], [ -156.939749718909269, 21.155885709433623 ], [ -156.938935882490682, 21.156688597392598 ], [ -156.937656053217154, 21.156312900211265 ], [ -156.937169556928097, 21.155312398159708 ], [ -156.936709856722473, 21.154902375759931 ], [ -156.935736817538753, 21.153679638450821 ], [ -156.934829397567484, 21.152322693768369 ], [ -156.931758048282688, 21.14902517983446 ], [ -156.930901123937247, 21.147042632917849 ], [ -156.929497168421989, 21.145074160716891 ], [ -156.928664724055835, 21.143829297585942 ], [ -156.92782597590724, 21.142653343978129 ], [ -156.926673547280672, 21.140834974204044 ], [ -156.926407540300431, 21.140008598528471 ], [ -156.924405134874092, 21.137826914237166 ], [ -156.924135370705557, 21.13727142248883 ], [ -156.923571583975558, 21.136768349584834 ], [ -156.923284271991577, 21.13617725362435 ], [ -156.921966748635526, 21.135001620000335 ], [ -156.92156691075138, 21.134269970178217 ], [ -156.920843187934338, 21.13278054755105 ], [ -156.918980828393984, 21.130497937776468 ], [ -156.916322242777625, 21.128532670958094 ], [ -156.913946938045626, 21.128415056263535 ], [ -156.912988468549599, 21.129016744479507 ], [ -156.91173992486398, 21.12975150580581 ], [ -156.912437051256404, 21.130373864202546 ], [ -156.912233512370165, 21.133992876461161 ], [ -156.912865057369942, 21.137023768275736 ], [ -156.912559366759325, 21.139035908698734 ], [ -156.912210321288171, 21.139331308058487 ], [ -156.912650616184123, 21.141902909858061 ], [ -156.912198812942734, 21.142285543630596 ], [ -156.912787521442738, 21.143363299536347 ], [ -156.913134361768527, 21.14519860960683 ], [ -156.913596792877485, 21.146634768821166 ], [ -156.913885850137348, 21.147441865118953 ], [ -156.913857703998332, 21.147941113227247 ], [ -156.914147733707523, 21.148538077757024 ], [ -156.915266664725522, 21.150303725202864 ], [ -156.915542204943364, 21.152077366215551 ], [ -156.915831013685278, 21.152883398834827 ], [ -156.916089392982457, 21.154251555753493 ], [ -156.916617061854822, 21.155725488223485 ], [ -156.917178176042484, 21.159002422746966 ], [ -156.916288931958832, 21.158856070775709 ], [ -156.915749597087199, 21.158295459277056 ], [ -156.915279693146061, 21.158758836413408 ], [ -156.9146130875898, 21.157538838811035 ], [ -156.914145222763636, 21.155582249556442 ], [ -156.913738014120099, 21.156402455418142 ], [ -156.913752663470888, 21.156926902865873 ], [ -156.913707150744585, 21.157739133548425 ], [ -156.91375254851647, 21.159349799381083 ], [ -156.912584789915343, 21.15830769449585 ], [ -156.912240189362251, 21.157599061894533 ], [ -156.910671491123082, 21.157111716109373 ], [ -156.910295109430137, 21.156337204110343 ], [ -156.909132418208799, 21.156062225159431 ], [ -156.90857011478559, 21.155774025259383 ], [ -156.907400097171376, 21.155238333021863 ], [ -156.906257038616701, 21.153528430643821 ], [ -156.905709136013826, 21.153039650478217 ], [ -156.903427091176383, 21.150038436478578 ], [ -156.902881998673536, 21.14947183080853 ], [ -156.902137731397943, 21.149490253099021 ], [ -156.898718479178086, 21.148681272698838 ], [ -156.898285175497961, 21.147789220645642 ], [ -156.897448661509003, 21.147809916568868 ], [ -156.895789920346317, 21.146959975499541 ], [ -156.894609611259114, 21.146901374188808 ], [ -156.893498477352495, 21.147555143477145 ], [ -156.892200228160675, 21.148835013485023 ], [ -156.891752635362849, 21.146464901500263 ], [ -156.890796388587034, 21.145262383536242 ], [ -156.891408382744459, 21.144744491587069 ], [ -156.89225470049044, 21.143910103395246 ], [ -156.89364127958828, 21.143978959627006 ], [ -156.895154791577482, 21.143088433220054 ], [ -156.89528418689261, 21.140796739260519 ], [ -156.893559212460502, 21.138753436228331 ], [ -156.893507015838168, 21.136900074180588 ], [ -156.894873145033273, 21.136096410689415 ], [ -156.895573089528057, 21.134299228902737 ], [ -156.895645360259039, 21.133015595683965 ], [ -156.895331182193189, 21.132039031510729 ], [ -156.893941009808202, 21.129038947929175 ], [ -156.893899357885545, 21.127556059737515 ], [ -156.893968215743428, 21.126334759223592 ], [ -156.893693614923905, 21.124434510512021 ], [ -156.894871813011378, 21.122872399072168 ], [ -156.894541776616848, 21.122141695937753 ], [ -156.893207631626922, 21.121309739826696 ], [ -156.892103379664405, 21.119036761249497 ], [ -156.89042146370781, 21.118174727849983 ], [ -156.889409044047483, 21.118124414685422 ], [ -156.88554097100095, 21.119454366310908 ], [ -156.884953921437074, 21.119094817828461 ], [ -156.882690798210206, 21.115995788712198 ], [ -156.881707545361479, 21.115342557748349 ], [ -156.88083392096425, 21.115071023395679 ], [ -156.880538606874893, 21.114462504687221 ], [ -156.87909812217336, 21.115309911682996 ], [ -156.878590795828046, 21.115810358000893 ], [ -156.876213820981377, 21.115868946142687 ], [ -156.87589343208387, 21.114527624581356 ], [ -156.874492072188758, 21.114091885957556 ], [ -156.873346589049504, 21.113330743775983 ], [ -156.872495892288981, 21.113351680983556 ], [ -156.871956885014015, 21.112790888530643 ], [ -156.87105354171851, 21.112510069363356 ], [ -156.870113386440892, 21.111272735892523 ], [ -156.868764259867447, 21.112414616513732 ], [ -156.868170094082359, 21.114097122143669 ], [ -156.866283176869644, 21.114354878222859 ], [ -156.864131025398734, 21.116476511404883 ], [ -156.863814697843651, 21.115095539653812 ], [ -156.865422709878345, 21.114408066839037 ], [ -156.866442508138391, 21.113545033531292 ], [ -156.866426846118117, 21.112984067617028 ], [ -156.866734688852119, 21.112455749179183 ], [ -156.867023852872052, 21.111636293497536 ], [ -156.867338786093313, 21.11082853812562 ], [ -156.866461852918889, 21.110555833240749 ], [ -156.866073460098562, 21.110151565162312 ], [ -156.864195126831845, 21.111329736101883 ], [ -156.864445181420052, 21.110249185516814 ], [ -156.864925302689016, 21.109424996678197 ], [ -156.863884808317835, 21.109450644197171 ], [ -156.863474543636102, 21.108605444329513 ], [ -156.861561389836311, 21.108652484054041 ], [ -156.858729948001582, 21.10612350718948 ], [ -156.858364920064929, 21.105743727398227 ], [ -156.85450413232121, 21.105221573043913 ], [ -156.852738734758958, 21.105976270746822 ], [ -156.851235586183947, 21.107764922478179 ], [ -156.853034145012856, 21.109371327408748 ], [ -156.852609758165926, 21.110099614447702 ], [ -156.852229025759584, 21.110830966851058 ], [ -156.851439485696488, 21.111168475547153 ], [ -156.851154324451954, 21.111449805702911 ], [ -156.850068922082016, 21.110893131814805 ], [ -156.848572628074749, 21.110538528651396 ], [ -156.849157465348156, 21.10924305938256 ], [ -156.849734222409438, 21.108253199823903 ], [ -156.84980647091038, 21.106976488958082 ], [ -156.849508153139595, 21.105725502222999 ], [ -156.848456422906139, 21.105398369328078 ], [ -156.847953161630215, 21.104361464942073 ], [ -156.846240336087476, 21.104676113482775 ], [ -156.845763268180889, 21.105146415060823 ], [ -156.845156161388331, 21.105659906933983 ], [ -156.844333575781434, 21.106470946321341 ], [ -156.843464031874731, 21.106492161755462 ], [ -156.842533185156725, 21.106014665850108 ], [ -156.837973632927714, 21.104765985200167 ], [ -156.836811516360257, 21.104490553107766 ], [ -156.835167584902734, 21.103397649481277 ], [ -156.831787923273566, 21.102800833599609 ], [ -156.827692930361337, 21.103043530547062 ], [ -156.825284585813108, 21.103801201073178 ], [ -156.824844074300103, 21.103925849503192 ], [ -156.825512818795374, 21.102901016559411 ], [ -156.828090740613902, 21.102152393361091 ], [ -156.828870625977459, 21.100694939342617 ], [ -156.829657203029882, 21.100327468516475 ], [ -156.830821277477554, 21.100076738516506 ], [ -156.831114014500884, 21.099798715321199 ], [ -156.832551196177974, 21.099844612599991 ], [ -156.833337162358589, 21.097672866729326 ], [ -156.834296929613316, 21.097666874585709 ], [ -156.834605163253372, 21.09795244900231 ], [ -156.8364788376484, 21.100074298103795 ], [ -156.836894591035133, 21.099341578858308 ], [ -156.837190328418529, 21.09852478048596 ], [ -156.838046274136275, 21.09895253262372 ], [ -156.838060972758456, 21.098541045016223 ], [ -156.838055186654003, 21.097714049328346 ], [ -156.839474773176619, 21.098643732309153 ], [ -156.839868292382931, 21.097556325493837 ], [ -156.840961670649591, 21.097220620062757 ], [ -156.841783956010715, 21.097246831977568 ], [ -156.842146095035702, 21.095325083797807 ], [ -156.842966995050574, 21.096149092606918 ], [ -156.8443183091631, 21.097005242164911 ], [ -156.845267467025593, 21.09890649603102 ], [ -156.845559010574959, 21.098904645369764 ], [ -156.846140931589844, 21.098923151914235 ], [ -156.84581318809262, 21.096959290229297 ], [ -156.846185930860742, 21.095666953021208 ], [ -156.846595846375919, 21.093829535097797 ], [ -156.847913935803746, 21.095152471909632 ], [ -156.849093396390259, 21.095708228257518 ], [ -156.849903504875641, 21.096521089597736 ], [ -156.850536422928798, 21.096541285417825 ], [ -156.849099249709951, 21.093833926610454 ], [ -156.849398615037956, 21.092720559004498 ], [ -156.850534906174147, 21.093101666935397 ], [ -156.850858277477641, 21.091651399867462 ], [ -156.851581348110813, 21.091674452586222 ], [ -156.852300306907267, 21.091669802098398 ], [ -156.854758998640506, 21.09413713087643 ], [ -156.855758242504692, 21.094168952098954 ], [ -156.855748220127225, 21.092805337624206 ], [ -156.855762791864151, 21.09239913451265 ], [ -156.85575964368735, 21.091990061557045 ], [ -156.856064003863395, 21.091722984966413 ], [ -156.856058237768025, 21.090926673034538 ], [ -156.856400362372909, 21.090601337347348 ], [ -156.867003861859274, 21.092791726893299 ], [ -156.867006791320591, 21.093218261144226 ], [ -156.866987122101506, 21.093766348588762 ], [ -156.868180949671057, 21.09339971047951 ], [ -156.869875904710455, 21.094069754304655 ], [ -156.871267653686743, 21.094513069596317 ], [ -156.877906258206195, 21.097067046218296 ], [ -156.891456312789217, 21.102751267478173 ], [ -156.903695690408512, 21.108945310971663 ], [ -156.912535954361346, 21.115413395399777 ], [ -156.916880952056289, 21.118495811895318 ], [ -156.921697477140242, 21.121891293599571 ], [ -156.933967386369773, 21.132482549701582 ], [ -156.934792671361919, 21.133246285761157 ], [ -156.938420169210673, 21.137586617890939 ] ], [ [ -156.879892761269787, 21.110583785088107 ], [ -156.880022871488165, 21.111189973045391 ], [ -156.880567475630073, 21.11094186505451 ], [ -156.879892761269787, 21.110583785088107 ] ], [ [ -156.862696592391899, 21.101698146672234 ], [ -156.862411158015959, 21.103005387792745 ], [ -156.861792297152192, 21.103615498433999 ], [ -156.860675548824418, 21.102453149310715 ], [ -156.860227414501111, 21.102895022075117 ], [ -156.859141751810228, 21.102338272417366 ], [ -156.858508122478867, 21.102306721207949 ], [ -156.858483600352827, 21.102738594987446 ], [ -156.859860568717039, 21.103369801170462 ], [ -156.860855927355374, 21.1040313696856 ], [ -156.861939930489399, 21.104528162297559 ], [ -156.86302216542876, 21.105247434342495 ], [ -156.86647177444857, 21.106489820887361 ], [ -156.867385747287699, 21.107306032901882 ], [ -156.867872484294764, 21.107812735541994 ], [ -156.868558243785458, 21.108164252803377 ], [ -156.870892780306633, 21.108106817881168 ], [ -156.872383058212449, 21.108570155852728 ], [ -156.876427213211514, 21.110643575341204 ], [ -156.878585481957941, 21.110751040752071 ], [ -156.878031726000927, 21.109878012734718 ], [ -156.876885434455374, 21.10935275583719 ], [ -156.876870342446978, 21.108808331079057 ], [ -156.87720922636953, 21.107938015731566 ], [ -156.875736917144138, 21.107974334463883 ], [ -156.875783581873435, 21.107152216330476 ], [ -156.875322355384526, 21.107129237080919 ], [ -156.874871641093819, 21.107140254281365 ], [ -156.874949655188772, 21.105760271795333 ], [ -156.873250908927417, 21.106295104498798 ], [ -156.872872382118231, 21.105118807256829 ], [ -156.870994357531572, 21.105710235488438 ], [ -156.869971657426873, 21.10573535220718 ], [ -156.87005500508775, 21.104261252741441 ], [ -156.869168016085723, 21.103806409112131 ], [ -156.868294486309253, 21.103534817367184 ], [ -156.867211304100636, 21.102979338805827 ], [ -156.866566559421898, 21.10323183246366 ], [ -156.865703118941099, 21.103773529558747 ], [ -156.865150059348395, 21.103745927547433 ], [ -156.864671445024385, 21.104151049596705 ], [ -156.863772900618159, 21.105036771356303 ], [ -156.863391188941165, 21.103202153634221 ], [ -156.86313334512829, 21.101833956648115 ], [ -156.862696592391899, 21.101698146672234 ] ] ] } }
]
}
