{
"type": "FeatureCollection",
"name": "clesamu",
"crs": { "type": "name", "properties": { "name": "urn:ogc:def:crs:OGC:1.3:CRS84" } },
"features": [
{ "type": "Feature", "properties": { "ID": 1, "GRIDCODE": 1 }, "geometry": { "type": "Polygon", "coordinates": [ [ [ -156.579334218832145, 20.9689459477589 ], [ -156.579684141147311, 20.969043641002965 ], [ -156.579427736063963, 20.969277555181151 ], [ -156.579334218832145, 20.9689459477589 ] ] ] } },
{ "type": "Feature", "properties": { "ID": 2, "GRIDCODE": 1 }, "geometry": { "type": "Polygon", "coordinates": [ [ [ -156.607019550079485, 20.969066197893195 ], [ -156.607404242912679, 20.969263528127115 ], [ -156.607128677663809, 20.969960303418041 ], [ -156.607019550079485, 20.969066197893195 ] ] ] } },
{ "type": "Feature", "properties": { "ID": 3, "GRIDCODE": 1 }, "geometry": { "type": "Polygon", "coordinates": [ [ [ -156.602457852852496, 20.965751346153933 ], [ -156.602807788201034, 20.965848992624412 ], [ -156.602551421325927, 20.96608294572523 ], [ -156.602457852852496, 20.965751346153933 ] ] ] } },
{ "type": "Feature", "properties": { "ID": 4, "GRIDCODE": 1 }, "geometry": { "type": "Polygon", "coordinates": [ [ [ -156.570456980529514, 20.965027143593119 ], [ -156.570858752677395, 20.965296353200177 ], [ -156.570534827895301, 20.966222383277628 ], [ -156.570266533166176, 20.965710377698368 ], [ -156.570456980529514, 20.965027143593119 ] ] ] } },
{ "type": "Feature", "properties": { "ID": 5, "GRIDCODE": 1 }, "geometry": { "type": "Polygon", "coordinates": [ [ [ -156.592977382068256, 20.963450543568477 ], [ -156.593542567403233, 20.963595295071105 ], [ -156.593948845457305, 20.964166359974939 ], [ -156.594607110520059, 20.964408319301779 ], [ -156.594900808830801, 20.965731871968824 ], [ -156.594506398641073, 20.965809105785766 ], [ -156.594154103948654, 20.965313801857945 ], [ -156.593519048065986, 20.964888575840039 ], [ -156.593088178262803, 20.963883312899512 ], [ -156.592977382068256, 20.963450543568477 ] ] ] } },
{ "type": "Feature", "properties": { "ID": 6, "GRIDCODE": 1 }, "geometry": { "type": "Polygon", "coordinates": [ [ [ -156.592142746597602, 20.961542511575541 ], [ -156.592829890566264, 20.962002735455311 ], [ -156.592379977963105, 20.962468719723965 ], [ -156.592142746597602, 20.961542511575541 ] ] ] } },
{ "type": "Feature", "properties": { "ID": 7, "GRIDCODE": 1 }, "geometry": { "type": "Polygon", "coordinates": [ [ [ -156.569679548274081, 20.959598295486803 ], [ -156.570029441009808, 20.959696005942973 ], [ -156.56977304005963, 20.95992990590095 ], [ -156.569679548274081, 20.959598295486803 ] ] ] } },
{ "type": "Feature", "properties": { "ID": 8, "GRIDCODE": 1 }, "geometry": { "type": "Polygon", "coordinates": [ [ [ -156.563716967803856, 20.953824525942178 ], [ -156.564066842273974, 20.953922247018181 ], [ -156.563810443884421, 20.954156138196861 ], [ -156.563716967803856, 20.953824525942178 ] ] ] } },
{ "type": "Feature", "properties": { "ID": 9, "GRIDCODE": 1 }, "geometry": { "type": "Polygon", "coordinates": [ [ [ -156.551634531150995, 20.952026092196068 ], [ -156.551984390945591, 20.952123836932905 ], [ -156.551727979152389, 20.952357708419946 ], [ -156.551634531150995, 20.952026092196068 ] ] ] } },
{ "type": "Feature", "properties": { "ID": 10, "GRIDCODE": 1 }, "geometry": { "type": "Polygon", "coordinates": [ [ [ -156.616564373872393, 20.949153768206862 ], [ -156.616914284057657, 20.949251383029559 ], [ -156.616657967971719, 20.94948536260998 ], [ -156.616564373872393, 20.949153768206862 ] ] ] } },
{ "type": "Feature", "properties": { "ID": 11, "GRIDCODE": 1 }, "geometry": { "type": "Polygon", "coordinates": [ [ [ -156.540407917373102, 20.933173472869523 ], [ -156.540780143942783, 20.93332949229416 ], [ -156.540513282537034, 20.933790566152421 ], [ -156.540407917373102, 20.933173472869523 ] ] ] } },
{ "type": "Feature", "properties": { "ID": 12, "GRIDCODE": 1 }, "geometry": { "type": "Polygon", "coordinates": [ [ [ -156.562636054292255, 20.913717691995679 ], [ -156.562531916309212, 20.914046482472497 ], [ -156.562283273161199, 20.913805376009304 ], [ -156.562636054292255, 20.913717691995679 ] ] ] } },
{ "type": "Feature", "properties": { "ID": 13, "GRIDCODE": 1 }, "geometry": { "type": "Polygon", "coordinates": [ [ [ -156.563505126495784, 20.913459209082607 ], [ -156.563500748559591, 20.9137300349669 ], [ -156.562636054292255, 20.913717691995679 ], [ -156.562640433778398, 20.913446866285827 ], [ -156.563505126495784, 20.913459209082607 ] ] ] } },
{ "type": "Feature", "properties": { "ID": 14, "GRIDCODE": 1 }, "geometry": { "type": "Polygon", "coordinates": [ [ [ -156.561318325056419, 20.888235367705683 ], [ -156.560968600912958, 20.888137655461943 ], [ -156.561224879408229, 20.887903756315289 ], [ -156.561318325056419, 20.888235367705683 ] ] ] } },
{ "type": "Feature", "properties": { "ID": 15, "GRIDCODE": 2 }, "geometry": { "type": "Polygon", "coordinates": [ [ [ -156.26000464671435, 20.863085988706612 ], [ -156.260354046283794, 20.863184290771553 ], [ -156.260097401779177, 20.863417694351611 ], [ -156.26000464671435, 20.863085988706612 ] ] ] } },
{ "type": "Feature", "properties": { "ID": 16, "GRIDCODE": 2 }, "geometry": { "type": "Polygon", "coordinates": [ [ [ -156.20722704778413, 20.850044879133137 ], [ -156.207122221865887, 20.850373377199936 ], [ -156.206874301961591, 20.850131823339563 ], [ -156.20722704778413, 20.850044879133137 ] ] ] } },
{ "type": "Feature", "properties": { "ID": 17, "GRIDCODE": 2 }, "geometry": { "type": "Polygon", "coordinates": [ [ [ -156.199813557341571, 20.845861256110375 ], [ -156.199708719947864, 20.84618974827578 ], [ -156.199460819289527, 20.845948185675045 ], [ -156.199813557341571, 20.845861256110375 ] ] ] } },
{ "type": "Feature", "properties": { "ID": 18, "GRIDCODE": 1 }, "geometry": { "type": "Polygon", "coordinates": [ [ [ -156.598572452013627, 20.847586931134543 ], [ -156.599586979461236, 20.847728937757914 ], [ -156.601002393124759, 20.848305916825758 ], [ -156.604957039714833, 20.848710634326771 ], [ -156.605579762226967, 20.850421708276262 ], [ -156.60511029633048, 20.851508380445516 ], [ -156.600930813861737, 20.854467655975267 ], [ -156.598431795466212, 20.854849129495058 ], [ -156.597494555704742, 20.854037970329802 ], [ -156.595798563809893, 20.850378102122292 ], [ -156.596197530512285, 20.848896958636796 ], [ -156.597837680345663, 20.847975291775438 ], [ -156.598434283090086, 20.847728112079292 ], [ -156.598572452013627, 20.847586931134543 ] ] ] } },
{ "type": "Feature", "properties": { "ID": 19, "GRIDCODE": 2 }, "geometry": { "type": "Polygon", "coordinates": [ [ [ -156.200181766929205, 20.841533981848631 ], [ -156.200757786864415, 20.84154340287434 ], [ -156.200737745019268, 20.842626400283091 ], [ -156.200161720973057, 20.842616978723406 ], [ -156.200181766929205, 20.841533981848631 ] ] ] } },
{ "type": "Feature", "properties": { "ID": 20, "GRIDCODE": 2 }, "geometry": { "type": "Polygon", "coordinates": [ [ [ -156.194466776417158, 20.839002933777206 ], [ -156.194838332973916, 20.839159645698388 ], [ -156.19457068088775, 20.839620087870326 ], [ -156.194466776417158, 20.839002933777206 ] ] ] } },
{ "type": "Feature", "properties": { "ID": 21, "GRIDCODE": 2 }, "geometry": { "type": "Polygon", "coordinates": [ [ [ -156.190474955098665, 20.83677082888849 ], [ -156.190368302912844, 20.837226764778585 ], [ -156.189498356804563, 20.837608546874076 ], [ -156.189706020214288, 20.836849190105589 ], [ -156.190474955098665, 20.83677082888849 ] ] ] } },
{ "type": "Feature", "properties": { "ID": 22, "GRIDCODE": 1 }, "geometry": { "type": "Polygon", "coordinates": [ [ [ -156.616577245413652, 20.948341262059419 ], [ -156.616483651935681, 20.94800966765666 ], [ -156.616227337576987, 20.948243646758723 ], [ -156.616577245413652, 20.948341262059419 ], [ -156.616564373872393, 20.949153768206862 ], [ -156.615876895284828, 20.948712945722814 ], [ -156.61541971728127, 20.948595971808743 ], [ -156.615326126328341, 20.948264377008439 ], [ -156.615069809879543, 20.948498354148068 ], [ -156.61541971728127, 20.948595971808743 ], [ -156.616112892742791, 20.949832365978207 ], [ -156.61670179911701, 20.950096151255519 ], [ -156.617306156172077, 20.950415837597752 ], [ -156.617244250458924, 20.95119498713364 ], [ -156.617292892323235, 20.952213376535209 ], [ -156.618386389466622, 20.95417241180888 ], [ -156.618307926625334, 20.955161380231512 ], [ -156.616637432715947, 20.954158680678926 ], [ -156.615487529953612, 20.953929506881007 ], [ -156.616056499782815, 20.954421452120986 ], [ -156.616323954358677, 20.954711431305284 ], [ -156.616624557588437, 20.954971186308899 ], [ -156.617152501994326, 20.956666504318271 ], [ -156.616573889945698, 20.957137639199576 ], [ -156.616293065993432, 20.957690845733683 ], [ -156.615034406855898, 20.959647145643942 ], [ -156.613946348171851, 20.959263138683802 ], [ -156.613613408005932, 20.960224464999762 ], [ -156.612718559995272, 20.959751226050042 ], [ -156.61162639181623, 20.958083705655365 ], [ -156.611781334488057, 20.956130093154304 ], [ -156.61170134140923, 20.954445934563086 ], [ -156.609328667696587, 20.951645399736204 ], [ -156.608880885555891, 20.952283683609267 ], [ -156.609753011734597, 20.953846545894379 ], [ -156.609692143885809, 20.954610889127931 ], [ -156.609705468801764, 20.954888848349984 ], [ -156.609395042474063, 20.955141632663754 ], [ -156.60942310498865, 20.955732623070706 ], [ -156.608523182773752, 20.95566960311039 ], [ -156.608136430102348, 20.956064168094453 ], [ -156.60852717838975, 20.95676434597285 ], [ -156.607828418505477, 20.957333364053198 ], [ -156.609137544473015, 20.959150903578291 ], [ -156.608750355696856, 20.959466099650509 ], [ -156.608465191395453, 20.96029012337878 ], [ -156.608005473954364, 20.961056935498345 ], [ -156.60955497996045, 20.96175154830398 ], [ -156.608424199264505, 20.962672434960705 ], [ -156.608020357884755, 20.963838831608484 ], [ -156.608107639628201, 20.96568141969453 ], [ -156.607671196191262, 20.966223296091261 ], [ -156.606387903037444, 20.964833080441977 ], [ -156.60552211691288, 20.964869327104342 ], [ -156.604213365526221, 20.964177268332509 ], [ -156.602754270931342, 20.96489561729835 ], [ -156.602457852852496, 20.965751346153933 ], [ -156.601957036867475, 20.965348540645152 ], [ -156.602097198631299, 20.964224615086362 ], [ -156.601467640431082, 20.963718279707102 ], [ -156.601223459907317, 20.962606139814412 ], [ -156.600331416832347, 20.961888571304151 ], [ -156.600471582449472, 20.960764779770916 ], [ -156.599922126963236, 20.960322793914496 ], [ -156.59940509481109, 20.959720024007321 ], [ -156.599534566321125, 20.961118637392186 ], [ -156.599087438352171, 20.964162787979788 ], [ -156.599216402165609, 20.965557690317951 ], [ -156.598550491900937, 20.96510585730876 ], [ -156.598704238914166, 20.963873533049153 ], [ -156.598285609122712, 20.961553408479997 ], [ -156.598915221140118, 20.9605560903066 ], [ -156.597930977780521, 20.960269740143364 ], [ -156.597837422005313, 20.959938139158311 ], [ -156.597581059300012, 20.960172085147811 ], [ -156.597930977780521, 20.960269740143364 ], [ -156.598088038252087, 20.960680937814004 ], [ -156.597758636043181, 20.961202867954441 ], [ -156.597199840854387, 20.962896531049051 ], [ -156.596890177805506, 20.96253542786534 ], [ -156.596163715663465, 20.962912736617479 ], [ -156.595753804957354, 20.96198727005552 ], [ -156.595442935997255, 20.961737123363026 ], [ -156.595021301234198, 20.961245737172788 ], [ -156.595166340835306, 20.9628129516414 ], [ -156.595013396048131, 20.963060389164326 ], [ -156.594015153232078, 20.962504513666811 ], [ -156.593415955714562, 20.962250292135078 ], [ -156.593163166301139, 20.961679807161744 ], [ -156.592628247549243, 20.96077095483848 ], [ -156.592142746597602, 20.961542511575541 ], [ -156.591997892754762, 20.961407664444025 ], [ -156.59170271133317, 20.961110512380557 ], [ -156.591743168428195, 20.960044052533657 ], [ -156.591431939885581, 20.960045606286464 ], [ -156.590546143190721, 20.95915321723033 ], [ -156.590640962611133, 20.956645242115403 ], [ -156.59062950309638, 20.954653340982222 ], [ -156.591558684376167, 20.953538463420532 ], [ -156.591555741673005, 20.953001135990807 ], [ -156.591565709216951, 20.952730385271252 ], [ -156.591561655387011, 20.951981011248424 ], [ -156.590435695175614, 20.950542787417302 ], [ -156.590472413062031, 20.949568996576296 ], [ -156.591346736630697, 20.948395671536872 ], [ -156.591486832815974, 20.947314084023713 ], [ -156.590067024831228, 20.94818936558444 ], [ -156.589027288218318, 20.949175561434576 ], [ -156.587939516982544, 20.949696666478065 ], [ -156.587616247442895, 20.947254072783132 ], [ -156.587188249485877, 20.946443411939644 ], [ -156.586777406954923, 20.945616856074672 ], [ -156.586492081555832, 20.945076326523584 ], [ -156.586218189277361, 20.944525376799831 ], [ -156.585874104246471, 20.943873833012926 ], [ -156.586296777238204, 20.942768343130329 ], [ -156.585967621842997, 20.941818210858361 ], [ -156.585724569278426, 20.939345006117307 ], [ -156.58680884470391, 20.937438981212733 ], [ -156.585380251123667, 20.9357242391597 ], [ -156.586086172811378, 20.934776720049975 ], [ -156.586502978678595, 20.933999969465297 ], [ -156.585521361699847, 20.933685161953925 ], [ -156.585225667812665, 20.933090254027427 ], [ -156.585270087806464, 20.931918167526984 ], [ -156.585266306411341, 20.93124088609185 ], [ -156.585290404000375, 20.930598521952614 ], [ -156.586517690145854, 20.929867100560028 ], [ -156.586163956335554, 20.928483963018895 ], [ -156.585547719288627, 20.927316945560317 ], [ -156.586551641558856, 20.92555183546855 ], [ -156.586540813788133, 20.923679382668329 ], [ -156.587147964592106, 20.922864446799018 ], [ -156.587144639377698, 20.922280950957266 ], [ -156.586012203351515, 20.920136956867648 ], [ -156.585450453757829, 20.920139724892699 ], [ -156.584595485412535, 20.919851313332106 ], [ -156.583729370829218, 20.919573453912196 ], [ -156.583431799146723, 20.918974550237568 ], [ -156.583438451387877, 20.920122228450325 ], [ -156.584302616296753, 20.92011792759487 ], [ -156.585480741926091, 20.920709448758288 ], [ -156.586361492578021, 20.922482172514997 ], [ -156.585668594374994, 20.92341189417974 ], [ -156.585677921367363, 20.925008407248676 ], [ -156.585367786495624, 20.925280069104939 ], [ -156.584776516215356, 20.925840864248752 ], [ -156.583342136747234, 20.925793044019912 ], [ -156.583058152115001, 20.925820899265414 ], [ -156.583916232317506, 20.926619269891251 ], [ -156.583880564087735, 20.927561460503121 ], [ -156.584965323681587, 20.929114865491176 ], [ -156.583276106088164, 20.929855605623793 ], [ -156.58295987198909, 20.930155481359176 ], [ -156.582970600863206, 20.932013246087994 ], [ -156.582660445814099, 20.932284900936899 ], [ -156.582368598732103, 20.932854291717316 ], [ -156.583146068816148, 20.934326107820077 ], [ -156.582612616032407, 20.935264021018153 ], [ -156.582320761755767, 20.935833410956246 ], [ -156.582902572758115, 20.936934874867486 ], [ -156.582789499058066, 20.939925767256216 ], [ -156.582241694584383, 20.940405684502156 ], [ -156.581901987474964, 20.940727709201362 ], [ -156.581916404905741, 20.943248067263085 ], [ -156.581842070643006, 20.9452103066699 ], [ -156.582995563135199, 20.947731868630161 ], [ -156.582638235620635, 20.9495350749939 ], [ -156.583134510467886, 20.950967724543307 ], [ -156.583492661292354, 20.95325050295591 ], [ -156.583465609527423, 20.953970200957311 ], [ -156.583468453837298, 20.954494297624144 ], [ -156.583150340166895, 20.955591072582248 ], [ -156.58343809991527, 20.956716410808021 ], [ -156.583409037285577, 20.957490972278634 ], [ -156.583417815945126, 20.959082708903352 ], [ -156.582533865647349, 20.960636519653754 ], [ -156.583061975722472, 20.962700685147507 ], [ -156.584463567848928, 20.964004642807435 ], [ -156.584758466000807, 20.965545807764574 ], [ -156.584694561822801, 20.966175038997608 ], [ -156.58414912081949, 20.96562552552437 ], [ -156.583859422170434, 20.965355818302129 ], [ -156.583577002057012, 20.965071399593295 ], [ -156.583256685968792, 20.965952936517443 ], [ -156.583263783958586, 20.967228124673088 ], [ -156.582945072574603, 20.968061933427926 ], [ -156.582948849568652, 20.968737756686124 ], [ -156.582040347654214, 20.969117178274207 ], [ -156.581219972878273, 20.968290614835439 ], [ -156.580348364821447, 20.968827555858216 ], [ -156.579840337591747, 20.969085937953317 ], [ -156.579518746597358, 20.966616910676393 ], [ -156.580112632169829, 20.96557340162806 ], [ -156.580110880422779, 20.965297328695964 ], [ -156.581261250073794, 20.964290287566591 ], [ -156.579839774459401, 20.963943263187126 ], [ -156.580154860531394, 20.963667457534878 ], [ -156.580150112223521, 20.962860144460993 ], [ -156.580792140519009, 20.960888644444331 ], [ -156.58069706114054, 20.960164040221709 ], [ -156.578727384678416, 20.962032292079282 ], [ -156.578146916889494, 20.962540558111197 ], [ -156.577841752584874, 20.963109479346496 ], [ -156.577127200511995, 20.961329546665233 ], [ -156.576219990695051, 20.962190024374937 ], [ -156.575870400608324, 20.960361047974473 ], [ -156.575517072126956, 20.959340716936541 ], [ -156.575743029821808, 20.959142880945453 ], [ -156.575836535188245, 20.959474489322652 ], [ -156.576092926849725, 20.959240579225824 ], [ -156.575743029821808, 20.959142880945453 ], [ -156.575313176894412, 20.958467214934611 ], [ -156.574935543879263, 20.957662137497142 ], [ -156.575036759801122, 20.959803176927988 ], [ -156.574676615323796, 20.960096320538181 ], [ -156.574720503349596, 20.961024554212713 ], [ -156.574677414719758, 20.961565718573645 ], [ -156.574696949182794, 20.961978414211845 ], [ -156.574302468999235, 20.962636264921084 ], [ -156.574404916993473, 20.964804832904118 ], [ -156.574037786224977, 20.966018604703194 ], [ -156.573707186964299, 20.967830225644352 ], [ -156.572668652220472, 20.969249764251636 ], [ -156.572208239018067, 20.968268508261488 ], [ -156.572861504557409, 20.967179052178107 ], [ -156.572573643769317, 20.965471317104907 ], [ -156.572015730599162, 20.96656887736323 ], [ -156.571680123888655, 20.965115080270671 ], [ -156.570599421906707, 20.964630514151104 ], [ -156.570248180718494, 20.964249595567349 ], [ -156.570641164779516, 20.963267409805795 ], [ -156.570265643610497, 20.962594094060037 ], [ -156.570406561139833, 20.96082765873825 ], [ -156.570380487259968, 20.960280087575516 ], [ -156.570701839651974, 20.959477427196653 ], [ -156.570159841583774, 20.957987619027254 ], [ -156.569838315518609, 20.959201899036874 ], [ -156.569679548274081, 20.959598295486803 ], [ -156.569527651245693, 20.959726414739212 ], [ -156.569138746212104, 20.960822408403914 ], [ -156.568650807185634, 20.960797194133903 ], [ -156.567790952979351, 20.960816933012762 ], [ -156.568094808228267, 20.959164197822425 ], [ -156.568418241437286, 20.958337895944908 ], [ -156.568404717587384, 20.95781576752043 ], [ -156.568726330057814, 20.95647464551444 ], [ -156.569027869380164, 20.955103078492915 ], [ -156.569612305777468, 20.955133237414501 ], [ -156.57018391204403, 20.954859388001925 ], [ -156.571335620590617, 20.954918789873499 ], [ -156.570784069236993, 20.954055674049986 ], [ -156.569912085670069, 20.95378267354074 ], [ -156.56963958098612, 20.953497583099644 ], [ -156.568780853144744, 20.953101755489023 ], [ -156.569064832137997, 20.952676722909267 ], [ -156.570251030142401, 20.951349510022826 ], [ -156.570829664797628, 20.95053477383421 ], [ -156.571436925266511, 20.950022282630844 ], [ -156.57200910503596, 20.948926243638997 ], [ -156.572893055752928, 20.947757791600317 ], [ -156.57254364614198, 20.947177839746047 ], [ -156.571476051438083, 20.946220081589917 ], [ -156.571269014657958, 20.939383672271685 ], [ -156.570766851350413, 20.937260333872782 ], [ -156.570480258161666, 20.936453902517137 ], [ -156.570154336488429, 20.935432501103744 ], [ -156.570198309668484, 20.937121949753529 ], [ -156.570121252866954, 20.938441699137975 ], [ -156.570576113311347, 20.940651530793332 ], [ -156.570093833635923, 20.941884425154772 ], [ -156.57015861471632, 20.944377576221683 ], [ -156.569775037898694, 20.945112291573892 ], [ -156.569168887405681, 20.946149772595405 ], [ -156.569183827932193, 20.94672403613982 ], [ -156.569151918268119, 20.947269855073664 ], [ -156.569566224088675, 20.948032873341251 ], [ -156.568657135926486, 20.948420159579339 ], [ -156.566819711190561, 20.950227334037269 ], [ -156.565683380963804, 20.951186598667388 ], [ -156.564236053061535, 20.953420454696033 ], [ -156.563672904686626, 20.953015466694804 ], [ -156.56315772313431, 20.952066081436143 ], [ -156.562520418140906, 20.950746182524398 ], [ -156.561712766274781, 20.953021697557872 ], [ -156.560405352267821, 20.95412542560469 ], [ -156.559408278096015, 20.957414699493494 ], [ -156.558937529367114, 20.956851899531955 ], [ -156.558916688182421, 20.956053887726799 ], [ -156.55951021486203, 20.955037832569957 ], [ -156.557773088035162, 20.954940467876778 ], [ -156.55720700504466, 20.955497275586374 ], [ -156.556751580140684, 20.955881601771946 ], [ -156.555836334655567, 20.956781661803962 ], [ -156.554375539911888, 20.955865645717214 ], [ -156.553982135660021, 20.955050781826003 ], [ -156.552953826490921, 20.95554313882786 ], [ -156.552041975181396, 20.954589881576876 ], [ -156.551433562440593, 20.954043868718557 ], [ -156.554027190699742, 20.952522719180401 ], [ -156.554673859520619, 20.951668547792373 ], [ -156.554819066925404, 20.951259143113155 ], [ -156.555187466726693, 20.951117211946364 ], [ -156.554946031358185, 20.9506379790711 ], [ -156.554819066925404, 20.951259143113155 ], [ -156.554358352322708, 20.951363110666207 ], [ -156.553894748508753, 20.951973756150373 ], [ -156.553511194221329, 20.95188717132525 ], [ -156.553221902424667, 20.951943862744425 ], [ -156.552915227523386, 20.951874649093948 ], [ -156.552501116105077, 20.952419998671623 ], [ -156.552013042133154, 20.951003538394033 ], [ -156.552729448475418, 20.950553927111663 ], [ -156.55299980398442, 20.949497147113014 ], [ -156.553120094769753, 20.949338564239554 ], [ -156.553472964773903, 20.949250908238252 ], [ -156.553224285704943, 20.949009785170425 ], [ -156.553120094769753, 20.949338564239554 ], [ -156.551927657321698, 20.949657274986993 ], [ -156.550987190216631, 20.95039505159496 ], [ -156.550528267633922, 20.951322933633762 ], [ -156.550341745537224, 20.951069472788475 ], [ -156.550079914590015, 20.950494840355649 ], [ -156.549264423906948, 20.950906906200604 ], [ -156.54863999674555, 20.950204578619566 ], [ -156.547467296082573, 20.950797335365131 ], [ -156.547178734613766, 20.948063038882481 ], [ -156.546141987839746, 20.947969685385445 ], [ -156.545221724693903, 20.948434850811715 ], [ -156.545807783518512, 20.947482758172431 ], [ -156.547064014098623, 20.944943168434012 ], [ -156.548479830108505, 20.944030377833734 ], [ -156.548402723026214, 20.944787827409424 ], [ -156.548733396324678, 20.944817580118645 ], [ -156.549006459825961, 20.944528928051856 ], [ -156.549320226669352, 20.944282657220345 ], [ -156.549633536139766, 20.943649362092007 ], [ -156.551050916317081, 20.942932988717555 ], [ -156.553382668414031, 20.942715678186104 ], [ -156.55379009457792, 20.942285036714971 ], [ -156.554103849474643, 20.942038755781983 ], [ -156.554197299320975, 20.942370370928479 ], [ -156.55445368891796, 20.942136493422861 ], [ -156.554103849474643, 20.942038755781983 ], [ -156.553972769810628, 20.941891380178912 ], [ -156.552512350415498, 20.941619380822029 ], [ -156.55254521489411, 20.941295397736329 ], [ -156.551950685542465, 20.940798925798255 ], [ -156.551688532947651, 20.940504171790028 ], [ -156.551276809666007, 20.940160446900489 ], [ -156.552781623138316, 20.938410970343902 ], [ -156.552001364697958, 20.938340781268714 ], [ -156.551146186729113, 20.938392919493321 ], [ -156.551999462514829, 20.937799775594701 ], [ -156.553002161738334, 20.937229536762665 ], [ -156.55348045013838, 20.935383049089705 ], [ -156.553798590107164, 20.934865943939304 ], [ -156.554238798677602, 20.933975738524467 ], [ -156.55611046942434, 20.933523220716221 ], [ -156.556409349209275, 20.933550120257173 ], [ -156.558142728348741, 20.933220856910392 ], [ -156.558399024572992, 20.935647959258905 ], [ -156.559844371121358, 20.934119769789771 ], [ -156.560421344280968, 20.933666799412279 ], [ -156.56048362340843, 20.933055415757842 ], [ -156.560436883131985, 20.932377528836554 ], [ -156.560478090348312, 20.931971786962492 ], [ -156.56039273642952, 20.930740065522173 ], [ -156.560998064450985, 20.930100071650315 ], [ -156.561665228566682, 20.929831709933101 ], [ -156.562225067390102, 20.929548717278788 ], [ -156.56321475179999, 20.929150703407711 ], [ -156.565429554278637, 20.927515061916523 ], [ -156.564874371339158, 20.926744605093059 ], [ -156.562868096373592, 20.925916789396211 ], [ -156.558877398609013, 20.925558040215911 ], [ -156.556706146545224, 20.926138577571734 ], [ -156.555927280476737, 20.926749749108854 ], [ -156.555168965333678, 20.927551545950077 ], [ -156.554916341336877, 20.927000200536064 ], [ -156.55565221064586, 20.925933148374764 ], [ -156.556003570418596, 20.925657374036117 ], [ -156.557979371421226, 20.923481527592251 ], [ -156.558042343145218, 20.922862218472893 ], [ -156.558004958221403, 20.922319908927054 ], [ -156.558046166158192, 20.921914167580471 ], [ -156.558027032802812, 20.921635467141321 ], [ -156.558368840172989, 20.921079535951044 ], [ -156.55832392836848, 20.920428261058529 ], [ -156.55836513436833, 20.920022519417852 ], [ -156.558328169382406, 20.919488945535154 ], [ -156.558903656689154, 20.919037276781573 ], [ -156.558967943769261, 20.918405816615383 ], [ -156.55894924928171, 20.918134661707626 ], [ -156.558990452296825, 20.917728919589553 ], [ -156.558938650000329, 20.91698138617059 ], [ -156.560719145097721, 20.915711920588969 ], [ -156.561321064167714, 20.915469737489317 ], [ -156.56163185819986, 20.915140990087593 ], [ -156.562655190870515, 20.915232849346022 ], [ -156.563589952432437, 20.914499133710144 ], [ -156.563680970686306, 20.913605892580467 ], [ -156.563505126495784, 20.913459209082607 ], [ -156.563645884677811, 20.913320615163428 ], [ -156.564823027003939, 20.912535061129322 ], [ -156.566154743953007, 20.911225002561704 ], [ -156.567413310555395, 20.910870069437578 ], [ -156.567456512038262, 20.9101294436343 ], [ -156.567442452982306, 20.909587465227368 ], [ -156.56840572590707, 20.909176995423767 ], [ -156.567957070495879, 20.908350002041168 ], [ -156.568945595100701, 20.907176027673401 ], [ -156.569449615560671, 20.906210354730458 ], [ -156.570254596582856, 20.905418400126496 ], [ -156.570990669479016, 20.904796618754791 ], [ -156.569837362757966, 20.905087210746633 ], [ -156.56866375105659, 20.90607814066129 ], [ -156.567901808203374, 20.907150847773792 ], [ -156.567785558588184, 20.90688769405881 ], [ -156.567814705966839, 20.906389715406597 ], [ -156.567229980378983, 20.90577849944663 ], [ -156.566560450846225, 20.907666109232203 ], [ -156.565744276023253, 20.906812842629286 ], [ -156.565773540636172, 20.907929750484413 ], [ -156.564868808204835, 20.909003844694254 ], [ -156.563725967024027, 20.910612873570997 ], [ -156.563100644703411, 20.910336235919978 ], [ -156.562314724188013, 20.907873530985125 ], [ -156.561732962847202, 20.906801644711233 ], [ -156.561827582348002, 20.90518084031174 ], [ -156.561471749608188, 20.905162532784779 ], [ -156.561181197841989, 20.905981762264243 ], [ -156.560486580164536, 20.907170732358601 ], [ -156.561039628705913, 20.908189701088133 ], [ -156.560257475179981, 20.908959050164324 ], [ -156.559686442909339, 20.908929594792806 ], [ -156.558551448823891, 20.908955696413873 ], [ -156.558532893728426, 20.908241308583538 ], [ -156.558597526818744, 20.907135931239814 ], [ -156.557672034843705, 20.908359283225824 ], [ -156.556783354428489, 20.910523986750288 ], [ -156.556479649088857, 20.910780211003306 ], [ -156.556084331642978, 20.912241550579843 ], [ -156.555432660062564, 20.912791719387585 ], [ -156.554780362769463, 20.91462964788704 ], [ -156.553826402388751, 20.91508672647949 ], [ -156.552927266481987, 20.91534009740214 ], [ -156.552363251019472, 20.916420187345015 ], [ -156.551452322371404, 20.917623996158362 ], [ -156.551822076882956, 20.921535064316778 ], [ -156.548473963717754, 20.922167789769439 ], [ -156.547340952098523, 20.924106966596327 ], [ -156.547319506071432, 20.924473041771758 ], [ -156.547602065817955, 20.925552973783891 ], [ -156.547586052791161, 20.925827465074939 ], [ -156.54760761324772, 20.926664901484575 ], [ -156.547207591134253, 20.929132437183856 ], [ -156.546470693689855, 20.931208505719791 ], [ -156.54562960880628, 20.931227755142707 ], [ -156.544924865852778, 20.93119142585617 ], [ -156.544292306803982, 20.93149420990202 ], [ -156.543458714084977, 20.931451125784214 ], [ -156.542585662244818, 20.931997119689683 ], [ -156.54232201296233, 20.930881742109975 ], [ -156.541179049860034, 20.932489786622625 ], [ -156.539390114823362, 20.932530655753521 ], [ -156.539440885847455, 20.931663711978221 ], [ -156.538967389421202, 20.931674473677575 ], [ -156.539442156876561, 20.930862188014828 ], [ -156.539728173521411, 20.930314227337984 ], [ -156.540036663330824, 20.929786562438228 ], [ -156.540022501259074, 20.929240092349193 ], [ -156.540124844126524, 20.927490739148435 ], [ -156.538364547449504, 20.926678888864092 ], [ -156.538340111734414, 20.925727663934957 ], [ -156.53867032481574, 20.925162485703318 ], [ -156.538956330963231, 20.924614525195551 ], [ -156.539541021962634, 20.924121000248082 ], [ -156.539152563686031, 20.92285726779663 ], [ -156.538703038843011, 20.92245371735034 ], [ -156.538719082052864, 20.922178302705998 ], [ -156.538705815667811, 20.921663325223108 ], [ -156.539687014399959, 20.920698426337303 ], [ -156.542006332258524, 20.919150976908849 ], [ -156.542543407630092, 20.918122389928524 ], [ -156.544757874824313, 20.918236793124173 ], [ -156.545431304963444, 20.917668201522247 ], [ -156.542579581346843, 20.916353031069214 ], [ -156.543662348587162, 20.914922129953016 ], [ -156.54265124236781, 20.914945274716462 ], [ -156.541727142123136, 20.914519029016272 ], [ -156.542343106722114, 20.912415178694609 ], [ -156.542931028606148, 20.911408746963517 ], [ -156.543216988302333, 20.910860774387668 ], [ -156.544074008168849, 20.910495742577616 ], [ -156.546912226661703, 20.907704409856162 ], [ -156.54905856949199, 20.906891752578911 ], [ -156.549544082114039, 20.906414087557774 ], [ -156.551655252144258, 20.90606660891595 ], [ -156.550098888352949, 20.905119464585983 ], [ -156.547620960672219, 20.905636649818089 ], [ -156.545901428674512, 20.90603375217729 ], [ -156.544733076877094, 20.906277526864688 ], [ -156.543838568074477, 20.90683712090075 ], [ -156.543288188741002, 20.903571170479161 ], [ -156.5439181823659, 20.903556687810493 ], [ -156.544408176421342, 20.903581986751515 ], [ -156.546426765944091, 20.903160756143265 ], [ -156.548081531873066, 20.901533145735037 ], [ -156.548863082072955, 20.901200200083583 ], [ -156.548850084029482, 20.900700831151326 ], [ -156.549924620239636, 20.899643944107801 ], [ -156.550915696765713, 20.899062417437257 ], [ -156.550908634097539, 20.898786535384748 ], [ -156.550953845826882, 20.898013145554568 ], [ -156.548134361907643, 20.897867546661647 ], [ -156.547443914516833, 20.898450463602778 ], [ -156.546880606807861, 20.899004781381542 ], [ -156.546302893134509, 20.899492623403852 ], [ -156.545863271738284, 20.900334281646963 ], [ -156.542133403784021, 20.900012410873149 ], [ -156.541205506581804, 20.898615662884254 ], [ -156.538041263865722, 20.895774602233779 ], [ -156.536314904063715, 20.89333780899986 ], [ -156.536256235751949, 20.891069228814068 ], [ -156.539640039933147, 20.888343791875425 ], [ -156.540134238250573, 20.888332521105276 ], [ -156.541571915661876, 20.888636925623327 ], [ -156.541909944171351, 20.887101257817431 ], [ -156.543333934830457, 20.8866550904498 ], [ -156.544451860800251, 20.888134444786676 ], [ -156.545593978406657, 20.889494966826543 ], [ -156.547211550099945, 20.89163555172 ], [ -156.54840954991522, 20.892435776516436 ], [ -156.548439238368132, 20.891925247863934 ], [ -156.547892407367812, 20.889267394728449 ], [ -156.547487732968676, 20.887095155849757 ], [ -156.547087704609538, 20.886265776589521 ], [ -156.546649061120377, 20.885457137667384 ], [ -156.549933510513114, 20.885851460181978 ], [ -156.551117775102, 20.886594458810382 ], [ -156.551390690831994, 20.886879970316166 ], [ -156.551943741260089, 20.886867259461738 ], [ -156.552261699871593, 20.887152621347614 ], [ -156.552669382461943, 20.887997972923245 ], [ -156.553421244118908, 20.8879806975931 ], [ -156.553962939898355, 20.888547289870619 ], [ -156.554298765521509, 20.888216925927861 ], [ -156.554232141047578, 20.889357853616698 ], [ -156.554527634846352, 20.889623050078761 ], [ -156.554801068660311, 20.890190033672223 ], [ -156.55538285525293, 20.890176665712126 ], [ -156.555919583826835, 20.890738023366882 ], [ -156.556377749399871, 20.890727513356588 ], [ -156.557421232177688, 20.890781320054668 ], [ -156.555753384703223, 20.888868133854363 ], [ -156.556845420592936, 20.888843143466556 ], [ -156.557606140928328, 20.889235483281183 ], [ -156.558236019435157, 20.888615674991982 ], [ -156.558867362257104, 20.888601150910933 ], [ -156.559265972250159, 20.889017938861009 ], [ -156.559732299855398, 20.888624218227488 ], [ -156.56001605849363, 20.888344815939302 ], [ -156.561172329691402, 20.888647288871894 ], [ -156.561318325056419, 20.888235367705683 ], [ -156.56176593380826, 20.888390029262766 ], [ -156.561751332726089, 20.887830186975073 ], [ -156.562432446820878, 20.887539915282897 ], [ -156.56379626550688, 20.887610286707453 ], [ -156.563773025997278, 20.886713164377756 ], [ -156.56716717161521, 20.884447048713959 ], [ -156.570234705200107, 20.881428355970836 ], [ -156.571109106385052, 20.881473453721501 ], [ -156.57176321069548, 20.880829594011495 ], [ -156.572546271797904, 20.881233427696248 ], [ -156.572531126383666, 20.880652279320191 ], [ -156.570788537982821, 20.880106378269662 ], [ -156.572814806924612, 20.879832524860301 ], [ -156.574709676308856, 20.88002832858616 ], [ -156.574860621031689, 20.880374374558425 ], [ -156.575370647729414, 20.880147489750641 ], [ -156.574709676308856, 20.88002832858616 ], [ -156.574598969410886, 20.879595554591656 ], [ -156.573685110468517, 20.87936142950765 ], [ -156.57230668458152, 20.878750344829104 ], [ -156.571295284843757, 20.878491146010404 ], [ -156.571755681944524, 20.877166909855696 ], [ -156.572056743614411, 20.875825991496377 ], [ -156.57330651538814, 20.875543347287806 ], [ -156.571939615815211, 20.875040359049628 ], [ -156.572231565334278, 20.873898113317843 ], [ -156.57192450782486, 20.872513374766235 ], [ -156.572255470929292, 20.8713249906416 ], [ -156.572608146401166, 20.871237275304203 ], [ -156.572359548506029, 20.870996187766345 ], [ -156.572255470929292, 20.8713249906416 ], [ -156.571832013631337, 20.870930763313488 ], [ -156.571299448015054, 20.869304999055306 ], [ -156.570246693299538, 20.868243518768441 ], [ -156.567929617358715, 20.867079670449176 ], [ -156.565236657085336, 20.866608434287798 ], [ -156.558644940113709, 20.866387888652614 ], [ -156.557924365596421, 20.866391490029468 ], [ -156.55691309514944, 20.866357604285316 ], [ -156.556915617455132, 20.86682825632608 ], [ -156.555473177510237, 20.866340998430637 ], [ -156.555176843387841, 20.867156438073245 ], [ -156.554113101495545, 20.867790540378458 ], [ -156.552255947088554, 20.869552782642881 ], [ -156.55140078334648, 20.869524139042039 ], [ -156.551089048294784, 20.870072428897881 ], [ -156.550797663310476, 20.87061532184326 ], [ -156.550499583341349, 20.870876649142136 ], [ -156.550080650117422, 20.872029590940937 ], [ -156.546411960485784, 20.873510515733848 ], [ -156.544138126092975, 20.87352138854283 ], [ -156.543551884260467, 20.872930191339059 ], [ -156.542693690378172, 20.873744407363418 ], [ -156.537665586674734, 20.873160855284791 ], [ -156.5346440421458, 20.872561129329906 ], [ -156.533781257716555, 20.871757724779698 ], [ -156.533776838577836, 20.870959555701472 ], [ -156.534890071089251, 20.866384050496674 ], [ -156.536705131330365, 20.865538024015091 ], [ -156.537043456506382, 20.865536415059118 ], [ -156.541377062063049, 20.865681960765155 ], [ -156.543159409380905, 20.865166460369959 ], [ -156.551798761042448, 20.860386710471648 ], [ -156.55298238441398, 20.859263613037289 ], [ -156.553569426824566, 20.859283251487732 ], [ -156.554008454190068, 20.858866794927302 ], [ -156.555369367492432, 20.85932644023103 ], [ -156.557896380630865, 20.859031591022866 ], [ -156.556757467561795, 20.858505165102489 ], [ -156.555746186997396, 20.858510031816035 ], [ -156.555329174653849, 20.857669980243642 ], [ -156.554564658755567, 20.858026500133473 ], [ -156.55388787167567, 20.857396348174561 ], [ -156.553918827830927, 20.856578967082864 ], [ -156.553617728670389, 20.856298615395303 ], [ -156.553272224365259, 20.852362487273798 ], [ -156.551118444810214, 20.85060966226899 ], [ -156.545977407294828, 20.848617985028447 ], [ -156.54512859378886, 20.847009323503443 ], [ -156.545786266026681, 20.845690639195215 ], [ -156.54774807015869, 20.842751555654296 ], [ -156.548390561907695, 20.841324972446269 ], [ -156.549222932043222, 20.839033018355877 ], [ -156.549862440720716, 20.837840765721236 ], [ -156.55242024265641, 20.836263654927599 ], [ -156.554178081760796, 20.83572596280289 ], [ -156.55564482376812, 20.835718732413891 ], [ -156.557250830207636, 20.836741744816763 ], [ -156.55765328527977, 20.838743178924034 ], [ -156.55790321637889, 20.844284236081034 ], [ -156.559497360902668, 20.845333652606332 ], [ -156.562999431634609, 20.846790375909766 ], [ -156.568271950467562, 20.849439353970574 ], [ -156.570931085846468, 20.849528171424474 ], [ -156.572184928129218, 20.84897812210361 ], [ -156.573883505370645, 20.847930678265843 ], [ -156.57505486884304, 20.84792479163352 ], [ -156.57678317751936, 20.848743559435896 ], [ -156.577242065581345, 20.850068009314633 ], [ -156.576742617561422, 20.852293416308612 ], [ -156.576439992842069, 20.85282575602049 ], [ -156.576443164929231, 20.853347743998107 ], [ -156.576048075446209, 20.855030592296416 ], [ -156.576397297004888, 20.857947096581128 ], [ -156.575757889742903, 20.858507333681729 ], [ -156.577214776594985, 20.858796217133964 ], [ -156.577486051165153, 20.859623712623662 ], [ -156.578077127772531, 20.85962070585115 ], [ -156.579274745045296, 20.860828231848821 ], [ -156.584578119012576, 20.863339906108148 ], [ -156.584903376899604, 20.864332305223115 ], [ -156.585744731405924, 20.863533619685072 ], [ -156.586361438905129, 20.863530550412431 ], [ -156.587498655544834, 20.864367076737601 ], [ -156.588050790666529, 20.863842732312815 ], [ -156.597887032882795, 20.863698212965812 ], [ -156.605427535903402, 20.862449456500485 ], [ -156.609317644752451, 20.862866295744745 ], [ -156.610816702939871, 20.863575988818013 ], [ -156.612345608037117, 20.864998381388425 ], [ -156.615077816603844, 20.869218342519311 ], [ -156.615088216049656, 20.870948764063229 ], [ -156.6142269497158, 20.871766769662035 ], [ -156.613030369642672, 20.87203710562666 ], [ -156.610191183501058, 20.87251702165964 ], [ -156.608068545997668, 20.873783094440352 ], [ -156.606947798860716, 20.875288160044569 ], [ -156.606881085781538, 20.877064715640227 ], [ -156.60820655778204, 20.879340377399345 ], [ -156.610005970066908, 20.880663543493647 ], [ -156.611691834588527, 20.881461699832169 ], [ -156.612847919573909, 20.882938546898984 ], [ -156.612855273002538, 20.884164694444706 ], [ -156.612381543863989, 20.885800519323041 ], [ -156.613308357425836, 20.889619903813649 ], [ -156.615667389739741, 20.894499611316249 ], [ -156.618968178353782, 20.90665955312577 ], [ -156.621807880803203, 20.919963951859934 ], [ -156.622387492476747, 20.928517314838224 ], [ -156.621793110548225, 20.928497655832508 ], [ -156.621211040036542, 20.928500785208701 ], [ -156.619934951689487, 20.927661967521281 ], [ -156.619068708875375, 20.92738427723669 ], [ -156.618623054741704, 20.926025693436046 ], [ -156.618118177645414, 20.926008991032386 ], [ -156.61848593203851, 20.927931032011056 ], [ -156.619526271167643, 20.928898447959767 ], [ -156.621032736777039, 20.930822215802962 ], [ -156.620694228973719, 20.930949901334678 ], [ -156.616853776972647, 20.930822623767146 ], [ -156.615794120095956, 20.931146967668511 ], [ -156.614402148651919, 20.931100790510541 ], [ -156.614944658472695, 20.93165810299265 ], [ -156.616695408318947, 20.931951084220973 ], [ -156.617622502792557, 20.9322637645699 ], [ -156.619853624241756, 20.932807863411107 ], [ -156.62103937832515, 20.93311103959287 ], [ -156.622438415451597, 20.933103691748034 ], [ -156.622002520261077, 20.941927809011808 ], [ -156.621022747859058, 20.945014503101255 ], [ -156.61995206405939, 20.944463061132858 ], [ -156.619234712363607, 20.943401209304636 ], [ -156.617395936315916, 20.94198930427056 ], [ -156.617117641837808, 20.941709229403319 ], [ -156.615674736349405, 20.941423457660463 ], [ -156.614563923937595, 20.940866133332698 ], [ -156.615426949257795, 20.941813108946533 ], [ -156.617007712508013, 20.942818524043599 ], [ -156.617943951141086, 20.944158834547526 ], [ -156.618322809152147, 20.945718469984804 ], [ -156.619356462343745, 20.946207633710465 ], [ -156.61934090184792, 20.946621564331085 ], [ -156.620330615715773, 20.948037742799457 ], [ -156.619504882106071, 20.950638878702051 ], [ -156.619002871639395, 20.950133330181668 ], [ -156.618403854618663, 20.949849702577971 ], [ -156.617599426807374, 20.949039797722122 ], [ -156.617000417104634, 20.948756165820168 ], [ -156.616722112275085, 20.948476089380229 ], [ -156.616577245413652, 20.948341262059419 ] ], [ [ -156.576040082417848, 20.958605328152668 ], [ -156.576133588254322, 20.95893693641699 ], [ -156.576389978492756, 20.958703025725097 ], [ -156.576040082417848, 20.958605328152668 ] ] ] } },
{ "type": "Feature", "properties": { "ID": 23, "GRIDCODE": 2 }, "geometry": { "type": "Polygon", "coordinates": [ [ [ -156.147821812771923, 20.80708753631464 ], [ -156.147716904345202, 20.807415988054906 ], [ -156.147469152064275, 20.807174365943222 ], [ -156.147821812771923, 20.80708753631464 ] ] ] } },
{ "type": "Feature", "properties": { "ID": 24, "GRIDCODE": 2 }, "geometry": { "type": "Polygon", "coordinates": [ [ [ -156.148114839373136, 20.80682158941929 ], [ -156.148109744176878, 20.807092327539483 ], [ -156.147821812771923, 20.80708753631464 ], [ -156.147826908480909, 20.806816798262425 ], [ -156.148114839373136, 20.80682158941929 ] ] ] } },
{ "type": "Feature", "properties": { "ID": 25, "GRIDCODE": 2 }, "geometry": { "type": "Polygon", "coordinates": [ [ [ -156.041742392008302, 20.693446966887418 ], [ -156.042091215225611, 20.693545653702959 ], [ -156.041834598991727, 20.693778728799455 ], [ -156.041742392008302, 20.693446966887418 ] ] ] } },
{ "type": "Feature", "properties": { "ID": 26, "GRIDCODE": 2 }, "geometry": { "type": "Polygon", "coordinates": [ [ [ -156.049928678787865, 20.686817247328761 ], [ -156.048999794753456, 20.68669078675067 ], [ -156.049833088499724, 20.686325431364292 ], [ -156.049928678787865, 20.686817247328761 ] ] ] } },
{ "type": "Feature", "properties": { "ID": 27, "GRIDCODE": 2 }, "geometry": { "type": "Polygon", "coordinates": [ [ [ -156.082263175025389, 20.681410253915129 ], [ -156.0822579965849, 20.681680980213795 ], [ -156.082545674109809, 20.681685853318022 ], [ -156.082637969310667, 20.682017603546132 ], [ -156.082894509069718, 20.681784457410153 ], [ -156.082545674109809, 20.681685853318022 ], [ -156.082550852041464, 20.681415126949872 ], [ -156.082263175025389, 20.681410253915129 ], [ -156.082129964344006, 20.680999131584496 ], [ -156.081586215072235, 20.679410920684045 ], [ -156.081329090819935, 20.677735795607671 ], [ -156.080594792602341, 20.675591355016877 ], [ -156.106098500425929, 20.677235044335877 ], [ -156.111629566777879, 20.678438785256962 ], [ -156.113445727391081, 20.6793060184844 ], [ -156.114656024277565, 20.680439989624354 ], [ -156.114950613145794, 20.683497202138952 ], [ -156.116177397274441, 20.684742389150507 ], [ -156.118885687227021, 20.685311771980945 ], [ -156.120330190965632, 20.684897170545632 ], [ -156.123004953909259, 20.683431199318935 ], [ -156.124775076045182, 20.684004650518119 ], [ -156.126152027727954, 20.685294597644365 ], [ -156.130583302886265, 20.692443462220698 ], [ -156.132737724898789, 20.695215750070549 ], [ -156.133600064714187, 20.698217361616546 ], [ -156.132795945289217, 20.700935734493022 ], [ -156.130905497628646, 20.70375513834562 ], [ -156.125255088066893, 20.713686514439388 ], [ -156.124677760487913, 20.714696807791647 ], [ -156.124051850702131, 20.716835190747602 ], [ -156.123899210970734, 20.720599928553742 ], [ -156.124326014119049, 20.72502945594557 ], [ -156.125028730926203, 20.728232342083984 ], [ -156.124081371395675, 20.729644520018578 ], [ -156.125038362635934, 20.72995435638477 ], [ -156.124633339023831, 20.731006533125374 ], [ -156.125128527621371, 20.731951976038406 ], [ -156.123165981346801, 20.733156082522726 ], [ -156.119117062046485, 20.733829586010415 ], [ -156.119392577345707, 20.734452671706087 ], [ -156.121402757092682, 20.734447736014264 ], [ -156.120827159145961, 20.734736420099967 ], [ -156.11967428008316, 20.735239040185256 ], [ -156.120508125229122, 20.736085174004543 ], [ -156.120940707305891, 20.736490584036261 ], [ -156.121356123657449, 20.736911838497878 ], [ -156.122522723133216, 20.737200210830064 ], [ -156.123292047505515, 20.737980854202039 ], [ -156.12421165637835, 20.738590118845806 ], [ -156.125043587262212, 20.738588037631828 ], [ -156.125914600616454, 20.739403960408165 ], [ -156.125915543441238, 20.739696219045864 ], [ -156.125319792038681, 20.74073793141827 ], [ -156.126198035736508, 20.740785151361017 ], [ -156.127341340011668, 20.740255088835074 ], [ -156.128450813537285, 20.740816464085782 ], [ -156.130797623996472, 20.740319575900738 ], [ -156.131970152565543, 20.740057748581851 ], [ -156.13252672084306, 20.740077747797145 ], [ -156.133399433077074, 20.740075513857107 ], [ -156.133355307510413, 20.741163486887981 ], [ -156.134520713375792, 20.741205272648624 ], [ -156.135993987588819, 20.741201667332572 ], [ -156.143480511553406, 20.74691069511956 ], [ -156.153190230765972, 20.751450557144558 ], [ -156.163889979192078, 20.755346135746233 ], [ -156.170681304886614, 20.758244055775879 ], [ -156.187393319704341, 20.763650091017819 ], [ -156.195482833674475, 20.766436656149548 ], [ -156.202814666828203, 20.769506217173117 ], [ -156.206292990421588, 20.771568462787194 ], [ -156.210405766643646, 20.7727320506342 ], [ -156.212847041243577, 20.773895386597157 ], [ -156.220112589728302, 20.778062146419433 ], [ -156.23012033519413, 20.786004749272195 ], [ -156.244962405995722, 20.799766322599311 ], [ -156.252931375133727, 20.808092424634523 ], [ -156.258141202985513, 20.814713609323746 ], [ -156.262579298101855, 20.820351649472045 ], [ -156.272387718732205, 20.836089554419043 ], [ -156.278205599070702, 20.845119219395762 ], [ -156.283613269271882, 20.856014607644514 ], [ -156.283615052109042, 20.856557384191252 ], [ -156.282446487222188, 20.856805702955604 ], [ -156.282154221984086, 20.857348039673106 ], [ -156.281850608611819, 20.857879747725491 ], [ -156.281852687007643, 20.858421338066435 ], [ -156.279925323059501, 20.858037070147923 ], [ -156.279311739417807, 20.856795023631058 ], [ -156.278730295301386, 20.856206528542856 ], [ -156.277708481190501, 20.856055907841846 ], [ -156.277713357533202, 20.855785141297634 ], [ -156.277425301665971, 20.855780557431931 ], [ -156.277239783147706, 20.855129192655948 ], [ -156.276724605126844, 20.855580158204294 ], [ -156.277425301665971, 20.855780557431931 ], [ -156.277420424808867, 20.856051323911217 ], [ -156.277708481190501, 20.856055907841846 ], [ -156.278961616663651, 20.85758082832405 ], [ -156.278691008041278, 20.858388659803097 ], [ -156.2780528622406, 20.859370367688133 ], [ -156.278120907184302, 20.859966963650571 ], [ -156.277020350813814, 20.860077860339068 ], [ -156.275772710809321, 20.859106867634729 ], [ -156.275497935298603, 20.859692052517314 ], [ -156.275047634755026, 20.859805357475555 ], [ -156.2749548470467, 20.859473656443637 ], [ -156.274698229409012, 20.85970708523692 ], [ -156.275047634755026, 20.859805357475555 ], [ -156.274871683697313, 20.860668116457099 ], [ -156.273733345341185, 20.860782885691112 ], [ -156.27314551908168, 20.860704614462879 ], [ -156.272879509847741, 20.861005997851574 ], [ -156.270055364043913, 20.861290639680721 ], [ -156.269123610295821, 20.859861248198229 ], [ -156.268813768775743, 20.858772931062894 ], [ -156.268172169460627, 20.859366262562109 ], [ -156.269087478374701, 20.86145583883139 ], [ -156.266999640616035, 20.860671988350944 ], [ -156.265794340582744, 20.85873315933101 ], [ -156.264418765572771, 20.858010654472604 ], [ -156.264312244664666, 20.856837771674169 ], [ -156.264027518397825, 20.857784073963817 ], [ -156.264418765572771, 20.858010654472604 ], [ -156.264554557529948, 20.858545781341274 ], [ -156.265269304622791, 20.859026686426731 ], [ -156.264968178595723, 20.860195035308713 ], [ -156.265419126117848, 20.860870489515474 ], [ -156.264894917641215, 20.861599781693013 ], [ -156.265093004163361, 20.862502361008112 ], [ -156.264497779309721, 20.863330229738168 ], [ -156.263884888594959, 20.863190823903018 ], [ -156.263602007806725, 20.864158444821872 ], [ -156.263049793715197, 20.864599512060906 ], [ -156.261841860314433, 20.863832453618283 ], [ -156.261618355875527, 20.862951550542469 ], [ -156.26113017719689, 20.862623167719722 ], [ -156.261695395083649, 20.861837018478763 ], [ -156.26151422295294, 20.861011543313072 ], [ -156.260901728985004, 20.861130411962197 ], [ -156.261071204417362, 20.861902404754261 ], [ -156.260503097623939, 20.862257910344379 ], [ -156.26000464671435, 20.863085988706612 ], [ -156.258739866828336, 20.862848176180549 ], [ -156.258690943406037, 20.862116994825286 ], [ -156.258789152184448, 20.861170626071583 ], [ -156.258715966122907, 20.860086089922273 ], [ -156.258789618188615, 20.85937644530939 ], [ -156.258100317976158, 20.859417370530135 ], [ -156.258689299913812, 20.85752272526523 ], [ -156.257008246220977, 20.858642354651316 ], [ -156.257076222212476, 20.859656716327212 ], [ -156.256606852855469, 20.859781435428093 ], [ -156.256514106932627, 20.859449728860589 ], [ -156.256257464287472, 20.859683126807305 ], [ -156.256606852855469, 20.859781435428093 ], [ -156.256721530574197, 20.859943557182422 ], [ -156.257680538267238, 20.860298411365132 ], [ -156.257530702808424, 20.860879612396563 ], [ -156.257620384087829, 20.861287311200659 ], [ -156.257388507107606, 20.862187100436252 ], [ -156.257865139874724, 20.863724833424481 ], [ -156.257773112896416, 20.864082010045696 ], [ -156.259229976304852, 20.864621124778864 ], [ -156.258859285076625, 20.865773794777741 ], [ -156.257942609601628, 20.865565225851853 ], [ -156.257282088991019, 20.865693360074339 ], [ -156.256972728663698, 20.864474509555862 ], [ -156.256354918937689, 20.864838723927441 ], [ -156.255225962692748, 20.864078971956427 ], [ -156.254992866072456, 20.862845341661245 ], [ -156.254824398771376, 20.862732079955411 ], [ -156.254731655888094, 20.86240037275455 ], [ -156.25447500523245, 20.862633767090291 ], [ -156.254824398771376, 20.862732079955411 ], [ -156.254669655950721, 20.863443196239498 ], [ -156.253320185606242, 20.862725518499321 ], [ -156.252925566956151, 20.863381336301408 ], [ -156.254058578386548, 20.86436598536903 ], [ -156.254112350586212, 20.865556798720679 ], [ -156.253761127274998, 20.865295659611785 ], [ -156.25306961414438, 20.864234123847147 ], [ -156.252367413472285, 20.865401022579064 ], [ -156.252924611432405, 20.866405389211817 ], [ -156.25281786681964, 20.867710396368963 ], [ -156.252866671352081, 20.868786868667428 ], [ -156.251443638281586, 20.867795300031009 ], [ -156.250324444773355, 20.866576912572782 ], [ -156.249666616524394, 20.866603098124184 ], [ -156.249822628588447, 20.864695318270897 ], [ -156.249342631982131, 20.864660752831529 ], [ -156.248756243889488, 20.866342741635048 ], [ -156.24610276726446, 20.865965582233461 ], [ -156.246690391782181, 20.864989286743281 ], [ -156.246281249491602, 20.864633703576189 ], [ -156.246004230326207, 20.864331822962413 ], [ -156.245449785327651, 20.865417488300725 ], [ -156.245119115488649, 20.865156663891 ], [ -156.244469053420374, 20.864448861601158 ], [ -156.243954646043193, 20.864866269851337 ], [ -156.243991698088053, 20.865688903168117 ], [ -156.242823163476061, 20.865374499350217 ], [ -156.242521850884287, 20.865386436277294 ], [ -156.242020511727247, 20.863761788282389 ], [ -156.24169198868691, 20.863476395138264 ], [ -156.241182899510335, 20.862384832751662 ], [ -156.240691550497786, 20.863496492264439 ], [ -156.241380790575647, 20.864738944201914 ], [ -156.240356518108797, 20.865046683503021 ], [ -156.239103080695315, 20.863681654965017 ], [ -156.238802027396019, 20.863987569966937 ], [ -156.238089916269757, 20.863936133367915 ], [ -156.236871439361039, 20.863984689605807 ], [ -156.236501936254655, 20.86366344818973 ], [ -156.236235424379061, 20.863372964277367 ], [ -156.235935720669744, 20.863112624351221 ], [ -156.23568407063334, 20.862009869453018 ], [ -156.23470220787479, 20.861707555994105 ], [ -156.23353177453555, 20.861084933053682 ], [ -156.232540556749285, 20.861570632811571 ], [ -156.232123505274984, 20.859744335352698 ], [ -156.230580110239003, 20.859805841349058 ], [ -156.229967602518997, 20.85947985989333 ], [ -156.22911028183313, 20.859093178254099 ], [ -156.229400002459414, 20.85811648796129 ], [ -156.230783573053145, 20.856994318003288 ], [ -156.231257647486757, 20.854370198638623 ], [ -156.230904730499873, 20.854619982768238 ], [ -156.230453064452291, 20.85669644337051 ], [ -156.229607242809124, 20.857110821986709 ], [ -156.228239583819601, 20.85701196612472 ], [ -156.227492674291341, 20.857770712358164 ], [ -156.227131252361232, 20.856995591514391 ], [ -156.226546966481834, 20.857018783959802 ], [ -156.226277052123407, 20.856440072801774 ], [ -156.225937462667162, 20.856453609531421 ], [ -156.226026308445768, 20.855368799531359 ], [ -156.225412061432962, 20.855614333614412 ], [ -156.22481126289685, 20.855908881379317 ], [ -156.224923368070307, 20.854538406744989 ], [ -156.224259890495603, 20.855595643417285 ], [ -156.223932119790391, 20.856237393112266 ], [ -156.222326116277571, 20.855512681862965 ], [ -156.222243400631982, 20.853674740961424 ], [ -156.22233409518401, 20.852567086888453 ], [ -156.221563802782754, 20.85294456589687 ], [ -156.221145893740839, 20.852581250566825 ], [ -156.220641097014408, 20.852031382233864 ], [ -156.220543712640364, 20.852752378197678 ], [ -156.220632210391244, 20.854718555803196 ], [ -156.220004851785575, 20.854743539452254 ], [ -156.219410810630905, 20.854226864861001 ], [ -156.219119822483663, 20.853602443398707 ], [ -156.218476650756799, 20.854517690532592 ], [ -156.218574306766754, 20.85332379960278 ], [ -156.218122344466394, 20.852930698125093 ], [ -156.218029688050336, 20.852598980353836 ], [ -156.217773006204652, 20.852832315311357 ], [ -156.218122344466394, 20.852930698125093 ], [ -156.217691308041623, 20.854137284517819 ], [ -156.216534248607246, 20.853422336426842 ], [ -156.216818160233828, 20.853039747422425 ], [ -156.217377744733795, 20.852569071238907 ], [ -156.217507902308142, 20.850419724213424 ], [ -156.21714716060643, 20.851430410596898 ], [ -156.216843082144834, 20.851685983660659 ], [ -156.216556140804641, 20.852233298570429 ], [ -156.215964025030814, 20.852484183701684 ], [ -156.215676790217287, 20.853031888593641 ], [ -156.215239692053018, 20.853008508945283 ], [ -156.214516293947156, 20.853023710752609 ], [ -156.214195745598204, 20.851653216482649 ], [ -156.213952774196571, 20.852180612118371 ], [ -156.213651944780139, 20.85302286081539 ], [ -156.213087757295369, 20.852429952227915 ], [ -156.212692040997183, 20.853183901833933 ], [ -156.212225285150424, 20.852693743585164 ], [ -156.211716376399124, 20.852704361520487 ], [ -156.210665782970977, 20.851757042916656 ], [ -156.211621724853956, 20.850498333995045 ], [ -156.210814463186665, 20.850515196158071 ], [ -156.210570345880541, 20.848587748313939 ], [ -156.210274358699451, 20.849151830772318 ], [ -156.209964985846113, 20.849678798555185 ], [ -156.209977439163765, 20.850208500702848 ], [ -156.209379313374001, 20.850220963788811 ], [ -156.209108646133444, 20.849656766995402 ], [ -156.208632693231749, 20.850123224851217 ], [ -156.208106129503875, 20.849246727441596 ], [ -156.208458872809302, 20.849159780371131 ], [ -156.208210952263585, 20.848918228403338 ], [ -156.208106129503875, 20.849246727441596 ], [ -156.207913182380224, 20.849334562028929 ], [ -156.20761294434925, 20.849869211571704 ], [ -156.20722704778413, 20.850044879133137 ], [ -156.207081553465372, 20.849361059900762 ], [ -156.207563582659418, 20.848580894652624 ], [ -156.208009205449315, 20.847684553681024 ], [ -156.208856788855144, 20.847021827599946 ], [ -156.208255001348306, 20.846212209319464 ], [ -156.208304828508261, 20.846957547012526 ], [ -156.207413061888701, 20.847194125528535 ], [ -156.206387663361653, 20.849257427958122 ], [ -156.205406721395633, 20.849751071849557 ], [ -156.205351820674792, 20.848930935112669 ], [ -156.20540656114369, 20.848404844091949 ], [ -156.204215690496, 20.848794019951029 ], [ -156.203972916944849, 20.847407198252412 ], [ -156.203420292308522, 20.84743982446156 ], [ -156.203041509353142, 20.846774672236712 ], [ -156.20398182757998, 20.845783940264756 ], [ -156.204566489129746, 20.845326808738715 ], [ -156.204300199065585, 20.844968579114738 ], [ -156.203612363325647, 20.845314792086921 ], [ -156.202562453115405, 20.845218288782817 ], [ -156.202274034594069, 20.845235261875619 ], [ -156.201886707970147, 20.845199704276123 ], [ -156.20138465029666, 20.846012320378826 ], [ -156.200983998086514, 20.846818261781081 ], [ -156.200515210620779, 20.846289032225613 ], [ -156.200255988344708, 20.845716681051655 ], [ -156.199813557341571, 20.845861256110375 ], [ -156.199949329949305, 20.845442287646382 ], [ -156.200528807308558, 20.844551333103865 ], [ -156.199764167886997, 20.84395484472013 ], [ -156.201482920017952, 20.842860619778058 ], [ -156.201390520714654, 20.842045821355871 ], [ -156.202621608680516, 20.841152682307929 ], [ -156.203071882029292, 20.841039567818601 ], [ -156.203164500707175, 20.841371289585965 ], [ -156.203421180582552, 20.841137976641985 ], [ -156.203071882029292, 20.841039567818601 ], [ -156.202700946560128, 20.840635457903119 ], [ -156.201190180750302, 20.841697262060787 ], [ -156.200757786864415, 20.84154340287434 ], [ -156.200610359180018, 20.84090504080887 ], [ -156.200181766929205, 20.841533981848631 ], [ -156.199711738869269, 20.841665411256578 ], [ -156.198921448693909, 20.8424398473772 ], [ -156.198756759827035, 20.840698174071719 ], [ -156.199109485451288, 20.840611244570315 ], [ -156.198861593874028, 20.840369682107845 ], [ -156.198756759827035, 20.840698174071719 ], [ -156.198304000954636, 20.840808723686937 ], [ -156.198028475735697, 20.84113256973718 ], [ -156.197765111044731, 20.840799902511183 ], [ -156.196231298166964, 20.84037118500833 ], [ -156.196381280031176, 20.839519625972148 ], [ -156.197223562266373, 20.838930132734198 ], [ -156.19749013355306, 20.838087092794797 ], [ -156.19832698623631, 20.837501471207442 ], [ -156.198511545106953, 20.836513736565657 ], [ -156.197829658829306, 20.837315069811535 ], [ -156.197018698398239, 20.837611636012447 ], [ -156.196369584809986, 20.838374487451912 ], [ -156.195945865638265, 20.838603466327438 ], [ -156.195493098548496, 20.83803177518821 ], [ -156.195217573713819, 20.838355616691473 ], [ -156.194723322184984, 20.838701396038154 ], [ -156.194466776417158, 20.839002933777206 ], [ -156.194263948125524, 20.838850309067261 ], [ -156.194409238971787, 20.838024595001812 ], [ -156.193777895686964, 20.838101658508332 ], [ -156.193500251626631, 20.83775089938802 ], [ -156.191621737892746, 20.837419112437232 ], [ -156.191211324705648, 20.836900870779701 ], [ -156.190474955098665, 20.83677082888849 ], [ -156.19093356050621, 20.836087262500033 ], [ -156.189764282427376, 20.836090422088304 ], [ -156.189797191678991, 20.835272787287192 ], [ -156.189198832695638, 20.835528504698424 ], [ -156.188184615092354, 20.835998761609858 ], [ -156.187188489357084, 20.835495488138452 ], [ -156.185182800133475, 20.835000740322474 ], [ -156.185180970041358, 20.834388303991251 ], [ -156.186056342246616, 20.834122607317557 ], [ -156.187161232578148, 20.834161921100083 ], [ -156.187804212695227, 20.833881685501908 ], [ -156.185228209460718, 20.8335426084173 ], [ -156.186955759396142, 20.832517834092581 ], [ -156.187530469676318, 20.831974904883744 ], [ -156.188415226031708, 20.831203130182605 ], [ -156.188855030297304, 20.830001403972066 ], [ -156.189309459739974, 20.829572071181246 ], [ -156.190482001019916, 20.828784112280871 ], [ -156.190625741906445, 20.828648410631633 ], [ -156.190978441039391, 20.828561495133759 ], [ -156.190730581263722, 20.828319924304679 ], [ -156.190625741906445, 20.828648410631633 ], [ -156.189582093436741, 20.828797513705481 ], [ -156.188137018791764, 20.829808842309717 ], [ -156.187684051825698, 20.830340946750272 ], [ -156.186774260197865, 20.830673796103973 ], [ -156.185227351462373, 20.831713177389016 ], [ -156.185103727307251, 20.831266023197657 ], [ -156.185391713970688, 20.831270757078642 ], [ -156.185396748998926, 20.831000010956714 ], [ -156.185749455410701, 20.830913107230572 ], [ -156.185501601595604, 20.830671529393694 ], [ -156.185396748998926, 20.831000010956714 ], [ -156.185108762848955, 20.830995277142833 ], [ -156.185103727307251, 20.831266023197657 ], [ -156.184501833724568, 20.831046923187269 ], [ -156.184082755853296, 20.83137460076513 ], [ -156.183576296058305, 20.831907928526419 ], [ -156.183468124481578, 20.830585331173097 ], [ -156.184230960608971, 20.829351112280616 ], [ -156.183851013326375, 20.828921562530265 ], [ -156.18333365633012, 20.829466480611259 ], [ -156.182865789511823, 20.829135721082931 ], [ -156.182419724512414, 20.828631290746095 ], [ -156.181362755755714, 20.829163223906864 ], [ -156.180378905737541, 20.828789978972925 ], [ -156.179036574347009, 20.826942164932543 ], [ -156.179922886433332, 20.82354998768076 ], [ -156.180782400792083, 20.821821208507515 ], [ -156.181986346350726, 20.821339562743489 ], [ -156.18433810430713, 20.81977825405059 ], [ -156.186610452746692, 20.818491458558395 ], [ -156.188119130851135, 20.816836236549179 ], [ -156.188689127654158, 20.816013000179279 ], [ -156.189594096354227, 20.814964627137662 ], [ -156.189871099529284, 20.814407409520989 ], [ -156.190735752119224, 20.813302297061309 ], [ -156.190946266018841, 20.811278752593367 ], [ -156.190030789064252, 20.812243387404713 ], [ -156.189561257446201, 20.811943434402533 ], [ -156.18968825914709, 20.81072268225158 ], [ -156.187994721317921, 20.810566760470039 ], [ -156.187632796488288, 20.810849900490293 ], [ -156.187167905598358, 20.811785281559718 ], [ -156.186764812624574, 20.812209902604437 ], [ -156.186162884338586, 20.812450748706823 ], [ -156.185656503069197, 20.81298409172145 ], [ -156.185293627658979, 20.812727402894922 ], [ -156.185031075269336, 20.812430573339377 ], [ -156.184417192776635, 20.812466904521017 ], [ -156.183671699121334, 20.811623917656085 ], [ -156.183276324871571, 20.811587533055242 ], [ -156.180220145740634, 20.811829920423364 ], [ -156.178964131197631, 20.812332391232403 ], [ -156.1784041875068, 20.812614100937665 ], [ -156.177440348943719, 20.812999576821039 ], [ -156.174594407095412, 20.814968673546776 ], [ -156.173993700402946, 20.815836178627109 ], [ -156.171128435937391, 20.817870744058865 ], [ -156.17075561650509, 20.815737910814185 ], [ -156.170542842949516, 20.815985123474061 ], [ -156.170142135839939, 20.816790985426131 ], [ -156.168804623641108, 20.816518162802581 ], [ -156.168543477633335, 20.816222920631105 ], [ -156.166835812405992, 20.815708580062687 ], [ -156.166541619881059, 20.815375761900956 ], [ -156.166013617564516, 20.81540696576366 ], [ -156.165662459848051, 20.815112082421898 ], [ -156.16538176801248, 20.814794561198347 ], [ -156.163939415102959, 20.814879658694455 ], [ -156.163398929344766, 20.813684924882953 ], [ -156.16309992876819, 20.81399999316919 ], [ -156.162536946202351, 20.813120803830159 ], [ -156.162107894671323, 20.814762320663906 ], [ -156.159176859664683, 20.814328274800584 ], [ -156.15879371801924, 20.813894923749121 ], [ -156.158245128374034, 20.81343449639844 ], [ -156.159391823962324, 20.81157982012467 ], [ -156.15908356109324, 20.811443661498181 ], [ -156.158540941581577, 20.812015060252541 ], [ -156.15775590278912, 20.812628719608941 ], [ -156.156763037620749, 20.81367438751424 ], [ -156.155067389785103, 20.812928850565651 ], [ -156.155645601083648, 20.811676102193235 ], [ -156.156466951138981, 20.810626536336066 ], [ -156.155367825959615, 20.811129843227263 ], [ -156.154664785536283, 20.811870210615897 ], [ -156.153592996377625, 20.812220297704897 ], [ -156.153713447050364, 20.811064156495402 ], [ -156.152597750362872, 20.811625486067406 ], [ -156.151912162848561, 20.811092546185403 ], [ -156.151651061151654, 20.810797282944584 ], [ -156.150337988655906, 20.809993133887165 ], [ -156.149953982819767, 20.809144128406505 ], [ -156.149361456633699, 20.808883550819761 ], [ -156.149100363671295, 20.80858828463618 ], [ -156.148249731588464, 20.807874066076593 ], [ -156.14852859827775, 20.807224657889012 ], [ -156.148945472750569, 20.80655030367214 ], [ -156.148114839373136, 20.80682158941929 ], [ -156.14833871690584, 20.806164654502041 ], [ -156.149446298548753, 20.804373270564987 ], [ -156.149134435325266, 20.804235449501252 ], [ -156.147705569130807, 20.805044380427741 ], [ -156.146455008303491, 20.806361414057736 ], [ -156.145542121650635, 20.806415109172928 ], [ -156.143669111398566, 20.805268087092987 ], [ -156.143408035993446, 20.804972814124142 ], [ -156.142813864833556, 20.804711527859826 ], [ -156.142844053831851, 20.804423092533849 ], [ -156.142536160711444, 20.804164593534903 ], [ -156.142605474573458, 20.80350165324263 ], [ -156.141789640472354, 20.804360817777845 ], [ -156.140491692988832, 20.803565979841959 ], [ -156.141923608544346, 20.802447066064005 ], [ -156.14144678975822, 20.801392458031092 ], [ -156.141076413189182, 20.802478825464124 ], [ -156.140131172234305, 20.802534334489206 ], [ -156.139412395931288, 20.802467992236661 ], [ -156.139124066294301, 20.80248486747271 ], [ -156.138692802124979, 20.802445007106225 ], [ -156.137334491293473, 20.802524945538686 ], [ -156.136527230790136, 20.802169895312645 ], [ -156.136061838815948, 20.800616802046633 ], [ -156.135309297012327, 20.802129446902956 ], [ -156.134516916665092, 20.801865483063743 ], [ -156.133815911533048, 20.800770482115013 ], [ -156.133667445401414, 20.8010213651405 ], [ -156.133697843829424, 20.801481263202209 ], [ -156.133257818289479, 20.802365972993943 ], [ -156.13214143446757, 20.801789659085866 ], [ -156.131423014412917, 20.800976815610614 ], [ -156.131087947148728, 20.80099646579999 ], [ -156.130800441970649, 20.800969967462091 ], [ -156.130512116155245, 20.800986828416299 ], [ -156.130224611223355, 20.8009603291252 ], [ -156.129633597700149, 20.80099499824863 ], [ -156.129666246092, 20.800681880586932 ], [ -156.128789339759635, 20.800144731388073 ], [ -156.128526928110347, 20.799847830095015 ], [ -156.127411076956605, 20.799913371412888 ], [ -156.127074325141137, 20.799532310604661 ], [ -156.12636280445011, 20.799574205998283 ], [ -156.125787808351816, 20.799520929407656 ], [ -156.125066997135974, 20.799563324798847 ], [ -156.124715552321732, 20.798785835141821 ], [ -156.12386148916724, 20.798410109618516 ], [ -156.123381847869439, 20.797867433884349 ], [ -156.121061980331007, 20.797577777485401 ], [ -156.120805292796746, 20.797010144064121 ], [ -156.118951213851261, 20.797118904844648 ], [ -156.118517487868672, 20.796159257769794 ], [ -156.117782054605044, 20.796202435989091 ], [ -156.117062183974355, 20.795885664063917 ], [ -156.116801179580506, 20.795590358167797 ], [ -156.116208775547875, 20.795329678288262 ], [ -156.115728901716892, 20.794786451792689 ], [ -156.115358595119375, 20.794752188843351 ], [ -156.114781305770549, 20.795042517548929 ], [ -156.114513424626722, 20.794739423391754 ], [ -156.113792452147123, 20.794422223785652 ], [ -156.113094545215802, 20.793632273466361 ], [ -156.111720427997682, 20.79321785202616 ], [ -156.110905536020027, 20.792295408365518 ], [ -156.108785318042379, 20.791954875501634 ], [ -156.107614164930567, 20.791059999654671 ], [ -156.105704333789902, 20.790483899579733 ], [ -156.104796172902411, 20.789721051187744 ], [ -156.104533828521966, 20.789424120432852 ], [ -156.104092082151709, 20.789450117402581 ], [ -156.103654138290892, 20.789409531458602 ], [ -156.102535464383209, 20.789774511510025 ], [ -156.101938939740251, 20.789099296054996 ], [ -156.101204211335642, 20.789872745400167 ], [ -156.100509971147204, 20.789086913297702 ], [ -156.099341857640809, 20.788816446607981 ], [ -156.098851883528283, 20.788261637653761 ], [ -156.097770340911211, 20.787935368289862 ], [ -156.095627260447742, 20.784270475474475 ], [ -156.09485079415785, 20.783845685016765 ], [ -156.093400048557243, 20.783299582432271 ], [ -156.092848458389199, 20.78299786823435 ], [ -156.091780888466133, 20.783060435780055 ], [ -156.090243840998227, 20.782704450791801 ], [ -156.089378230531651, 20.782105032896929 ], [ -156.086997751967488, 20.782881695081432 ], [ -156.086115088589082, 20.781882365368766 ], [ -156.085104740796481, 20.781513859986081 ], [ -156.084224591529534, 20.781248190836443 ], [ -156.083673030504059, 20.78094645007651 ], [ -156.083368980350627, 20.780964289852324 ], [ -156.082817422355618, 20.780662546653279 ], [ -156.082225147421667, 20.780401762609376 ], [ -156.081235026925327, 20.779859959378637 ], [ -156.080172046530208, 20.779539193384782 ], [ -156.07944879734319, 20.778720135879375 ], [ -156.077842126961855, 20.778347919341691 ], [ -156.075966073959876, 20.777566997774169 ], [ -156.074798112718099, 20.77729637910172 ], [ -156.07438477156046, 20.776828240348326 ], [ -156.073673527043439, 20.776438987762528 ], [ -156.072978697027196, 20.776788128846693 ], [ -156.071953064980903, 20.776414002291318 ], [ -156.070390082703199, 20.77650527495166 ], [ -156.069656590728641, 20.776103858436638 ], [ -156.069072162030807, 20.776138042322859 ], [ -156.068209866065814, 20.776057989552413 ], [ -156.067403040133655, 20.776105161144937 ], [ -156.067052182241582, 20.775810107611168 ], [ -156.066608324975505, 20.775307447915605 ], [ -156.063397851061012, 20.774699812791585 ], [ -156.062779583814688, 20.774361431769755 ], [ -156.061509119875325, 20.774435548873299 ], [ -156.059036581097644, 20.773753462369342 ], [ -156.058393699744954, 20.774076589606601 ], [ -156.056877147472278, 20.773935679038892 ], [ -156.055637935697774, 20.774008040654508 ], [ -156.055287108263968, 20.773712966283117 ], [ -156.055026269295922, 20.773417584390931 ], [ -156.054720263992635, 20.773160302643145 ], [ -156.054750591539147, 20.772872561900819 ], [ -156.054444587745479, 20.772615279834262 ], [ -156.054181997092883, 20.772033589232272 ], [ -156.053864232416004, 20.772367965334123 ], [ -156.053330737623611, 20.771763639782609 ], [ -156.053026399467313, 20.771507706525625 ], [ -156.052765568583368, 20.771212322108234 ], [ -156.05137659703334, 20.770237733394065 ], [ -156.051059843649455, 20.769535573429835 ], [ -156.050483328184953, 20.769569170766655 ], [ -156.050003650644982, 20.76952469614352 ], [ -156.04931645092617, 20.769799028202435 ], [ -156.048717301481162, 20.770100127123673 ], [ -156.048166334681923, 20.770048867746414 ], [ -156.04635321519757, 20.770326033854342 ], [ -156.045862593593455, 20.770280433552607 ], [ -156.045122805497158, 20.77032349937414 ], [ -156.043606189157089, 20.769048347256614 ], [ -156.043330189715249, 20.767800376524349 ], [ -156.043023263431905, 20.767259958909957 ], [ -156.043351607647111, 20.76700366925515 ], [ -156.043199119459246, 20.766589546144029 ], [ -156.043551713672002, 20.766502926723764 ], [ -156.04330420584256, 20.766261180493778 ], [ -156.043199119459246, 20.766589546144029 ], [ -156.042754256405772, 20.766707235779421 ], [ -156.041956060332069, 20.767108152449502 ], [ -156.041336806161752, 20.766406320030466 ], [ -156.039742250382403, 20.766926123511279 ], [ -156.038699944635113, 20.766651489655967 ], [ -156.038836641899422, 20.765351396363585 ], [ -156.037760838087507, 20.764762269770163 ], [ -156.036486770333596, 20.764377313362303 ], [ -156.037321269617451, 20.763671865355469 ], [ -156.039430881425375, 20.762878788453886 ], [ -156.041004109944652, 20.76349472572657 ], [ -156.041943020005903, 20.764558687630526 ], [ -156.042498179911206, 20.763974677080828 ], [ -156.043396970184943, 20.763272816168179 ], [ -156.043137240009656, 20.762922564163858 ], [ -156.041455938477583, 20.762181811051462 ], [ -156.041405395037145, 20.761413351578025 ], [ -156.041452382356709, 20.760964186436905 ], [ -156.04086039026825, 20.760466192425202 ], [ -156.040604063448228, 20.759898479866802 ], [ -156.039591005912001, 20.759957576555198 ], [ -156.038866792024237, 20.75934860495865 ], [ -156.038616563905947, 20.758511777999292 ], [ -156.038234103177871, 20.757838220424087 ], [ -156.038917759403802, 20.756733736336361 ], [ -156.038514991445851, 20.755688531379562 ], [ -156.036932021062768, 20.756066902814837 ], [ -156.036638745751787, 20.756039627855383 ], [ -156.035801922753251, 20.756088258379346 ], [ -156.035503468943148, 20.755750023163944 ], [ -156.035199193634782, 20.755494065324047 ], [ -156.03493705012167, 20.755197050322042 ], [ -156.034505550103006, 20.755222260081595 ], [ -156.033136306648828, 20.754618922030684 ], [ -156.032657141795312, 20.754076045060739 ], [ -156.030552363215349, 20.752598512940448 ], [ -156.029565414763425, 20.750231359864372 ], [ -156.028844867268333, 20.749913847896369 ], [ -156.028147623193519, 20.749123625318301 ], [ -156.027843373835992, 20.748867657360378 ], [ -156.027469628040706, 20.748039526947519 ], [ -156.025572840027365, 20.747203543637799 ], [ -156.024142017476379, 20.746419777713317 ], [ -156.022950310337166, 20.746059702534488 ], [ -156.02245938811663, 20.745503112259303 ], [ -156.022101658669129, 20.745524018410588 ], [ -156.02103246073122, 20.744938359316816 ], [ -156.019943488424218, 20.744458397517594 ], [ -156.019876602449443, 20.743438956338984 ], [ -156.020004461564582, 20.742222568779898 ], [ -156.019888597596037, 20.740460351513089 ], [ -156.01998911578778, 20.73950556348283 ], [ -156.019681578732275, 20.739246882678223 ], [ -156.019710942294438, 20.738967863751707 ], [ -156.019692531558348, 20.738688016249196 ], [ -156.020017986399409, 20.738433966183752 ], [ -156.019187251780579, 20.737287958624165 ], [ -156.01915412624254, 20.736783598713274 ], [ -156.020063046662017, 20.735732552417399 ], [ -156.020044624487525, 20.735453233559959 ], [ -156.020072971728524, 20.735182923711282 ], [ -156.020054559822341, 20.734903076116073 ], [ -156.020372012408302, 20.73465523255194 ], [ -156.020336250633449, 20.734113009708484 ], [ -156.020673968966122, 20.733849384947344 ], [ -156.021139523626658, 20.732914541139568 ], [ -156.021542788042382, 20.732490336062792 ], [ -156.021858521040002, 20.732243781391954 ], [ -156.021831890471447, 20.731837910709796 ], [ -156.022690402862111, 20.730113726980228 ], [ -156.022898507267087, 20.72995125340676 ], [ -156.022990682996181, 20.730283021919423 ], [ -156.023247393524855, 20.73004998678708 ], [ -156.022898507267087, 20.72995125340676 ], [ -156.02313042307415, 20.729318858422808 ], [ -156.02403494935669, 20.728071745384085 ], [ -156.025522083746097, 20.727073906775818 ], [ -156.02656937795706, 20.726085504281894 ], [ -156.027161045068482, 20.725569732989495 ], [ -156.027159594534538, 20.724809397023446 ], [ -156.027544570770743, 20.723434137807033 ], [ -156.029834978514572, 20.720996685015656 ], [ -156.030133796143787, 20.720736331522151 ], [ -156.03013293740679, 20.720448984595322 ], [ -156.030999196122025, 20.720480603408575 ], [ -156.032120219053922, 20.720478400856411 ], [ -156.033259741637835, 20.721055803527914 ], [ -156.033308707112951, 20.72046161964678 ], [ -156.031116167855288, 20.718763521447023 ], [ -156.031631719206274, 20.718314513508254 ], [ -156.031628583599201, 20.716976042832378 ], [ -156.031948259961553, 20.716697665176202 ], [ -156.031091449937776, 20.715894266865543 ], [ -156.031954706274291, 20.715617204998868 ], [ -156.033112469496729, 20.715285583565667 ], [ -156.032834062676784, 20.715090768583117 ], [ -156.031972099469215, 20.714537462517622 ], [ -156.032576274921183, 20.714011038530753 ], [ -156.03216884936046, 20.713629141459254 ], [ -156.033150894668665, 20.712274738876985 ], [ -156.034042628894326, 20.711861959416051 ], [ -156.035033032528929, 20.711578211795572 ], [ -156.034644777113442, 20.710789121757699 ], [ -156.03325828519931, 20.709488945714646 ], [ -156.034668114186275, 20.709085226641122 ], [ -156.034687223388232, 20.708623416195781 ], [ -156.033620290298387, 20.708277228858258 ], [ -156.033111307853915, 20.7067894743933 ], [ -156.033871691943943, 20.706437500518877 ], [ -156.034998799309761, 20.706478479892862 ], [ -156.035043612889524, 20.705389024772433 ], [ -156.034180030992758, 20.705094213721011 ], [ -156.033016995935498, 20.704806003968418 ], [ -156.033055958545845, 20.703858860120761 ], [ -156.033055156451866, 20.703452639559089 ], [ -156.033066047437416, 20.703182022835758 ], [ -156.033063822351892, 20.702127195606408 ], [ -156.033385610363695, 20.701565217022569 ], [ -156.033383743150381, 20.700780539067836 ], [ -156.034268736613029, 20.699945031201914 ], [ -156.034865981679019, 20.699424422532573 ], [ -156.0356965138416, 20.697544547823846 ], [ -156.036194830327958, 20.697543476346716 ], [ -156.037679110880248, 20.697597589325181 ], [ -156.038136754866144, 20.69634875781637 ], [ -156.039509078763388, 20.695713069902983 ], [ -156.039820072980632, 20.696254740902166 ], [ -156.040138567937902, 20.696902324096754 ], [ -156.040715562111927, 20.694368809812367 ], [ -156.042423371646038, 20.694430952500745 ], [ -156.042991361288415, 20.693894733336844 ], [ -156.044179932816746, 20.693892269546556 ], [ -156.04475229208694, 20.693913071126858 ], [ -156.044475679248933, 20.693626672686133 ], [ -156.043314783269835, 20.693071736567052 ], [ -156.044714940681075, 20.69246199990511 ], [ -156.043781166726347, 20.691586341960171 ], [ -156.044959222713572, 20.69055956923885 ], [ -156.045417076885371, 20.689309919399342 ], [ -156.045715520964364, 20.689049522415083 ], [ -156.046278326193828, 20.688518092403015 ], [ -156.046589159475872, 20.688517473866256 ], [ -156.048005303422855, 20.689633980296914 ], [ -156.048304385847331, 20.688817825455295 ], [ -156.049183427235846, 20.688296565887562 ], [ -156.04975824322446, 20.687753692430704 ], [ -156.05064090451981, 20.687785738706307 ], [ -156.049928678787865, 20.686817247328761 ], [ -156.05079171556892, 20.686832030558943 ], [ -156.050883940891111, 20.687163789733283 ], [ -156.051140532580973, 20.68693069795858 ], [ -156.05079171556892, 20.686832030558943 ], [ -156.050945186067622, 20.68597317686417 ], [ -156.051544115144395, 20.685127107179905 ], [ -156.052112127007433, 20.685996462933989 ], [ -156.052371841558397, 20.685339887436488 ], [ -156.052549185792344, 20.685237270535911 ], [ -156.052641414578517, 20.685569029165674 ], [ -156.052898000915576, 20.685335934083326 ], [ -156.052549185792344, 20.685237270535911 ], [ -156.05274523805528, 20.683759377195624 ], [ -156.053832862776062, 20.682694222610884 ], [ -156.054185123092623, 20.682687025038774 ], [ -156.055490262383245, 20.68303278058216 ], [ -156.056200308941811, 20.682732192240124 ], [ -156.05729795614215, 20.682209331477505 ], [ -156.057351429384823, 20.682744194596548 ], [ -156.057332993225145, 20.683044308816925 ], [ -156.05863520324823, 20.683018024828606 ], [ -156.059659024662324, 20.683073722094033 ], [ -156.059643178588203, 20.682379633511058 ], [ -156.05966814338268, 20.681973844892813 ], [ -156.059661167973218, 20.681665097742318 ], [ -156.061088668175302, 20.681742751016909 ], [ -156.061409725115936, 20.68119629456756 ], [ -156.061938618087652, 20.680188985187069 ], [ -156.062439280489855, 20.679698746673367 ], [ -156.063711295775505, 20.681225232753885 ], [ -156.064533994446464, 20.682473375685028 ], [ -156.065440228182837, 20.683762344444112 ], [ -156.065933536985256, 20.684793960113435 ], [ -156.066726307238838, 20.685510542456608 ], [ -156.067889292123368, 20.687274885670377 ], [ -156.069173919245998, 20.689101459695213 ], [ -156.070184971918451, 20.691681723657382 ], [ -156.071857902211519, 20.694219028670414 ], [ -156.071817831800871, 20.692471690032548 ], [ -156.072421079236193, 20.692216294263854 ], [ -156.072702932267703, 20.691939960664495 ], [ -156.074978833939952, 20.691470604441154 ], [ -156.075259748541185, 20.6868913979425 ], [ -156.074709083085793, 20.685740215056363 ], [ -156.073826640855941, 20.684099819427495 ], [ -156.073449325540508, 20.683025100864246 ], [ -156.073493517190997, 20.682303729462028 ], [ -156.073204511979469, 20.681386810285545 ], [ -156.072736711603568, 20.680517365243951 ], [ -156.072385969725758, 20.67839541872755 ], [ -156.072972364526635, 20.677902106451729 ], [ -156.071849281353963, 20.677030780970593 ], [ -156.070709542924874, 20.676500722587104 ], [ -156.070693185968594, 20.675786521503973 ], [ -156.074175734113624, 20.675715849599399 ], [ -156.07473972466417, 20.676009198696953 ], [ -156.075824159497898, 20.675671902720214 ], [ -156.079194588676074, 20.67837572562005 ], [ -156.079992065360926, 20.679215571221345 ], [ -156.081019966306798, 20.680144741698278 ], [ -156.081969523292742, 20.681144779406019 ], [ -156.082263175025389, 20.681410253915129 ] ], [ [ -156.043843281326843, 20.763080174797398 ], [ -156.043935514617544, 20.763411938903651 ], [ -156.044192260237963, 20.763178876082609 ], [ -156.043843281326843, 20.763080174797398 ] ] ] } }
]
}
