{
"type": "FeatureCollection",
"name": "copelli",
"crs": { "type": "name", "properties": { "name": "urn:ogc:def:crs:OGC:1.3:CRS84" } },
"features": [
{ "type": "Feature", "properties": { "ID": 1, "GRIDCODE": 2 }, "geometry": { "type": "Polygon", "coordinates": [ [ [ -159.611221835999231, 22.172742873978621 ], [ -159.61049028889019, 22.173686564789598 ], [ -159.609717510092338, 22.175581487500054 ], [ -159.609334906342923, 22.175604166321985 ], [ -159.608833106531648, 22.17411191119902 ], [ -159.607680487343742, 22.175323186755595 ], [ -159.607192424721035, 22.173998190802184 ], [ -159.608178868582741, 22.173710449404069 ], [ -159.608452275826778, 22.173423165448302 ], [ -159.609631422439776, 22.173162982290211 ], [ -159.610195802043762, 22.172874606891032 ], [ -159.611221835999231, 22.172742873978621 ] ] ] } },
{ "type": "Feature", "properties": { "ID": 2, "GRIDCODE": 2 }, "geometry": { "type": "Polygon", "coordinates": [ [ [ -159.619949921635737, 22.172438889980523 ], [ -159.61926922415978, 22.173365230531104 ], [ -159.619044698759154, 22.172658932228352 ], [ -159.619949921635737, 22.172438889980523 ] ] ] } },
{ "type": "Feature", "properties": { "ID": 3, "GRIDCODE": 2 }, "geometry": { "type": "Polygon", "coordinates": [ [ [ -159.619949921635737, 22.172438889980523 ], [ -159.620048069099937, 22.172108082945179 ], [ -159.620304282435598, 22.172344763285832 ], [ -159.619949921635737, 22.172438889980523 ] ] ] } },
{ "type": "Feature", "properties": { "ID": 4, "GRIDCODE": 2 }, "geometry": { "type": "Polygon", "coordinates": [ [ [ -159.611221835999231, 22.172742873978621 ], [ -159.611387664496561, 22.171811128704725 ], [ -159.611912666097908, 22.172242056501641 ], [ -159.611221835999231, 22.172742873978621 ] ] ] } },
{ "type": "Feature", "properties": { "ID": 5, "GRIDCODE": 2 }, "geometry": { "type": "Polygon", "coordinates": [ [ [ -159.597242372719194, 22.169813469317418 ], [ -159.597597527473113, 22.169904942359732 ], [ -159.597343363446953, 22.170143538199632 ], [ -159.597242372719194, 22.169813469317418 ] ] ] } },
{ "type": "Feature", "properties": { "ID": 6, "GRIDCODE": 2 }, "geometry": { "type": "Polygon", "coordinates": [ [ [ -159.596947969969051, 22.169001485215698 ], [ -159.597326809658995, 22.169150834624791 ], [ -159.597067142538862, 22.16961694955403 ], [ -159.596947969969051, 22.169001485215698 ] ] ] } },
{ "type": "Feature", "properties": { "ID": 7, "GRIDCODE": 2 }, "geometry": { "type": "Polygon", "coordinates": [ [ [ -159.600423491052112, 22.165194430080479 ], [ -159.600521679895962, 22.164863629455436 ], [ -159.600777847946148, 22.165100350003801 ], [ -159.600423491052112, 22.165194430080479 ] ] ] } },
{ "type": "Feature", "properties": { "ID": 8, "GRIDCODE": 2 }, "geometry": { "type": "Polygon", "coordinates": [ [ [ -159.552093035328511, 22.157505600177458 ], [ -159.552448132196844, 22.157597172985881 ], [ -159.552193911898087, 22.157835699944968 ], [ -159.552093035328511, 22.157505600177458 ] ] ] } },
{ "type": "Feature", "properties": { "ID": 9, "GRIDCODE": 2 }, "geometry": { "type": "Polygon", "coordinates": [ [ [ -159.609945762249481, 22.146729669047915 ], [ -159.610043916994357, 22.146398862735687 ], [ -159.610300066358803, 22.146635569253629 ], [ -159.609945762249481, 22.146729669047915 ] ] ] } },
{ "type": "Feature", "properties": { "ID": 10, "GRIDCODE": 2 }, "geometry": { "type": "Polygon", "coordinates": [ [ [ -159.598874640723977, 22.14297638320426 ], [ -159.59922972864652, 22.143067854466285 ], [ -159.598975614476672, 22.143306452496631 ], [ -159.598874640723977, 22.14297638320426 ] ] ] } },
{ "type": "Feature", "properties": { "ID": 11, "GRIDCODE": 2 }, "geometry": { "type": "Polygon", "coordinates": [ [ [ -159.600320027205584, 22.140802898826497 ], [ -159.600709443005769, 22.140984633608127 ], [ -159.600494141778114, 22.142519434182486 ], [ -159.599675117665583, 22.142293606406351 ], [ -159.600224210680665, 22.141254248254416 ], [ -159.600320027205584, 22.140802898826497 ] ] ] } },
{ "type": "Feature", "properties": { "ID": 12, "GRIDCODE": 2 }, "geometry": { "type": "Polygon", "coordinates": [ [ [ -159.607595121880706, 22.141318014870393 ], [ -159.607717653338284, 22.140410991722071 ], [ -159.607968555578339, 22.141132984795355 ], [ -159.607595121880706, 22.141318014870393 ] ] ] } },
{ "type": "Feature", "properties": { "ID": 13, "GRIDCODE": 2 }, "geometry": { "type": "Polygon", "coordinates": [ [ [ -159.586356279337394, 22.140853672964944 ], [ -159.586454485834736, 22.140522879475149 ], [ -159.586710585830872, 22.140759624309467 ], [ -159.586356279337394, 22.140853672964944 ] ] ] } },
{ "type": "Feature", "properties": { "ID": 14, "GRIDCODE": 2 }, "geometry": { "type": "Polygon", "coordinates": [ [ [ -159.572074213979391, 22.134128799926689 ], [ -159.572429263728225, 22.134220330463751 ], [ -159.572175118864948, 22.134458887651892 ], [ -159.572074213979391, 22.134128799926689 ] ] ] } },
{ "type": "Feature", "properties": { "ID": 15, "GRIDCODE": 2 }, "geometry": { "type": "Polygon", "coordinates": [ [ [ -159.602030936674367, 22.1326659439408 ], [ -159.602386000438855, 22.132757408982364 ], [ -159.60213190976279, 22.132996011694505 ], [ -159.602030936674367, 22.1326659439408 ] ] ] } },
{ "type": "Feature", "properties": { "ID": 16, "GRIDCODE": 2 }, "geometry": { "type": "Polygon", "coordinates": [ [ [ -159.603483098663162, 22.132118537792962 ], [ -159.604155210445384, 22.132230281298224 ], [ -159.603890359664092, 22.13274275214971 ], [ -159.602820957499148, 22.13254725168845 ], [ -159.603394057720351, 22.13230621179304 ], [ -159.603483098663162, 22.132118537792962 ] ] ] } },
{ "type": "Feature", "properties": { "ID": 17, "GRIDCODE": 2 }, "geometry": { "type": "Polygon", "coordinates": [ [ [ -159.6014468473102, 22.132126053449053 ], [ -159.601155954188556, 22.132127125040853 ], [ -159.601298727357687, 22.131496643603288 ], [ -159.6014468473102, 22.132126053449053 ] ] ] } },
{ "type": "Feature", "properties": { "ID": 18, "GRIDCODE": 2 }, "geometry": { "type": "Polygon", "coordinates": [ [ [ -159.5345307543584, 22.12964866041829 ], [ -159.535269251426058, 22.129771670350699 ], [ -159.5360490020405, 22.130173654672245 ], [ -159.535535608029249, 22.130588716128738 ], [ -159.536071498112705, 22.1319336910387 ], [ -159.536757275760948, 22.132216083836887 ], [ -159.536711850927844, 22.132767263654845 ], [ -159.538747476282623, 22.134118952720428 ], [ -159.539201949604035, 22.134083416829387 ], [ -159.539929407759843, 22.134135451685328 ], [ -159.540801859424676, 22.134067238961514 ], [ -159.541962525366387, 22.1341502510815 ], [ -159.542835836960393, 22.136271421767479 ], [ -159.54328099257566, 22.137008597635091 ], [ -159.544182974708974, 22.137727327050964 ], [ -159.54459168416227, 22.138975808733374 ], [ -159.545447854421241, 22.140851049524777 ], [ -159.546374095366161, 22.141589105060092 ], [ -159.547327858590819, 22.144502197383545 ], [ -159.54869272975435, 22.145589695935659 ], [ -159.54898855346292, 22.147530261860489 ], [ -159.548395095227733, 22.149579232117386 ], [ -159.547252739844225, 22.150058698862114 ], [ -159.546933668794452, 22.150406206839275 ], [ -159.545855808174963, 22.149249226171257 ], [ -159.545383657088934, 22.147344651904834 ], [ -159.544422994743627, 22.145754109557981 ], [ -159.543742887153627, 22.145212180325771 ], [ -159.543472438516574, 22.144921893338765 ], [ -159.542576079762512, 22.144402994343064 ], [ -159.541852827713996, 22.143626569162741 ], [ -159.541117330245612, 22.143323744604221 ], [ -159.540555971983707, 22.143034417065145 ], [ -159.539951586608197, 22.142785559257998 ], [ -159.538806335313069, 22.141956109376121 ], [ -159.537663027352181, 22.141485349246285 ], [ -159.537053207984201, 22.140830607829269 ], [ -159.536733721214603, 22.13741506123344 ], [ -159.535851046151151, 22.135481432353526 ], [ -159.535496743400813, 22.13268892506041 ], [ -159.534670045138284, 22.13087789556738 ], [ -159.5345307543584, 22.12964866041829 ] ] ] } },
{ "type": "Feature", "properties": { "ID": 19, "GRIDCODE": 2 }, "geometry": { "type": "Polygon", "coordinates": [ [ [ -159.494085360262289, 22.126523779032581 ], [ -159.49499062506402, 22.12701116238771 ], [ -159.496194835911041, 22.128762654869515 ], [ -159.497724250894009, 22.129637144287411 ], [ -159.499028298777517, 22.129915635555143 ], [ -159.499490639614777, 22.130702112120328 ], [ -159.499461783732897, 22.131179505298284 ], [ -159.50005904666881, 22.131798211044419 ], [ -159.50065807980323, 22.132052148240497 ], [ -159.501071443328044, 22.132480287034621 ], [ -159.501533651536391, 22.132862535843937 ], [ -159.502059174354059, 22.135438305347318 ], [ -159.502855770663388, 22.137041308844413 ], [ -159.503279135825863, 22.13747984040068 ], [ -159.504640004583507, 22.138393556189619 ], [ -159.505536941935787, 22.139919157335132 ], [ -159.504896753394945, 22.143174288397486 ], [ -159.504207669537948, 22.143138165766203 ], [ -159.504173528260338, 22.143703024652062 ], [ -159.504209291985319, 22.144232143466002 ], [ -159.503258002037455, 22.14538353604377 ], [ -159.503327727371442, 22.146415882913786 ], [ -159.503311024421293, 22.146692409687027 ], [ -159.503899116825949, 22.148203445565443 ], [ -159.503553089950572, 22.149388832131446 ], [ -159.50261588712408, 22.149097381855562 ], [ -159.501583912805074, 22.148579095467703 ], [ -159.500137632352306, 22.14894471462723 ], [ -159.499775957668476, 22.147517922908897 ], [ -159.498224793965761, 22.146738839464668 ], [ -159.499120574306801, 22.148262493080857 ], [ -159.497474301902145, 22.148818437628002 ], [ -159.495008956824734, 22.148962855541001 ], [ -159.49486625469504, 22.146848305446134 ], [ -159.494901103779341, 22.146271965807752 ], [ -159.494181873692554, 22.143870222029626 ], [ -159.493315977954893, 22.143154147914544 ], [ -159.494011496421422, 22.141329745791484 ], [ -159.494314141727273, 22.136325037065475 ], [ -159.493978763551667, 22.135324802364238 ], [ -159.493062760765866, 22.133766413924167 ], [ -159.493202851250629, 22.131450802815227 ], [ -159.492778335729753, 22.130728625239939 ], [ -159.493841779566196, 22.128891109613534 ], [ -159.494243919449644, 22.127473989402631 ], [ -159.494085360262289, 22.126523779032581 ] ] ] } },
{ "type": "Feature", "properties": { "ID": 20, "GRIDCODE": 2 }, "geometry": { "type": "Polygon", "coordinates": [ [ [ -159.493792584876701, 22.125982613608635 ], [ -159.494083470621575, 22.125981733577618 ], [ -159.494085360262289, 22.126523779032581 ], [ -159.493794473405018, 22.126524659087384 ], [ -159.493792584876701, 22.125982613608635 ] ] ] } },
{ "type": "Feature", "properties": { "ID": 21, "GRIDCODE": 2 }, "geometry": { "type": "Polygon", "coordinates": [ [ [ -159.493792584876701, 22.125982613608635 ], [ -159.493437602822837, 22.125890910534821 ], [ -159.493691867978441, 22.125652473389525 ], [ -159.493792584876701, 22.125982613608635 ] ] ] } },
{ "type": "Feature", "properties": { "ID": 22, "GRIDCODE": 2 }, "geometry": { "type": "Polygon", "coordinates": [ [ [ -159.587744501528704, 22.124858359836132 ], [ -159.588099537171928, 22.124949856676338 ], [ -159.587845435537304, 22.125188437599881 ], [ -159.587744501528704, 22.124858359836132 ] ] ] } },
{ "type": "Feature", "properties": { "ID": 23, "GRIDCODE": 2 }, "geometry": { "type": "Polygon", "coordinates": [ [ [ -159.493207983997138, 22.12517130375889 ], [ -159.493562964100732, 22.125263007375885 ], [ -159.493308699408885, 22.125501444322893 ], [ -159.493207983997138, 22.12517130375889 ] ] ] } },
{ "type": "Feature", "properties": { "ID": 24, "GRIDCODE": 2 }, "geometry": { "type": "Polygon", "coordinates": [ [ [ -159.604321104983882, 22.123984779708405 ], [ -159.604676148200895, 22.124076240321184 ], [ -159.60442207666074, 22.124314846413501 ], [ -159.604321104983882, 22.123984779708405 ] ] ] } },
{ "type": "Feature", "properties": { "ID": 25, "GRIDCODE": 2 }, "geometry": { "type": "Polygon", "coordinates": [ [ [ -159.602863265489248, 22.123177102623821 ], [ -159.603544094124089, 22.123494854729771 ], [ -159.603262592030944, 22.124079740554013 ], [ -159.602599013532654, 22.123677419491234 ], [ -159.602863265489248, 22.123177102623821 ] ] ] } },
{ "type": "Feature", "properties": { "ID": 26, "GRIDCODE": 2 }, "geometry": { "type": "Polygon", "coordinates": [ [ [ -159.603436938892116, 22.121277828486523 ], [ -159.604413039010808, 22.121395859144901 ], [ -159.60392908570833, 22.122165159847125 ], [ -159.603436938892116, 22.121277828486523 ] ] ] } },
{ "type": "Feature", "properties": { "ID": 27, "GRIDCODE": 2 }, "geometry": { "type": "Polygon", "coordinates": [ [ [ -159.578707330663917, 22.120012227607884 ], [ -159.57906234874892, 22.12010374454325 ], [ -159.57880824003459, 22.12034231168483 ], [ -159.578707330663917, 22.120012227607884 ] ] ] } },
{ "type": "Feature", "properties": { "ID": 28, "GRIDCODE": 2 }, "geometry": { "type": "Polygon", "coordinates": [ [ [ -159.578707330663917, 22.120012227607884 ], [ -159.578352313019565, 22.119920709889744 ], [ -159.578606421780705, 22.119682143445168 ], [ -159.578707330663917, 22.120012227607884 ] ] ] } },
{ "type": "Feature", "properties": { "ID": 29, "GRIDCODE": 2 }, "geometry": { "type": "Polygon", "coordinates": [ [ [ -159.591212440564817, 22.119425387437627 ], [ -159.591916328897753, 22.119595692287582 ], [ -159.590929737926615, 22.120073472339367 ], [ -159.591212440564817, 22.119425387437627 ] ] ] } },
{ "type": "Feature", "properties": { "ID": 30, "GRIDCODE": 2 }, "geometry": { "type": "Polygon", "coordinates": [ [ [ -159.582191085315259, 22.118373706624649 ], [ -159.582546101330678, 22.118465216044452 ], [ -159.582292001482188, 22.118703788464273 ], [ -159.582191085315259, 22.118373706624649 ] ] ] } },
{ "type": "Feature", "properties": { "ID": 31, "GRIDCODE": 2 }, "geometry": { "type": "Polygon", "coordinates": [ [ [ -159.488234016114632, 22.116784449436114 ], [ -159.488398603640633, 22.116902026698657 ], [ -159.488776662247801, 22.118545405311707 ], [ -159.489241312737505, 22.119102599768258 ], [ -159.490214981282037, 22.119798195299214 ], [ -159.490074658883628, 22.120702882547636 ], [ -159.490995929814829, 22.121807592467132 ], [ -159.491969625607084, 22.122503176808785 ], [ -159.491843760685924, 22.123314813637879 ], [ -159.492293320432054, 22.123853831271369 ], [ -159.493332677799032, 22.124596345703409 ], [ -159.493028580910646, 22.124820433637073 ], [ -159.491023841319446, 22.123530409787428 ], [ -159.490635865380796, 22.121844356059061 ], [ -159.489501431191769, 22.12103389733975 ], [ -159.48899248964733, 22.120423587448855 ], [ -159.48834295005156, 22.119959539898328 ], [ -159.487351470140595, 22.118439130182207 ], [ -159.48810972231351, 22.117479829774155 ], [ -159.488234016114632, 22.116784449436114 ] ] ] } },
{ "type": "Feature", "properties": { "ID": 32, "GRIDCODE": 2 }, "geometry": { "type": "Polygon", "coordinates": [ [ [ -159.585954421446502, 22.11402387971178 ], [ -159.587028668977808, 22.112546839224986 ], [ -159.588662812344694, 22.112885245398779 ], [ -159.588738887768187, 22.113352702530264 ], [ -159.58720483927388, 22.113660123189433 ], [ -159.587296720687107, 22.114224385475662 ], [ -159.585954421446502, 22.11402387971178 ] ] ] } },
{ "type": "Feature", "properties": { "ID": 33, "GRIDCODE": 2 }, "geometry": { "type": "Polygon", "coordinates": [ [ [ -159.581771307795549, 22.086936470479817 ], [ -159.582171211711994, 22.087155518692956 ], [ -159.581905110740138, 22.088107945015246 ], [ -159.581771307795549, 22.086936470479817 ] ] ] } },
{ "type": "Feature", "properties": { "ID": 34, "GRIDCODE": 2 }, "geometry": { "type": "Polygon", "coordinates": [ [ [ -159.580591482255272, 22.082875301859499 ], [ -159.580946407987113, 22.082966825370278 ], [ -159.58069236742071, 22.083205386741035 ], [ -159.580591482255272, 22.082875301859499 ] ] ] } },
{ "type": "Feature", "properties": { "ID": 35, "GRIDCODE": 2 }, "geometry": { "type": "Polygon", "coordinates": [ [ [ -159.576141675259805, 22.061209060968601 ], [ -159.576043494832845, 22.061539850784207 ], [ -159.575787558483142, 22.061303091738981 ], [ -159.576141675259805, 22.061209060968601 ] ] ] } },
{ "type": "Feature", "properties": { "ID": 36, "GRIDCODE": 2 }, "geometry": { "type": "Polygon", "coordinates": [ [ [ -159.576141675259805, 22.061209060968601 ], [ -159.576239855247564, 22.06087827109064 ], [ -159.576495791550627, 22.061115029440909 ], [ -159.576141675259805, 22.061209060968601 ] ] ] } },
{ "type": "Feature", "properties": { "ID": 37, "GRIDCODE": 2 }, "geometry": { "type": "Polygon", "coordinates": [ [ [ -159.567691550125545, 22.05663116014269 ], [ -159.567382357130242, 22.05547627115568 ], [ -159.567831929817345, 22.055380686885254 ], [ -159.568122910079182, 22.055440419709107 ], [ -159.568677304159451, 22.055322550997243 ], [ -159.568077333966755, 22.056380879752314 ], [ -159.567691550125545, 22.05663116014269 ] ] ] } },
{ "type": "Feature", "properties": { "ID": 38, "GRIDCODE": 2 }, "geometry": { "type": "Polygon", "coordinates": [ [ [ -159.567691550125545, 22.05663116014269 ], [ -159.567823120134562, 22.057867770478968 ], [ -159.568334919229898, 22.05865204066707 ], [ -159.56786600982889, 22.059222749048232 ], [ -159.567047873641485, 22.059815906569867 ], [ -159.566399665815595, 22.060604743830869 ], [ -159.565251688966072, 22.061404304517602 ], [ -159.564389046899151, 22.06128850979275 ], [ -159.565150882594878, 22.062456017736157 ], [ -159.564226323705725, 22.062605704933269 ], [ -159.564125492339457, 22.062275607940389 ], [ -159.563871459026245, 22.062514143599341 ], [ -159.564226323705725, 22.062605704933269 ], [ -159.563977050389497, 22.06352536106791 ], [ -159.563186803042413, 22.063804087490773 ], [ -159.562750247345463, 22.064398126831122 ], [ -159.563171443386409, 22.065159267553021 ], [ -159.563770462662546, 22.064344128449036 ], [ -159.564113579396064, 22.064121546707458 ], [ -159.564349823322004, 22.063800080421441 ], [ -159.564822083452015, 22.063493729311979 ], [ -159.565260850752594, 22.063583824212046 ], [ -159.565801441157589, 22.063253016656017 ], [ -159.566726058727227, 22.063028417803235 ], [ -159.568051041804097, 22.062504270076364 ], [ -159.568998570409832, 22.062951567557057 ], [ -159.568420392198249, 22.063785990588894 ], [ -159.568067664373928, 22.064674730689593 ], [ -159.567554619484866, 22.065415147571589 ], [ -159.567536055585151, 22.065957262469418 ], [ -159.568920392740353, 22.065110116221604 ], [ -159.56953535943552, 22.065236376308075 ], [ -159.569295374632247, 22.066252116784579 ], [ -159.569484616999205, 22.066763567394556 ], [ -159.569883943786579, 22.066220126674594 ], [ -159.570346259036057, 22.066107816262786 ], [ -159.570447107688892, 22.066437908903719 ], [ -159.57070113656971, 22.066199363234592 ], [ -159.570346259036057, 22.066107816262786 ], [ -159.56980797814532, 22.064375917950755 ], [ -159.570339056232541, 22.064312465018922 ], [ -159.570778659759952, 22.064361881695643 ], [ -159.573360196442792, 22.063898760037521 ], [ -159.573734678484556, 22.065102453636104 ], [ -159.574788244152415, 22.065220852847222 ], [ -159.575146542221376, 22.063648611327352 ], [ -159.576602216096461, 22.063255113923965 ], [ -159.577065675633378, 22.062711430111737 ], [ -159.577507719758842, 22.063554673276965 ], [ -159.577125412042164, 22.064819156647136 ], [ -159.575737796586083, 22.065194272797104 ], [ -159.576493311460069, 22.065510262121723 ], [ -159.5776119364821, 22.065269252854659 ], [ -159.577712801253, 22.065599340700786 ], [ -159.577966816198114, 22.065360784020534 ], [ -159.5776119364821, 22.065269252854659 ], [ -159.577837564426488, 22.064596054994066 ], [ -159.578647370067443, 22.066303491842284 ], [ -159.581445718032569, 22.073061660626678 ], [ -159.582163017085975, 22.077430652123084 ], [ -159.581884842792675, 22.078412616588675 ], [ -159.581595356306963, 22.078123648273611 ], [ -159.579322582267679, 22.077461829244847 ], [ -159.578839747071527, 22.076517599819567 ], [ -159.578392967852722, 22.077209115139766 ], [ -159.578776296703438, 22.078473521407723 ], [ -159.579892022890135, 22.078959460887216 ], [ -159.580688340971022, 22.079754423548206 ], [ -159.581874573066443, 22.080099822506561 ], [ -159.581909284706285, 22.080843957062498 ], [ -159.581161611008724, 22.080818990755279 ], [ -159.57927084936378, 22.081384306598558 ], [ -159.579296133917154, 22.08192651381324 ], [ -159.578705065941563, 22.082440813535417 ], [ -159.57927684332364, 22.082749613357411 ], [ -159.580441418006075, 22.083088713705017 ], [ -159.579988371588144, 22.083413270894589 ], [ -159.578686288735298, 22.083843807894631 ], [ -159.578027182208274, 22.083185848307746 ], [ -159.577254891731855, 22.083570217315859 ], [ -159.576953970466974, 22.083560163157301 ], [ -159.576409226762138, 22.084646595306481 ], [ -159.576081416462699, 22.08357397539319 ], [ -159.57576660923894, 22.082362670156819 ], [ -159.574630266436344, 22.084382543899103 ], [ -159.574665022799394, 22.085129161419559 ], [ -159.572167838143287, 22.085230190557677 ], [ -159.571149892102625, 22.085196149598289 ], [ -159.570364511903023, 22.085227905907193 ], [ -159.569107763897193, 22.084953518878486 ], [ -159.568776256715552, 22.083990222523791 ], [ -159.567291271097133, 22.08472916932854 ], [ -159.565338606395073, 22.084663809234097 ], [ -159.565316854286493, 22.085227736236408 ], [ -159.565479922357213, 22.085367481873217 ], [ -159.565350272160629, 22.086060528604207 ], [ -159.56478798272056, 22.086009090795184 ], [ -159.565429436605086, 22.086845753210355 ], [ -159.565904006916071, 22.085693298720908 ], [ -159.565479922357213, 22.085367481873217 ], [ -159.56586078773941, 22.084967253064693 ], [ -159.566505312711655, 22.085220794110381 ], [ -159.56678200654892, 22.085777136199873 ], [ -159.567933039895365, 22.086104015663196 ], [ -159.567974456826789, 22.086713958261573 ], [ -159.567934991035287, 22.087372997302353 ], [ -159.568968597226643, 22.087714602406329 ], [ -159.569712857287385, 22.087393096952407 ], [ -159.570780955804537, 22.086847322603269 ], [ -159.571479656114775, 22.087309365160664 ], [ -159.571428296902553, 22.088166967015919 ], [ -159.572179828484821, 22.088206090526604 ], [ -159.573090873347667, 22.088152280891258 ], [ -159.573788417161012, 22.088447689646181 ], [ -159.574306816207212, 22.088984278669788 ], [ -159.574662665049402, 22.089002795891059 ], [ -159.574935307642761, 22.088443660333869 ], [ -159.576986231840351, 22.088180662406266 ], [ -159.577762401260912, 22.0873648487145 ], [ -159.579038544855848, 22.087894607491684 ], [ -159.578941630793281, 22.089513618377172 ], [ -159.58041456685234, 22.088504974606185 ], [ -159.580991007896728, 22.087899094600751 ], [ -159.581602223429712, 22.087862944104856 ], [ -159.58171039997805, 22.089451417665536 ], [ -159.58095028970672, 22.095108287704608 ], [ -159.579619165424646, 22.096015792389629 ], [ -159.579263581037168, 22.096745016071502 ], [ -159.577018466924784, 22.097125020339135 ], [ -159.57634387041378, 22.097089933074642 ], [ -159.576732124761946, 22.098246138508156 ], [ -159.577573322892107, 22.097362025932885 ], [ -159.578171750216114, 22.097662313968193 ], [ -159.578770770898615, 22.097915965810529 ], [ -159.579184263748402, 22.098343914178539 ], [ -159.579921992944264, 22.098953500016837 ], [ -159.57939202617348, 22.100658740108784 ], [ -159.577820474923016, 22.103881850873144 ], [ -159.577315040655265, 22.103075768901657 ], [ -159.577943635248403, 22.102548355674159 ], [ -159.577591400090483, 22.102257296176301 ], [ -159.577655422929155, 22.10118744918562 ], [ -159.577024922559758, 22.10171647260329 ], [ -159.576469267058854, 22.102300413646354 ], [ -159.57586959406396, 22.101679706089602 ], [ -159.575293217742257, 22.102285452402572 ], [ -159.574312347296001, 22.101793205774808 ], [ -159.573840394432153, 22.102289121734835 ], [ -159.572934792441401, 22.101989903772029 ], [ -159.572391280264497, 22.102561092695829 ], [ -159.571229947202653, 22.103062714825015 ], [ -159.571533399457991, 22.103408845154341 ], [ -159.572651190699929, 22.103342832893986 ], [ -159.573249403706996, 22.104359531028031 ], [ -159.571518256044129, 22.10446177057986 ], [ -159.571227353044179, 22.104446626341325 ], [ -159.570667955879401, 22.104479663468986 ], [ -159.56992543643392, 22.104107000187071 ], [ -159.567453513167322, 22.104252935338796 ], [ -159.567148531622394, 22.103344581626562 ], [ -159.566271461103611, 22.103396348012147 ], [ -159.565748759620135, 22.102855250304138 ], [ -159.564843748554409, 22.103218616382552 ], [ -159.564816649926684, 22.103670984841486 ], [ -159.565709441891698, 22.10419581750406 ], [ -159.565651852313238, 22.105156701484542 ], [ -159.566252275086327, 22.106363882595073 ], [ -159.567413294559856, 22.106855568256254 ], [ -159.567874287896501, 22.107639090511341 ], [ -159.565736669613386, 22.107765261719756 ], [ -159.564945146136949, 22.106945905180101 ], [ -159.563371859067843, 22.106863979657373 ], [ -159.563411600406283, 22.107448221638187 ], [ -159.562799934693373, 22.108270663911757 ], [ -159.562530854534657, 22.109641962388306 ], [ -159.562225761702507, 22.110169808933367 ], [ -159.56174608301626, 22.111153184913125 ], [ -159.561374966933755, 22.111543106492977 ], [ -159.560196233121843, 22.111802925407289 ], [ -159.559444157074068, 22.112593058865468 ], [ -159.557379642738937, 22.111556788154783 ], [ -159.557286470697449, 22.112097202257967 ], [ -159.558201574667407, 22.112853512324985 ], [ -159.558138134115865, 22.113910952658596 ], [ -159.559638341075498, 22.113989124833488 ], [ -159.560964280951339, 22.113024330595902 ], [ -159.561650857874582, 22.113735030046485 ], [ -159.561947797205562, 22.11342305249967 ], [ -159.562253972254069, 22.113166226693135 ], [ -159.56277437096486, 22.11261945060172 ], [ -159.564258260804962, 22.11218687826273 ], [ -159.56461861678801, 22.110718855425141 ], [ -159.565153833347551, 22.110972776766754 ], [ -159.56545986965719, 22.111289530510323 ], [ -159.566455547694204, 22.111230764431895 ], [ -159.566899309158998, 22.111253864268836 ], [ -159.567247710147626, 22.11088773875213 ], [ -159.568523311882331, 22.111309227008128 ], [ -159.569211051975884, 22.110957870745288 ], [ -159.569514326478071, 22.110973661689247 ], [ -159.571135681940092, 22.110425176155804 ], [ -159.570970923309119, 22.110967799431847 ], [ -159.570237454719376, 22.112236905785533 ], [ -159.571840776466757, 22.112320329595619 ], [ -159.572885514527712, 22.112258631333791 ], [ -159.573869682920474, 22.112583782759376 ], [ -159.576248486321703, 22.112834959615522 ], [ -159.576787808804255, 22.113393125287612 ], [ -159.577653105948997, 22.112825383055409 ], [ -159.577977550576833, 22.112842249531113 ], [ -159.577903678130554, 22.111756490292287 ], [ -159.578246557860126, 22.112011048559463 ], [ -159.578994752533987, 22.11351489848234 ], [ -159.579566419808515, 22.1129141186886 ], [ -159.580499259915825, 22.113879527300845 ], [ -159.581154759909737, 22.113913596866777 ], [ -159.581736340940097, 22.113879211854439 ], [ -159.582573525999635, 22.113922719112285 ], [ -159.583657064911307, 22.113556077836186 ], [ -159.584347652366546, 22.113902569122089 ], [ -159.584647671527875, 22.113884821227856 ], [ -159.585954421446502, 22.11402387971178 ], [ -159.585412009021894, 22.115237860401866 ], [ -159.58270492839614, 22.114587236356833 ], [ -159.582038065393192, 22.115263044749653 ], [ -159.580734823133582, 22.115219563310479 ], [ -159.579708501255737, 22.114718175479798 ], [ -159.578865167016659, 22.114752323300209 ], [ -159.57796888243908, 22.115890167471463 ], [ -159.579433938170666, 22.115526917733678 ], [ -159.579402805444971, 22.116336508175621 ], [ -159.579722152796307, 22.116893632371326 ], [ -159.579254917545626, 22.117300054986977 ], [ -159.579721472012295, 22.117699764873233 ], [ -159.580002829748452, 22.118082803515733 ], [ -159.578837833921227, 22.118789630187269 ], [ -159.579151749228032, 22.119337312539422 ], [ -159.577682070931871, 22.119604153687938 ], [ -159.577111777298796, 22.119887912438074 ], [ -159.576210060754761, 22.119857797728063 ], [ -159.57672279979414, 22.120752469888437 ], [ -159.577429736246472, 22.120400696865413 ], [ -159.577396092693959, 22.121276719698479 ], [ -159.578014445464845, 22.121771162298213 ], [ -159.578564595273122, 22.120674179237547 ], [ -159.578852227163509, 22.121236487196203 ], [ -159.579585478937418, 22.121364228416919 ], [ -159.579686391380108, 22.121694311831913 ], [ -159.579940500949505, 22.12145574334258 ], [ -159.579585478937418, 22.121364228416919 ], [ -159.579375711902543, 22.120932401280772 ], [ -159.580344530023211, 22.120716157319201 ], [ -159.580612733525669, 22.119636711290159 ], [ -159.582047302859422, 22.119191423664521 ], [ -159.582314939352784, 22.119914203784848 ], [ -159.582666105114527, 22.119810912293769 ], [ -159.582783957669704, 22.12108182155454 ], [ -159.582429697232612, 22.121175860898045 ], [ -159.582685754883755, 22.121412613512422 ], [ -159.582783957669704, 22.12108182155454 ], [ -159.583221318139607, 22.120714882011583 ], [ -159.583563283125727, 22.118617541749625 ], [ -159.584248704034906, 22.11823847268511 ], [ -159.584725990769272, 22.120117101689793 ], [ -159.585250143997001, 22.119566222395338 ], [ -159.585565800044719, 22.119892835940593 ], [ -159.585527669431599, 22.120529960717349 ], [ -159.585557682319603, 22.120970645656609 ], [ -159.584958972356731, 22.121472953000232 ], [ -159.584504499428959, 22.122287648909762 ], [ -159.586125921493675, 22.121739013769037 ], [ -159.586430072525644, 22.121754811036119 ], [ -159.586704982351534, 22.121465828741211 ], [ -159.587009843141971, 22.121481663742905 ], [ -159.58760595645478, 22.12117705078829 ], [ -159.588311141108818, 22.12121366638226 ], [ -159.588843548676522, 22.121182170414126 ], [ -159.589914868731, 22.120634703375725 ], [ -159.590196076293267, 22.121741275641373 ], [ -159.590785638094246, 22.121706390678259 ], [ -159.592225420448955, 22.121781122188878 ], [ -159.59164031857452, 22.122272023427538 ], [ -159.59231672625819, 22.122558310091193 ], [ -159.59292141325048, 22.122522527132563 ], [ -159.593978270860475, 22.12198243901237 ], [ -159.594866148749333, 22.121723436009518 ], [ -159.595138348105877, 22.121165147590244 ], [ -159.595488929961164, 22.120637076164453 ], [ -159.596026645030406, 22.121193353824346 ], [ -159.597417969114332, 22.121110985757838 ], [ -159.598879536910204, 22.122157795441687 ], [ -159.599853531128844, 22.121660006561978 ], [ -159.600836235482575, 22.121710956998211 ], [ -159.600379761494992, 22.122501071901709 ], [ -159.600108727960134, 22.123330386581408 ], [ -159.598595796627848, 22.124133755292167 ], [ -159.597795505657473, 22.123305788286416 ], [ -159.597166393753895, 22.123343035100277 ], [ -159.597204391232765, 22.123900250291598 ], [ -159.59598158655055, 22.123836830345063 ], [ -159.592746368012143, 22.124307413339423 ], [ -159.593162641231601, 22.125014606054197 ], [ -159.594882008350964, 22.125502440281441 ], [ -159.595157824554065, 22.125803862190228 ], [ -159.594438622655161, 22.125766550211676 ], [ -159.593995871627925, 22.125792759428357 ], [ -159.593427608798436, 22.125507733062147 ], [ -159.592201094543384, 22.125256415650821 ], [ -159.591672776468982, 22.125811641030186 ], [ -159.591305022118888, 22.125072723377187 ], [ -159.589927254089446, 22.125538961742723 ], [ -159.589112199809222, 22.125130085745262 ], [ -159.588760788324095, 22.124423930467334 ], [ -159.588033760880506, 22.124466937557511 ], [ -159.587015453258658, 22.124414061593118 ], [ -159.585868182752307, 22.124481910039592 ], [ -159.584553509863269, 22.123633290853167 ], [ -159.583097755075585, 22.123719361288195 ], [ -159.583551096114633, 22.124489662028807 ], [ -159.584375820080851, 22.124440899488842 ], [ -159.585263969587402, 22.124893009636338 ], [ -159.584328006028841, 22.125297321487224 ], [ -159.583382856063139, 22.125248230421423 ], [ -159.582510415301044, 22.125299804989549 ], [ -159.582066253138947, 22.125276725065849 ], [ -159.581793571793014, 22.125835879210197 ], [ -159.581487406245913, 22.126092741085284 ], [ -159.581214032125359, 22.126379988962128 ], [ -159.580600704517877, 22.126894515849912 ], [ -159.581163319406841, 22.127850472985759 ], [ -159.581770172929851, 22.126606063296268 ], [ -159.582096321508459, 22.126943571677007 ], [ -159.582652825045727, 22.126358748699136 ], [ -159.582951161125806, 22.126374250450446 ], [ -159.5832787548932, 22.126354884297935 ], [ -159.583818656740988, 22.126913601299737 ], [ -159.584621455611767, 22.126866131511594 ], [ -159.585576665514481, 22.127181603078991 ], [ -159.586006938054595, 22.126729457648214 ], [ -159.586436942851918, 22.127174379673818 ], [ -159.586749708700012, 22.127432732211506 ], [ -159.586120373719751, 22.129086958403377 ], [ -159.585017716219795, 22.129029700338471 ], [ -159.5847170403961, 22.129377967356618 ], [ -159.58607224827449, 22.129951602710022 ], [ -159.584995886460149, 22.130416569073525 ], [ -159.584861436423381, 22.131102232967816 ], [ -159.583903448478765, 22.13122170402448 ], [ -159.584656844759138, 22.131467491490309 ], [ -159.584861436423381, 22.131102232967816 ], [ -159.585806345971548, 22.130894676280551 ], [ -159.58646885185405, 22.131263787071124 ], [ -159.586925761973419, 22.130707834135947 ], [ -159.587659000838755, 22.130425166605434 ], [ -159.587267330017113, 22.129825443569192 ], [ -159.587927312305112, 22.129347016929017 ], [ -159.588179433406594, 22.129040199398553 ], [ -159.588706649658945, 22.12865805038258 ], [ -159.589052240786913, 22.129071939195079 ], [ -159.589963383502294, 22.129304784465401 ], [ -159.590222116424201, 22.129887397564058 ], [ -159.592972032872098, 22.130377972651242 ], [ -159.59345230252643, 22.129793597344175 ], [ -159.59416502185536, 22.129889081594143 ], [ -159.594746463465214, 22.129806868440522 ], [ -159.595183048821582, 22.129865349073118 ], [ -159.595485125598088, 22.129822636314309 ], [ -159.596052902291262, 22.130138929169462 ], [ -159.596919685560579, 22.129817785666329 ], [ -159.598336033656182, 22.130007496799319 ], [ -159.598657243645278, 22.130392108708659 ], [ -159.599151251063489, 22.13074449080872 ], [ -159.599660767997221, 22.131354453990934 ], [ -159.600290341438551, 22.131803517876367 ], [ -159.59982545904046, 22.13252797410118 ], [ -159.599903259336799, 22.133005466886367 ], [ -159.601155954188556, 22.132127125040853 ], [ -159.601302873870765, 22.132473698346924 ], [ -159.6014468473102, 22.132126053449053 ], [ -159.601614161423782, 22.132241047943584 ], [ -159.601866344991237, 22.133192011414 ], [ -159.601286265653556, 22.133597365509551 ], [ -159.601026019728806, 22.13392601829208 ], [ -159.600456330933667, 22.133600420795986 ], [ -159.599068198631102, 22.133374299372445 ], [ -159.598384790556821, 22.134237314154397 ], [ -159.597588118438296, 22.134112521483488 ], [ -159.597212870280117, 22.133242750469737 ], [ -159.596628668792135, 22.132841190836366 ], [ -159.595992104777679, 22.131843005909207 ], [ -159.594377133139432, 22.131441418430974 ], [ -159.594016956230718, 22.131500543414841 ], [ -159.592171275392019, 22.130747852957782 ], [ -159.591718988158931, 22.131130353491724 ], [ -159.59268977579444, 22.131797704180688 ], [ -159.592526797596406, 22.132700721738043 ], [ -159.592603636317733, 22.133106976058297 ], [ -159.592554630108168, 22.133378176146341 ], [ -159.59263510061561, 22.133803614076182 ], [ -159.593762917155715, 22.133618489136815 ], [ -159.594016296127336, 22.134205829394585 ], [ -159.594352054974678, 22.134706851463921 ], [ -159.594896674308131, 22.136032691571494 ], [ -159.593745034833518, 22.135231899863193 ], [ -159.593378301624512, 22.135694991744209 ], [ -159.592608929346113, 22.135255234072684 ], [ -159.59186650914458, 22.135026705698561 ], [ -159.592334766952433, 22.136099939435709 ], [ -159.591198602587639, 22.136893735173604 ], [ -159.592992766349255, 22.137164112046779 ], [ -159.593449260257245, 22.137731178756891 ], [ -159.594474629217189, 22.138106462394777 ], [ -159.59398386030125, 22.138851657451355 ], [ -159.593200455550459, 22.138728929447446 ], [ -159.592759952565359, 22.139285063152567 ], [ -159.592969348794554, 22.140392177374089 ], [ -159.591269448566521, 22.139420588804398 ], [ -159.590845185895603, 22.139956245958949 ], [ -159.589949273090497, 22.139815879104951 ], [ -159.590057627539323, 22.140388770735981 ], [ -159.58928596011981, 22.14150077448198 ], [ -159.588745154715411, 22.140828951350368 ], [ -159.587946424796797, 22.141293457034788 ], [ -159.58768649679584, 22.140785350256909 ], [ -159.58855788890304, 22.140459113723921 ], [ -159.58887971458617, 22.140052734620333 ], [ -159.588772598380302, 22.139486049098622 ], [ -159.58821859408377, 22.139105226591752 ], [ -159.587864634235785, 22.138665512109526 ], [ -159.586767785093457, 22.13884550659898 ], [ -159.586396839131879, 22.138384610120024 ], [ -159.586517024100488, 22.1377189877111 ], [ -159.585884602116636, 22.137487489434953 ], [ -159.585334936850046, 22.137173271909187 ], [ -159.584963456195879, 22.137234229085628 ], [ -159.585085658039162, 22.13788080215863 ], [ -159.58573523411431, 22.138327344347999 ], [ -159.585596644630755, 22.139094756568063 ], [ -159.585823846800253, 22.140296188548184 ], [ -159.584727365547735, 22.140706654563509 ], [ -159.584815876628682, 22.141174604960828 ], [ -159.585468435613961, 22.14151451640225 ], [ -159.585899011802979, 22.140970926643558 ], [ -159.586356279337394, 22.140853672964944 ], [ -159.586489230359717, 22.142361260183844 ], [ -159.587070586185519, 22.142775942051998 ], [ -159.587366471551604, 22.143442192850628 ], [ -159.587765758709054, 22.144053490647863 ], [ -159.588770825734883, 22.143911428009325 ], [ -159.590105499649923, 22.144394665745569 ], [ -159.591626834315576, 22.144179595748309 ], [ -159.592018730942186, 22.142848448446486 ], [ -159.592432098967635, 22.14261081301558 ], [ -159.592177276041895, 22.144262045063364 ], [ -159.593363548771862, 22.145108251273733 ], [ -159.594082975798983, 22.145006539264472 ], [ -159.594810696253376, 22.145104015661591 ], [ -159.595782399910235, 22.144966613557308 ], [ -159.596820102218231, 22.144378306435058 ], [ -159.597278176294878, 22.143323774569719 ], [ -159.597551482106411, 22.144097850471137 ], [ -159.596968777672032, 22.145005856493782 ], [ -159.597109609796206, 22.145811135828552 ], [ -159.597556417992735, 22.145267456759587 ], [ -159.598318924312053, 22.144973467886292 ], [ -159.599174496071697, 22.145088048106391 ], [ -159.600355880949877, 22.144920974879309 ], [ -159.601345836854222, 22.146106116530895 ], [ -159.601666401914287, 22.146060784483748 ], [ -159.601924977577255, 22.146370370540094 ], [ -159.602576568969482, 22.146835073449022 ], [ -159.605537397031469, 22.146416263631036 ], [ -159.606297121323109, 22.145491805972334 ], [ -159.606565651443475, 22.143066040534386 ], [ -159.606963404328098, 22.141776018948473 ], [ -159.607595121880706, 22.141318014870393 ], [ -159.60785747846171, 22.142160083858727 ], [ -159.608350205192636, 22.143340202459214 ], [ -159.608312466710345, 22.143632231947358 ], [ -159.608825881483256, 22.14387314268804 ], [ -159.610283268550603, 22.141617538643008 ], [ -159.611220283954282, 22.142437491603086 ], [ -159.610349019249298, 22.142783367227697 ], [ -159.609187580736915, 22.144145683848443 ], [ -159.609226655105431, 22.14442867604858 ], [ -159.609139152613096, 22.145105960254153 ], [ -159.60794309570872, 22.146005598667539 ], [ -159.608522029894516, 22.146433982549564 ], [ -159.608915768990215, 22.146888298432021 ], [ -159.609945762249481, 22.146729669047915 ], [ -159.609811723961883, 22.146875762914497 ], [ -159.608679439650501, 22.147791916929005 ], [ -159.608286558342741, 22.149025449862723 ], [ -159.608949359818212, 22.149298009484408 ], [ -159.609475767598013, 22.149862584065779 ], [ -159.610936191405273, 22.149747763135554 ], [ -159.612130642555428, 22.14990319494542 ], [ -159.611538273490254, 22.150382490685594 ], [ -159.612387366108919, 22.151058420677206 ], [ -159.612952425609649, 22.149865867578892 ], [ -159.613362174263102, 22.149534301915331 ], [ -159.613885602908113, 22.149571495682316 ], [ -159.61433868159537, 22.149535871046119 ], [ -159.615324644754423, 22.14846102379656 ], [ -159.616060498729297, 22.148151809733665 ], [ -159.616481267448961, 22.146830531982669 ], [ -159.616816116424644, 22.146559552261074 ], [ -159.616704497392817, 22.14532837916941 ], [ -159.616842194876483, 22.144410144150701 ], [ -159.617523894254333, 22.14514125228596 ], [ -159.617998362983201, 22.145469687989245 ], [ -159.617922478705083, 22.14463323321478 ], [ -159.618528590039602, 22.144676294165354 ], [ -159.618799329638591, 22.144381055095224 ], [ -159.61953631051307, 22.144433408665758 ], [ -159.620544744101352, 22.144354063033521 ], [ -159.621102434685326, 22.144952110381066 ], [ -159.621999266934438, 22.144641421734281 ], [ -159.623010405370195, 22.144353607441158 ], [ -159.623596054701835, 22.144395197575044 ], [ -159.624037374170712, 22.145015704769865 ], [ -159.621644565325795, 22.14553172952364 ], [ -159.621081637427608, 22.146720085352865 ], [ -159.618518908478904, 22.147093840230585 ], [ -159.617668672387339, 22.147312716940224 ], [ -159.618833792557098, 22.147634687623931 ], [ -159.619118670573727, 22.147940200604666 ], [ -159.61940356005698, 22.147338925036497 ], [ -159.619688612435652, 22.147927540852901 ], [ -159.621056258863916, 22.147573250343324 ], [ -159.621447818203279, 22.148767151469457 ], [ -159.621734134005237, 22.147570684851001 ], [ -159.622318318943769, 22.148197185882001 ], [ -159.622892974432744, 22.147334671028052 ], [ -159.623196486373075, 22.147660121150025 ], [ -159.623778781121416, 22.147614291567173 ], [ -159.624052025281145, 22.14817857848346 ], [ -159.624643765227347, 22.148132006622209 ], [ -159.625554981801599, 22.148196691963598 ], [ -159.625502569411168, 22.147619336745272 ], [ -159.625527370087923, 22.147316634615766 ], [ -159.626376555360821, 22.147376921606135 ], [ -159.626684888820137, 22.147040799560234 ], [ -159.628441802203241, 22.147165515166844 ], [ -159.628363311248222, 22.146299996234529 ], [ -159.628597963174542, 22.145991398738257 ], [ -159.628991724703155, 22.146804505564042 ], [ -159.629615478774468, 22.146755393812672 ], [ -159.62953175544078, 22.145832826610366 ], [ -159.631704076660242, 22.144919735745674 ], [ -159.63221621148486, 22.145468849323407 ], [ -159.632764420162033, 22.144871046754471 ], [ -159.633366724712943, 22.144617853812782 ], [ -159.633990924862928, 22.144290226634197 ], [ -159.633917184889157, 22.143477683800505 ], [ -159.634801649961759, 22.142761782913809 ], [ -159.635077174442614, 22.141609817246049 ], [ -159.635433506455229, 22.141008923207643 ], [ -159.636548536963232, 22.140540167176734 ], [ -159.636816545267976, 22.140247936743922 ], [ -159.638126048894208, 22.139720944964107 ], [ -159.638788162116953, 22.144908538106304 ], [ -159.638557080961675, 22.147735791166479 ], [ -159.637922232118967, 22.148806359080972 ], [ -159.636203140401648, 22.14929586008931 ], [ -159.63426132192015, 22.14915811889713 ], [ -159.633090475006668, 22.148391597775628 ], [ -159.631918573175057, 22.1484838872864 ], [ -159.629153865087659, 22.148287693732062 ], [ -159.625902208025252, 22.148543680308954 ], [ -159.623110793816636, 22.15000855441879 ], [ -159.622016145102549, 22.151651526332682 ], [ -159.621236925278964, 22.153296341914977 ], [ -159.620874819416571, 22.153589385333415 ], [ -159.620318191924525, 22.154424729154815 ], [ -159.618772949726178, 22.154757919389276 ], [ -159.618284943894821, 22.155191874498406 ], [ -159.619227170029205, 22.157252423966945 ], [ -159.619137423617786, 22.158348930105873 ], [ -159.619211089973845, 22.159161711524572 ], [ -159.61894932963682, 22.162359881527536 ], [ -159.619712576507993, 22.16491652203522 ], [ -159.620352494160244, 22.165974687846578 ], [ -159.620872800379914, 22.168571424388308 ], [ -159.622398790958158, 22.171094539780974 ], [ -159.62074340805097, 22.171477222358579 ], [ -159.620387715839399, 22.17039291294822 ], [ -159.619892176852062, 22.170431901318679 ], [ -159.620394331962643, 22.169585427266597 ], [ -159.619780020358434, 22.169332888840255 ], [ -159.619508015224625, 22.169041224811085 ], [ -159.618966250606348, 22.169083843179546 ], [ -159.617753815564072, 22.169891486518722 ], [ -159.61730373882358, 22.16940891518669 ], [ -159.61836452563017, 22.168784446631012 ], [ -159.617723106785547, 22.168520754720678 ], [ -159.618362602150029, 22.168003327518793 ], [ -159.619337488516464, 22.166940631919665 ], [ -159.618601466970432, 22.166354837644295 ], [ -159.618647657886555, 22.165790249335636 ], [ -159.618201558896288, 22.165825339318808 ], [ -159.61719909819297, 22.166918147701502 ], [ -159.616006891412042, 22.166561938984806 ], [ -159.616847632191508, 22.165881705761389 ], [ -159.617348093690197, 22.164825530529043 ], [ -159.618084595019099, 22.163849646108147 ], [ -159.616594989741799, 22.163966810862576 ], [ -159.616222299950181, 22.163567148179212 ], [ -159.616315778988962, 22.162424924822211 ], [ -159.616254366778037, 22.161747606010291 ], [ -159.616312033933411, 22.161043452943726 ], [ -159.6153476274593, 22.162094743659637 ], [ -159.614154797534781, 22.16200998975927 ], [ -159.613367695037368, 22.161165905966691 ], [ -159.612787062831927, 22.162134186865359 ], [ -159.613662963717104, 22.162831379015401 ], [ -159.614028014623699, 22.163944440477565 ], [ -159.613931817355279, 22.165119475249821 ], [ -159.613048947435374, 22.165833771001793 ], [ -159.613098038313552, 22.166375627109723 ], [ -159.612784939170268, 22.166628967008087 ], [ -159.612518005356549, 22.16719217525349 ], [ -159.612157729546425, 22.167444384424279 ], [ -159.610972451538998, 22.165697437529296 ], [ -159.610188186516268, 22.16671375698942 ], [ -159.610817679875595, 22.16721479063407 ], [ -159.610753166495897, 22.16800177555546 ], [ -159.610801501297715, 22.168534859789105 ], [ -159.610198645099388, 22.169022610201218 ], [ -159.611363431963781, 22.169344507517284 ], [ -159.61173365299021, 22.170109027167328 ], [ -159.611633115932079, 22.171336931501124 ], [ -159.611038035585409, 22.171784914260684 ], [ -159.611101598676584, 22.17100826761471 ], [ -159.610715297898025, 22.170369358845495 ], [ -159.60961158300654, 22.170456116407088 ], [ -159.609050486527963, 22.170416239103108 ], [ -159.608169850965623, 22.17100274034776 ], [ -159.607361021302751, 22.171256616241351 ], [ -159.608230916074376, 22.170104161965597 ], [ -159.609375199851485, 22.169623452199914 ], [ -159.608370540425625, 22.168823746012038 ], [ -159.609257771079228, 22.168105960174216 ], [ -159.608712295545587, 22.167203890560867 ], [ -159.608746244680248, 22.166789690018067 ], [ -159.608708655178731, 22.166374524211221 ], [ -159.609021761276978, 22.166121191981127 ], [ -159.609286372482018, 22.165015956800186 ], [ -159.609605987203111, 22.164757355414963 ], [ -159.609272153999484, 22.164205222798831 ], [ -159.610467216757314, 22.163947621992651 ], [ -159.611025887946283, 22.163563463783735 ], [ -159.60956527051772, 22.162594793656591 ], [ -159.60958888810481, 22.162305927151255 ], [ -159.6092610029784, 22.162044907446369 ], [ -159.609585000042159, 22.161782758089156 ], [ -159.609853104254341, 22.161490570501751 ], [ -159.610172710113432, 22.161231968098445 ], [ -159.609848112836289, 22.160695152528589 ], [ -159.60989811860577, 22.160084912618277 ], [ -159.611064793110728, 22.159594745651816 ], [ -159.609270692330256, 22.159296833436208 ], [ -159.608996093287914, 22.160158834617278 ], [ -159.60815919118059, 22.160510460509631 ], [ -159.607838113651979, 22.161518258785495 ], [ -159.6071705990162, 22.162643230331337 ], [ -159.606319977397362, 22.162582742853516 ], [ -159.606385389453521, 22.161784606239802 ], [ -159.606342443777464, 22.161311033781018 ], [ -159.606513917523927, 22.160564534804234 ], [ -159.606882728612391, 22.160415899262869 ], [ -159.606629160106905, 22.159940844335054 ], [ -159.606513917523927, 22.160564534804234 ], [ -159.606355543655695, 22.160688095509368 ], [ -159.60475709544508, 22.160845860492532 ], [ -159.604022687604157, 22.159285531185414 ], [ -159.603393097890319, 22.159997215925149 ], [ -159.603474352078308, 22.160711322608481 ], [ -159.603387723653896, 22.161535284281143 ], [ -159.604060567021435, 22.162051717545843 ], [ -159.604429642347981, 22.162462190940523 ], [ -159.604303971747214, 22.163657280393537 ], [ -159.604681569973451, 22.1642656688134 ], [ -159.603702755028564, 22.165029126804953 ], [ -159.603195792576372, 22.163952064657373 ], [ -159.602554881364995, 22.163695952387435 ], [ -159.602645199995976, 22.162836412749691 ], [ -159.601967594326169, 22.162903288245307 ], [ -159.602077509629765, 22.161857283404288 ], [ -159.601154582976818, 22.162900597422794 ], [ -159.600605395653815, 22.163148564856304 ], [ -159.600269921050909, 22.161765184996685 ], [ -159.599390948375543, 22.161851904960741 ], [ -159.598468204366554, 22.161767713733941 ], [ -159.598550397745356, 22.162491107941406 ], [ -159.598480267315949, 22.163158339358283 ], [ -159.598829119788206, 22.163426119253145 ], [ -159.599096775813479, 22.164263276179515 ], [ -159.599524278428731, 22.164952225768072 ], [ -159.600423491052112, 22.165194430080479 ], [ -159.600211857570315, 22.166680654570801 ], [ -159.599111516706472, 22.165881978002869 ], [ -159.598537188888457, 22.165060686204782 ], [ -159.597942656491796, 22.164801995211526 ], [ -159.597963381424961, 22.164260067527547 ], [ -159.597069014506587, 22.164524027569819 ], [ -159.5966605112379, 22.16533858599449 ], [ -159.59588259894295, 22.164514696219221 ], [ -159.595923310032248, 22.163454101500076 ], [ -159.595327660358436, 22.162944084996777 ], [ -159.595606227090599, 22.162632230410761 ], [ -159.596069596946109, 22.162229174801318 ], [ -159.595568912735729, 22.161800470513505 ], [ -159.595619800997753, 22.160473978203612 ], [ -159.595024165211612, 22.159963960104275 ], [ -159.595301586663282, 22.159381088989583 ], [ -159.595817744584593, 22.158932111537688 ], [ -159.595007261679797, 22.158579438104468 ], [ -159.594726212333114, 22.158299103413164 ], [ -159.594423089007734, 22.158039525952614 ], [ -159.59384882098675, 22.157218215546028 ], [ -159.593545701595417, 22.156958636333634 ], [ -159.591986938585649, 22.15391277138523 ], [ -159.591505401115711, 22.153432431271025 ], [ -159.591006116437455, 22.153004831456755 ], [ -159.59054490503874, 22.151231793363038 ], [ -159.59003941611121, 22.150727524720008 ], [ -159.589736317731024, 22.150467937762695 ], [ -159.5894541665823, 22.149916575475913 ], [ -159.588565831082917, 22.148846034598044 ], [ -159.58799134942646, 22.148024305106695 ], [ -159.587409514560932, 22.148047889053231 ], [ -159.586898627928832, 22.147538261669723 ], [ -159.586242709247216, 22.147217929595325 ], [ -159.585350843634501, 22.14682971836336 ], [ -159.58537700474912, 22.146148116018981 ], [ -159.585064229265328, 22.146137691741071 ], [ -159.584247460697668, 22.146544074979605 ], [ -159.58214099743148, 22.145627153884426 ], [ -159.580997160959214, 22.145068517792982 ], [ -159.579832734527827, 22.144561615232906 ], [ -159.579806422360832, 22.143998631224719 ], [ -159.58037728382007, 22.143502131566422 ], [ -159.578318825455284, 22.143053066388955 ], [ -159.578386112797801, 22.141303051274267 ], [ -159.578060319448952, 22.141023952949983 ], [ -159.577767278777713, 22.140451119301673 ], [ -159.576609133708132, 22.140497984875285 ], [ -159.576321469623593, 22.139935674932843 ], [ -159.575725205868991, 22.139424906246195 ], [ -159.575739468549216, 22.139054763902614 ], [ -159.574112035110971, 22.137951494797363 ], [ -159.574555032391743, 22.137502700411641 ], [ -159.575419313401966, 22.137118959841562 ], [ -159.575456381558723, 22.136156007264923 ], [ -159.575136880399924, 22.136145339117196 ], [ -159.574700591629636, 22.136162987838603 ], [ -159.573957740825136, 22.136138175476315 ], [ -159.573141066356158, 22.136965626874737 ], [ -159.573068729858392, 22.136535526439296 ], [ -159.573109346782161, 22.13548028249922 ], [ -159.573064389976224, 22.13451465699772 ], [ -159.574242226154183, 22.134554005951223 ], [ -159.574541841839419, 22.134250474319508 ], [ -159.575121600789686, 22.133746203357742 ], [ -159.574836454462542, 22.13343186100774 ], [ -159.573743534430349, 22.134138208645261 ], [ -159.572793871633422, 22.133724720820254 ], [ -159.572810645399528, 22.133288740958598 ], [ -159.572505676877853, 22.131547400373929 ], [ -159.572201557285439, 22.131016759550914 ], [ -159.571832253108141, 22.130294741266976 ], [ -159.568972873267086, 22.129940834890871 ], [ -159.568284000049516, 22.129253295008546 ], [ -159.567829481570726, 22.128863841677298 ], [ -159.567377245684042, 22.127979593006465 ], [ -159.566086528971567, 22.126691370087425 ], [ -159.565783525916487, 22.12643173583508 ], [ -159.565362135319958, 22.12601116079497 ], [ -159.564907635288421, 22.12562169878596 ], [ -159.563457799757117, 22.123990229380823 ], [ -159.562893074612418, 22.123506315000377 ], [ -159.559648358257277, 22.118596355475685 ], [ -159.558488307469759, 22.117773757023958 ], [ -159.557856414929375, 22.117498532442291 ], [ -159.557321648007189, 22.116964670828231 ], [ -159.556867199129982, 22.11657518494216 ], [ -159.556445864436483, 22.116154585222151 ], [ -159.555560115462299, 22.115625891329209 ], [ -159.553929279005047, 22.114469388307427 ], [ -159.552074271748012, 22.113929054933724 ], [ -159.550538087649016, 22.112887081295675 ], [ -159.549891731070403, 22.1122417711587 ], [ -159.549241246502532, 22.111684194491385 ], [ -159.548853722370467, 22.11019219962844 ], [ -159.548265519723088, 22.109688005585497 ], [ -159.546995725925058, 22.108194439943901 ], [ -159.545053601139358, 22.107628601638158 ], [ -159.545069749065874, 22.107211109623066 ], [ -159.544181144768913, 22.106449366738961 ], [ -159.54390029976642, 22.106168938454704 ], [ -159.543323529993586, 22.105674521967753 ], [ -159.543023621961026, 22.105087755569794 ], [ -159.54272070722044, 22.104828076024582 ], [ -159.54243986833049, 22.104547645050932 ], [ -159.541808064998236, 22.104272356099603 ], [ -159.540992574435506, 22.103458013502546 ], [ -159.540375148622104, 22.102928709440864 ], [ -159.540432555749561, 22.101446252632918 ], [ -159.539805815280033, 22.100219977439565 ], [ -159.539502916825882, 22.099960274904475 ], [ -159.539220034591807, 22.09913781108763 ], [ -159.538914651318265, 22.098335023186561 ], [ -159.538932694821369, 22.097869817463373 ], [ -159.538629120389857, 22.09670053343147 ], [ -159.53773855351028, 22.096312428075436 ], [ -159.536881102864015, 22.095893209148866 ], [ -159.536287397488707, 22.09563445526182 ], [ -159.533964725453757, 22.093734559796779 ], [ -159.530573132986547, 22.092993336152208 ], [ -159.528732243103519, 22.091893892372354 ], [ -159.528135428919882, 22.09103915618968 ], [ -159.527030011243852, 22.091588861174248 ], [ -159.525800745507638, 22.091061090525496 ], [ -159.523633406208376, 22.089523180063747 ], [ -159.522814659149361, 22.08912280162393 ], [ -159.520617631200707, 22.089210985123653 ], [ -159.520267356666579, 22.088910587086385 ], [ -159.519986593532963, 22.08863013202749 ], [ -159.51939294823498, 22.088371315344254 ], [ -159.518800327709982, 22.088081476734743 ], [ -159.518229724403881, 22.088104361114013 ], [ -159.51678375930814, 22.08755618311222 ], [ -159.515898892271906, 22.087298158009681 ], [ -159.515936810415866, 22.08632246635036 ], [ -159.514154385418294, 22.085746509511985 ], [ -159.512436234433466, 22.086313823288528 ], [ -159.512039669825725, 22.085160060594131 ], [ -159.510674155165503, 22.086831232978817 ], [ -159.510978770118896, 22.087353509022496 ], [ -159.512120333116428, 22.088332655696608 ], [ -159.510082967601647, 22.088791667496352 ], [ -159.509207689979178, 22.089226807535326 ], [ -159.508348849964307, 22.089197769099435 ], [ -159.50806833880452, 22.090033059595644 ], [ -159.507490377390127, 22.091059243154401 ], [ -159.507955302129318, 22.09249239908716 ], [ -159.510135714726431, 22.093275859430619 ], [ -159.510690163427512, 22.094361309568939 ], [ -159.511275493256392, 22.095383867065234 ], [ -159.510752669528443, 22.096519000792075 ], [ -159.510114914197175, 22.096260123334933 ], [ -159.510129472567286, 22.095885531206871 ], [ -159.508948157337926, 22.095179821585791 ], [ -159.508150434276729, 22.094382839197177 ], [ -159.505382164500389, 22.094289175070195 ], [ -159.506861900473865, 22.096075195784891 ], [ -159.506169498363334, 22.09667707640606 ], [ -159.505173616215728, 22.097895689678971 ], [ -159.505762422780066, 22.098924360178575 ], [ -159.50535685813108, 22.099804812080446 ], [ -159.504614131790333, 22.099779663813703 ], [ -159.504574700262935, 22.100791402505472 ], [ -159.504898824078538, 22.101425982712151 ], [ -159.505992089617052, 22.101902653343366 ], [ -159.5063669395891, 22.102224187498845 ], [ -159.506647703868737, 22.102504682032571 ], [ -159.506950549030137, 22.102764429911783 ], [ -159.507456285854545, 22.103269677300538 ], [ -159.509272435675314, 22.104502344183921 ], [ -159.508690364138062, 22.104395517112255 ], [ -159.506176221871328, 22.10371811771677 ], [ -159.501277675585385, 22.103914173479911 ], [ -159.499677846438914, 22.103859993542212 ], [ -159.498805439302203, 22.103894883169751 ], [ -159.498223683393149, 22.10387517813842 ], [ -159.497932880847884, 22.103886800431617 ], [ -159.497496563963779, 22.103872017452588 ], [ -159.49694733321715, 22.103893977713689 ], [ -159.497630090926492, 22.102059627341369 ], [ -159.497302223967523, 22.098605519309118 ], [ -159.496191039556521, 22.096664020573535 ], [ -159.496863334981668, 22.094240820026297 ], [ -159.496433667276989, 22.092179981005348 ], [ -159.495846956568755, 22.091154692428866 ], [ -159.495171060608016, 22.088923036816336 ], [ -159.494544940356775, 22.088297355450631 ], [ -159.494090753463439, 22.087907688473816 ], [ -159.493799284962392, 22.087616450954805 ], [ -159.492949407967188, 22.08765042924896 ], [ -159.492633894197127, 22.08709900413551 ], [ -159.49209425953066, 22.0855281468464 ], [ -159.491753968017946, 22.084933437295469 ], [ -159.490976038527918, 22.083409990672006 ], [ -159.490350531031055, 22.082784819675069 ], [ -159.488107687166888, 22.081564943269484 ], [ -159.486241541401824, 22.07944162162369 ], [ -159.487663371138837, 22.07897238688998 ], [ -159.488499355586185, 22.079000776214194 ], [ -159.489077719645394, 22.078498133455891 ], [ -159.487877143065191, 22.0781478156117 ], [ -159.488247825349532, 22.076811770615834 ], [ -159.488222735144433, 22.076265986019912 ], [ -159.4891055334258, 22.075874457914928 ], [ -159.488073794339641, 22.075687999410423 ], [ -159.486167152842427, 22.077059815672346 ], [ -159.485026232052007, 22.077105352659622 ], [ -159.485601621693746, 22.07608409963871 ], [ -159.485646928840254, 22.074924935453758 ], [ -159.485327568463191, 22.074914088770445 ], [ -159.485031641930703, 22.074925900968665 ], [ -159.484490611345223, 22.07438505228728 ], [ -159.483830763773227, 22.074662962593539 ], [ -159.483041986551314, 22.075461487073664 ], [ -159.482712412669542, 22.075474635126582 ], [ -159.482199787025564, 22.075457206375106 ], [ -159.481253843770247, 22.075739423456049 ], [ -159.48037607360277, 22.0761756579628 ], [ -159.480402864168099, 22.075490500002221 ], [ -159.479830907989708, 22.074490663451819 ], [ -159.485615587511091, 22.072484523231886 ], [ -159.487109207592141, 22.071626024557716 ], [ -159.489522248069363, 22.071707950815991 ], [ -159.489970316794398, 22.070815480684363 ], [ -159.492183656836033, 22.069833723143955 ], [ -159.493498366793318, 22.068887700500831 ], [ -159.494788024075604, 22.068315630126463 ], [ -159.495243751877666, 22.066251653274886 ], [ -159.494759420043579, 22.062136522836234 ], [ -159.494298314092475, 22.06079400992958 ], [ -159.493650744447621, 22.059922849603186 ], [ -159.492949980613531, 22.058550137545406 ], [ -159.491219983489657, 22.059667489767119 ], [ -159.489536976063789, 22.06031781207653 ], [ -159.488968733203848, 22.059324528756921 ], [ -159.489558558534128, 22.058277379047347 ], [ -159.489052655401423, 22.057286407049109 ], [ -159.488748581199019, 22.056754870358183 ], [ -159.488779963739972, 22.05595165094616 ], [ -159.48759083963256, 22.054931133567646 ], [ -159.487897574816515, 22.05454399124903 ], [ -159.490494266575269, 22.05376905119563 ], [ -159.491414559396986, 22.053465271825416 ], [ -159.493105325267152, 22.053522650765387 ], [ -159.49343346666987, 22.051228924224322 ], [ -159.495008803417733, 22.051738301048687 ], [ -159.495717159212717, 22.050772009833921 ], [ -159.496081549212192, 22.049686793917367 ], [ -159.496586906644495, 22.049946182532015 ], [ -159.49656579767219, 22.050487243885065 ], [ -159.496878785576172, 22.050497857245755 ], [ -159.497684464570227, 22.049681928946811 ], [ -159.498246426865535, 22.05009210473688 ], [ -159.498624438717741, 22.050752858210849 ], [ -159.499015814889049, 22.051519473324205 ], [ -159.499776645218674, 22.050748947716368 ], [ -159.500648597840154, 22.050778491156226 ], [ -159.500366920867947, 22.050205485846867 ], [ -159.499809714581687, 22.04923151054998 ], [ -159.499742787959605, 22.047778462983906 ], [ -159.500068569893614, 22.048038173894327 ], [ -159.500349212548144, 22.048318666794088 ], [ -159.500652356037904, 22.048578809602553 ], [ -159.500631589990263, 22.049112045800353 ], [ -159.502107095234919, 22.049671782609074 ], [ -159.502683257413906, 22.048834003396209 ], [ -159.503500568545405, 22.050434714762183 ], [ -159.504558657110636, 22.05095250400106 ], [ -159.505308407505538, 22.049929602622765 ], [ -159.505952341145331, 22.048993242967782 ], [ -159.506749833537043, 22.049383472230268 ], [ -159.507050033473689, 22.049371459454491 ], [ -159.507629669137373, 22.049655066104471 ], [ -159.508170068325057, 22.049107661827183 ], [ -159.508505425447453, 22.049638353572174 ], [ -159.508981197921088, 22.050570004886215 ], [ -159.509642107329341, 22.049900536600763 ], [ -159.510391102618996, 22.050044188258539 ], [ -159.510491800700947, 22.05037432150781 ], [ -159.510745904231044, 22.050135866997124 ], [ -159.510391102618996, 22.050044188258539 ], [ -159.510558338319669, 22.04856282439842 ], [ -159.511386336512601, 22.049360800575787 ], [ -159.511698893442201, 22.049094222218208 ], [ -159.511983796274677, 22.048815951702228 ], [ -159.514124414339847, 22.049217703699917 ], [ -159.513347267146401, 22.048156610640497 ], [ -159.513728255353612, 22.04746148643283 ], [ -159.513717764453332, 22.047052480085409 ], [ -159.513727731679296, 22.046510393593557 ], [ -159.513703591752943, 22.045564585536763 ], [ -159.514594385897254, 22.045827390142883 ], [ -159.51546208444941, 22.046101213494399 ], [ -159.515755340613026, 22.046094715289005 ], [ -159.516624299154586, 22.046108501471043 ], [ -159.516629511179758, 22.045823694361442 ], [ -159.516615771826764, 22.045284610562106 ], [ -159.516915271714964, 22.045277974811182 ], [ -159.518212668642889, 22.045298554833813 ], [ -159.521000677579593, 22.043133497299312 ], [ -159.520537356157547, 22.042302004440902 ], [ -159.522047941369721, 22.040388671611961 ], [ -159.522137907421836, 22.040941605889874 ], [ -159.521550471878101, 22.042013709036098 ], [ -159.52185047235605, 22.042552095384899 ], [ -159.522289546587359, 22.043388558195236 ], [ -159.524451944871004, 22.043340506386816 ], [ -159.524849987353321, 22.044054730744143 ], [ -159.524176944230589, 22.044987203273315 ], [ -159.524758165279025, 22.045504204078675 ], [ -159.525055520781024, 22.046070631500736 ], [ -159.525362014836134, 22.046343272754125 ], [ -159.524761836099714, 22.046884555589557 ], [ -159.524781982717883, 22.04767059245491 ], [ -159.524372523474511, 22.048464308343039 ], [ -159.522734166138804, 22.0479744728312 ], [ -159.523136611305176, 22.047240004332167 ], [ -159.521103819891039, 22.04581222853643 ], [ -159.519676244084394, 22.046743559123037 ], [ -159.518231785657662, 22.048423399346568 ], [ -159.517764671193362, 22.049709891919697 ], [ -159.518912018006546, 22.051276328639783 ], [ -159.517808191813174, 22.051779861331617 ], [ -159.517231213542345, 22.052059246876251 ], [ -159.515566801677011, 22.051534022127747 ], [ -159.513789421905699, 22.051505797926033 ], [ -159.511493210348135, 22.05255317907293 ], [ -159.510601240631587, 22.053357417067481 ], [ -159.511421832060904, 22.054515638238545 ], [ -159.512210057601919, 22.055591857280415 ], [ -159.511133041323944, 22.055058595141624 ], [ -159.508250638873136, 22.053441405531625 ], [ -159.506344900379162, 22.053871669007876 ], [ -159.505032362230594, 22.054806504597622 ], [ -159.503446280963033, 22.055291693859036 ], [ -159.505825186320806, 22.057408230188194 ], [ -159.506210734981607, 22.059133878788394 ], [ -159.506533572866743, 22.060648823609558 ], [ -159.508252764684556, 22.062656330743255 ], [ -159.50855029082976, 22.062921007766892 ], [ -159.509128984156661, 22.06373781497614 ], [ -159.509983097104538, 22.06371891078944 ], [ -159.510304698951671, 22.064004981218698 ], [ -159.510289921957849, 22.064812567077507 ], [ -159.511664025771609, 22.064834412579408 ], [ -159.512626754822065, 22.064539876413175 ], [ -159.514342280518036, 22.063986500142153 ], [ -159.514659679857829, 22.063991540033999 ], [ -159.516014190953683, 22.063663411424692 ], [ -159.516700895363186, 22.063990433682765 ], [ -159.517273994786933, 22.063977721679201 ], [ -159.517852781712662, 22.063986891503568 ], [ -159.518290134230654, 22.06355966170857 ], [ -159.518730591506483, 22.063984111059074 ], [ -159.519896451188771, 22.063958244438915 ], [ -159.520473406650979, 22.065057158963871 ], [ -159.520771953005408, 22.065592836771476 ], [ -159.521198084659517, 22.066404560158279 ], [ -159.521646244294772, 22.06613753102663 ], [ -159.5222029901133, 22.065593701605422 ], [ -159.524267078781264, 22.067207834912008 ], [ -159.524827821047239, 22.067748090296913 ], [ -159.526012685182508, 22.067478684408552 ], [ -159.527457649020903, 22.06665552699187 ], [ -159.528065339821097, 22.066378305479699 ], [ -159.528896353625015, 22.065566462246448 ], [ -159.530059477460668, 22.065584815188874 ], [ -159.530897052901452, 22.064766538914402 ], [ -159.531532012003453, 22.064476842707368 ], [ -159.531512139516423, 22.063699360327167 ], [ -159.532386402884754, 22.062845193276136 ], [ -159.532681983225558, 22.062578630670625 ], [ -159.53305780289341, 22.061486071910107 ], [ -159.533836859116235, 22.060406655186881 ], [ -159.534200376587421, 22.059349848385512 ], [ -159.535635682355007, 22.058465925397062 ], [ -159.536437539904256, 22.057682460150108 ], [ -159.5370406183103, 22.05713852855936 ], [ -159.537012745945191, 22.056054513786279 ], [ -159.537528733127374, 22.05558912706547 ], [ -159.538479698537799, 22.054412319291714 ], [ -159.539035745847855, 22.052795445885394 ], [ -159.539626839034099, 22.05226229682367 ], [ -159.541302209622785, 22.050625180062251 ], [ -159.541365779042508, 22.050916161346212 ], [ -159.54135135737053, 22.051714880595544 ], [ -159.542817795989265, 22.05100450199593 ], [ -159.54280542997887, 22.051688742755907 ], [ -159.543416465569805, 22.053333767155181 ], [ -159.54340180562869, 22.054141403164838 ], [ -159.544004032119062, 22.054963217845188 ], [ -159.543970282354763, 22.0568289851869 ], [ -159.544695855069989, 22.05747419655728 ], [ -159.544298647120058, 22.0590170626214 ], [ -159.544003096293437, 22.059283645736613 ], [ -159.543720263377423, 22.059832063950758 ], [ -159.543047838693809, 22.060763914652053 ], [ -159.545561749552519, 22.060297749915737 ], [ -159.546335768886422, 22.059541376262757 ], [ -159.547492808766521, 22.05955951059601 ], [ -159.547497958836402, 22.059274704196429 ], [ -159.54747709459761, 22.058464739314505 ], [ -159.548355653427194, 22.058445090466734 ], [ -159.548658672699901, 22.058737002785676 ], [ -159.549536168220129, 22.058717367681226 ], [ -159.550808909452627, 22.059323162358659 ], [ -159.55185255693732, 22.058986240173937 ], [ -159.552424934027727, 22.058995193833535 ], [ -159.553319140330728, 22.057888367488776 ], [ -159.55329188218812, 22.056829979368057 ], [ -159.554175397714857, 22.056810183451041 ], [ -159.554604538223344, 22.057223506780211 ], [ -159.555050936958338, 22.05762039370271 ], [ -159.555591519683588, 22.058141058540496 ], [ -159.555913019841313, 22.056256713828777 ], [ -159.556641840627691, 22.056268099076824 ], [ -159.557944394833498, 22.056238883929819 ], [ -159.558412115380577, 22.057129255722582 ], [ -159.5605718650136, 22.056793925599209 ], [ -159.561139665932615, 22.056238977487595 ], [ -159.561731848920289, 22.056520792055093 ], [ -159.562568549692713, 22.055702971853606 ], [ -159.563180393097696, 22.056199363859427 ], [ -159.562897791690375, 22.056785942770563 ], [ -159.562320470398447, 22.057840136933539 ], [ -159.563799199428871, 22.05759163272608 ], [ -159.565511133711851, 22.056762079271657 ], [ -159.565813023047752, 22.057618610900505 ], [ -159.567691550125545, 22.05663116014269 ] ], [ [ -159.497928620216697, 22.06119470694879 ], [ -159.498056255167512, 22.062087333291082 ], [ -159.498320347158142, 22.061385520016312 ], [ -159.497928620216697, 22.06119470694879 ] ], [ [ -159.496166136217028, 22.056050532963674 ], [ -159.496037402817109, 22.056201424329036 ], [ -159.495381534233331, 22.056694284742584 ], [ -159.497047220615457, 22.058622838505514 ], [ -159.497602970916262, 22.060412589070609 ], [ -159.499493912657584, 22.060910340277786 ], [ -159.500091475870107, 22.06071133213316 ], [ -159.498926865827457, 22.060258057169399 ], [ -159.498214452951032, 22.059870608788785 ], [ -159.497788394255906, 22.058063328121843 ], [ -159.497066927410344, 22.057782516575525 ], [ -159.497718368378173, 22.05618702459898 ], [ -159.496166136217028, 22.056050532963674 ] ], [ [ -159.613204617419569, 22.160268490880945 ], [ -159.613305637746038, 22.160598549572882 ], [ -159.613559757466248, 22.160359929563626 ], [ -159.613204617419569, 22.160268490880945 ] ], [ [ -159.610545139711718, 22.150792742320363 ], [ -159.610646146534634, 22.151122803335767 ], [ -159.610900254251305, 22.150884187480337 ], [ -159.610545139711718, 22.150792742320363 ] ], [ [ -159.585174716402094, 22.13652155843651 ], [ -159.585275653456591, 22.13685163726975 ], [ -159.585529779942561, 22.13661306013406 ], [ -159.585174716402094, 22.13652155843651 ] ], [ [ -159.585460018934953, 22.135165423543572 ], [ -159.585554056819177, 22.135750892452034 ], [ -159.586105745201394, 22.135250728355128 ], [ -159.585460018934953, 22.135165423543572 ] ], [ [ -159.574686805384061, 22.132764508005465 ], [ -159.574787715267291, 22.133094594061021 ], [ -159.575041853240094, 22.132856032911356 ], [ -159.574686805384061, 22.132764508005465 ] ], [ [ -159.575507765722335, 22.120023534991631 ], [ -159.57560866770072, 22.120353621205414 ], [ -159.575862781942675, 22.120115058927023 ], [ -159.575507765722335, 22.120023534991631 ] ] ] } },
{ "type": "Feature", "properties": { "ID": 39, "GRIDCODE": 2 }, "geometry": { "type": "Polygon", "coordinates": [ [ [ -159.524593868921642, 22.038345116797284 ], [ -159.524469229658138, 22.038535205483775 ], [ -159.523031716597387, 22.038957675321608 ], [ -159.523505750809505, 22.038455510781016 ], [ -159.524593868921642, 22.038345116797284 ] ] ] } },
{ "type": "Feature", "properties": { "ID": 40, "GRIDCODE": 2 }, "geometry": { "type": "Polygon", "coordinates": [ [ [ -159.524883574557066, 22.038073161056765 ], [ -159.524884573858799, 22.038344185398596 ], [ -159.524593868921642, 22.038345116797284 ], [ -159.524592870173308, 22.038074092442827 ], [ -159.524883574557066, 22.038073161056765 ] ] ] } },
{ "type": "Feature", "properties": { "ID": 41, "GRIDCODE": 2 }, "geometry": { "type": "Polygon", "coordinates": [ [ [ -159.525462982507662, 22.037529248076698 ], [ -159.525268994401898, 22.037889828788551 ], [ -159.524883574557066, 22.038073161056765 ], [ -159.524881576000098, 22.037531112346088 ], [ -159.525462982507662, 22.037529248076698 ] ] ] } },
{ "type": "Feature", "properties": { "ID": 42, "GRIDCODE": 2 }, "geometry": { "type": "Polygon", "coordinates": [ [ [ -159.525752684822805, 22.0372572908372 ], [ -159.525753685738209, 22.037528315168121 ], [ -159.525462982507662, 22.037529248076698 ], [ -159.525461982145629, 22.037258223733122 ], [ -159.525752684822805, 22.0372572908372 ] ] ] } },
{ "type": "Feature", "properties": { "ID": 43, "GRIDCODE": 2 }, "geometry": { "type": "Polygon", "coordinates": [ [ [ -159.525752684822805, 22.0372572908372 ], [ -159.5260206650062, 22.036965237906188 ], [ -159.527592052744495, 22.035694241680272 ], [ -159.529331549746814, 22.032763752033901 ], [ -159.529660507583543, 22.031048568189536 ], [ -159.531430516898439, 22.029854857038028 ], [ -159.532251766012109, 22.028959887559093 ], [ -159.532853772519758, 22.028707051524574 ], [ -159.533715651793955, 22.027579690034752 ], [ -159.53600247958056, 22.02605666059975 ], [ -159.536044029811279, 22.026518350113705 ], [ -159.535973920851205, 22.027368948292281 ], [ -159.536762002849798, 22.027307312711876 ], [ -159.537363691189654, 22.027350401419934 ], [ -159.537765576575765, 22.026502634709356 ], [ -159.538076882930909, 22.026250733577669 ], [ -159.538344888209366, 22.025958677322905 ], [ -159.539067323867187, 22.025655250531901 ], [ -159.540267740281024, 22.024084783102047 ], [ -159.541292404558448, 22.024004612605253 ], [ -159.540950907674244, 22.02488128613459 ], [ -159.541282761075252, 22.025145990362134 ], [ -159.540621958302154, 22.025680632359485 ], [ -159.541289812679992, 22.025955856733489 ], [ -159.540806306514327, 22.026347022141849 ], [ -159.540404375858515, 22.026785128559691 ], [ -159.538351034288581, 22.027584822079504 ], [ -159.537502682936292, 22.028149810745738 ], [ -159.536900687408888, 22.02840266366729 ], [ -159.536266273893091, 22.028735403575237 ], [ -159.535012839783036, 22.028645624472013 ], [ -159.534600933517879, 22.029514442432347 ], [ -159.534289078832188, 22.030039897347979 ], [ -159.534337734422422, 22.030580569547105 ], [ -159.534002991902923, 22.030851381678694 ], [ -159.533444962487238, 22.031459521171964 ], [ -159.53303155112539, 22.030603666201394 ], [ -159.531709441072422, 22.031037199830998 ], [ -159.531678616547254, 22.031411071095036 ], [ -159.531726595939034, 22.031944203085928 ], [ -159.531123533975034, 22.032432004089671 ], [ -159.531393943180518, 22.032777206655876 ], [ -159.531935076330882, 22.033208839610218 ], [ -159.531266896436478, 22.034334604205768 ], [ -159.53252187062651, 22.035335567049518 ], [ -159.531438047224043, 22.035903970165862 ], [ -159.530408853312764, 22.036336129708161 ], [ -159.52987388009555, 22.03723742617964 ], [ -159.530028324211401, 22.038954800722809 ], [ -159.52893186255119, 22.038080302089138 ], [ -159.528073137114376, 22.037157503718436 ], [ -159.526708530154735, 22.037059699976481 ], [ -159.525752684822805, 22.0372572908372 ] ] ] } }
]
}
