{
"type": "FeatureCollection",
"name": "cyalept",
"crs": { "type": "name", "properties": { "name": "urn:ogc:def:crs:OGC:1.3:CRS84" } },
"features": [
{ "type": "Feature", "properties": { "ID": 1, "GRIDCODE": 2 }, "geometry": { "type": "Polygon", "coordinates": [ [ [ -159.621723182379952, 22.178665589462813 ], [ -159.622142230607835, 22.178964313420806 ], [ -159.621458073961605, 22.179301356323631 ], [ -159.621723182379952, 22.178665589462813 ] ] ] } },
{ "type": "Feature", "properties": { "ID": 2, "GRIDCODE": 2 }, "geometry": { "type": "Polygon", "coordinates": [ [ [ -159.625764619834627, 22.171332591125221 ], [ -159.626521966026871, 22.171892720961505 ], [ -159.627648903047117, 22.173372984421288 ], [ -159.628228151447644, 22.173801321353384 ], [ -159.628526651379644, 22.174453680065266 ], [ -159.629753278640663, 22.175801188829656 ], [ -159.626829346463126, 22.176153261840597 ], [ -159.625909616959717, 22.177624398764767 ], [ -159.625982280004763, 22.178150774855876 ], [ -159.624764624998136, 22.179778454887344 ], [ -159.623088213394027, 22.178538670089928 ], [ -159.622947386007127, 22.17751848075568 ], [ -159.624962441524218, 22.174594972532471 ], [ -159.625643119980595, 22.173109676469949 ], [ -159.625764619834627, 22.171332591125221 ] ] ] } },
{ "type": "Feature", "properties": { "ID": 3, "GRIDCODE": 2 }, "geometry": { "type": "Polygon", "coordinates": [ [ [ -159.653650286270903, 22.160924435867845 ], [ -159.653169496935789, 22.161579097461647 ], [ -159.652660119880693, 22.161165361791017 ], [ -159.653650286270903, 22.160924435867845 ] ] ] } },
{ "type": "Feature", "properties": { "ID": 4, "GRIDCODE": 2 }, "geometry": { "type": "Polygon", "coordinates": [ [ [ -159.648977691122695, 22.157148830363887 ], [ -159.648879621237768, 22.157479657706894 ], [ -159.648623388877667, 22.15724301407008 ], [ -159.648977691122695, 22.157148830363887 ] ] ] } },
{ "type": "Feature", "properties": { "ID": 5, "GRIDCODE": 2 }, "geometry": { "type": "Polygon", "coordinates": [ [ [ -159.687522779368265, 22.126094802496052 ], [ -159.688192234731844, 22.126201835182499 ], [ -159.687682492046633, 22.126438246270741 ], [ -159.687522779368265, 22.126094802496052 ] ] ] } },
{ "type": "Feature", "properties": { "ID": 6, "GRIDCODE": 2 }, "geometry": { "type": "Polygon", "coordinates": [ [ [ -159.688942910455154, 22.119042325964802 ], [ -159.68929799063838, 22.11913360159895 ], [ -159.689044073861965, 22.119372335823975 ], [ -159.688942910455154, 22.119042325964802 ] ] ] } },
{ "type": "Feature", "properties": { "ID": 7, "GRIDCODE": 2 }, "geometry": { "type": "Polygon", "coordinates": [ [ [ -159.686141684428065, 22.081111362637241 ], [ -159.686496667405407, 22.081202655531143 ], [ -159.686242811727425, 22.081441376611252 ], [ -159.686141684428065, 22.081111362637241 ] ] ] } },
{ "type": "Feature", "properties": { "ID": 8, "GRIDCODE": 2 }, "geometry": { "type": "Polygon", "coordinates": [ [ [ -159.684104892974887, 22.080848875807334 ], [ -159.685368983696691, 22.080977504834411 ], [ -159.685915361608323, 22.081751849917147 ], [ -159.685101774748205, 22.082039481268531 ], [ -159.684211298903165, 22.08258525039405 ], [ -159.683929645240426, 22.081527044063069 ], [ -159.684104892974887, 22.080848875807334 ] ] ] } },
{ "type": "Feature", "properties": { "ID": 9, "GRIDCODE": 2 }, "geometry": { "type": "Polygon", "coordinates": [ [ [ -159.689035060184295, 22.078117973927021 ], [ -159.689714918342986, 22.078242909815945 ], [ -159.689411933167349, 22.078749472061823 ], [ -159.688803589256537, 22.078556941873781 ], [ -159.689035060184295, 22.078117973927021 ] ] ] } },
{ "type": "Feature", "properties": { "ID": 10, "GRIDCODE": 2 }, "geometry": { "type": "Polygon", "coordinates": [ [ [ -159.616042270327, 22.076783077961224 ], [ -159.615687339506138, 22.076691630716589 ], [ -159.615941308529216, 22.076453016373755 ], [ -159.616042270327, 22.076783077961224 ] ] ] } },
{ "type": "Feature", "properties": { "ID": 11, "GRIDCODE": 2 }, "geometry": { "type": "Polygon", "coordinates": [ [ [ -159.684948496396572, 22.074882894165054 ], [ -159.686543180369284, 22.075079225567734 ], [ -159.685345290465193, 22.076095663373408 ], [ -159.684723226706211, 22.075490722290294 ], [ -159.684948496396572, 22.074882894165054 ] ] ] } },
{ "type": "Feature", "properties": { "ID": 12, "GRIDCODE": 2 }, "geometry": { "type": "Polygon", "coordinates": [ [ [ -159.682907888864833, 22.073807344238347 ], [ -159.683005826519889, 22.073476496518154 ], [ -159.683261959331304, 22.073713082692059 ], [ -159.682907888864833, 22.073807344238347 ] ] ] } },
{ "type": "Feature", "properties": { "ID": 13, "GRIDCODE": 2 }, "geometry": { "type": "Polygon", "coordinates": [ [ [ -159.672409420158232, 22.067346330042309 ], [ -159.673111825550592, 22.067794123760741 ], [ -159.672413155478949, 22.068541097797009 ], [ -159.671781297170014, 22.068240845806031 ], [ -159.672409420158232, 22.067346330042309 ] ] ] } },
{ "type": "Feature", "properties": { "ID": 14, "GRIDCODE": 2 }, "geometry": { "type": "Polygon", "coordinates": [ [ [ -159.670064207115956, 22.063290629698233 ], [ -159.671034662865594, 22.06340065917102 ], [ -159.67083984204379, 22.064016847522332 ], [ -159.670065264214941, 22.064373404675013 ], [ -159.669778560376642, 22.063832254249665 ], [ -159.670064207115956, 22.063290629698233 ] ] ] } },
{ "type": "Feature", "properties": { "ID": 15, "GRIDCODE": 2 }, "geometry": { "type": "Polygon", "coordinates": [ [ [ -159.675636082273229, 22.073295500917368 ], [ -159.675282007298136, 22.073389746061789 ], [ -159.675538127441712, 22.073626344664067 ], [ -159.675636082273229, 22.073295500917368 ], [ -159.675791695633364, 22.073169421543398 ], [ -159.676880906132823, 22.073083317153475 ], [ -159.67795739167525, 22.072517628666649 ], [ -159.678482602235761, 22.071944328710128 ], [ -159.679255373093696, 22.072342012211912 ], [ -159.679859756812306, 22.072590374320097 ], [ -159.680460458188833, 22.072899507483868 ], [ -159.681303955009724, 22.072832790187139 ], [ -159.681894326162421, 22.07287452983131 ], [ -159.682744468641914, 22.072307338564226 ], [ -159.684197698432172, 22.072176789585562 ], [ -159.681834805436409, 22.073459761939677 ], [ -159.681919301898546, 22.074388198235646 ], [ -159.682907888864833, 22.073807344238347 ], [ -159.682777970311889, 22.074226956305573 ], [ -159.682428623077811, 22.075105459892306 ], [ -159.684168213373596, 22.076440061907338 ], [ -159.683065451072736, 22.076339945195688 ], [ -159.682677739503873, 22.0771835242668 ], [ -159.682182537804181, 22.076939647310983 ], [ -159.682049892027294, 22.076792151553249 ], [ -159.682403970497887, 22.07669789169427 ], [ -159.682147833548754, 22.076461304363196 ], [ -159.682049892027294, 22.076792151553249 ], [ -159.681310346234113, 22.077008374919412 ], [ -159.679675015294123, 22.078083199865222 ], [ -159.678415767709765, 22.078018489675848 ], [ -159.676470169408873, 22.078512811550681 ], [ -159.678143549905883, 22.07910444593961 ], [ -159.678801066018821, 22.079784199197817 ], [ -159.682046713629603, 22.079590339768195 ], [ -159.683658774828444, 22.08048106593829 ], [ -159.682498035067681, 22.080983474588169 ], [ -159.681643412621156, 22.081545158830647 ], [ -159.680248786406054, 22.081473517756312 ], [ -159.678466372176104, 22.082385841129923 ], [ -159.677272015558771, 22.082902760659582 ], [ -159.677306727089103, 22.08340793533084 ], [ -159.678854680168001, 22.083708845736034 ], [ -159.680557955776777, 22.083131239401581 ], [ -159.681706292816102, 22.083190240965379 ], [ -159.682223085684882, 22.084281347808137 ], [ -159.681062309881469, 22.084783746955235 ], [ -159.680790595805803, 22.085358315622361 ], [ -159.682366922816186, 22.085264155775157 ], [ -159.683392627045635, 22.08560233597542 ], [ -159.684282567156146, 22.085854382514796 ], [ -159.685140204871857, 22.086179541745988 ], [ -159.684545854621376, 22.086678962364754 ], [ -159.686047734912648, 22.086933695980083 ], [ -159.685150498427333, 22.087687627232043 ], [ -159.683511526450815, 22.087147269728522 ], [ -159.683105173209952, 22.088393470970509 ], [ -159.682240333111906, 22.089120139326067 ], [ -159.682617424634543, 22.0897600049856 ], [ -159.684939592954379, 22.088848451980258 ], [ -159.685449453518771, 22.09000139247842 ], [ -159.684761800734634, 22.091193444377904 ], [ -159.683696001494212, 22.091819279944826 ], [ -159.683727613135432, 22.091284733329214 ], [ -159.6837073442573, 22.09099012677239 ], [ -159.683078833120135, 22.091027690519514 ], [ -159.682093916238074, 22.092064306572006 ], [ -159.683150686503524, 22.092363600016814 ], [ -159.684238607298624, 22.092908649221776 ], [ -159.686353492006504, 22.093163242820985 ], [ -159.686920164276444, 22.093447133722325 ], [ -159.687519350306701, 22.093700382876019 ], [ -159.687795373561187, 22.094017798941412 ], [ -159.686786319597672, 22.093965998511429 ], [ -159.68607286608264, 22.095271292896033 ], [ -159.687508270979237, 22.094784508792483 ], [ -159.688844649346464, 22.094523113759568 ], [ -159.688383334271123, 22.095322865151978 ], [ -159.688053592218694, 22.097011460702845 ], [ -159.686313055768409, 22.096922125790034 ], [ -159.687249535691876, 22.098037834141007 ], [ -159.687529427527267, 22.099152131825242 ], [ -159.686955797401168, 22.099122701335922 ], [ -159.68553516231313, 22.099207587594648 ], [ -159.686129624528292, 22.099698102513869 ], [ -159.686955290645557, 22.0996487469809 ], [ -159.687673312903911, 22.100690386629044 ], [ -159.686885186184952, 22.101352591384984 ], [ -159.685194490351591, 22.101846876531621 ], [ -159.685913702809728, 22.102150832184705 ], [ -159.687289576386007, 22.102068611574968 ], [ -159.687240258959093, 22.102903183450938 ], [ -159.687567510705151, 22.103458402502948 ], [ -159.687519506137448, 22.104270554746712 ], [ -159.6882186710761, 22.104566015541664 ], [ -159.688734977998763, 22.10453515661548 ], [ -159.689015191589419, 22.105666503503659 ], [ -159.687230762557135, 22.105574934217959 ], [ -159.688083636714282, 22.107021879023023 ], [ -159.68709696925967, 22.106971245461686 ], [ -159.685257812828155, 22.107158720583222 ], [ -159.686132128850488, 22.107528215517736 ], [ -159.688156994571244, 22.108619027683201 ], [ -159.688979491503574, 22.108966608975482 ], [ -159.689154703624155, 22.109412628256333 ], [ -159.686533747130113, 22.108548739951868 ], [ -159.685842533121161, 22.108902509565155 ], [ -159.68457049205108, 22.108590748583786 ], [ -159.683520406908571, 22.108746841374799 ], [ -159.685804519755067, 22.110087072231458 ], [ -159.686133032694158, 22.111091370703086 ], [ -159.684369076551462, 22.111607039385582 ], [ -159.68528938379751, 22.111995955594164 ], [ -159.686141070599774, 22.11242259690345 ], [ -159.686616517225474, 22.112394181928163 ], [ -159.687034295461984, 22.111535755233238 ], [ -159.687932621266754, 22.112464132363122 ], [ -159.687886553186416, 22.113243531404819 ], [ -159.686721741632141, 22.113183763021595 ], [ -159.686743665073152, 22.113502545225025 ], [ -159.686424743606182, 22.113770504964762 ], [ -159.687036147758079, 22.114028879653173 ], [ -159.687312054278209, 22.114313989487261 ], [ -159.688663594449622, 22.114885113623608 ], [ -159.689063459063874, 22.115602188442086 ], [ -159.687610716790175, 22.115923595822824 ], [ -159.687046726125118, 22.116212239923463 ], [ -159.685730328288571, 22.116345656256925 ], [ -159.685629174902061, 22.116015643970655 ], [ -159.685375257208761, 22.116254372596579 ], [ -159.685730328288571, 22.116345656256925 ], [ -159.686706261057481, 22.11758270380686 ], [ -159.684449088685454, 22.11746685117155 ], [ -159.685509152153514, 22.117914828611749 ], [ -159.685878770357021, 22.118656321293958 ], [ -159.687368768789497, 22.118908975325994 ], [ -159.687320861969482, 22.119720091867766 ], [ -159.687984568076018, 22.12025832589428 ], [ -159.688699424197353, 22.119506023923446 ], [ -159.689377209866194, 22.120310191335403 ], [ -159.688797835220839, 22.120796935316076 ], [ -159.688524693459442, 22.121084357592633 ], [ -159.686916727888104, 22.121346897273934 ], [ -159.684706793768783, 22.120805348891043 ], [ -159.684748876524253, 22.121416983406323 ], [ -159.685329029153678, 22.121895606632471 ], [ -159.685742872447065, 22.122323266534906 ], [ -159.686206493710188, 22.122705755826455 ], [ -159.686185818044265, 22.123055666244799 ], [ -159.684081952442909, 22.122947685087546 ], [ -159.681262906403191, 22.123165572726652 ], [ -159.682137312574213, 22.123535086079883 ], [ -159.682413228548825, 22.123820203641376 ], [ -159.682775424043342, 22.124119036901465 ], [ -159.683630128662486, 22.124067985827423 ], [ -159.683565157396288, 22.125166559688456 ], [ -159.684764314745905, 22.125421222548081 ], [ -159.685614480108967, 22.125847051792856 ], [ -159.686815083992457, 22.126354367383328 ], [ -159.68678594206159, 22.126847407074809 ], [ -159.68519896997509, 22.126765966128016 ], [ -159.684737390007115, 22.126793542343702 ], [ -159.684774511354419, 22.127333158170174 ], [ -159.683351819415918, 22.127948763137926 ], [ -159.684448002820147, 22.128853086483666 ], [ -159.684767931861245, 22.129550200462006 ], [ -159.683107372911962, 22.129464962696446 ], [ -159.681923839426105, 22.129866216633499 ], [ -159.682715249281785, 22.130519092202206 ], [ -159.683029671973031, 22.131017740748018 ], [ -159.681679614031935, 22.131601879883778 ], [ -159.682468641670141, 22.131935288645739 ], [ -159.683065898000734, 22.132234436059527 ], [ -159.684184908285886, 22.132167585814884 ], [ -159.684527546259488, 22.132521654524197 ], [ -159.68567365573648, 22.133005931388812 ], [ -159.686240723021371, 22.133338277048832 ], [ -159.685085016730341, 22.133278966886149 ], [ -159.682740337522517, 22.133419032237391 ], [ -159.682786694186348, 22.134092894854284 ], [ -159.678446334663704, 22.134456293679431 ], [ -159.677828179057258, 22.134828510736291 ], [ -159.680472235945501, 22.135390057031866 ], [ -159.680422606880938, 22.136228471833576 ], [ -159.678404530360467, 22.137101589168804 ], [ -159.677829455497118, 22.137395823494874 ], [ -159.677533286517104, 22.137089766898843 ], [ -159.677402310128059, 22.138460846343012 ], [ -159.679839418334268, 22.137841870760663 ], [ -159.681333025011128, 22.137918556890174 ], [ -159.681896147380968, 22.137326080977672 ], [ -159.683112456192049, 22.137935285411601 ], [ -159.683063140464213, 22.138769249428183 ], [ -159.682162349164713, 22.1395258697803 ], [ -159.68226667026093, 22.141042030821406 ], [ -159.682130503295582, 22.141422355201104 ], [ -159.680805257042181, 22.140052971818029 ], [ -159.679888739169513, 22.140363665737933 ], [ -159.678809096980387, 22.140308221790036 ], [ -159.679318357857795, 22.141172033879709 ], [ -159.678392758855722, 22.142295052389702 ], [ -159.680194892849812, 22.143056546730055 ], [ -159.680471187057549, 22.143413017040892 ], [ -159.679877775500898, 22.144441255529618 ], [ -159.679913624694933, 22.14496247431693 ], [ -159.679896182751662, 22.145257228315661 ], [ -159.67834502499133, 22.145177577473852 ], [ -159.67748808885716, 22.144292081753914 ], [ -159.676109755416206, 22.143901833176255 ], [ -159.675097752873029, 22.143491869879323 ], [ -159.674996602833289, 22.143161851956656 ], [ -159.674742619424251, 22.143400564939352 ], [ -159.675097752873029, 22.143491869879323 ], [ -159.675287065128771, 22.144555757876621 ], [ -159.675230871718981, 22.14499254985645 ], [ -159.675910567307284, 22.145851332802728 ], [ -159.675108575403328, 22.145761771995975 ], [ -159.674025088683408, 22.145891877590287 ], [ -159.672828490737828, 22.144512394660932 ], [ -159.670740003222363, 22.144763139290699 ], [ -159.669812451508562, 22.144659519966641 ], [ -159.669157248929537, 22.145021932202209 ], [ -159.668355841791055, 22.145340410653489 ], [ -159.668198209719606, 22.146079965011062 ], [ -159.669904350513235, 22.145460967493083 ], [ -159.671484692063416, 22.146317656740315 ], [ -159.671753602590087, 22.147179412933024 ], [ -159.672311269071628, 22.148054312110421 ], [ -159.67097361543054, 22.147904906633329 ], [ -159.669508714830243, 22.148911009968572 ], [ -159.671370320132041, 22.148687523331667 ], [ -159.672345739395837, 22.149345123043737 ], [ -159.672960909137004, 22.149583631508694 ], [ -159.673575892931609, 22.149916979984305 ], [ -159.673477635940799, 22.150680559996289 ], [ -159.673554394034056, 22.151235331510449 ], [ -159.673086981581378, 22.151480241361295 ], [ -159.672384208444129, 22.150670084076054 ], [ -159.671828769857711, 22.150259492738304 ], [ -159.669894985366, 22.150491643233345 ], [ -159.66921034136476, 22.1512953101272 ], [ -159.668578134803084, 22.151224680938306 ], [ -159.668018680369187, 22.15153413536488 ], [ -159.667604398428182, 22.151487852371606 ], [ -159.666722972101212, 22.150471663252603 ], [ -159.666404817914696, 22.150845117982893 ], [ -159.666050543999887, 22.15093933894995 ], [ -159.666306793017242, 22.151175954953544 ], [ -159.666404817914696, 22.150845117982893 ], [ -159.666831987106889, 22.151184933040568 ], [ -159.666564351554513, 22.151532095321272 ], [ -159.666048939772679, 22.151949405059874 ], [ -159.666860293209567, 22.152594796470613 ], [ -159.667503627748403, 22.153284284954953 ], [ -159.668298500563367, 22.153693149079832 ], [ -159.671501770855258, 22.154312611583347 ], [ -159.671229532213175, 22.154773772243036 ], [ -159.670538496074045, 22.154418330723757 ], [ -159.669314885525409, 22.154514972735349 ], [ -159.668301060010862, 22.154235175893522 ], [ -159.665567161890237, 22.153175786426413 ], [ -159.664080723550114, 22.153070618996402 ], [ -159.663134023022621, 22.153567710524676 ], [ -159.661513650159264, 22.153020855410571 ], [ -159.65741674748557, 22.152445764871963 ], [ -159.655611000862081, 22.15296014358816 ], [ -159.654941482809903, 22.154681309023417 ], [ -159.656093126558375, 22.156723913156263 ], [ -159.656430422562636, 22.15699226808422 ], [ -159.656315896288504, 22.158396282902434 ], [ -159.656774758040029, 22.159343208578456 ], [ -159.658146973405564, 22.160434852521057 ], [ -159.657370896567102, 22.160542005394674 ], [ -159.655971855815864, 22.16044297201719 ], [ -159.653650286270903, 22.160924435867845 ], [ -159.654046957437259, 22.159391713589216 ], [ -159.652938804700938, 22.158598811818187 ], [ -159.651428540828391, 22.158112438612619 ], [ -159.651064462124907, 22.157625771835484 ], [ -159.649901807178793, 22.157873431803857 ], [ -159.649441248467184, 22.157257682082502 ], [ -159.648977691122695, 22.157148830363887 ], [ -159.648248890950754, 22.156200448412658 ], [ -159.647638546710425, 22.155927619232784 ], [ -159.647081413293762, 22.155392026528038 ], [ -159.646511635388975, 22.154886389345979 ], [ -159.645911475115895, 22.154041566653493 ], [ -159.645031490954722, 22.153779413977379 ], [ -159.645036340248225, 22.15350309842032 ], [ -159.644738228851935, 22.153238575685346 ], [ -159.644176693961754, 22.15269875516611 ], [ -159.643574467705577, 22.153237746090785 ], [ -159.643256836310655, 22.15478829706629 ], [ -159.640180451922987, 22.155267242164356 ], [ -159.638468691123393, 22.156357932013659 ], [ -159.638064758453595, 22.155969591141218 ], [ -159.63776665441614, 22.155705055555291 ], [ -159.637784766301507, 22.154664550913402 ], [ -159.637474332863576, 22.154074761346692 ], [ -159.636885440833964, 22.153811467781011 ], [ -159.636599086104553, 22.153536140117577 ], [ -159.635428328550006, 22.153275111185259 ], [ -159.635141977699277, 22.152999780852767 ], [ -159.634552951989832, 22.152736421280185 ], [ -159.63456244284319, 22.152191689392009 ], [ -159.633378352665147, 22.151662224630954 ], [ -159.633397181580932, 22.150584199856226 ], [ -159.632227185609509, 22.150566498366526 ], [ -159.631640902989261, 22.150850748733699 ], [ -159.631201771785697, 22.150844094990198 ], [ -159.629942341931212, 22.15087290779401 ], [ -159.629306646509406, 22.150588643128188 ], [ -159.628597987505771, 22.150251996395678 ], [ -159.625740121331177, 22.150696676443598 ], [ -159.624105924064793, 22.152171400101867 ], [ -159.623235303302778, 22.154572889010268 ], [ -159.622883440386858, 22.156289151481712 ], [ -159.621785397966789, 22.156314217277085 ], [ -159.621734392089735, 22.154372887415956 ], [ -159.622077296724086, 22.151666594272456 ], [ -159.623324797226275, 22.149878131975257 ], [ -159.626268586895918, 22.148451137273135 ], [ -159.630490479565282, 22.148354605846979 ], [ -159.634621780148905, 22.149203488811697 ], [ -159.636470982286369, 22.149231443832438 ], [ -159.637958600596221, 22.14877531687279 ], [ -159.638596219124878, 22.147610276322705 ], [ -159.63866220492244, 22.143815753527424 ], [ -159.63810769742264, 22.139730619221172 ], [ -159.636952382366161, 22.137034969911159 ], [ -159.634993098753142, 22.134484559250097 ], [ -159.630378923967015, 22.130536681974498 ], [ -159.628039107673487, 22.129072115272166 ], [ -159.623375041517505, 22.1268560603779 ], [ -159.619019742218995, 22.125417620546795 ], [ -159.609123470030056, 22.122297297891585 ], [ -159.599050814539936, 22.118357171881573 ], [ -159.59089315067564, 22.114105744424197 ], [ -159.584873956527701, 22.11124377711587 ], [ -159.580390826328852, 22.109905825115842 ], [ -159.577644664994182, 22.108241958967614 ], [ -159.577630264538726, 22.10768741576284 ], [ -159.578788367936426, 22.107661291355118 ], [ -159.579905100339857, 22.108736123262197 ], [ -159.582594756828911, 22.109583310769459 ], [ -159.584045402904167, 22.109550538907694 ], [ -159.58489110033463, 22.109563591962083 ], [ -159.584915374789119, 22.108200605868191 ], [ -159.584901457910831, 22.107666904940245 ], [ -159.58578097624931, 22.107240709986684 ], [ -159.586656233007773, 22.107656899427784 ], [ -159.586942019806344, 22.107377554727869 ], [ -159.587819271078729, 22.107108803290142 ], [ -159.588103286603541, 22.106831224692051 ], [ -159.588696165193539, 22.106840362777291 ], [ -159.589264261169632, 22.106285102628 ], [ -159.591185888933467, 22.105986476574294 ], [ -159.591876451875493, 22.104646759172248 ], [ -159.592749842207951, 22.105193827435738 ], [ -159.595250620532624, 22.10575228933396 ], [ -159.59579876870842, 22.106794823099868 ], [ -159.597084296898515, 22.106814578967207 ], [ -159.59772695473373, 22.106521149071245 ], [ -159.598547537214785, 22.105718971538163 ], [ -159.59915524808585, 22.105441486503558 ], [ -159.599440722563827, 22.105162411029163 ], [ -159.600898306604705, 22.105707108720878 ], [ -159.60179999215373, 22.105415795209545 ], [ -159.603774599926169, 22.105446060278929 ], [ -159.605034737803095, 22.104643251523438 ], [ -159.606102443574514, 22.105670624312285 ], [ -159.607532812263941, 22.106120908892759 ], [ -159.608923144777577, 22.105446919177954 ], [ -159.610799691341413, 22.106037639489731 ], [ -159.610761628704296, 22.104585444607476 ], [ -159.611660094993198, 22.105118702695634 ], [ -159.613824608054244, 22.106733501610023 ], [ -159.614875724572471, 22.106749539932707 ], [ -159.614555769406394, 22.106176483945259 ], [ -159.614569722395032, 22.105381519338213 ], [ -159.614559014798658, 22.104975026162599 ], [ -159.614566200516947, 22.10456846566289 ], [ -159.614545617417235, 22.103783572479536 ], [ -159.614850071213397, 22.10294367049822 ], [ -159.614814183058343, 22.101576444327357 ], [ -159.616024623674321, 22.101860682214621 ], [ -159.616590048608828, 22.101847797399383 ], [ -159.617731007927176, 22.102562249688699 ], [ -159.618070878365302, 22.100224100193316 ], [ -159.619366046994372, 22.100839649540649 ], [ -159.620358050899739, 22.100207510025136 ], [ -159.621235190218528, 22.099938581373124 ], [ -159.622102927159688, 22.099517829378264 ], [ -159.623152346334024, 22.100016571892482 ], [ -159.62395186925491, 22.099294826130294 ], [ -159.624421117986998, 22.097468497557543 ], [ -159.625577323806596, 22.098580785037928 ], [ -159.626148067957388, 22.098022676438127 ], [ -159.62646404983002, 22.098558083932481 ], [ -159.626951745772601, 22.09948512255917 ], [ -159.62844994086359, 22.09902570715121 ], [ -159.628866990956624, 22.097402271711136 ], [ -159.629631917018884, 22.096654181449992 ], [ -159.630237525139108, 22.096917443493698 ], [ -159.631042542788123, 22.097299977733279 ], [ -159.631460119439311, 22.096536777307112 ], [ -159.630879133113638, 22.094976112008911 ], [ -159.63197160502267, 22.094476975337027 ], [ -159.632648530071663, 22.093505962461357 ], [ -159.633711000955174, 22.09444938141522 ], [ -159.634007126642274, 22.095287765756623 ], [ -159.63544084818065, 22.095254920438549 ], [ -159.63547728076432, 22.096636669183063 ], [ -159.634886022142581, 22.097170473541695 ], [ -159.634065698105019, 22.097972828512717 ], [ -159.633436762241502, 22.098260184439386 ], [ -159.632862173233548, 22.098538858103279 ], [ -159.631985066212195, 22.098807848493038 ], [ -159.631702502059056, 22.099356410434837 ], [ -159.631332459559758, 22.100032682205683 ], [ -159.631815513884987, 22.100897691391328 ], [ -159.630840353381927, 22.101778069895605 ], [ -159.630369929846779, 22.103148335356298 ], [ -159.629971489428669, 22.103157448183463 ], [ -159.629677863365487, 22.103152997105905 ], [ -159.629393938259881, 22.103430646075509 ], [ -159.628985234172347, 22.103799589752814 ], [ -159.629989865507184, 22.105329083097647 ], [ -159.629973517072244, 22.106268715078336 ], [ -159.631054385768664, 22.105774896764817 ], [ -159.631543300648815, 22.104825779951572 ], [ -159.633079329978528, 22.104354728369621 ], [ -159.634221444594772, 22.102906419162608 ], [ -159.636032570923561, 22.102320853143571 ], [ -159.636081081036224, 22.102862500708536 ], [ -159.634367752221038, 22.103645337955712 ], [ -159.632887612967608, 22.105580047510113 ], [ -159.632909144847474, 22.106395592865951 ], [ -159.631729233676907, 22.106668468206461 ], [ -159.630620295263185, 22.107206243539299 ], [ -159.629696967600893, 22.107489378771231 ], [ -159.628832693753964, 22.108040176825028 ], [ -159.627683982392824, 22.108564951420441 ], [ -159.627664948148293, 22.109655240058011 ], [ -159.628032672275339, 22.110643111988036 ], [ -159.627507264274016, 22.111603177041939 ], [ -159.628558158231272, 22.113035001631815 ], [ -159.62332111279062, 22.112668669561653 ], [ -159.622664605006747, 22.112356696295226 ], [ -159.62149073337946, 22.114040074359963 ], [ -159.619886140092774, 22.114015660552713 ], [ -159.61896685418364, 22.114312748330121 ], [ -159.618374696044384, 22.113743072964731 ], [ -159.618389598651447, 22.114310832506401 ], [ -159.618380209493665, 22.114844616016523 ], [ -159.618968976741854, 22.115124416249696 ], [ -159.620139389994108, 22.115385572529849 ], [ -159.621298635697798, 22.115657713518644 ], [ -159.621810648342034, 22.115646030100255 ], [ -159.623635665179506, 22.117007280825174 ], [ -159.62400965161828, 22.115918300454908 ], [ -159.625114624467557, 22.116505545056839 ], [ -159.626067576027111, 22.11735163252624 ], [ -159.625159824106021, 22.119010112562506 ], [ -159.626837448126366, 22.119510250508963 ], [ -159.626870219173099, 22.120754541831953 ], [ -159.62655286348533, 22.121334302041582 ], [ -159.627711970509552, 22.12236338365296 ], [ -159.628020356854307, 22.122949482187742 ], [ -159.629186182473461, 22.123470932855831 ], [ -159.628574856641222, 22.125274650099307 ], [ -159.627456978020007, 22.125785295126139 ], [ -159.629081969692123, 22.126055505245024 ], [ -159.630026857859264, 22.125131599301803 ], [ -159.631198792369844, 22.124563352675764 ], [ -159.631525080734974, 22.124827686259316 ], [ -159.63195450943951, 22.125240686485192 ], [ -159.632252394765686, 22.125505136742735 ], [ -159.632353432208333, 22.125835184582673 ], [ -159.632607458223475, 22.125596536091663 ], [ -159.632252394765686, 22.125505136742735 ], [ -159.632608556056283, 22.123885422358899 ], [ -159.631083867778557, 22.123442137911766 ], [ -159.630389837715938, 22.121015413000261 ], [ -159.631777870470472, 22.121061303441799 ], [ -159.631799612275984, 22.120490245381209 ], [ -159.631419399974362, 22.117858340594609 ], [ -159.633838977894413, 22.117311408200241 ], [ -159.634688555880615, 22.116150627947775 ], [ -159.635255788775538, 22.115324623422051 ], [ -159.635842854223938, 22.115344017033127 ], [ -159.636349525448225, 22.114332670166046 ], [ -159.638750806832945, 22.113966622365687 ], [ -159.639025651801376, 22.112871124190782 ], [ -159.64134389891862, 22.112177207165047 ], [ -159.64135887481774, 22.111783064465239 ], [ -159.641337901368701, 22.11133768401735 ], [ -159.641632744997793, 22.109865197792637 ], [ -159.644161111663919, 22.109108326653047 ], [ -159.644834088640579, 22.108522299809387 ], [ -159.645400949969542, 22.107696659544057 ], [ -159.647247292903927, 22.107279118200946 ], [ -159.647739218513664, 22.10629692576218 ], [ -159.648462169849296, 22.105667379746425 ], [ -159.648931544517836, 22.105191287276707 ], [ -159.650910425074215, 22.105256497277651 ], [ -159.651785740998747, 22.104690081913034 ], [ -159.653484689700491, 22.104380779204146 ], [ -159.654695200383628, 22.102520621552827 ], [ -159.655651023679411, 22.1009905350388 ], [ -159.65759842172497, 22.101414549996083 ], [ -159.658461131649744, 22.101692427018964 ], [ -159.659637156148506, 22.10194846518457 ], [ -159.659597883433548, 22.102985562338574 ], [ -159.660087311156843, 22.103838531593993 ], [ -159.660640751349774, 22.104919144765763 ], [ -159.661390154098484, 22.104943787288995 ], [ -159.66224181132128, 22.104908875082018 ], [ -159.663026623219906, 22.10596182663857 ], [ -159.663488849911261, 22.10816573745354 ], [ -159.664311939620916, 22.108986296548842 ], [ -159.665196765256866, 22.109243377656099 ], [ -159.666067611157473, 22.109796550496974 ], [ -159.666619694110949, 22.109236427716624 ], [ -159.667299592515548, 22.109258753986779 ], [ -159.668378570433589, 22.107875289860985 ], [ -159.669812291924387, 22.106886300034596 ], [ -159.669841551456869, 22.106112836402399 ], [ -159.669798519894186, 22.105202537891433 ], [ -159.670659029861895, 22.104329415984353 ], [ -159.67176509745417, 22.10468558173654 ], [ -159.672430759373555, 22.104105709972195 ], [ -159.672442560180144, 22.103794031274216 ], [ -159.671947797264494, 22.102931958375649 ], [ -159.674136961838968, 22.103003780654898 ], [ -159.67447284304842, 22.102711201802002 ], [ -159.675041082425281, 22.102134600055575 ], [ -159.676495084696626, 22.102182281385552 ], [ -159.676210016147678, 22.101067571367178 ], [ -159.675613467722343, 22.100267300639253 ], [ -159.675201837486043, 22.099463765777415 ], [ -159.672421620232598, 22.099165352412189 ], [ -159.675021067607332, 22.09800898660723 ], [ -159.674447033146777, 22.09728057459505 ], [ -159.673853084355471, 22.097022326402914 ], [ -159.673201201570237, 22.096090667658967 ], [ -159.672401982297885, 22.096489008268215 ], [ -159.671824543631516, 22.096207294538118 ], [ -159.669766236107847, 22.095910381243705 ], [ -159.66979675579708, 22.095103100076109 ], [ -159.668891751487564, 22.094328482353731 ], [ -159.669763232750256, 22.09313703166012 ], [ -159.669482680885125, 22.092964657672422 ], [ -159.668878264997375, 22.092701834949729 ], [ -159.670350462444162, 22.091887109270843 ], [ -159.670331018792268, 22.091475728643992 ], [ -159.670346387247037, 22.091069134690542 ], [ -159.670320789518001, 22.09052719838639 ], [ -159.670345591801606, 22.089870586197279 ], [ -159.669466067440908, 22.089441457168174 ], [ -159.668580932621211, 22.089184265088655 ], [ -159.668600598990082, 22.088664077544198 ], [ -159.668297758048453, 22.088362154310765 ], [ -159.667701429378781, 22.087851712471466 ], [ -159.66771276246979, 22.087551664110514 ], [ -159.666820603237028, 22.087163711325228 ], [ -159.666862003237071, 22.086069500652744 ], [ -159.665731319579066, 22.08557780465862 ], [ -159.666250874751967, 22.085125188735965 ], [ -159.665942540604163, 22.084587793929622 ], [ -159.665660234811099, 22.084036579334271 ], [ -159.665066357183633, 22.083778297015165 ], [ -159.664784056447075, 22.083227080728239 ], [ -159.663887558308744, 22.082966550267884 ], [ -159.663918615092314, 22.082145652201344 ], [ -159.663558352558567, 22.082160430700164 ], [ -159.662430341453955, 22.080801726318274 ], [ -159.663505389835564, 22.079865203007326 ], [ -159.66389565844824, 22.079170533171336 ], [ -159.663507826709065, 22.078494553908506 ], [ -159.664085055394708, 22.07746701468702 ], [ -159.662403409186055, 22.076464517866391 ], [ -159.662429009932993, 22.075788713290436 ], [ -159.662403411308929, 22.075246774065317 ], [ -159.662476606222526, 22.073313679536284 ], [ -159.661235621519381, 22.072952977278419 ], [ -159.660954618682382, 22.072672769265271 ], [ -159.66034902469832, 22.072409354581573 ], [ -159.660374697422725, 22.071731696832192 ], [ -159.660355522925698, 22.0713252417458 ], [ -159.660365763606904, 22.071054178733284 ], [ -159.660353004370108, 22.070783208558048 ], [ -159.660383225375114, 22.069984429420014 ], [ -159.660053487026772, 22.069702100468774 ], [ -159.660634157090584, 22.068668454731913 ], [ -159.660351675554693, 22.068067835557706 ], [ -159.659183983153326, 22.067068073199469 ], [ -159.659464572659346, 22.06698696255626 ], [ -159.660574300965663, 22.067023476485485 ], [ -159.661196489462839, 22.064541140043033 ], [ -159.661688600950697, 22.063665095295029 ], [ -159.662215775077669, 22.061029183696334 ], [ -159.662644506058143, 22.061011601084154 ], [ -159.663713101161136, 22.062077313899458 ], [ -159.664393519001806, 22.062099696335437 ], [ -159.666414991881936, 22.061316076917798 ], [ -159.666137681937528, 22.061821203249284 ], [ -159.664329281981566, 22.062822125028653 ], [ -159.66351831234897, 22.064265880427612 ], [ -159.663858438788026, 22.064858750413993 ], [ -159.663778535034226, 22.066969881122706 ], [ -159.664413473907473, 22.066164560996196 ], [ -159.664759846117221, 22.065472697226372 ], [ -159.665860898512449, 22.064803568574856 ], [ -159.666735872357748, 22.064237086419524 ], [ -159.667451976238709, 22.064260617292987 ], [ -159.669333256067375, 22.064183423596567 ], [ -159.669349061999867, 22.064517603398762 ], [ -159.66851335507954, 22.066005468356238 ], [ -159.669869908854196, 22.065329247687014 ], [ -159.669597177256151, 22.067355316539111 ], [ -159.669059978489315, 22.068311746608206 ], [ -159.669938757258535, 22.068693922471642 ], [ -159.669661094643317, 22.069124402523993 ], [ -159.669081938587141, 22.069629015331252 ], [ -159.670801068565595, 22.069165718482243 ], [ -159.671231980714083, 22.068304900772251 ], [ -159.672082921557717, 22.069509307954942 ], [ -159.671529485297498, 22.072030222236087 ], [ -159.672597569036583, 22.070946215598081 ], [ -159.674586837551772, 22.071011503159259 ], [ -159.675197207827892, 22.070176865514526 ], [ -159.673735294411728, 22.069858640108333 ], [ -159.674318084327581, 22.069397650049755 ], [ -159.675744270450139, 22.069339079556592 ], [ -159.675795177173399, 22.070415791068395 ], [ -159.675324988931891, 22.071252995155643 ], [ -159.675771826251491, 22.071267658583775 ], [ -159.676637080638898, 22.071232106557492 ], [ -159.676674971109662, 22.072033516289995 ], [ -159.676364049924103, 22.072349080013787 ], [ -159.675783385516297, 22.072855029170896 ], [ -159.675636082273229, 22.073295500917368 ] ], [ [ -159.668702797593596, 22.144602280305637 ], [ -159.668601661477254, 22.144272258110114 ], [ -159.668347665062242, 22.14451096142411 ], [ -159.668702797593596, 22.144602280305637 ], [ -159.668803934201662, 22.144932302413487 ], [ -159.669057930562559, 22.144693598401702 ], [ -159.668702797593596, 22.144602280305637 ] ] ] } },
{ "type": "Feature", "properties": { "ID": 16, "GRIDCODE": 2 }, "geometry": { "type": "Polygon", "coordinates": [ [ [ -159.662484543869397, 22.05898514215297 ], [ -159.663153665441939, 22.059092286696163 ], [ -159.662644116491833, 22.059328616611555 ], [ -159.662484543869397, 22.05898514215297 ] ] ] } },
{ "type": "Feature", "properties": { "ID": 17, "GRIDCODE": 2 }, "geometry": { "type": "Polygon", "coordinates": [ [ [ -159.661595934043646, 22.055465449830617 ], [ -159.662297963544944, 22.05566951644423 ], [ -159.662396642672206, 22.057760737844369 ], [ -159.661736418451028, 22.055605554049055 ], [ -159.661595934043646, 22.055465449830617 ] ] ] } },
{ "type": "Feature", "properties": { "ID": 18, "GRIDCODE": 2 }, "geometry": { "type": "Polygon", "coordinates": [ [ [ -159.590909058376354, 22.046521062233058 ], [ -159.590554218351144, 22.046429558073179 ], [ -159.590808177828563, 22.046190982129133 ], [ -159.590909058376354, 22.046521062233058 ] ] ] } },
{ "type": "Feature", "properties": { "ID": 19, "GRIDCODE": 2 }, "geometry": { "type": "Polygon", "coordinates": [ [ [ -159.603535308009384, 22.076016638090927 ], [ -159.60318117422139, 22.076110728404856 ], [ -159.603437182406196, 22.076347442566565 ], [ -159.603535308009384, 22.076016638090927 ], [ -159.604778780197535, 22.076195247169803 ], [ -159.605493084167449, 22.07612471610264 ], [ -159.605989404025081, 22.075046442549279 ], [ -159.608155455570085, 22.074590314405505 ], [ -159.609241493994716, 22.076216846841813 ], [ -159.609166192763666, 22.076933774553442 ], [ -159.609667701737862, 22.077318904903624 ], [ -159.611257989164102, 22.076243134754726 ], [ -159.612557395267089, 22.07452381571429 ], [ -159.61325821976601, 22.074886005820275 ], [ -159.612680750244238, 22.07583458466172 ], [ -159.612227312209512, 22.076819784313891 ], [ -159.611511617304757, 22.077754600765733 ], [ -159.612059552652454, 22.07800509700942 ], [ -159.613284929683999, 22.077176155139306 ], [ -159.613560212034656, 22.077482505092185 ], [ -159.614017216434263, 22.077833447693834 ], [ -159.614723225179688, 22.077453060256616 ], [ -159.615861134799786, 22.076987986951575 ], [ -159.616042270327, 22.076783077961224 ], [ -159.616778287060043, 22.07638384329994 ], [ -159.617045042413366, 22.075820642715286 ], [ -159.617647086649754, 22.075567495238278 ], [ -159.618201074878385, 22.074190138396286 ], [ -159.618588818939202, 22.073536092846876 ], [ -159.619377661021389, 22.073942404956508 ], [ -159.619691438150085, 22.07360020440256 ], [ -159.620535776844122, 22.073660210171166 ], [ -159.620945393080206, 22.07362797040577 ], [ -159.621684426592878, 22.072821820624341 ], [ -159.622371764384724, 22.072532799803977 ], [ -159.622864161814533, 22.072567797578834 ], [ -159.623734948133546, 22.072265947226509 ], [ -159.624547938485136, 22.073464798438675 ], [ -159.626117942697618, 22.073057836566544 ], [ -159.626995371788439, 22.073120163623429 ], [ -159.627505905065931, 22.074174854262111 ], [ -159.627928765010807, 22.074874559226199 ], [ -159.626590986355552, 22.075255571655102 ], [ -159.62668717295864, 22.076316400384773 ], [ -159.623526855346626, 22.076629062477963 ], [ -159.623126091222588, 22.077888288956398 ], [ -159.622289706204128, 22.078239978819056 ], [ -159.621441402175037, 22.078805398360288 ], [ -159.62083935150423, 22.079058559867114 ], [ -159.620571825420797, 22.079443165994846 ], [ -159.621166651949807, 22.08042736882572 ], [ -159.619564602554021, 22.08137107575941 ], [ -159.618064822258219, 22.080598602374668 ], [ -159.616419885218676, 22.080728048590441 ], [ -159.615697527666015, 22.081515883185123 ], [ -159.614936238502594, 22.081791094212225 ], [ -159.613880683623648, 22.081247389817644 ], [ -159.613296658876607, 22.081553969436268 ], [ -159.612861863586858, 22.081087462654715 ], [ -159.610093786022588, 22.080704925574491 ], [ -159.609821713070431, 22.081559372532894 ], [ -159.607760561208039, 22.082297158135102 ], [ -159.607792083054932, 22.082645596380008 ], [ -159.6076374971299, 22.083319080813066 ], [ -159.607283348210984, 22.083413180277883 ], [ -159.607539376542803, 22.083649887354628 ], [ -159.6076374971299, 22.083319080813066 ], [ -159.608656309449941, 22.0831764550603 ], [ -159.609234752341337, 22.08345146115273 ], [ -159.609530987663561, 22.083444732878107 ], [ -159.609828837386488, 22.083731336307558 ], [ -159.609817133084874, 22.0843950591855 ], [ -159.609828850535706, 22.084842210293655 ], [ -159.610999222323386, 22.085881785979918 ], [ -159.609655827646833, 22.086709811761423 ], [ -159.6089578801828, 22.086699146227119 ], [ -159.608673356822862, 22.086855948078998 ], [ -159.609911484241422, 22.08854368955263 ], [ -159.610417490226013, 22.088048917608081 ], [ -159.610817995588434, 22.087687403131468 ], [ -159.611580722455813, 22.088049995995746 ], [ -159.612169435734302, 22.088313439452925 ], [ -159.61215985655889, 22.08885818443725 ], [ -159.612174393303206, 22.08941393871369 ], [ -159.613043470852602, 22.089394156597933 ], [ -159.613625128368142, 22.089403040892336 ], [ -159.61511928464904, 22.089368990098567 ], [ -159.614206124222903, 22.089931887782075 ], [ -159.613161484209797, 22.090597552377279 ], [ -159.613844989493145, 22.091204606526222 ], [ -159.614213250821138, 22.091579254089041 ], [ -159.613632397987914, 22.092103564659521 ], [ -159.613935827543855, 22.092919033499737 ], [ -159.611511532223403, 22.093662234844231 ], [ -159.611027076813798, 22.09319607565892 ], [ -159.608767122168672, 22.092861875237062 ], [ -159.608409784492295, 22.093211264355293 ], [ -159.607225114320727, 22.093752322833641 ], [ -159.608373519598047, 22.094772378053037 ], [ -159.605918113897076, 22.095427643242761 ], [ -159.606980239744701, 22.09687548762896 ], [ -159.606968131815165, 22.097564040443853 ], [ -159.605832016303054, 22.097546652188853 ], [ -159.604358017840184, 22.097833686273507 ], [ -159.602899210588276, 22.09810467162027 ], [ -159.601235688619056, 22.09864214342927 ], [ -159.60024125555509, 22.097240726984271 ], [ -159.598318771429717, 22.097707394212396 ], [ -159.597820710479994, 22.098673727721295 ], [ -159.597376059589266, 22.098666900759618 ], [ -159.596580314754675, 22.099052604615519 ], [ -159.594920475973339, 22.101019322270744 ], [ -159.593888317032508, 22.10002602765444 ], [ -159.591299944774562, 22.099447926462311 ], [ -159.590706248502727, 22.100599573730438 ], [ -159.589824248234748, 22.10058598607031 ], [ -159.589444211489337, 22.101691797273922 ], [ -159.588366999715504, 22.101675200528742 ], [ -159.587795881823524, 22.102783044111508 ], [ -159.586335074934681, 22.103449954134796 ], [ -159.586352878917722, 22.104132775144194 ], [ -159.585475501089974, 22.104401560326568 ], [ -159.584752752346731, 22.104751802531347 ], [ -159.584022797989149, 22.104404675026228 ], [ -159.583428710835079, 22.105256094602442 ], [ -159.582857591001755, 22.105771355477273 ], [ -159.58287174652358, 22.106313252532669 ], [ -159.582576158624079, 22.1068529376792 ], [ -159.582960494271646, 22.108228551961233 ], [ -159.580929106696288, 22.108197154350634 ], [ -159.578801874622513, 22.106864442010767 ], [ -159.577894624220704, 22.106884906918971 ], [ -159.577202284718396, 22.107561538732423 ], [ -159.576738136349974, 22.107114799667059 ], [ -159.576762309172608, 22.105759894080034 ], [ -159.577780716334615, 22.103900460579471 ], [ -159.57936227659809, 22.100832966401441 ], [ -159.580918802066918, 22.095273488597922 ], [ -159.581921579855077, 22.087968751685011 ], [ -159.582165937884014, 22.077502417527036 ], [ -159.581455630327497, 22.073089912254236 ], [ -159.577175734363038, 22.062771602410422 ], [ -159.57433889002067, 22.056923889461821 ], [ -159.569772680059231, 22.049771914068039 ], [ -159.570723692694628, 22.048913755626888 ], [ -159.570416448159392, 22.048087092954376 ], [ -159.570128199583849, 22.047253002177591 ], [ -159.57129095900271, 22.047271065874046 ], [ -159.571865682165054, 22.046992508708048 ], [ -159.57332403340817, 22.04672180864905 ], [ -159.573642602530072, 22.046410396217858 ], [ -159.574187347413414, 22.045353481609659 ], [ -159.575353616793052, 22.046998336391837 ], [ -159.575653133879513, 22.046417284840487 ], [ -159.576227936804685, 22.045898537663561 ], [ -159.576511714616743, 22.045621087317855 ], [ -159.577892339668637, 22.045302152265791 ], [ -159.578266925506142, 22.044211979917772 ], [ -159.578247066324991, 22.043446862592663 ], [ -159.578861873351912, 22.042892052222715 ], [ -159.579902014229447, 22.04290815636816 ], [ -159.579402209277049, 22.044286558152884 ], [ -159.579429565232658, 22.04533986135954 ], [ -159.578980441031661, 22.045745176217842 ], [ -159.578554780917159, 22.046161357821319 ], [ -159.577951910468869, 22.046705438775216 ], [ -159.577980009494809, 22.047786827935898 ], [ -159.577974799551328, 22.048076845574197 ], [ -159.577091445321486, 22.04887406433744 ], [ -159.577844620264358, 22.049543545509501 ], [ -159.578473256881296, 22.050148866332982 ], [ -159.577975553254021, 22.051057907530748 ], [ -159.57677920631636, 22.051604177813942 ], [ -159.576253247301736, 22.052147865888347 ], [ -159.577134805955865, 22.052931468224489 ], [ -159.577124970343164, 22.053481377970929 ], [ -159.577132207649527, 22.053760615726596 ], [ -159.577737122937776, 22.053746968514041 ], [ -159.577701952407494, 22.052392578107515 ], [ -159.578288296810143, 22.052124858630808 ], [ -159.579161076115923, 22.051568821228781 ], [ -159.57973959835698, 22.051577773917582 ], [ -159.580165412290995, 22.051161489476673 ], [ -159.580608609299844, 22.050761518951905 ], [ -159.580891173175161, 22.050186572849331 ], [ -159.580199392348959, 22.048946385414212 ], [ -159.580628152094931, 22.048593247009521 ], [ -159.581667248988879, 22.049593827756262 ], [ -159.582048642950042, 22.048853802580236 ], [ -159.582350039892589, 22.048581804723849 ], [ -159.582335897155502, 22.048039787858887 ], [ -159.583905136681238, 22.046946656867572 ], [ -159.584370991592095, 22.046953861371129 ], [ -159.584947969704587, 22.046919825208082 ], [ -159.583599236276626, 22.045721003877116 ], [ -159.585236524882134, 22.044580439918089 ], [ -159.585227592150375, 22.044237753154672 ], [ -159.585232439535616, 22.04396671047887 ], [ -159.585211363383877, 22.043156372970397 ], [ -159.585830667742869, 22.04287352221602 ], [ -159.586673722878913, 22.042049173416721 ], [ -159.586966368925033, 22.04287911582221 ], [ -159.587564219272679, 22.043950849912513 ], [ -159.587525059875105, 22.046156031524152 ], [ -159.588431107965391, 22.045578685485676 ], [ -159.589023223655232, 22.045310957104437 ], [ -159.589011183034614, 22.045985850439791 ], [ -159.589025608495263, 22.046538683890702 ], [ -159.589896128135706, 22.046928539556895 ], [ -159.590186792222312, 22.047752692606085 ], [ -159.590472871182413, 22.047197485662174 ], [ -159.590909058376354, 22.046521062233058 ], [ -159.591469219689088, 22.04636956560859 ], [ -159.591281643294053, 22.045006929357523 ], [ -159.59043983721179, 22.04368362444179 ], [ -159.590794037520794, 22.042203585519797 ], [ -159.591493084953129, 22.041677522190078 ], [ -159.593061652062431, 22.041853646319399 ], [ -159.594123572613881, 22.042430423335858 ], [ -159.593808988183895, 22.040145385275078 ], [ -159.594008193651291, 22.039613695673765 ], [ -159.594502645795359, 22.040696002131611 ], [ -159.594827713850435, 22.041206897757188 ], [ -159.595125766873082, 22.041859325437461 ], [ -159.59595904053819, 22.042476423621618 ], [ -159.596273361766151, 22.043164371713932 ], [ -159.597435640399993, 22.043025284516265 ], [ -159.599389878561169, 22.04324465316472 ], [ -159.599747918161682, 22.043658150513075 ], [ -159.600653294021896, 22.043895882572556 ], [ -159.601204325556097, 22.044326848246126 ], [ -159.600334932200127, 22.04498114930237 ], [ -159.600078852371524, 22.045554111747016 ], [ -159.59859634391384, 22.046342638583265 ], [ -159.597758817139379, 22.046917722244899 ], [ -159.597119949977468, 22.047171442886079 ], [ -159.597661916493365, 22.047572809999036 ], [ -159.599198305835785, 22.047388953864392 ], [ -159.600237554739238, 22.047505606244293 ], [ -159.600741158305539, 22.049123538487546 ], [ -159.600637443689237, 22.049926968442648 ], [ -159.6013890840795, 22.049836999445542 ], [ -159.601876584869245, 22.04989171545644 ], [ -159.601795418068775, 22.050520362725347 ], [ -159.598908737076897, 22.05149096567521 ], [ -159.598360771158639, 22.05179396832132 ], [ -159.59774810218147, 22.052037257121203 ], [ -159.59749043492144, 22.0522376285391 ], [ -159.598364065042972, 22.052577055989975 ], [ -159.598636225047755, 22.05317261608204 ], [ -159.598969817462773, 22.052781152792797 ], [ -159.599802881264822, 22.052874658217238 ], [ -159.601109677581547, 22.052718257000802 ], [ -159.600914206087793, 22.054232354656275 ], [ -159.601262120782394, 22.054190714505555 ], [ -159.601552996822505, 22.054223358411193 ], [ -159.602047767423556, 22.054164138545055 ], [ -159.603357841996655, 22.053439770126538 ], [ -159.603861232513253, 22.053856923104988 ], [ -159.603285748221822, 22.055269235332336 ], [ -159.60303540862202, 22.057197302223553 ], [ -159.602436331581629, 22.058155917847163 ], [ -159.602313782660815, 22.059338179610389 ], [ -159.603016359495882, 22.058513702749291 ], [ -159.603882306598081, 22.058820325024513 ], [ -159.606532245033804, 22.059051575546238 ], [ -159.607966459835239, 22.059349667145227 ], [ -159.608392497298752, 22.059298656410803 ], [ -159.608212142961435, 22.060696116125694 ], [ -159.610029299915482, 22.060935745259503 ], [ -159.610289112245539, 22.061235774516572 ], [ -159.611250900099975, 22.061488221635205 ], [ -159.609689561505036, 22.061910639627655 ], [ -159.608874564956636, 22.062867187315941 ], [ -159.607771454141727, 22.063697345446325 ], [ -159.608626280054779, 22.064779090645136 ], [ -159.608489962621348, 22.065834893370553 ], [ -159.608608502625543, 22.06669526400805 ], [ -159.609419256393835, 22.066598204985013 ], [ -159.610950340119615, 22.067498167874518 ], [ -159.611736831333616, 22.067404000053184 ], [ -159.612082091760271, 22.066261230053371 ], [ -159.612928606636615, 22.066507348521743 ], [ -159.611918816575809, 22.0681233748751 ], [ -159.610613502663, 22.067976992103112 ], [ -159.609453711785306, 22.068773329789259 ], [ -159.609185230370684, 22.070246416348564 ], [ -159.608483140346749, 22.070774716620281 ], [ -159.60862600870098, 22.071811366626378 ], [ -159.606200526790104, 22.072149607865526 ], [ -159.606321111379401, 22.073025074910191 ], [ -159.60625507283757, 22.073536797416629 ], [ -159.605369393937139, 22.074203228763785 ], [ -159.60475851120583, 22.075569589062553 ], [ -159.603663942708067, 22.075865664516758 ], [ -159.603535308009384, 22.076016638090927 ] ] ] } },
{ "type": "Feature", "properties": { "ID": 20, "GRIDCODE": 2 }, "geometry": { "type": "Polygon", "coordinates": [ [ [ -159.563741275586153, 22.013551619037422 ], [ -159.563839454424198, 22.013220834765683 ], [ -159.564095282966036, 22.013457616131312 ], [ -159.563741275586153, 22.013551619037422 ] ] ] } },
{ "type": "Feature", "properties": { "ID": 21, "GRIDCODE": 2 }, "geometry": { "type": "Polygon", "coordinates": [ [ [ -159.563741275586153, 22.013551619037422 ], [ -159.563880984509439, 22.014301574497193 ], [ -159.564732180344407, 22.015021404982136 ], [ -159.56591128342896, 22.014199956540558 ], [ -159.566214592111692, 22.014240694669827 ], [ -159.566574164174313, 22.014189875352027 ], [ -159.56639899835929, 22.015324297763382 ], [ -159.564068554940576, 22.015938075317585 ], [ -159.563029116488821, 22.015798493042585 ], [ -159.562464792399311, 22.016779032650952 ], [ -159.563225317191751, 22.017322246649748 ], [ -159.562140454092997, 22.017740584108967 ], [ -159.561850224294801, 22.018408907175154 ], [ -159.561272740810097, 22.018827665930047 ], [ -159.560914347081848, 22.020839776101027 ], [ -159.559853048177786, 22.020454945251746 ], [ -159.559410120463014, 22.020517514927342 ], [ -159.559582326518495, 22.021577230762986 ], [ -159.5586684592989, 22.021817861276507 ], [ -159.558353386611657, 22.022201390163399 ], [ -159.557135264447652, 22.022037781809278 ], [ -159.556336062528175, 22.023294162419635 ], [ -159.555250140660434, 22.023148304259923 ], [ -159.554635655252468, 22.02349676192053 ], [ -159.554111154858532, 22.023426313183858 ], [ -159.550248246830364, 22.014528610713786 ], [ -159.549220280116145, 22.012443405626509 ], [ -159.549668915888986, 22.012118088156228 ], [ -159.549315028699908, 22.011287531850201 ], [ -159.549658437736241, 22.011038561911011 ], [ -159.549592366738949, 22.010631745681433 ], [ -159.549031590430104, 22.010231152501721 ], [ -159.549004099765938, 22.009689189169897 ], [ -159.550513601146974, 22.01023670358682 ], [ -159.551030380459991, 22.009607686725239 ], [ -159.551646358722792, 22.009951347519991 ], [ -159.552847323186512, 22.010183425633233 ], [ -159.55310131516481, 22.010391844424024 ], [ -159.551771459891171, 22.010904618098536 ], [ -159.552280757418089, 22.012099980071969 ], [ -159.552110964905154, 22.012507093277005 ], [ -159.551756951344743, 22.012601070428051 ], [ -159.552012759130093, 22.012837871111444 ], [ -159.552110964905154, 22.012507093277005 ], [ -159.553153673950732, 22.012894635888721 ], [ -159.553109371421442, 22.013181296337063 ], [ -159.553195154156413, 22.013709182854775 ], [ -159.552661040836085, 22.014096517025774 ], [ -159.552408968539737, 22.014403281637435 ], [ -159.552054950511035, 22.014497259503987 ], [ -159.552310762258912, 22.014734059587049 ], [ -159.552408968539737, 22.014403281637435 ], [ -159.553146878220275, 22.014526232741051 ], [ -159.553726305466228, 22.014825079785126 ], [ -159.553995654643273, 22.013979723516137 ], [ -159.554625540810349, 22.014024771886447 ], [ -159.554570438617588, 22.013413624804517 ], [ -159.555175975995155, 22.013456933832611 ], [ -159.555445264428272, 22.013163323946337 ], [ -159.555758137127498, 22.012910077715535 ], [ -159.555696351881068, 22.012223951330107 ], [ -159.555764708092681, 22.011392209355453 ], [ -159.556870506745867, 22.011962603498368 ], [ -159.557260544398304, 22.010738478813426 ], [ -159.558050526222985, 22.011587235085877 ], [ -159.559147215495273, 22.009941189041612 ], [ -159.560497252987176, 22.009030215691681 ], [ -159.560949520168634, 22.008537117565531 ], [ -159.561574732846282, 22.008284098358565 ], [ -159.561494965342945, 22.009254405860631 ], [ -159.560919686000204, 22.010224358085051 ], [ -159.560086104548361, 22.010164761186413 ], [ -159.55952576703271, 22.010551743739629 ], [ -159.560120591248022, 22.011537380752085 ], [ -159.559509072638662, 22.011794367626386 ], [ -159.558952613373208, 22.012629496134831 ], [ -159.55847662880592, 22.013014748397428 ], [ -159.557794467323362, 22.013772453694354 ], [ -159.55869259199892, 22.014488616462661 ], [ -159.558348923858063, 22.015067903866726 ], [ -159.55925829484508, 22.015319818100995 ], [ -159.558932044244386, 22.016739406776498 ], [ -159.557786391022546, 22.017220783181418 ], [ -159.557228207326432, 22.017622754579644 ], [ -159.559251453147851, 22.017464221325817 ], [ -159.560501463395724, 22.017553580131686 ], [ -159.560398252268556, 22.016408866764568 ], [ -159.560450333273508, 22.015775917133084 ], [ -159.560999463102064, 22.015331469077481 ], [ -159.560971192792692, 22.015018008749056 ], [ -159.561567297777827, 22.015060614968309 ], [ -159.562022873696918, 22.015024910499104 ], [ -159.561525805591231, 22.014201274906203 ], [ -159.562441323618032, 22.014266703516498 ], [ -159.56272426672848, 22.013085513891205 ], [ -159.56330028863772, 22.013704347084605 ], [ -159.563741275586153, 22.013551619037422 ] ] ] } },
{ "type": "Feature", "properties": { "ID": 22, "GRIDCODE": 2 }, "geometry": { "type": "Polygon", "coordinates": [ [ [ -159.562557274133184, 22.008135142220521 ], [ -159.562912001668792, 22.008226709885385 ], [ -159.562658060501093, 22.008465243234923 ], [ -159.562557274133184, 22.008135142220521 ] ] ] } },
{ "type": "Feature", "properties": { "ID": 23, "GRIDCODE": 2 }, "geometry": { "type": "Polygon", "coordinates": [ [ [ -159.562557274133184, 22.008135142220521 ], [ -159.561856619313431, 22.007970038481943 ], [ -159.562952558866101, 22.007248430708831 ], [ -159.562557274133184, 22.008135142220521 ] ] ] } },
{ "type": "Feature", "properties": { "ID": 24, "GRIDCODE": 2 }, "geometry": { "type": "Polygon", "coordinates": [ [ [ -159.567175195633013, 21.99998841405381 ], [ -159.567728965527579, 22.00014179620041 ], [ -159.567964434427239, 22.00275375462801 ], [ -159.567500482537042, 22.003259781957372 ], [ -159.566512335416604, 22.004059639131416 ], [ -159.565683059677781, 22.005810085495224 ], [ -159.56485424107106, 22.006480916499758 ], [ -159.564221688316991, 22.00717075334477 ], [ -159.563588555785088, 22.006746109133825 ], [ -159.56494109045795, 22.004975889708543 ], [ -159.566156151652507, 22.003992384579323 ], [ -159.566184241906143, 22.003650707807445 ], [ -159.566113285569571, 22.002864189380972 ], [ -159.566989677079704, 22.002154776745598 ], [ -159.567175195633013, 21.99998841405381 ] ] ] } },
{ "type": "Feature", "properties": { "ID": 25, "GRIDCODE": 2 }, "geometry": { "type": "Polygon", "coordinates": [ [ [ -159.568043831332403, 21.999172325575966 ], [ -159.568688929318228, 21.999257714061102 ], [ -159.568137693894812, 21.999757809378654 ], [ -159.568043831332403, 21.999172325575966 ] ] ] } }
]
}
