{
"type": "FeatureCollection",
"name": "cyascab",
"crs": { "type": "name", "properties": { "name": "urn:ogc:def:crs:OGC:1.3:CRS84" } },
"features": [
{ "type": "Feature", "properties": { "ID": 1, "GRIDCODE": 2 }, "geometry": { "type": "Polygon", "coordinates": [ [ [ -156.586761511621404, 20.973385569164627 ], [ -156.587049862379047, 20.973389654338103 ], [ -156.586900116292611, 20.973734478833478 ], [ -156.586761511621404, 20.973385569164627 ] ] ] } },
{ "type": "Feature", "properties": { "ID": 2, "GRIDCODE": 2 }, "geometry": { "type": "Polygon", "coordinates": [ [ [ -156.5954597362595, 20.970528777561341 ], [ -156.595748083389253, 20.970532847489867 ], [ -156.596121654179825, 20.971266141190945 ], [ -156.595545058583042, 20.97125165425004 ], [ -156.5954597362595, 20.970528777561341 ] ] ] } },
{ "type": "Feature", "properties": { "ID": 3, "GRIDCODE": 2 }, "geometry": { "type": "Polygon", "coordinates": [ [ [ -156.585740420778052, 20.89318730644947 ], [ -156.585844490224076, 20.892858494721686 ], [ -156.586093144017639, 20.893099567692357 ], [ -156.585740420778052, 20.89318730644947 ] ] ] } },
{ "type": "Feature", "properties": { "ID": 4, "GRIDCODE": 2 }, "geometry": { "type": "Polygon", "coordinates": [ [ [ -156.588342854374702, 20.892682274032133 ], [ -156.587993096590566, 20.892584614479087 ], [ -156.588249345972145, 20.892350671512069 ], [ -156.588342854374702, 20.892682274032133 ] ] ] } },
{ "type": "Feature", "properties": { "ID": 5, "GRIDCODE": 2 }, "geometry": { "type": "Polygon", "coordinates": [ [ [ -156.589517273268115, 20.891344382269505 ], [ -156.589167517466763, 20.89124672533675 ], [ -156.589423762717217, 20.891012780175028 ], [ -156.589517273268115, 20.891344382269505 ] ] ] } },
{ "type": "Feature", "properties": { "ID": 6, "GRIDCODE": 1 }, "geometry": { "type": "Polygon", "coordinates": [ [ [ -156.225556341208772, 20.871739029808257 ], [ -156.225451532678733, 20.872067541181639 ], [ -156.225203548828404, 20.871826007158546 ], [ -156.225556341208772, 20.871739029808257 ] ] ] } },
{ "type": "Feature", "properties": { "ID": 7, "GRIDCODE": 1 }, "geometry": { "type": "Polygon", "coordinates": [ [ [ -156.204121417964984, 20.862181582543155 ], [ -156.20447076462753, 20.862279994613377 ], [ -156.204214046049032, 20.862513304748134 ], [ -156.204121417964984, 20.862181582543155 ] ] ] } },
{ "type": "Feature", "properties": { "ID": 8, "GRIDCODE": 2 }, "geometry": { "type": "Polygon", "coordinates": [ [ [ -156.598572452013627, 20.847586931134543 ], [ -156.599586979461236, 20.847728937757914 ], [ -156.601002393124759, 20.848305916825758 ], [ -156.604957039714833, 20.848710634326771 ], [ -156.605579762226967, 20.850421708276262 ], [ -156.60511029633048, 20.851508380445516 ], [ -156.600930813861737, 20.854467655975267 ], [ -156.598431795466212, 20.854849129495058 ], [ -156.597494555704742, 20.854037970329802 ], [ -156.595798563809893, 20.850378102122292 ], [ -156.596197530512285, 20.848896958636796 ], [ -156.597837680345663, 20.847975291775438 ], [ -156.598434283090086, 20.847728112079292 ], [ -156.598572452013627, 20.847586931134543 ] ] ] } },
{ "type": "Feature", "properties": { "ID": 9, "GRIDCODE": 2 }, "geometry": { "type": "Polygon", "coordinates": [ [ [ -156.611198439220658, 20.9601853396039 ], [ -156.611104853395574, 20.959853743095657 ], [ -156.610848509334005, 20.960087711065725 ], [ -156.611198439220658, 20.9601853396039 ], [ -156.6113383412617, 20.960916651715308 ], [ -156.612007288592821, 20.962845699690831 ], [ -156.607951533451882, 20.969880327402851 ], [ -156.606644791642367, 20.970685764294149 ], [ -156.603311391934312, 20.971817308020821 ], [ -156.602804667012094, 20.971306883249746 ], [ -156.601951798519735, 20.970513681702602 ], [ -156.601684283500504, 20.969115903274783 ], [ -156.601388769232955, 20.969666887319192 ], [ -156.600795287787406, 20.970710354602041 ], [ -156.60106885110676, 20.97128773751006 ], [ -156.601914772034519, 20.972498559837319 ], [ -156.598749786049979, 20.972921948337458 ], [ -156.598229838249466, 20.97133648628553 ], [ -156.597733310953657, 20.973131683390772 ], [ -156.597005938655258, 20.972224094054798 ], [ -156.597033624480645, 20.971496727279639 ], [ -156.596752275143615, 20.970685108886233 ], [ -156.596336666869234, 20.968512110396052 ], [ -156.596194062268211, 20.968799508110209 ], [ -156.596201774267286, 20.970113468638587 ], [ -156.595897196870055, 20.970402151548313 ], [ -156.595748083389253, 20.970532847489867 ], [ -156.595609459505511, 20.970183943207207 ], [ -156.5954597362595, 20.970528777561341 ], [ -156.595039582474499, 20.970858683153303 ], [ -156.595003860918496, 20.97120763955396 ], [ -156.595852231273369, 20.972367730407193 ], [ -156.595455929479584, 20.972667683145968 ], [ -156.594718760361275, 20.972267604056089 ], [ -156.594169838038766, 20.972301252816621 ], [ -156.593766554791671, 20.969536643770649 ], [ -156.593314464856149, 20.96874774110519 ], [ -156.59305651862141, 20.968182208915653 ], [ -156.59275512966309, 20.967656273064534 ], [ -156.592221862390147, 20.966274175636485 ], [ -156.591439622721879, 20.964453253647335 ], [ -156.591368462494842, 20.963427807986744 ], [ -156.591415304694976, 20.962965124387779 ], [ -156.589993311223651, 20.961366628139956 ], [ -156.588868584763219, 20.960428260120803 ], [ -156.588839308722697, 20.960005901498242 ], [ -156.58910810859129, 20.957363358322542 ], [ -156.58852401932586, 20.956344412356508 ], [ -156.588930869293705, 20.955682993103078 ], [ -156.589231888983335, 20.953998546245895 ], [ -156.59039296832114, 20.9530870812488 ], [ -156.590069443904156, 20.9511324338965 ], [ -156.588734534696954, 20.95101276707058 ], [ -156.588119475312794, 20.95166343744992 ], [ -156.587432328911888, 20.950891039610482 ], [ -156.586752598114401, 20.950323896732979 ], [ -156.586414569825536, 20.949416891406578 ], [ -156.586178401329875, 20.947497206574994 ], [ -156.585591083136165, 20.946472124210572 ], [ -156.585624895746861, 20.946137428504752 ], [ -156.585322202616226, 20.945608952552124 ], [ -156.585064317959279, 20.945043413618553 ], [ -156.584522487733039, 20.944097674106562 ], [ -156.585422014304811, 20.94263519600652 ], [ -156.584538085708829, 20.941897701267933 ], [ -156.584854585623788, 20.938809953954834 ], [ -156.58527339435696, 20.937786683361335 ], [ -156.584540850204178, 20.936180197256878 ], [ -156.583483857624771, 20.935718944123085 ], [ -156.58375361355931, 20.935543670659442 ], [ -156.584624263943226, 20.9351933142406 ], [ -156.583225857911344, 20.935284614929248 ], [ -156.583163681119373, 20.93589522223682 ], [ -156.584309321025017, 20.936851103460338 ], [ -156.584015153979976, 20.938547279570027 ], [ -156.58365401914773, 20.939134604852061 ], [ -156.583737471930988, 20.940338658373214 ], [ -156.583204622223661, 20.941640986020527 ], [ -156.583663293855693, 20.942871784287423 ], [ -156.583105452855392, 20.943309763739553 ], [ -156.58295294854247, 20.944809933369889 ], [ -156.583332143524188, 20.945641735712687 ], [ -156.583893740061399, 20.946110393537516 ], [ -156.584142924632658, 20.94721759189688 ], [ -156.584628076099989, 20.948519264508541 ], [ -156.584069130430578, 20.949428113651923 ], [ -156.584649956377518, 20.951559025123576 ], [ -156.585318196257617, 20.952473356539929 ], [ -156.585177389660487, 20.953859014840347 ], [ -156.585238884171815, 20.954747290708223 ], [ -156.584603573982179, 20.955780185646468 ], [ -156.584869834309728, 20.957070026994728 ], [ -156.585691962718244, 20.958504511591816 ], [ -156.585121864442584, 20.959421535835496 ], [ -156.583953511062163, 20.960920797318323 ], [ -156.583893967207501, 20.961506573210144 ], [ -156.585186701455456, 20.962959769738198 ], [ -156.586494246324804, 20.96375512110011 ], [ -156.586822888660379, 20.968265578988497 ], [ -156.587379538877741, 20.969486518155446 ], [ -156.587869681235674, 20.970341843835854 ], [ -156.588090640838459, 20.973526481278245 ], [ -156.587524518457172, 20.97356105493672 ], [ -156.587049862379047, 20.973389654338103 ], [ -156.586915795937557, 20.972758146648328 ], [ -156.586761511621404, 20.973385569164627 ], [ -156.58618481031408, 20.973377397356337 ], [ -156.58609127619016, 20.973045792097505 ], [ -156.585834872507803, 20.973279716134737 ], [ -156.58618481031408, 20.973377397356337 ], [ -156.585996736058888, 20.97421438565674 ], [ -156.583482796237831, 20.974661126755269 ], [ -156.578983662083772, 20.974079792212979 ], [ -156.576554823293861, 20.973301100113748 ], [ -156.576543853341008, 20.971344275090928 ], [ -156.57660170700143, 20.969817644822683 ], [ -156.575992685560067, 20.970661856171844 ], [ -156.575385542865774, 20.971476462997302 ], [ -156.575393982327938, 20.972995702213034 ], [ -156.573216805169238, 20.972297660596944 ], [ -156.567614790371834, 20.967840302897489 ], [ -156.566078118182702, 20.965876643623478 ], [ -156.565147710910452, 20.963190983012719 ], [ -156.565471654064396, 20.962073968639565 ], [ -156.565465888749628, 20.961038614884178 ], [ -156.566661224565109, 20.958387418194615 ], [ -156.566683487720866, 20.957794772441463 ], [ -156.566681997946461, 20.957521350353275 ], [ -156.567305492833384, 20.956425801324787 ], [ -156.56729829935307, 20.955094671136358 ], [ -156.567323891415356, 20.954417816718461 ], [ -156.567318676210505, 20.953504024731583 ], [ -156.56776194091816, 20.952284873065285 ], [ -156.568215820573158, 20.951854462133142 ], [ -156.568796272940062, 20.951346228629163 ], [ -156.569382505231232, 20.950253443245874 ], [ -156.570474393521494, 20.949603029186175 ], [ -156.570992612720801, 20.94869246096567 ], [ -156.570610827033136, 20.944850799803344 ], [ -156.570321148538994, 20.946467242038995 ], [ -156.570333068355467, 20.948589019186269 ], [ -156.569436202298164, 20.949439824371225 ], [ -156.568860905873208, 20.94942051085668 ], [ -156.568230185347886, 20.949972867681112 ], [ -156.567657892597339, 20.951039128958396 ], [ -156.566496979727901, 20.952055585329354 ], [ -156.565747245462632, 20.953452623822891 ], [ -156.564984324151908, 20.954793519357786 ], [ -156.564991535941374, 20.956122267384686 ], [ -156.563766499165069, 20.957529564962819 ], [ -156.563213717407024, 20.958013438891882 ], [ -156.562095550473742, 20.960713195181977 ], [ -156.561731039305556, 20.960700969773249 ], [ -156.561047754048218, 20.960704286366202 ], [ -156.561669173194105, 20.959080186271684 ], [ -156.560583725772432, 20.960142908637035 ], [ -156.560163217338328, 20.96092626925364 ], [ -156.556621716701756, 20.961360687705202 ], [ -156.555671095485167, 20.960883188644246 ], [ -156.555106169390598, 20.961418840148916 ], [ -156.552814839808121, 20.961037951629493 ], [ -156.549148630329512, 20.958704167127991 ], [ -156.547385638981694, 20.956668595729749 ], [ -156.547375736320561, 20.954858233590098 ], [ -156.548171561059348, 20.953460234684538 ], [ -156.547715312537292, 20.953462401112034 ], [ -156.546864953683553, 20.95290297256734 ], [ -156.545962324741964, 20.952475320242851 ], [ -156.545443279138482, 20.950976129788945 ], [ -156.545468475681076, 20.950312110879597 ], [ -156.545453814839107, 20.947603317156609 ], [ -156.546482139089107, 20.945259911642712 ], [ -156.549097523776283, 20.941634752233046 ], [ -156.550484125722875, 20.941233928937226 ], [ -156.549395559883209, 20.939171966457291 ], [ -156.550183999349315, 20.937320822008992 ], [ -156.551452701758024, 20.936444772312619 ], [ -156.5520403245078, 20.936464449559374 ], [ -156.552845632198483, 20.933555116587883 ], [ -156.554647734497394, 20.932444769852822 ], [ -156.555701470769748, 20.932439633920108 ], [ -156.557253794941829, 20.932491629099744 ], [ -156.557582273788, 20.932203885410807 ], [ -156.558015180254841, 20.931397421521275 ], [ -156.558755057999463, 20.932237073314155 ], [ -156.559421470943619, 20.933579352461159 ], [ -156.559751846387883, 20.932514285578566 ], [ -156.559034723334292, 20.931156335782678 ], [ -156.559055770863978, 20.930604809976767 ], [ -156.558562396201694, 20.929670676030412 ], [ -156.560721464836035, 20.929010847636345 ], [ -156.56226304768893, 20.928680911189087 ], [ -156.562258850152887, 20.927931280348925 ], [ -156.564284416530228, 20.927497925422504 ], [ -156.56195271153598, 20.926805261577424 ], [ -156.559540914955647, 20.926817078565829 ], [ -156.559108666499554, 20.926802562889872 ], [ -156.558820320943198, 20.926803993205095 ], [ -156.557919803668398, 20.926773780260625 ], [ -156.555094156056185, 20.929454088050715 ], [ -156.553324348866425, 20.929116431153531 ], [ -156.553317273170535, 20.927818773057851 ], [ -156.553630437231106, 20.927000154582984 ], [ -156.553627183733653, 20.926437700937509 ], [ -156.556250033001334, 20.924141529444491 ], [ -156.556573054378816, 20.922973986340995 ], [ -156.556885597511041, 20.921896631882571 ], [ -156.55659741002205, 20.921350731953304 ], [ -156.556897870010943, 20.921087717343614 ], [ -156.556894873318669, 20.920543254704832 ], [ -156.55691519691797, 20.920001771229568 ], [ -156.556910791749914, 20.91919685041276 ], [ -156.557222956755993, 20.918923553040756 ], [ -156.556727172414725, 20.917984356188523 ], [ -156.559313622578998, 20.914880755093826 ], [ -156.558102895568624, 20.914886588114399 ], [ -156.560390187262954, 20.912883795575336 ], [ -156.561248432054811, 20.911693462568561 ], [ -156.562810240504405, 20.91168587122587 ], [ -156.562959315443777, 20.911555200396165 ], [ -156.563052773890519, 20.911886811819937 ], [ -156.563309093996736, 20.911652913784852 ], [ -156.562959315443777, 20.911555200396165 ], [ -156.562812581241786, 20.911401789356674 ], [ -156.561431133767684, 20.911433384776615 ], [ -156.560802359470728, 20.911109204707607 ], [ -156.560094283634328, 20.911805803378787 ], [ -156.559335586686586, 20.912446386242038 ], [ -156.558521355193392, 20.913247407305022 ], [ -156.558460388667584, 20.912978822273505 ], [ -156.558880549453932, 20.912259597453907 ], [ -156.558498727965315, 20.911063713411483 ], [ -156.558202540619902, 20.911898726762796 ], [ -156.557601830592773, 20.912692479931426 ], [ -156.557048023522157, 20.913753424059738 ], [ -156.556715195831941, 20.914034230284585 ], [ -156.556292619580631, 20.914449988312587 ], [ -156.555837328563456, 20.914834325715159 ], [ -156.555514508117852, 20.915452558654057 ], [ -156.554662430036501, 20.91617193507582 ], [ -156.554093065004878, 20.916732137752295 ], [ -156.55355182925706, 20.916166339040618 ], [ -156.553484954573946, 20.916539701696244 ], [ -156.55352090702209, 20.917932347421804 ], [ -156.55318837793476, 20.918869996875284 ], [ -156.552839259273583, 20.919164580789523 ], [ -156.553404014604837, 20.92251299508434 ], [ -156.552545911342776, 20.922924083577186 ], [ -156.54886080087465, 20.923172634742095 ], [ -156.548464579952224, 20.924509203791672 ], [ -156.549094549850849, 20.926284037228697 ], [ -156.548380323508894, 20.927506254229293 ], [ -156.54869438232717, 20.929367550596158 ], [ -156.548384766003153, 20.929897069417869 ], [ -156.548057035404213, 20.931919372222847 ], [ -156.546703372818769, 20.932567601260846 ], [ -156.545463142594372, 20.932595922717294 ], [ -156.544361430331861, 20.932538932154731 ], [ -156.543568011963657, 20.933208689511467 ], [ -156.543145343269799, 20.933624405209613 ], [ -156.542265035361908, 20.933872292154096 ], [ -156.541121308633308, 20.937094254137492 ], [ -156.538294571919891, 20.937607416418924 ], [ -156.537149730290395, 20.936260675116426 ], [ -156.537679370028059, 20.932180858083893 ], [ -156.538590812128263, 20.928666961846698 ], [ -156.538634957240077, 20.927912614757723 ], [ -156.53810057410638, 20.924741459287691 ], [ -156.538547286538147, 20.921819363395553 ], [ -156.539687014399959, 20.920698426337303 ], [ -156.542207007156037, 20.919017101519579 ], [ -156.542830014697898, 20.916914146345199 ], [ -156.542567910876926, 20.915998252208752 ], [ -156.541760132457398, 20.914067147198779 ], [ -156.542352093151976, 20.912399303608428 ], [ -156.542931028606148, 20.911408746963517 ], [ -156.543891133182314, 20.909071359977631 ], [ -156.547041063803533, 20.906862783964087 ], [ -156.547181828778264, 20.906724204419199 ], [ -156.547758258154914, 20.906732483066005 ], [ -156.547762662747886, 20.906461660153091 ], [ -156.548115431303046, 20.906374005240522 ], [ -156.547866824875996, 20.906132881088137 ], [ -156.547762662747886, 20.906461660153091 ], [ -156.54718623440408, 20.906453381623329 ], [ -156.547181828778264, 20.906724204419199 ], [ -156.545977149992353, 20.906864560659404 ], [ -156.543870748322774, 20.908162515662692 ], [ -156.543601863008604, 20.905451115266189 ], [ -156.543132003795563, 20.902599925910092 ], [ -156.546855548077161, 20.901670560616669 ], [ -156.5474190035616, 20.901177089625666 ], [ -156.547710471446521, 20.900634211250363 ], [ -156.548491246220408, 20.899950346770744 ], [ -156.549699116296495, 20.89850094854032 ], [ -156.548015948659668, 20.898744508385022 ], [ -156.547306296749156, 20.899417488183854 ], [ -156.546859076717084, 20.899809326971845 ], [ -156.546344928918899, 20.900767635300827 ], [ -156.544703416381651, 20.901269417144579 ], [ -156.542518328214442, 20.900835764340851 ], [ -156.541319985350782, 20.898776958452675 ], [ -156.537863495037044, 20.895558956493428 ], [ -156.53630854987739, 20.893330442636209 ], [ -156.536295963085792, 20.891032502063766 ], [ -156.539252861271706, 20.888662538720101 ], [ -156.542700204319885, 20.886765153360493 ], [ -156.544299857054398, 20.886404303269838 ], [ -156.544756111422146, 20.887323644673483 ], [ -156.545324966345532, 20.888139184554319 ], [ -156.546368358553735, 20.889685840948783 ], [ -156.54750857933044, 20.890835753226316 ], [ -156.547035120341377, 20.888981691153212 ], [ -156.546752327661039, 20.887814856624662 ], [ -156.545944667077094, 20.885481679159902 ], [ -156.549426262139377, 20.88578268250734 ], [ -156.551119314043234, 20.886326106781645 ], [ -156.553327104308522, 20.887866656377273 ], [ -156.556199214314717, 20.888836813357877 ], [ -156.558580490378091, 20.888568217911537 ], [ -156.562610079471256, 20.887504355109847 ], [ -156.567498147799199, 20.884205736642212 ], [ -156.570066409204856, 20.88158389474879 ], [ -156.571983725554901, 20.87656858105429 ], [ -156.572107593767754, 20.873293065708705 ], [ -156.571672187877169, 20.869999952412648 ], [ -156.570610213084734, 20.868426190352562 ], [ -156.567929617358715, 20.867079670449176 ], [ -156.564483925487252, 20.866476557466321 ], [ -156.55662774790639, 20.866650738362544 ], [ -156.553959785171401, 20.867820621471235 ], [ -156.549742087275007, 20.872166267996757 ], [ -156.546411960485784, 20.873510515733848 ], [ -156.540532590469127, 20.8735387411188 ], [ -156.535845306300246, 20.872854753068115 ], [ -156.534058390537467, 20.872281270414778 ], [ -156.533749676216615, 20.87107172406348 ], [ -156.534890071089251, 20.866384050496674 ], [ -156.536705131330365, 20.865538024015091 ], [ -156.537043456506382, 20.865536415059118 ], [ -156.541377062063049, 20.865681960765155 ], [ -156.543159409380905, 20.865166460369959 ], [ -156.552527746893333, 20.859983401969028 ], [ -156.553288602906775, 20.857993442295953 ], [ -156.553456652549954, 20.853556742080531 ], [ -156.552968845789678, 20.852067023804985 ], [ -156.551095789894475, 20.85060100511005 ], [ -156.545977407294828, 20.848617985028447 ], [ -156.54512859378886, 20.847009323503443 ], [ -156.545786266026681, 20.845690639195215 ], [ -156.54774807015869, 20.842751555654296 ], [ -156.548390561907695, 20.841324972446269 ], [ -156.549222932043222, 20.839033018355877 ], [ -156.549862440720716, 20.837840765721236 ], [ -156.55242024265641, 20.836263654927599 ], [ -156.554178081760796, 20.83572596280289 ], [ -156.55564482376812, 20.835718732413891 ], [ -156.557250830207636, 20.836741744816763 ], [ -156.55765328527977, 20.838743178924034 ], [ -156.55790321637889, 20.844284236081034 ], [ -156.559497360902668, 20.845333652606332 ], [ -156.562999431634609, 20.846790375909766 ], [ -156.568271950467562, 20.849439353970574 ], [ -156.570931085846468, 20.849528171424474 ], [ -156.572184928129218, 20.84897812210361 ], [ -156.573883505370645, 20.847930678265843 ], [ -156.57505486884304, 20.84792479163352 ], [ -156.57678317751936, 20.848743559435896 ], [ -156.577242065581345, 20.850068009314633 ], [ -156.576742617561422, 20.852293416308612 ], [ -156.576009187035879, 20.855156625108535 ], [ -156.576366386730626, 20.857435033088347 ], [ -156.577786696190117, 20.859075207090893 ], [ -156.57912973014345, 20.860832661114944 ], [ -156.584878402989858, 20.863464645707168 ], [ -156.596885236636297, 20.863864165309369 ], [ -156.605427535903402, 20.862449456500485 ], [ -156.609317644752451, 20.862866295744745 ], [ -156.610816702939871, 20.863575988818013 ], [ -156.612345608037117, 20.864998381388425 ], [ -156.615077816603844, 20.869218342519311 ], [ -156.615088216049656, 20.870948764063229 ], [ -156.6142269497158, 20.871766769662035 ], [ -156.613030369642672, 20.87203710562666 ], [ -156.610191183501058, 20.87251702165964 ], [ -156.608068545997668, 20.873783094440352 ], [ -156.606947798860716, 20.875288160044569 ], [ -156.606881085781538, 20.877064715640227 ], [ -156.60820655778204, 20.879340377399345 ], [ -156.610005970066908, 20.880663543493647 ], [ -156.611691834588527, 20.881461699832169 ], [ -156.612847919573909, 20.882938546898984 ], [ -156.612855273002538, 20.884164694444706 ], [ -156.612381543863989, 20.885800519323041 ], [ -156.613308357425836, 20.889619903813649 ], [ -156.615667389739741, 20.894499611316249 ], [ -156.618968178353782, 20.90665955312577 ], [ -156.621807880803203, 20.919963951859934 ], [ -156.622487540129356, 20.929992239071407 ], [ -156.622181166515986, 20.931491128573754 ], [ -156.621876760335681, 20.932026959309709 ], [ -156.622447043405657, 20.93255725684741 ], [ -156.622015714712944, 20.94166304896109 ], [ -156.618013802886594, 20.956146011945012 ], [ -156.614581618145735, 20.962074099396357 ], [ -156.612913509809516, 20.962851915793713 ], [ -156.611967847052938, 20.960949151125302 ], [ -156.611343311023262, 20.960320171961566 ], [ -156.611198439220658, 20.9601853396039 ] ], [ [ -156.584504397197321, 20.93434534717877 ], [ -156.584410881708436, 20.934013742332386 ], [ -156.584154548961152, 20.934247671019865 ], [ -156.584504397197321, 20.93434534717877 ], [ -156.584633209450772, 20.934951649544352 ], [ -156.585177533944602, 20.934704469817063 ], [ -156.584504397197321, 20.93434534717877 ] ], [ [ -156.589517273268115, 20.891344382269505 ], [ -156.589998787104491, 20.891212024212678 ], [ -156.589109154262303, 20.890441953424997 ], [ -156.590571246022705, 20.890143932391162 ], [ -156.590545336317149, 20.889598077362574 ], [ -156.590587928003771, 20.889063769921606 ], [ -156.590270558593772, 20.888789195505954 ], [ -156.589724060954751, 20.888196714100246 ], [ -156.587615512618612, 20.888874351654501 ], [ -156.585227781071495, 20.890215459080469 ], [ -156.579985055215246, 20.890799075972964 ], [ -156.57755140302271, 20.891032044036745 ], [ -156.575680278712298, 20.892082721129992 ], [ -156.573748169865468, 20.892337694603341 ], [ -156.573799663031053, 20.893424500751383 ], [ -156.573702668786922, 20.894642130225662 ], [ -156.573750133792629, 20.895646738880263 ], [ -156.57515834252888, 20.895587898682145 ], [ -156.57574536326598, 20.895898600649438 ], [ -156.576905680303838, 20.895850116790037 ], [ -156.578062226200416, 20.895931329360398 ], [ -156.578916959104532, 20.895751651394953 ], [ -156.578071028405134, 20.89457633762429 ], [ -156.577243519073875, 20.893271391741106 ], [ -156.578730444266824, 20.893796687151767 ], [ -156.578665042941566, 20.892416569719479 ], [ -156.579328625215254, 20.891885247712942 ], [ -156.579838845047732, 20.892438358378612 ], [ -156.580736965127954, 20.892149763341568 ], [ -156.580711931185647, 20.891621778877639 ], [ -156.580778275936126, 20.89136399563942 ], [ -156.581575987646744, 20.892228702430934 ], [ -156.582308614246017, 20.891481155517386 ], [ -156.583009211190671, 20.892240781410067 ], [ -156.583514387308725, 20.891246499489071 ], [ -156.584166565736894, 20.891953718134438 ], [ -156.584466993802977, 20.892213514094841 ], [ -156.584764997584301, 20.892536897946453 ], [ -156.584679641058926, 20.893613439744907 ], [ -156.585297919105159, 20.893308827614401 ], [ -156.585740420778052, 20.89318730644947 ], [ -156.585872308180399, 20.893600666949624 ], [ -156.586163534176308, 20.89413691033133 ], [ -156.586135928812638, 20.894613094939437 ], [ -156.587460395438967, 20.894967243673172 ], [ -156.5879654176332, 20.893999134769025 ], [ -156.588560808377082, 20.895231979103748 ], [ -156.589325101270447, 20.893999145294412 ], [ -156.588342854374702, 20.892682274032133 ], [ -156.589917155619162, 20.892498407739591 ], [ -156.589517273268115, 20.891344382269505 ] ] ] } },
{ "type": "Feature", "properties": { "ID": 10, "GRIDCODE": 1 }, "geometry": { "type": "Polygon", "coordinates": [ [ [ -156.169138620290056, 20.822336397145332 ], [ -156.169487846162497, 20.822434868023603 ], [ -156.169231155957476, 20.822668128131792 ], [ -156.169138620290056, 20.822336397145332 ] ] ] } },
{ "type": "Feature", "properties": { "ID": 11, "GRIDCODE": 1 }, "geometry": { "type": "Polygon", "coordinates": [ [ [ -156.170022757852536, 20.821267700734577 ], [ -156.169917882016392, 20.821596170025956 ], [ -156.169670069813179, 20.821354573655572 ], [ -156.170022757852536, 20.821267700734577 ] ] ] } },
{ "type": "Feature", "properties": { "ID": 12, "GRIDCODE": 1 }, "geometry": { "type": "Polygon", "coordinates": [ [ [ -156.059322241443795, 20.781490126448368 ], [ -156.059848331668888, 20.781637720702065 ], [ -156.060476369377966, 20.783809655299208 ], [ -156.059124487800233, 20.785395990104618 ], [ -156.058344538255142, 20.784141636661982 ], [ -156.058602576281515, 20.782682538157943 ], [ -156.058104521765046, 20.78230719143955 ], [ -156.059188656228002, 20.781911502233434 ], [ -156.059322241443795, 20.781490126448368 ] ] ] } },
{ "type": "Feature", "properties": { "ID": 13, "GRIDCODE": 1 }, "geometry": { "type": "Polygon", "coordinates": [ [ [ -156.286068143138266, 20.871897756679545 ], [ -156.285950279086251, 20.871472161214452 ], [ -156.284799010063239, 20.871393709279062 ], [ -156.286068143138266, 20.871897756679545 ], [ -156.2859379333959, 20.872597665314046 ], [ -156.28454040432274, 20.872911121094315 ], [ -156.284355230715988, 20.873631049944425 ], [ -156.285082366994402, 20.873900086408565 ], [ -156.285351872645748, 20.875126474626246 ], [ -156.285020117774337, 20.875562387129374 ], [ -156.284098963789546, 20.875768874433177 ], [ -156.282757251000476, 20.87656008647706 ], [ -156.28207165499586, 20.876328068079946 ], [ -156.281767019841823, 20.875897781776771 ], [ -156.280812961893304, 20.87568079796339 ], [ -156.280182622251829, 20.875803150644682 ], [ -156.279661929987782, 20.875587765078407 ], [ -156.279666807823816, 20.87531699870982 ], [ -156.279378714272895, 20.875312414042835 ], [ -156.279285911456242, 20.874980713800646 ], [ -156.279029270347166, 20.875214146563586 ], [ -156.279378714272895, 20.875312414042835 ], [ -156.279373835921831, 20.875583180346545 ], [ -156.279661929987782, 20.875587765078407 ], [ -156.279777477062026, 20.876281657781384 ], [ -156.2810378885018, 20.877739908445569 ], [ -156.280194396573876, 20.878695999882698 ], [ -156.278297954899472, 20.878424857565577 ], [ -156.277393448470036, 20.878081420207945 ], [ -156.275679259109381, 20.878254066486662 ], [ -156.273749369916686, 20.876750323721911 ], [ -156.274021011058636, 20.875889227708164 ], [ -156.274383995671457, 20.875330715091831 ], [ -156.274326414942891, 20.874825669142933 ], [ -156.274387481364869, 20.874420378092722 ], [ -156.274325795544314, 20.873877708361803 ], [ -156.274406065533498, 20.873343914203275 ], [ -156.273657317570837, 20.872434014550421 ], [ -156.273833953695117, 20.873982540977686 ], [ -156.273484076284888, 20.874017825858104 ], [ -156.272884401884966, 20.873673410292891 ], [ -156.271774722754003, 20.873785175658991 ], [ -156.271634461490521, 20.873293092896905 ], [ -156.272002856064177, 20.873151780226497 ], [ -156.271762465029923, 20.872672250279948 ], [ -156.271634461490521, 20.873293092896905 ], [ -156.271208051329978, 20.873639255610552 ], [ -156.271180961963239, 20.87397036735879 ], [ -156.27236015262298, 20.874248125872096 ], [ -156.271181741666425, 20.875204247606277 ], [ -156.271747487520571, 20.877333070696412 ], [ -156.271393981572572, 20.878347319576914 ], [ -156.270805899759608, 20.878824468545329 ], [ -156.270284967893389, 20.879354263955491 ], [ -156.269082682194352, 20.879402372467549 ], [ -156.269365410007453, 20.878801462077224 ], [ -156.269749273392051, 20.87816355024837 ], [ -156.269380529880209, 20.876113647650911 ], [ -156.268577312340938, 20.877687119469318 ], [ -156.267661047084147, 20.878430647797284 ], [ -156.267210277182244, 20.880121228117847 ], [ -156.266464548859574, 20.879853802072954 ], [ -156.265425394587737, 20.879301183213506 ], [ -156.265042308781489, 20.879273629855376 ], [ -156.264509745920179, 20.879294862940647 ], [ -156.264460740618716, 20.878209655311142 ], [ -156.264987667480938, 20.877334149735916 ], [ -156.264516536788221, 20.876030856968232 ], [ -156.264119136258387, 20.874743555122109 ], [ -156.262525578665759, 20.87462864615097 ], [ -156.262247762752878, 20.874911172416009 ], [ -156.261805155345058, 20.875031833776664 ], [ -156.261712392465398, 20.874700128252197 ], [ -156.261455727984952, 20.874933531661544 ], [ -156.261805155345058, 20.875031833776664 ], [ -156.26195632664448, 20.875851671194422 ], [ -156.263329142225558, 20.875196815588996 ], [ -156.263777703131581, 20.877046060432022 ], [ -156.262451958348066, 20.878161625639663 ], [ -156.262464733236612, 20.878698751375911 ], [ -156.26242404343563, 20.879375202154758 ], [ -156.262465457160857, 20.881095467532607 ], [ -156.261546326255086, 20.881668446345945 ], [ -156.260666042289074, 20.88191486460034 ], [ -156.259933040089464, 20.882264543391575 ], [ -156.258933428875793, 20.881363786338465 ], [ -156.259571770039571, 20.880523414699731 ], [ -156.259546245057237, 20.879464505842126 ], [ -156.259594923951795, 20.878658715894169 ], [ -156.25898650854711, 20.878626346180013 ], [ -156.258411637354612, 20.879722308301087 ], [ -156.257819459211078, 20.879973333569303 ], [ -156.256846577417093, 20.880437378600963 ], [ -156.255386990197252, 20.880892015368975 ], [ -156.254928456879639, 20.880478920773747 ], [ -156.254656169220965, 20.880192995752335 ], [ -156.252643755859538, 20.880235642743308 ], [ -156.25196046553927, 20.878812538314431 ], [ -156.251397040274583, 20.878782451862943 ], [ -156.250911284458994, 20.88014351420269 ], [ -156.250573463259457, 20.880427698006883 ], [ -156.250604679597359, 20.881742324397113 ], [ -156.2498057953255, 20.882123429987455 ], [ -156.249461127639904, 20.880651545397679 ], [ -156.248888295865072, 20.879840124870455 ], [ -156.248323014896982, 20.8789853157651 ], [ -156.247465555075166, 20.880619418426559 ], [ -156.247092311853805, 20.879975191197047 ], [ -156.247202259630342, 20.878158853532728 ], [ -156.24635725339121, 20.877397131243548 ], [ -156.245947049797564, 20.876542698429606 ], [ -156.245773778945022, 20.876800429807062 ], [ -156.245461889726073, 20.878701982993025 ], [ -156.245151219359599, 20.878685470775686 ], [ -156.245170721076363, 20.879498299235976 ], [ -156.244865539939326, 20.879504753223717 ], [ -156.244145797184785, 20.879466304072146 ], [ -156.242252776575924, 20.879506257640877 ], [ -156.242288322044658, 20.878916093191915 ], [ -156.242281814922734, 20.878640654314765 ], [ -156.242687014072914, 20.877949863769562 ], [ -156.242307618421279, 20.877551504782364 ], [ -156.242019350800803, 20.877833957510465 ], [ -156.241721054962937, 20.877818035641184 ], [ -156.241356292350389, 20.878513443482181 ], [ -156.240227238744154, 20.879051835543233 ], [ -156.240319123621845, 20.877535281692314 ], [ -156.239411104851257, 20.878051978518418 ], [ -156.237898391020622, 20.878994777246646 ], [ -156.236566334761335, 20.879629971815184 ], [ -156.236243990393206, 20.878252724156635 ], [ -156.23422404780078, 20.879215718125732 ], [ -156.233356783949318, 20.878766202142408 ], [ -156.232826100618723, 20.878777448045412 ], [ -156.231933001069564, 20.877972299663419 ], [ -156.231919114567205, 20.877394300524532 ], [ -156.23198445316666, 20.876317040496236 ], [ -156.231222104139164, 20.875963769047068 ], [ -156.230817936274349, 20.875214936702221 ], [ -156.230551228477651, 20.874658629743646 ], [ -156.229928613793987, 20.873775996642166 ], [ -156.229208979529545, 20.872276590971854 ], [ -156.228725549114586, 20.871769005982937 ], [ -156.227709402056064, 20.872764858046136 ], [ -156.227133487511793, 20.872160156994784 ], [ -156.22684577622195, 20.872442194750398 ], [ -156.226541665132004, 20.872697781619472 ], [ -156.226157176925398, 20.87377488353599 ], [ -156.225591734975268, 20.872830084754746 ], [ -156.225998148305735, 20.872137375396346 ], [ -156.225556341208772, 20.871739029808257 ], [ -156.225154815431097, 20.870327690129898 ], [ -156.224000235890003, 20.870173663271071 ], [ -156.222874233679761, 20.870286827877074 ], [ -156.222833755862183, 20.869932419375669 ], [ -156.223242070599724, 20.867789301812238 ], [ -156.222754072373874, 20.868098364040318 ], [ -156.22228002209161, 20.868827127154645 ], [ -156.221975447445772, 20.869475196543039 ], [ -156.221395898053572, 20.869896099038478 ], [ -156.220912377001127, 20.870924762985766 ], [ -156.220050813826219, 20.871011393631793 ], [ -156.219156616224097, 20.869523267580615 ], [ -156.219088553262026, 20.868925215372581 ], [ -156.21929350839298, 20.867574775974226 ], [ -156.219646292377348, 20.867487810062947 ], [ -156.219398325489863, 20.86724626938252 ], [ -156.21929350839298, 20.867574775974226 ], [ -156.218273417876901, 20.867973559780651 ], [ -156.218002429525086, 20.86711803517035 ], [ -156.217162494485422, 20.867941201431599 ], [ -156.217108623390459, 20.867566077224925 ], [ -156.217159526115609, 20.866727559728872 ], [ -156.217140168692623, 20.865914744067883 ], [ -156.217181048956832, 20.865238325389988 ], [ -156.217171369815958, 20.864831917508518 ], [ -156.217211379614582, 20.864172147166943 ], [ -156.216325031607511, 20.864124661661066 ], [ -156.216354639666889, 20.865373648763672 ], [ -156.215139586823796, 20.866564416713459 ], [ -156.214534207595335, 20.867073477184984 ], [ -156.215018473949925, 20.868447961425471 ], [ -156.213658065566904, 20.868165280565442 ], [ -156.21264097814074, 20.867637983229564 ], [ -156.211378313597521, 20.867304907255029 ], [ -156.210202473137599, 20.867329499864042 ], [ -156.210252563042019, 20.866506579436916 ], [ -156.209954164791242, 20.866193189721024 ], [ -156.209404792490062, 20.866731444092206 ], [ -156.209079066270789, 20.866465610952059 ], [ -156.20872864418169, 20.8653585780296 ], [ -156.207682309453872, 20.865380507733526 ], [ -156.207665485125801, 20.864676969218202 ], [ -156.207690150581897, 20.864271124016721 ], [ -156.207683696711996, 20.863996087166989 ], [ -156.208195354039333, 20.862696564896364 ], [ -156.20715708733934, 20.863714011419685 ], [ -156.206535543705087, 20.86372700259772 ], [ -156.206565486646298, 20.863233699743002 ], [ -156.206202064647414, 20.862085324200663 ], [ -156.205980407029415, 20.862613977532412 ], [ -156.205998925343067, 20.863392921198852 ], [ -156.205387362543348, 20.863992167827817 ], [ -156.205117513314775, 20.863140219299247 ], [ -156.204517928967931, 20.86315276873701 ], [ -156.204839855064819, 20.862604068968913 ], [ -156.2048334134237, 20.862328635952743 ], [ -156.204866606714006, 20.861781564487611 ], [ -156.203991167211512, 20.861799786810256 ], [ -156.203983814622092, 20.861482418324702 ], [ -156.205264011281685, 20.860939858462327 ], [ -156.20399983661315, 20.8609662756506 ], [ -156.203706647242967, 20.860950506517316 ], [ -156.203121386153072, 20.861770754579055 ], [ -156.202580402118684, 20.861202127709419 ], [ -156.201978292302726, 20.861214759875534 ], [ -156.201706018086384, 20.860646955835282 ], [ -156.20113065346743, 20.860658964840862 ], [ -156.201120466326472, 20.860236682766317 ], [ -156.20116130294366, 20.859566224524851 ], [ -156.20083101096472, 20.859548521210282 ], [ -156.200091059135616, 20.860273525010683 ], [ -156.198845450126129, 20.858964833919259 ], [ -156.198003525984063, 20.858982385678434 ], [ -156.197972765356809, 20.857682080902467 ], [ -156.199015332944327, 20.856660794922607 ], [ -156.200058025052329, 20.855783911000419 ], [ -156.200214121084286, 20.855346894529589 ], [ -156.200566881551737, 20.85525996592995 ], [ -156.200318966328211, 20.855018402958084 ], [ -156.200214121084286, 20.855346894529589 ], [ -156.199192939603194, 20.855731267750702 ], [ -156.198910945950161, 20.856007796218542 ], [ -156.198318793062612, 20.856258615121384 ], [ -156.196415815155717, 20.857581589647928 ], [ -156.196223792208031, 20.856329423472104 ], [ -156.19692117256119, 20.855411459657034 ], [ -156.196028320006462, 20.855430152713122 ], [ -156.196070056406199, 20.854742520847878 ], [ -156.195170482060774, 20.855123705039588 ], [ -156.194631137443537, 20.855652157445054 ], [ -156.19289254338301, 20.854273853971456 ], [ -156.191435153111229, 20.853435992240183 ], [ -156.19206483586359, 20.852906520220333 ], [ -156.192051495505012, 20.852337136099077 ], [ -156.192659625368549, 20.851301220986727 ], [ -156.19280564946709, 20.850892214846724 ], [ -156.193158401501222, 20.850805300806247 ], [ -156.192910505910362, 20.850563729147119 ], [ -156.19280564946709, 20.850892214846724 ], [ -156.190612246483624, 20.851175312552872 ], [ -156.190774205343502, 20.849621231867982 ], [ -156.190235655981297, 20.849653119676212 ], [ -156.189757603811614, 20.849609035178148 ], [ -156.189070578507994, 20.850332744745238 ], [ -156.188657778003801, 20.849866161881486 ], [ -156.188308712006517, 20.849573331871451 ], [ -156.188502193453331, 20.847717074156069 ], [ -156.188095600158931, 20.847961121963806 ], [ -156.187617209955619, 20.848465031760806 ], [ -156.186137907293926, 20.848552323968882 ], [ -156.18579107577014, 20.847943339247962 ], [ -156.18548509091633, 20.846923625711362 ], [ -156.183246356399508, 20.846501575658923 ], [ -156.183805575011718, 20.846265605516273 ], [ -156.184896978043469, 20.845976103057293 ], [ -156.185060321669852, 20.844410550117455 ], [ -156.184585879120561, 20.844732818249277 ], [ -156.184056697382516, 20.845290101052427 ], [ -156.184224908527369, 20.84367503952129 ], [ -156.183657840099954, 20.843033732527761 ], [ -156.18302392431201, 20.8448942363942 ], [ -156.182409909412343, 20.844930545162342 ], [ -156.181856070047871, 20.844304261232018 ], [ -156.181344387832553, 20.844843044856837 ], [ -156.181594810040394, 20.842441190881246 ], [ -156.181258399580088, 20.841531260448839 ], [ -156.181699870152556, 20.839777089949276 ], [ -156.181337544649239, 20.839473054753395 ], [ -156.181366657972006, 20.839193978294187 ], [ -156.181330621572044, 20.838651728956254 ], [ -156.18140088796207, 20.837975815883382 ], [ -156.18134439662586, 20.837127093555093 ], [ -156.182031897196566, 20.83613431079398 ], [ -156.183048797330343, 20.835339486337684 ], [ -156.184618976408757, 20.833520954721902 ], [ -156.18419322014995, 20.83266496922705 ], [ -156.182612582510075, 20.832975388079142 ], [ -156.181552570272061, 20.833321603836911 ], [ -156.1800612888442, 20.833184248801818 ], [ -156.179414718918053, 20.834230197544592 ], [ -156.179446336913259, 20.834707311799253 ], [ -156.17778792223001, 20.836003705107849 ], [ -156.176618606288201, 20.837697989442688 ], [ -156.176040839412678, 20.839908633272373 ], [ -156.174805375039995, 20.839477775104633 ], [ -156.175400969501396, 20.837563780378201 ], [ -156.175053271483847, 20.837170448591014 ], [ -156.174306741293066, 20.838248311851121 ], [ -156.173002757104399, 20.838504353613864 ], [ -156.172021664864559, 20.838824698256985 ], [ -156.170715398971481, 20.838465242162847 ], [ -156.170075503841218, 20.838502932427193 ], [ -156.168096159696631, 20.838045712378225 ], [ -156.16726272653807, 20.837346263819484 ], [ -156.166991084100943, 20.83612265716679 ], [ -156.165389514309339, 20.835640319763993 ], [ -156.165301911471005, 20.834324679121899 ], [ -156.165330044679905, 20.834054319615063 ], [ -156.165259102927735, 20.832990605404603 ], [ -156.170802203121781, 20.832604108983062 ], [ -156.17275822500352, 20.831821954050259 ], [ -156.174039439458511, 20.830416766379287 ], [ -156.175290256816737, 20.828950763835596 ], [ -156.1761167255045, 20.828304517000269 ], [ -156.17680942328397, 20.826911549220924 ], [ -156.17755140346685, 20.825711137436379 ], [ -156.177784685385575, 20.823473644284334 ], [ -156.176175356001494, 20.822868835262913 ], [ -156.175676894460082, 20.821767257348288 ], [ -156.174760773209528, 20.821491373151808 ], [ -156.172716586560739, 20.820374338816581 ], [ -156.171608704250303, 20.82060677693006 ], [ -156.170598339548377, 20.821115082981422 ], [ -156.170022757852536, 20.821267700734577 ], [ -156.170503471614751, 20.818514215949257 ], [ -156.169925608322302, 20.817856168602468 ], [ -156.168216937190437, 20.817860730255269 ], [ -156.167551351157385, 20.817186150840804 ], [ -156.165441311223503, 20.816467842367807 ], [ -156.163724049641132, 20.816406495689463 ], [ -156.161958129006678, 20.81678044952697 ], [ -156.161562219832035, 20.817808130496811 ], [ -156.160736606228852, 20.820764795489627 ], [ -156.159779555399268, 20.82204341376098 ], [ -156.158035021535113, 20.824451236270509 ], [ -156.157453533767381, 20.824452827148903 ], [ -156.157448780341809, 20.822833092867494 ], [ -156.158346986792424, 20.821633518299794 ], [ -156.158070463304654, 20.821199155926099 ], [ -156.157635745142329, 20.821609684380856 ], [ -156.156003636663343, 20.823032851749222 ], [ -156.15600711517385, 20.824225433887005 ], [ -156.154562609151498, 20.823851672982645 ], [ -156.153753850604403, 20.824226354186738 ], [ -156.15153516739025, 20.824721860403343 ], [ -156.150529653956596, 20.824056244324559 ], [ -156.149380196471327, 20.824059069273066 ], [ -156.149097321874876, 20.8234852103893 ], [ -156.147948429899202, 20.823488167771796 ], [ -156.147947602063851, 20.823203578801014 ], [ -156.147958326109745, 20.822932934873585 ], [ -156.14795613761865, 20.822123207912803 ], [ -156.148723464761161, 20.820781736651018 ], [ -156.147988447960046, 20.821035034011693 ], [ -156.147219199015012, 20.821761432585824 ], [ -156.14625843923713, 20.821275589766703 ], [ -156.145313463191144, 20.821713550719391 ], [ -156.144259755305825, 20.82072734938787 ], [ -156.143975283414647, 20.820150019590852 ], [ -156.143117011748842, 20.820152237967481 ], [ -156.142800829973595, 20.818900232953535 ], [ -156.143754694790687, 20.816424128071841 ], [ -156.143419521652334, 20.816656302650401 ], [ -156.142043689297253, 20.817955993365619 ], [ -156.141427073271217, 20.817957475040458 ], [ -156.141724932615773, 20.817139136718556 ], [ -156.142596214376795, 20.816759471328965 ], [ -156.142334269120909, 20.815510618736628 ], [ -156.141629748795197, 20.816176052979003 ], [ -156.139471449125892, 20.81683070544198 ], [ -156.13830110383762, 20.815783681320813 ], [ -156.13829655021766, 20.814178514972173 ], [ -156.13902660474821, 20.811684552782292 ], [ -156.138373920543955, 20.811661092207558 ], [ -156.137799749856015, 20.8132286912114 ], [ -156.136532983270598, 20.815156695303468 ], [ -156.135021751231591, 20.814392627099245 ], [ -156.13391113039475, 20.812139125179741 ], [ -156.133559700066542, 20.812710062193382 ], [ -156.133089655609012, 20.814777383875306 ], [ -156.13200623159878, 20.813763116673407 ], [ -156.13162220003116, 20.812579124656679 ], [ -156.129033064375733, 20.813364223492574 ], [ -156.128459677423535, 20.810967623821806 ], [ -156.128016970906685, 20.810951741844431 ], [ -156.125688445658767, 20.81128507747513 ], [ -156.12352386134063, 20.810849934526598 ], [ -156.120700503803306, 20.809040880810041 ], [ -156.119856254429521, 20.8082502091696 ], [ -156.119440673427164, 20.807828931734072 ], [ -156.118581469087957, 20.807278142772827 ], [ -156.118304417335821, 20.806997377754662 ], [ -156.118015918477994, 20.806726998711241 ], [ -156.117532467911474, 20.806236739685584 ], [ -156.1163198638273, 20.80533909552895 ], [ -156.114632157901013, 20.804533681318983 ], [ -156.113820096486108, 20.803709939386991 ], [ -156.112601614867515, 20.803093569347936 ], [ -156.11067013829458, 20.803098049949426 ], [ -156.10956348004197, 20.802739550609331 ], [ -156.109115891063141, 20.801831089920782 ], [ -156.107919165316645, 20.801064045107861 ], [ -156.106220924896405, 20.798973988456741 ], [ -156.104889313194064, 20.798644856515796 ], [ -156.103774815584472, 20.798080964664798 ], [ -156.103207237087048, 20.798082219108515 ], [ -156.102631643552002, 20.798061385394099 ], [ -156.099808376337364, 20.798067867182272 ], [ -156.098921197336466, 20.797236976631574 ], [ -156.098503199924636, 20.796388237061677 ], [ -156.095755281081637, 20.796060321920514 ], [ -156.093985424703732, 20.794666746745541 ], [ -156.09292426886222, 20.794669123533147 ], [ -156.092337394329292, 20.794372227254847 ], [ -156.091761076224088, 20.794096929963711 ], [ -156.090913510983484, 20.793535637892855 ], [ -156.090337199087656, 20.793260336467373 ], [ -156.088924259823017, 20.792147816349743 ], [ -156.087062951972001, 20.791773066488428 ], [ -156.086055264640862, 20.791291943226234 ], [ -156.083874733840759, 20.790188425360135 ], [ -156.082626680634462, 20.789879594534188 ], [ -156.081347615619734, 20.789443548996662 ], [ -156.080051380656982, 20.789023334600692 ], [ -156.079203892447595, 20.788461992780888 ], [ -156.077203886406352, 20.787349968581747 ], [ -156.076674575030523, 20.786812814548401 ], [ -156.075785382991143, 20.786242549074551 ], [ -156.072970423443735, 20.784025147850347 ], [ -156.071226456296358, 20.783727481075037 ], [ -156.069675359760822, 20.782806316299499 ], [ -156.068808789940164, 20.783207510760377 ], [ -156.066636289176785, 20.782836625241004 ], [ -156.065789138291336, 20.782407858438532 ], [ -156.064061226275157, 20.781980149252835 ], [ -156.063253435379409, 20.781160245433469 ], [ -156.06192116949893, 20.781111914254701 ], [ -156.06040653292601, 20.781114926959617 ], [ -156.058612607402495, 20.780670960363327 ], [ -156.056880381015731, 20.780221687380326 ], [ -156.056320763571364, 20.780222797177831 ], [ -156.055744609377427, 20.779931260977897 ], [ -156.055177119866954, 20.779932364278238 ], [ -156.054343659827964, 20.779902056788849 ], [ -156.053434809268481, 20.780177355697035 ], [ -156.052876932940222, 20.779611086594272 ], [ -156.052015015216824, 20.779612807629107 ], [ -156.05174680930898, 20.778784673146244 ], [ -156.051168076463341, 20.778785834832952 ], [ -156.050893769584064, 20.778228533010065 ], [ -156.0500436116873, 20.777133868224688 ], [ -156.050352144847011, 20.776595444689892 ], [ -156.049773475968721, 20.776318921792505 ], [ -156.048689223823231, 20.775217979288794 ], [ -156.047207260850797, 20.775164055509109 ], [ -156.045471953997264, 20.775167508182154 ], [ -156.043762421379029, 20.774584026415035 ], [ -156.04247067372458, 20.77537550437772 ], [ -156.040888498339086, 20.774938054547299 ], [ -156.040887227637029, 20.774267633321241 ], [ -156.040908271065433, 20.773750717630914 ], [ -156.040606426719734, 20.77313712855474 ], [ -156.039772764868076, 20.77235542785635 ], [ -156.038187905780092, 20.770746102102983 ], [ -156.037507044671628, 20.770420705258218 ], [ -156.036939603668088, 20.770133362457763 ], [ -156.035922658705829, 20.770604121861506 ], [ -156.035222139183503, 20.769557865489869 ], [ -156.034215474914106, 20.769559911300622 ], [ -156.03335230759987, 20.769528333270216 ], [ -156.032733688897565, 20.769529540129156 ], [ -156.029751140662, 20.769203050021254 ], [ -156.030755746312764, 20.768328291060698 ], [ -156.03130221482931, 20.766911665828971 ], [ -156.030962296238584, 20.766220317470051 ], [ -156.030398199859377, 20.765691565618635 ], [ -156.030993172079718, 20.765173210078427 ], [ -156.030992153573266, 20.764621273290643 ], [ -156.031296790440962, 20.764355738946506 ], [ -156.032127787907427, 20.763571582548096 ], [ -156.032757050140702, 20.763297772853434 ], [ -156.033060506547258, 20.762214383590198 ], [ -156.033948077642521, 20.762246777095601 ], [ -156.033378188361525, 20.761712381688366 ], [ -156.032804753216851, 20.760855948100566 ], [ -156.032232845600447, 20.760857038454617 ], [ -156.031951176695316, 20.760033942556156 ], [ -156.031968254740065, 20.759620364051926 ], [ -156.030217516878963, 20.758352174683186 ], [ -156.029697026505659, 20.757823516476794 ], [ -156.028847762871379, 20.757027093303197 ], [ -156.02817283636395, 20.755655055370472 ], [ -156.02687722716928, 20.75479589317035 ], [ -156.025771962288303, 20.754267546729345 ], [ -156.025448396266484, 20.753964034221102 ], [ -156.025171621507752, 20.753683149262052 ], [ -156.02488339861398, 20.753412643835926 ], [ -156.024345019533769, 20.752866076678604 ], [ -156.02374811359951, 20.752580568649314 ], [ -156.023239241743482, 20.752063732261323 ], [ -156.020563230217704, 20.751708978124814 ], [ -156.018887868307246, 20.75113698359338 ], [ -156.016772440788799, 20.750612734300336 ], [ -156.015715896772434, 20.750269896352862 ], [ -156.01492095453554, 20.749462062224467 ], [ -156.013779031726244, 20.748729116113708 ], [ -156.013295781175742, 20.746281268101253 ], [ -156.014104210980065, 20.744869786675039 ], [ -156.014134058872088, 20.74415165394403 ], [ -156.014130910557384, 20.742651488492257 ], [ -156.014517687616575, 20.739146269529734 ], [ -156.013968102489628, 20.738630689005554 ], [ -156.015440209755184, 20.735585163523474 ], [ -156.015460404793885, 20.735100374071621 ], [ -156.015125235735695, 20.73445999705848 ], [ -156.015486375804642, 20.733475889661054 ], [ -156.016085930225302, 20.732676013001527 ], [ -156.015350862884929, 20.731986778102968 ], [ -156.016119036127918, 20.731317824052798 ], [ -156.015252311428213, 20.730505051880019 ], [ -156.015566529271354, 20.72969109756681 ], [ -156.015565984942526, 20.729417907379691 ], [ -156.015582661153985, 20.729011995897356 ], [ -156.015580868641138, 20.728229181570644 ], [ -156.016538604554341, 20.726908725881032 ], [ -156.017655065294974, 20.72593639350778 ], [ -156.017653836347961, 20.725411033865516 ], [ -156.018816362171009, 20.723808105862076 ], [ -156.019141228533869, 20.723524953774554 ], [ -156.019701514293473, 20.722487822240609 ], [ -156.020329287560003, 20.721649934053627 ], [ -156.020915139879605, 20.720842390011928 ], [ -156.021213689330409, 20.720582048986017 ], [ -156.021513877024745, 20.719763867765948 ], [ -156.022370854019499, 20.719795236635441 ], [ -156.022695973412823, 20.718952228668016 ], [ -156.022694214807586, 20.718165443702706 ], [ -156.023299715631055, 20.716595935876377 ], [ -156.023312911620536, 20.716280404440511 ], [ -156.023024072504001, 20.715728511512093 ], [ -156.0230848320669, 20.714259719735963 ], [ -156.022798560247281, 20.711794007159607 ], [ -156.022880161482732, 20.709819540063027 ], [ -156.022519374349116, 20.708764730330973 ], [ -156.022885040093172, 20.708419596822765 ], [ -156.023183840298628, 20.708159253537886 ], [ -156.023182172723011, 20.707482350501611 ], [ -156.024085447173718, 20.706276983689708 ], [ -156.023583402854854, 20.705316788084367 ], [ -156.024125794592607, 20.703837415043434 ], [ -156.024429589031683, 20.703306351798091 ], [ -156.024850952556477, 20.702525954944377 ], [ -156.026764093180077, 20.702208747051216 ], [ -156.026761241137308, 20.700914580296988 ], [ -156.027360798901782, 20.700392057410898 ], [ -156.027770436487771, 20.698929150093651 ], [ -156.028281067580451, 20.698484027403421 ], [ -156.028855760380793, 20.697419725097735 ], [ -156.029159916423652, 20.697430793118397 ], [ -156.029740841758638, 20.696882550003835 ], [ -156.030885846955528, 20.69692425451581 ], [ -156.030883357716277, 20.695724765583474 ], [ -156.032366866409347, 20.695037766865486 ], [ -156.032936416078911, 20.69505842749432 ], [ -156.033500148706139, 20.694526004769902 ], [ -156.034390670204118, 20.694270940253098 ], [ -156.034696020924628, 20.693180154056947 ], [ -156.035100991759123, 20.694004040192457 ], [ -156.035831459552554, 20.694030635761031 ], [ -156.036703280843597, 20.694028852116862 ], [ -156.037510504247535, 20.694849211755862 ], [ -156.038971171277211, 20.694902375586924 ], [ -156.039004911754716, 20.694076918935107 ], [ -156.039003117133603, 20.693272272153294 ], [ -156.039381885409398, 20.692610366622194 ], [ -156.038651884314959, 20.690823821624434 ], [ -156.039919955531616, 20.691111144840832 ], [ -156.041339281063159, 20.691830275927451 ], [ -156.040749117706781, 20.690483027246859 ], [ -156.040056768595207, 20.689159541139762 ], [ -156.041410002277672, 20.687881659034204 ], [ -156.042551735754046, 20.686886541205705 ], [ -156.043043048732756, 20.686027550902143 ], [ -156.043490783757335, 20.685198223284079 ], [ -156.044933957563956, 20.68525062997708 ], [ -156.044086224597578, 20.684026441259064 ], [ -156.044797347912009, 20.683845457373724 ], [ -156.046271770805589, 20.684228169790526 ], [ -156.045802142027952, 20.683330602331907 ], [ -156.047833347809615, 20.683404440511481 ], [ -156.047855785273441, 20.682855011465811 ], [ -156.047853862212634, 20.682039646317858 ], [ -156.049003831901132, 20.682081436192831 ], [ -156.049032466361211, 20.68138573355175 ], [ -156.049030900158925, 20.680711331439952 ], [ -156.049335321748515, 20.680445738776065 ], [ -156.049912417114911, 20.679376358349167 ], [ -156.051097955326981, 20.678580266767224 ], [ -156.051618334887195, 20.678088945814014 ], [ -156.05255423764703, 20.677515080662822 ], [ -156.053403857208082, 20.677945481876382 ], [ -156.054267589162379, 20.678358401751833 ], [ -156.055684515281712, 20.679200343505336 ], [ -156.056548010562381, 20.679480621355154 ], [ -156.05711601489881, 20.679768408865133 ], [ -156.057681323476089, 20.679234463744795 ], [ -156.058274012241753, 20.67951010723381 ], [ -156.059380533620498, 20.680070620990389 ], [ -156.059424947342421, 20.679530552831604 ], [ -156.058930390340521, 20.678085679955014 ], [ -156.059895587500023, 20.676296668184314 ], [ -156.061664631552475, 20.676292867374443 ], [ -156.065358092769316, 20.680435973815097 ], [ -156.066604953433739, 20.680481279241995 ], [ -156.066278077541455, 20.679183276440675 ], [ -156.067977841393969, 20.678823851818493 ], [ -156.069254433637269, 20.678066992818394 ], [ -156.069248471603629, 20.675729420953008 ], [ -156.077258534816451, 20.675711714651591 ], [ -156.080966044131571, 20.678542085701586 ], [ -156.080727526370737, 20.677290157895406 ], [ -156.079921830870717, 20.676087064342344 ], [ -156.079356457568764, 20.675557010320336 ], [ -156.079705867512388, 20.675536619120354 ], [ -156.106095701126975, 20.677234468369026 ], [ -156.111629566777879, 20.678438785256962 ], [ -156.113445727391081, 20.6793060184844 ], [ -156.114656024277565, 20.680439989624354 ], [ -156.114950613145794, 20.683497202138952 ], [ -156.116177397274441, 20.684742389150507 ], [ -156.118885687227021, 20.685311771980945 ], [ -156.120330190965632, 20.684897170545632 ], [ -156.123004953909259, 20.683431199318935 ], [ -156.124775076045182, 20.684004650518119 ], [ -156.126280724783527, 20.685414965314258 ], [ -156.130497680742565, 20.692393371779151 ], [ -156.127067886311124, 20.692860230058724 ], [ -156.126501303733704, 20.693395723929406 ], [ -156.125627547118768, 20.693646670175465 ], [ -156.124567970628334, 20.69413808870603 ], [ -156.1236037654879, 20.694430622359018 ], [ -156.122729999883404, 20.694681552593703 ], [ -156.12177900613122, 20.695122533470453 ], [ -156.11885298274666, 20.69560940966409 ], [ -156.117525992888119, 20.696224706625742 ], [ -156.116939924887788, 20.696480422524033 ], [ -156.115976226113503, 20.69707164034703 ], [ -156.112313704092998, 20.698541397311427 ], [ -156.110571878140973, 20.698545622079479 ], [ -156.110033167269364, 20.698526263611857 ], [ -156.108741966609301, 20.69889665800596 ], [ -156.107672239997527, 20.699829723114359 ], [ -156.108261156880275, 20.700432430319342 ], [ -156.110092024735792, 20.701306580915592 ], [ -156.111513636328368, 20.70342836623843 ], [ -156.11268968195958, 20.703470713979453 ], [ -156.113940128502691, 20.703205927221994 ], [ -156.115032699728488, 20.702535561106867 ], [ -156.11682261742115, 20.702978134090749 ], [ -156.117928174006664, 20.703537498852612 ], [ -156.120986788843481, 20.704223166317316 ], [ -156.121375099630882, 20.705762548877072 ], [ -156.121696645008171, 20.707473779777267 ], [ -156.122341557146939, 20.70807791246849 ], [ -156.12275691062132, 20.708499156099915 ], [ -156.124378960137705, 20.709024673690887 ], [ -156.125169279550477, 20.709401796669955 ], [ -156.124449540160271, 20.710660961406358 ], [ -156.124426481328442, 20.71122721064669 ], [ -156.125272845326833, 20.712448016465402 ], [ -156.124046954119223, 20.714445327165311 ], [ -156.122462038913824, 20.716339954693634 ], [ -156.121955208884998, 20.718154751890538 ], [ -156.119118628362656, 20.718540600672647 ], [ -156.119381824550743, 20.719546302019697 ], [ -156.120410863953509, 20.721898431596884 ], [ -156.119604950819138, 20.723308457769324 ], [ -156.119549799854639, 20.724662955145163 ], [ -156.120412876850736, 20.72590773740702 ], [ -156.119259347648409, 20.726314744051571 ], [ -156.117564849879244, 20.726801007591511 ], [ -156.116644162742801, 20.727603845869641 ], [ -156.117198300413236, 20.728446753763304 ], [ -156.118067007233805, 20.729260552635193 ], [ -156.117753436879383, 20.729534049285558 ], [ -156.117190106826655, 20.730066242254686 ], [ -156.116471283060292, 20.729398428960298 ], [ -156.115780911532198, 20.728698163856428 ], [ -156.114387928218179, 20.728033048971131 ], [ -156.113910150232982, 20.726559196678572 ], [ -156.11274543033602, 20.72596970640684 ], [ -156.107780227135976, 20.726644758186808 ], [ -156.107152072133431, 20.726918628081187 ], [ -156.106564992511778, 20.727190674240347 ], [ -156.10660726531259, 20.726150166885454 ], [ -156.106256243749471, 20.725066279501512 ], [ -156.103801602834125, 20.724430159249685 ], [ -156.102638346624104, 20.725081256595693 ], [ -156.101982915063132, 20.726566049271899 ], [ -156.099391036575867, 20.726862052684755 ], [ -156.099352482640171, 20.727808068324851 ], [ -156.09988645222478, 20.730042978574893 ], [ -156.101027116919113, 20.73111136638623 ], [ -156.100718356627851, 20.732502687408441 ], [ -156.098956760856652, 20.734482001634994 ], [ -156.098865175788148, 20.736733859895629 ], [ -156.100000949382405, 20.738429230935488 ], [ -156.10113645976071, 20.739004037854997 ], [ -156.102038615378547, 20.738753726741358 ], [ -156.103175344707608, 20.738409114487421 ], [ -156.105534472963939, 20.741445437460033 ], [ -156.106000808276036, 20.742335827262753 ], [ -156.106272579872297, 20.742887327642546 ], [ -156.106560948784875, 20.743157711494757 ], [ -156.108206853201921, 20.745326172488774 ], [ -156.11072655291693, 20.746995586382234 ], [ -156.112521329465636, 20.747060142813226 ], [ -156.113305902256457, 20.746696589150698 ], [ -156.115041770230903, 20.748457769041302 ], [ -156.116511439312887, 20.748454277949143 ], [ -156.117408861848133, 20.749048796109999 ], [ -156.118538042720104, 20.749046053862305 ], [ -156.119210112822515, 20.749070284864406 ], [ -156.120116948380769, 20.747818404856613 ], [ -156.120793067340458, 20.748504406172604 ], [ -156.122531400733266, 20.749383943360939 ], [ -156.12687491870625, 20.749018149322371 ], [ -156.128709878074488, 20.748461434048597 ], [ -156.129731993233435, 20.749498192885234 ], [ -156.132359324050725, 20.75010050952195 ], [ -156.132915771015774, 20.750099086710488 ], [ -156.134344603947255, 20.750399172505105 ], [ -156.136359969714903, 20.750698314798626 ], [ -156.137268472946118, 20.751157775893752 ], [ -156.138659468198483, 20.750735840935416 ], [ -156.140769734144527, 20.751282211141913 ], [ -156.142912745009113, 20.751358995631424 ], [ -156.146591409287453, 20.751125914179337 ], [ -156.147864801559393, 20.751171526668035 ], [ -156.149471471187951, 20.751167252848795 ], [ -156.151310933247288, 20.75149385097367 ], [ -156.154373343547888, 20.751858414701395 ], [ -156.164209940872894, 20.755482733185104 ], [ -156.170681304886614, 20.758244055775879 ], [ -156.187393319704341, 20.763650091017819 ], [ -156.195482833674475, 20.766436656149548 ], [ -156.202814666828203, 20.769506217173117 ], [ -156.206292990421588, 20.771568462787194 ], [ -156.209830853762497, 20.772569303052247 ], [ -156.210511468784432, 20.773866566237626 ], [ -156.210479304357619, 20.774668100055877 ], [ -156.211079795907835, 20.775229976109646 ], [ -156.210932808796002, 20.77889800483451 ], [ -156.212127884289771, 20.779304370265919 ], [ -156.212992316507723, 20.779583958102375 ], [ -156.213557416172819, 20.779869260620991 ], [ -156.214454567502941, 20.78015929124405 ], [ -156.215669958643446, 20.781390900543368 ], [ -156.217665591834105, 20.782035960693122 ], [ -156.219265525110359, 20.783219035106921 ], [ -156.220424628271786, 20.782122735144529 ], [ -156.221256268555777, 20.784056657684445 ], [ -156.22183284287425, 20.78433154217559 ], [ -156.222392816942289, 20.784898812883988 ], [ -156.223834830567, 20.784894515528858 ], [ -156.224417926986888, 20.786688854685845 ], [ -156.225276239129528, 20.787122352392856 ], [ -156.227801985883929, 20.787114787899458 ], [ -156.228965467669923, 20.787702239840158 ], [ -156.229830377897088, 20.788114399363273 ], [ -156.231809303320603, 20.789113719905234 ], [ -156.233467942824177, 20.789108741486963 ], [ -156.244962405995722, 20.799766322599311 ], [ -156.252931375133727, 20.808092424634523 ], [ -156.258141202985513, 20.814713609323746 ], [ -156.262579298101855, 20.820351649472045 ], [ -156.272387718732205, 20.836089554419043 ], [ -156.278205599070702, 20.845119219395762 ], [ -156.283502468877032, 20.855791728688615 ], [ -156.287033713093962, 20.864735280788423 ], [ -156.287886216722825, 20.870950742288642 ], [ -156.288394027757306, 20.875895908086243 ], [ -156.287587265545653, 20.876659012184888 ], [ -156.28681857608089, 20.875584724668801 ], [ -156.286456919065216, 20.874474311739448 ], [ -156.286172352281653, 20.873647076166371 ], [ -156.286235591337004, 20.872054087462335 ], [ -156.286068143138266, 20.871897756679545 ] ], [ [ -156.174923157621691, 20.836514905118229 ], [ -156.175015711040004, 20.836846634940329 ], [ -156.175272420354958, 20.836613368222014 ], [ -156.174923157621691, 20.836514905118229 ] ], [ [ -156.285223345046205, 20.870800964709296 ], [ -156.285316159890272, 20.871132663018255 ], [ -156.285572784714418, 20.870899218878556 ], [ -156.285223345046205, 20.870800964709296 ] ], [ [ -156.200800221201376, 20.854814823490727 ], [ -156.200892839306221, 20.85514654641138 ], [ -156.201149548393659, 20.854913240255133 ], [ -156.200800221201376, 20.854814823490727 ] ], [ [ -156.094064002851383, 20.726565153052526 ], [ -156.093925538425992, 20.726705889841604 ], [ -156.093532933811616, 20.727024019842379 ], [ -156.0936046402812, 20.72864179130611 ], [ -156.094254442701697, 20.729208290157406 ], [ -156.095757009002995, 20.729149447219115 ], [ -156.095175213796267, 20.728097878120771 ], [ -156.096529761425131, 20.727825480549196 ], [ -156.096482980590622, 20.726770784342751 ], [ -156.094064002851383, 20.726565153052526 ] ], [ [ -156.090317885751688, 20.726772611387169 ], [ -156.090181901731142, 20.726915766958207 ], [ -156.088500737168488, 20.727245261920771 ], [ -156.088122299491744, 20.729246288095514 ], [ -156.089680409326974, 20.728737787664468 ], [ -156.090732331219925, 20.727120919810101 ], [ -156.090317885751688, 20.726772611387169 ] ] ] } }
]
}
