{
"type": "FeatureCollection",
"name": "cyasola",
"crs": { "type": "name", "properties": { "name": "urn:ogc:def:crs:OGC:1.3:CRS84" } },
"features": [
{ "type": "Feature", "properties": { "ID": 1, "GRIDCODE": 2 }, "geometry": { "type": "Polygon", "coordinates": [ [ [ -156.890876370350298, 21.150547336077619 ], [ -156.891226975100153, 21.150644440894471 ], [ -156.890970669164659, 21.150878837256773 ], [ -156.890876370350298, 21.150547336077619 ] ] ] } },
{ "type": "Feature", "properties": { "ID": 2, "GRIDCODE": 2 }, "geometry": { "type": "Polygon", "coordinates": [ [ [ -156.955899404509807, 21.14755229773068 ], [ -156.958048182138015, 21.148030683662334 ], [ -156.957195579692808, 21.148256668575865 ], [ -156.956891624119351, 21.148230045964716 ], [ -156.956132604289706, 21.149035209984369 ], [ -156.956016199018364, 21.148782976154159 ], [ -156.955899404509807, 21.14755229773068 ] ] ] } },
{ "type": "Feature", "properties": { "ID": 3, "GRIDCODE": 2 }, "geometry": { "type": "Polygon", "coordinates": [ [ [ -156.799128060580131, 21.144502262729372 ], [ -156.799024213292739, 21.144831223154863 ], [ -156.798774808111432, 21.144590398596886 ], [ -156.799128060580131, 21.144502262729372 ] ] ] } },
{ "type": "Feature", "properties": { "ID": 4, "GRIDCODE": 2 }, "geometry": { "type": "Polygon", "coordinates": [ [ [ -156.799128060580131, 21.144502262729372 ], [ -156.799231907342602, 21.144173302188186 ], [ -156.799481312698447, 21.14441412608647 ], [ -156.799128060580131, 21.144502262729372 ] ] ] } },
{ "type": "Feature", "properties": { "ID": 5, "GRIDCODE": 2 }, "geometry": { "type": "Polygon", "coordinates": [ [ [ -156.800876402517616, 21.143441327154143 ], [ -156.801865988042294, 21.143612328384805 ], [ -156.80139752004348, 21.144093310050714 ], [ -156.800876402517616, 21.143441327154143 ] ] ] } },
{ "type": "Feature", "properties": { "ID": 6, "GRIDCODE": 2 }, "geometry": { "type": "Polygon", "coordinates": [ [ [ -156.796581637935475, 21.140947222660934 ], [ -156.796415718495354, 21.141297199936307 ], [ -156.795923935457438, 21.141047197053719 ], [ -156.796581637935475, 21.140947222660934 ] ] ] } },
{ "type": "Feature", "properties": { "ID": 7, "GRIDCODE": 2 }, "geometry": { "type": "Polygon", "coordinates": [ [ [ -156.797796563505045, 21.136899296720138 ], [ -156.798085272453335, 21.136903052477159 ], [ -156.797935790781906, 21.137248086765936 ], [ -156.797796563505045, 21.136899296720138 ] ] ] } },
{ "type": "Feature", "properties": { "ID": 8, "GRIDCODE": 2 }, "geometry": { "type": "Polygon", "coordinates": [ [ [ -156.797796563505045, 21.136899296720138 ], [ -156.797446070098374, 21.136802006064933 ], [ -156.797702483099073, 21.13656776164504 ], [ -156.797796563505045, 21.136899296720138 ] ] ] } },
{ "type": "Feature", "properties": { "ID": 9, "GRIDCODE": 2 }, "geometry": { "type": "Polygon", "coordinates": [ [ [ -156.955737048282515, 21.138338498547277 ], [ -156.955840552474996, 21.138009412258857 ], [ -156.956090223821747, 21.138250025711656 ], [ -156.955737048282515, 21.138338498547277 ] ] ] } },
{ "type": "Feature", "properties": { "ID": 10, "GRIDCODE": 2 }, "geometry": { "type": "Polygon", "coordinates": [ [ [ -156.90122703785849, 21.13333656110651 ], [ -156.90087646431283, 21.133239479693771 ], [ -156.901132723068145, 21.133005064027589 ], [ -156.90122703785849, 21.13333656110651 ] ] ] } },
{ "type": "Feature", "properties": { "ID": 11, "GRIDCODE": 2 }, "geometry": { "type": "Polygon", "coordinates": [ [ [ -156.900968836903331, 21.131165922324449 ], [ -156.900618268552194, 21.131068840793482 ], [ -156.900874523618427, 21.130834425184933 ], [ -156.900968836903331, 21.131165922324449 ] ] ] } },
{ "type": "Feature", "properties": { "ID": 12, "GRIDCODE": 2 }, "geometry": { "type": "Polygon", "coordinates": [ [ [ -156.845875808316805, 21.126951985213722 ], [ -156.847178711361892, 21.127098856018925 ], [ -156.8499516836672, 21.127435964034007 ], [ -156.852633498330761, 21.128131824117691 ], [ -156.855457285671719, 21.128800867522074 ], [ -156.857262215913522, 21.127668849856594 ], [ -156.858445242856646, 21.128074790194752 ], [ -156.859142562632883, 21.128057745417181 ], [ -156.859848438292772, 21.128092927098137 ], [ -156.860975702716473, 21.127551430775558 ], [ -156.862939078593058, 21.127283335201877 ], [ -156.863745268413396, 21.127323536522965 ], [ -156.864259280160752, 21.128921374049202 ], [ -156.865765473269022, 21.129861087088464 ], [ -156.86473553381029, 21.130301319679369 ], [ -156.863448678704401, 21.130919537778752 ], [ -156.862393881573155, 21.130378662039455 ], [ -156.85996489330816, 21.130823486577867 ], [ -156.856702887574585, 21.132032736302911 ], [ -156.855741444441463, 21.134040254696441 ], [ -156.856304145074859, 21.135071414618182 ], [ -156.856569746243338, 21.13589786759583 ], [ -156.85750944899911, 21.138128812693282 ], [ -156.860307512241405, 21.141565904715787 ], [ -156.86313921301533, 21.142863701637399 ], [ -156.865040141167327, 21.143838177867259 ], [ -156.865992506577641, 21.144134343245621 ], [ -156.866890277119694, 21.144442316549817 ], [ -156.868028108655125, 21.146145108059265 ], [ -156.867562181844363, 21.150499237105073 ], [ -156.86829682219971, 21.153280382218245 ], [ -156.869416640534979, 21.156148395530874 ], [ -156.87032992817916, 21.157821693505969 ], [ -156.867831357995072, 21.156890991938056 ], [ -156.866830892706133, 21.156579937552365 ], [ -156.865007686306257, 21.15662473262017 ], [ -156.862665399891483, 21.157169014262422 ], [ -156.860551270495023, 21.158184377969878 ], [ -156.859503940075882, 21.158132168678438 ], [ -156.8568622972208, 21.157074950722105 ], [ -156.856126470926455, 21.156309607463303 ], [ -156.855155719654874, 21.157266234858195 ], [ -156.854036730481141, 21.157744346467155 ], [ -156.850799006532611, 21.15828172604612 ], [ -156.85018951067201, 21.158574468674217 ], [ -156.849333579171883, 21.158940140120208 ], [ -156.8490463601849, 21.157736849906485 ], [ -156.848838068498168, 21.157473597093901 ], [ -156.848423428588546, 21.158646794935805 ], [ -156.847780374019749, 21.15907535624001 ], [ -156.847903017290179, 21.156913442577739 ], [ -156.84766113605599, 21.15249736333741 ], [ -156.846526228771978, 21.151483895674374 ], [ -156.845919469059425, 21.150575368911152 ], [ -156.845999319411106, 21.149169191496917 ], [ -156.845856275092842, 21.144025868998675 ], [ -156.845371912109186, 21.141189108547451 ], [ -156.844616423393745, 21.139394551485925 ], [ -156.844046198234025, 21.137621533256695 ], [ -156.843277009364357, 21.136541804294357 ], [ -156.842288039446828, 21.135060957874366 ], [ -156.841751043207381, 21.133391276434594 ], [ -156.841307004005984, 21.13299470986372 ], [ -156.840896684747037, 21.132567617367346 ], [ -156.839747772740822, 21.131541172344601 ], [ -156.839325957516877, 21.130993417387423 ], [ -156.840466122332089, 21.128068765261233 ], [ -156.84108499538857, 21.128386206178423 ], [ -156.842104081726717, 21.128659799770642 ], [ -156.845503074138094, 21.127319299032738 ], [ -156.845875808316805, 21.126951985213722 ] ], [ [ -156.862063588846183, 21.145850921637876 ], [ -156.862282132647721, 21.146697410697339 ], [ -156.863038522361677, 21.146500794776685 ], [ -156.862063588846183, 21.145850921637876 ] ], [ [ -156.859484409228202, 21.144463696902324 ], [ -156.859762167970246, 21.146133961342791 ], [ -156.860377848352471, 21.146760387945527 ], [ -156.860757355392792, 21.145922913809589 ], [ -156.861188442964078, 21.146461811035568 ], [ -156.861859486342013, 21.145668432249543 ], [ -156.859484409228202, 21.144463696902324 ] ], [ [ -156.858337257903713, 21.143907335537836 ], [ -156.858445026684194, 21.144610812777668 ], [ -156.858818890563725, 21.145107783650783 ], [ -156.859317917282993, 21.144156735333151 ], [ -156.858337257903713, 21.143907335537836 ] ], [ [ -156.846410159246119, 21.129938931265677 ], [ -156.846274418278256, 21.130082719838665 ], [ -156.844445950276565, 21.131041149235983 ], [ -156.84526790500496, 21.132468596799495 ], [ -156.847443788358532, 21.137231203887417 ], [ -156.84824973443537, 21.136822631581204 ], [ -156.848093853338895, 21.138380042855331 ], [ -156.849029150458904, 21.140790681653922 ], [ -156.850588826217489, 21.139138128692416 ], [ -156.851024268611781, 21.139625379373729 ], [ -156.852648550902643, 21.140531653437431 ], [ -156.851975389806654, 21.1432501348743 ], [ -156.85324186964155, 21.14260821061373 ], [ -156.853878978568105, 21.142664377103468 ], [ -156.85480736430776, 21.142606233666143 ], [ -156.854693749060118, 21.143739351356245 ], [ -156.855322369109473, 21.143699960217681 ], [ -156.855279534382873, 21.144128622025729 ], [ -156.855618989622002, 21.145623862605625 ], [ -156.856349646554776, 21.145294928463873 ], [ -156.85701411454167, 21.143666161094131 ], [ -156.857132354155283, 21.142484814356468 ], [ -156.855462731818591, 21.139964171620036 ], [ -156.854460870138354, 21.137645053606093 ], [ -156.853991757627142, 21.135579069946431 ], [ -156.853470440100409, 21.133692466024449 ], [ -156.854061988527462, 21.131935720795774 ], [ -156.854768316219747, 21.130784647215538 ], [ -156.853097689003562, 21.130184849662129 ], [ -156.851173570016499, 21.130015191232737 ], [ -156.848851533813075, 21.130160590011425 ], [ -156.846410159246119, 21.129938931265677 ] ] ] } },
{ "type": "Feature", "properties": { "ID": 13, "GRIDCODE": 2 }, "geometry": { "type": "Polygon", "coordinates": [ [ [ -156.862690346415917, 21.122288390676818 ], [ -156.863002054843093, 21.122496245165213 ], [ -156.862483118655149, 21.124292908865279 ], [ -156.861591434708203, 21.123766128100012 ], [ -156.862001753970191, 21.123507857676639 ], [ -156.862566321230929, 21.122718016991442 ], [ -156.862690346415917, 21.122288390676818 ] ] ] } },
{ "type": "Feature", "properties": { "ID": 14, "GRIDCODE": 2 }, "geometry": { "type": "Polygon", "coordinates": [ [ [ -156.941835662379162, 21.120288336090631 ], [ -156.942186240877419, 21.120385332476037 ], [ -156.941930064467584, 21.120619817751887 ], [ -156.941835662379162, 21.120288336090631 ] ] ] } },
{ "type": "Feature", "properties": { "ID": 15, "GRIDCODE": 2 }, "geometry": { "type": "Polygon", "coordinates": [ [ [ -156.941550697503573, 21.120013938210661 ], [ -156.941839400844145, 21.120017446223688 ], [ -156.941835662379162, 21.120288336090631 ], [ -156.941546958515062, 21.120284828028403 ], [ -156.941550697503573, 21.120013938210661 ] ] ] } },
{ "type": "Feature", "properties": { "ID": 16, "GRIDCODE": 2 }, "geometry": { "type": "Polygon", "coordinates": [ [ [ -156.850171410698465, 21.089348171300792 ], [ -156.84982098122191, 21.089250995277975 ], [ -156.850077230583338, 21.089016656142704 ], [ -156.850171410698465, 21.089348171300792 ] ] ] } },
{ "type": "Feature", "properties": { "ID": 17, "GRIDCODE": 2 }, "geometry": { "type": "Polygon", "coordinates": [ [ [ -156.941550697503573, 21.120013938210661 ], [ -156.93907414108449, 21.119822428749291 ], [ -156.937799135145497, 21.119854338635673 ], [ -156.936771445199525, 21.119803525930006 ], [ -156.937076164605742, 21.120361475822463 ], [ -156.937039470363402, 21.121016405084063 ], [ -156.938378250453724, 21.1205943538009 ], [ -156.939940281281537, 21.121218728208564 ], [ -156.941195379558081, 21.121608441988588 ], [ -156.940786087189792, 21.122312091650485 ], [ -156.942844276728181, 21.122601488180631 ], [ -156.943389162605826, 21.12316796775378 ], [ -156.943966596650142, 21.123153480630137 ], [ -156.944832398354578, 21.123596982568635 ], [ -156.944802098755218, 21.124138089153785 ], [ -156.943366459341803, 21.124752624350652 ], [ -156.943071269559169, 21.125320808283195 ], [ -156.941778500572696, 21.12618650138981 ], [ -156.941310228899169, 21.127382422463441 ], [ -156.94246486557924, 21.126657402595779 ], [ -156.942902508805616, 21.126678991154368 ], [ -156.943340601141813, 21.126668040056803 ], [ -156.943924721460093, 21.126967168830696 ], [ -156.944526712837131, 21.126952052919549 ], [ -156.944495948051696, 21.125869988240083 ], [ -156.944857171282791, 21.125564079453135 ], [ -156.947172542890996, 21.125099633861538 ], [ -156.947675286023241, 21.125677099911179 ], [ -156.946890074032979, 21.126342276274521 ], [ -156.946516888611825, 21.126738797368496 ], [ -156.947377842267997, 21.126717219852178 ], [ -156.94860370060556, 21.126777648309577 ], [ -156.949361868132513, 21.127565771613842 ], [ -156.949679791436438, 21.127557780867029 ], [ -156.950246964786345, 21.127655069119474 ], [ -156.948445013697324, 21.128862117751485 ], [ -156.948908851978501, 21.129275992592511 ], [ -156.947868334014345, 21.129721450066434 ], [ -156.947083783867242, 21.131319760922207 ], [ -156.948823436017506, 21.130482858475709 ], [ -156.948733338693728, 21.132091176271548 ], [ -156.950395464223817, 21.131047470564575 ], [ -156.951353863971207, 21.131160206980596 ], [ -156.949908659037504, 21.132384681568229 ], [ -156.949601677079812, 21.133400479758759 ], [ -156.950468105515483, 21.132983664041994 ], [ -156.951040504470711, 21.133276741813578 ], [ -156.952644761734092, 21.132770878906612 ], [ -156.953341472887502, 21.133622671059197 ], [ -156.952659824828743, 21.134794682514691 ], [ -156.951575545996207, 21.135713306588205 ], [ -156.951777716685115, 21.135982521575979 ], [ -156.954135828616671, 21.135106877705599 ], [ -156.955091155314648, 21.136534949282179 ], [ -156.954741336488524, 21.136831161150582 ], [ -156.95445629782688, 21.137379908866819 ], [ -156.954152701917621, 21.137636857568079 ], [ -156.953868435895117, 21.138129058020276 ], [ -156.955737048282515, 21.138338498547277 ], [ -156.955596387805429, 21.138477427505286 ], [ -156.955004049243115, 21.138730890166329 ], [ -156.954365280640985, 21.139038294283854 ], [ -156.95240435046324, 21.139594756339648 ], [ -156.952989195067829, 21.140092504926162 ], [ -156.954373280516791, 21.14005777567963 ], [ -156.954704273339189, 21.140352886562439 ], [ -156.954998455976806, 21.140658797064557 ], [ -156.956110016887123, 21.140630947676268 ], [ -156.956974565827664, 21.141402071456294 ], [ -156.956999721270876, 21.142282323717243 ], [ -156.956961670832612, 21.142959205841972 ], [ -156.956981144547399, 21.143636782301609 ], [ -156.955808622851407, 21.144138699721015 ], [ -156.955761518857599, 21.144981565722215 ], [ -156.956640297112983, 21.145765498371837 ], [ -156.956358557387148, 21.146072852907807 ], [ -156.955469433870604, 21.146453436221421 ], [ -156.955493839125438, 21.147305367907244 ], [ -156.953698574673894, 21.1462859803623 ], [ -156.951881717564675, 21.144398009521055 ], [ -156.951466565992888, 21.144377572708155 ], [ -156.950321687525104, 21.144406242806838 ], [ -156.95003589866343, 21.143818576285195 ], [ -156.948873204195024, 21.143543872242194 ], [ -156.947450533462813, 21.142815286682428 ], [ -156.947721936132751, 21.143258980216526 ], [ -156.948018375274842, 21.14352319120658 ], [ -156.948640137256916, 21.144452941143072 ], [ -156.950855103987976, 21.146428778970062 ], [ -156.950386283978474, 21.147069682351933 ], [ -156.949840919668503, 21.147083316742165 ], [ -156.948547814779715, 21.1470195569865 ], [ -156.949494797067445, 21.147559080994796 ], [ -156.950833831962655, 21.147974759735281 ], [ -156.950452118671677, 21.149294651968042 ], [ -156.948786949370458, 21.148946652759538 ], [ -156.948802476000481, 21.149498435210646 ], [ -156.94877967702061, 21.149904561841868 ], [ -156.94879265392737, 21.150354778732748 ], [ -156.945446615966233, 21.151409496525744 ], [ -156.944726032435057, 21.151079737231168 ], [ -156.943642190032847, 21.150524698486851 ], [ -156.944429788816052, 21.151618007859874 ], [ -156.945193749999845, 21.152299465528685 ], [ -156.944168366476049, 21.153168009587588 ], [ -156.943248586686735, 21.154312998304651 ], [ -156.942367395162506, 21.154562898346949 ], [ -156.942013955412563, 21.15556487937727 ], [ -156.940027135826654, 21.157525010943605 ], [ -156.939571923329737, 21.157910389405888 ], [ -156.938396901500482, 21.159069501264973 ], [ -156.937837103807624, 21.158045352820825 ], [ -156.937201138035903, 21.156737764899091 ], [ -156.936573082341454, 21.155857309645256 ], [ -156.935916542763863, 21.154875434030053 ], [ -156.93430425678477, 21.152849352238416 ], [ -156.93343222330401, 21.151545220740758 ], [ -156.930897400378456, 21.149624654083485 ], [ -156.930462044690501, 21.14732334404405 ], [ -156.92920443238657, 21.145742752004029 ], [ -156.928649655558957, 21.144912844927894 ], [ -156.92781090223022, 21.143736890893617 ], [ -156.92652021163471, 21.141700199740377 ], [ -156.925620388644177, 21.139849001344615 ], [ -156.924838110555413, 21.139035941305281 ], [ -156.923858715806972, 21.138161855650885 ], [ -156.923536575930484, 21.137499623109601 ], [ -156.922972790618672, 21.13699654831812 ], [ -156.922703033222064, 21.136441054799331 ], [ -156.921607510810134, 21.135463602626018 ], [ -156.920430984683691, 21.133703838029803 ], [ -156.919564972066723, 21.132489482195965 ], [ -156.918632401697238, 21.131094719545469 ], [ -156.917433612813738, 21.13002489271183 ], [ -156.916508004826056, 21.129062532858583 ], [ -156.913362808232449, 21.128906793954116 ], [ -156.912674653302815, 21.129818857452307 ], [ -156.912995700629921, 21.130715710716188 ], [ -156.91287183111956, 21.132915831230697 ], [ -156.91317867227383, 21.135250508577968 ], [ -156.91361496683038, 21.137343300164062 ], [ -156.913113693126121, 21.139849650128795 ], [ -156.91338422957017, 21.142018383587903 ], [ -156.913340282966146, 21.142800075784468 ], [ -156.913654023250785, 21.143374711277684 ], [ -156.913611564329784, 21.144130757483321 ], [ -156.914193303893427, 21.146089941724217 ], [ -156.914732827310218, 21.148003427177745 ], [ -156.91502541845847, 21.148538576177831 ], [ -156.915295163740922, 21.149094080646272 ], [ -156.916183354003209, 21.150339359065971 ], [ -156.916119539247944, 21.151473163491602 ], [ -156.916404696219189, 21.152358921571587 ], [ -156.916822979390133, 21.153526973179293 ], [ -156.917518116420609, 21.156155349132327 ], [ -156.91783999767577, 21.157501796787557 ], [ -156.919145951048733, 21.161149511194218 ], [ -156.917971445566423, 21.160747114408796 ], [ -156.91576046915273, 21.160802034558461 ], [ -156.91543547555176, 21.160464194316276 ], [ -156.913807156130275, 21.160504639994631 ], [ -156.911107130910921, 21.158306583802599 ], [ -156.909690932586273, 21.157423778558925 ], [ -156.909233916151919, 21.15694856658601 ], [ -156.90770353470495, 21.156164544608998 ], [ -156.906690735668064, 21.155700707224611 ], [ -156.9059788458421, 21.154397637958549 ], [ -156.90570912899372, 21.153842121037119 ], [ -156.905412753072426, 21.153577840669268 ], [ -156.902480295570228, 21.150138618950454 ], [ -156.900857467055488, 21.149718052263189 ], [ -156.899014036166079, 21.149281899441807 ], [ -156.89785642054261, 21.148513272827209 ], [ -156.895302952752758, 21.147491940130205 ], [ -156.894094331955785, 21.147879525201972 ], [ -156.891296569474179, 21.150171316618778 ], [ -156.891506576362502, 21.146454229135319 ], [ -156.890304040907012, 21.145655759277574 ], [ -156.888475080163943, 21.14496118481534 ], [ -156.890996182167186, 21.144616590830285 ], [ -156.892246925052319, 21.143383363243156 ], [ -156.894298086327041, 21.143102977401764 ], [ -156.894952174180673, 21.1419797754454 ], [ -156.894627444933235, 21.140970932286844 ], [ -156.894334942767131, 21.140435754888955 ], [ -156.894065291511595, 21.139880224272499 ], [ -156.893206676751987, 21.139113770479653 ], [ -156.892938111499689, 21.13738511026575 ], [ -156.892366061883507, 21.13633779804929 ], [ -156.894501043082499, 21.136045944807179 ], [ -156.895288192819976, 21.134024758383056 ], [ -156.895334424737143, 21.133207254653446 ], [ -156.894358027076066, 21.13075946609797 ], [ -156.893918213646941, 21.129854030731938 ], [ -156.893357725189134, 21.128827900454056 ], [ -156.89332566457594, 21.12768438821459 ], [ -156.893472360510032, 21.125085732014625 ], [ -156.892890998490202, 21.124021440621057 ], [ -156.894872048293877, 21.122855733500774 ], [ -156.894143727954173, 21.122034090764728 ], [ -156.89263891668611, 21.121566384342799 ], [ -156.892304713348636, 21.120632693772986 ], [ -156.891954368082821, 21.119165542856702 ], [ -156.889821979844299, 21.11843435369093 ], [ -156.888693952568815, 21.118861880197969 ], [ -156.886842303126969, 21.119751851939789 ], [ -156.885961254600119, 21.120001468221886 ], [ -156.885660978500908, 21.120297752121047 ], [ -156.883963318695265, 21.118361272957692 ], [ -156.883451825991898, 21.117307683337671 ], [ -156.881518076628453, 21.115877678485973 ], [ -156.880574562606768, 21.115900934218082 ], [ -156.879964876382729, 21.115588512495723 ], [ -156.878805161357832, 21.116400271728136 ], [ -156.877924123720163, 21.116649846805341 ], [ -156.87694411713764, 21.116958500417944 ], [ -156.875230564455194, 21.116425722426506 ], [ -156.875678556255224, 21.114905127787598 ], [ -156.874201959248495, 21.114446086454258 ], [ -156.873323222206409, 21.113862249866045 ], [ -156.872179178477751, 21.113890350569452 ], [ -156.871630723495684, 21.113319781358413 ], [ -156.871045810701844, 21.113051824974409 ], [ -156.869991428701127, 21.111954868385986 ], [ -156.869610311093027, 21.11248161096055 ], [ -156.868757560867635, 21.114896654072421 ], [ -156.867993167739371, 21.114915478649152 ], [ -156.867083916078542, 21.114870168504158 ], [ -156.86564514180165, 21.11527775166682 ], [ -156.864493747349798, 21.116803469404974 ], [ -156.865213351863304, 21.118121791557655 ], [ -156.863900970170647, 21.119683506686652 ], [ -156.864459737906714, 21.121246255936168 ], [ -156.863016013385192, 21.122151878158878 ], [ -156.863123644149397, 21.1218823110062 ], [ -156.86371569672184, 21.120865740402927 ], [ -156.86344301874675, 21.120531714239782 ], [ -156.863146785570507, 21.120267370736805 ], [ -156.862326076934721, 21.11941328495481 ], [ -156.861165679410561, 21.118376914294934 ], [ -156.861120448841888, 21.116752976315244 ], [ -156.861758708997058, 21.116446188892386 ], [ -156.863200784668209, 21.116518092766455 ], [ -156.863705600868599, 21.114641078430797 ], [ -156.864676033346797, 21.113819766294373 ], [ -156.864979882740329, 21.113236105010614 ], [ -156.865867879350247, 21.111711296992986 ], [ -156.865587553777516, 21.11161688426073 ], [ -156.863570493778298, 21.111986343309361 ], [ -156.863552024593588, 21.111326788022783 ], [ -156.863597703082604, 21.110519349968556 ], [ -156.86329035367865, 21.110244946132507 ], [ -156.863016987284198, 21.10996025506271 ], [ -156.862432105438074, 21.109692271255323 ], [ -156.862105955345498, 21.109352807373568 ], [ -156.860426962537787, 21.108583265639876 ], [ -156.859258006509378, 21.106833022081368 ], [ -156.857810197523094, 21.105870988627633 ], [ -156.856286241870237, 21.10579510038302 ], [ -156.855564206344013, 21.105812820378539 ], [ -156.85418591750792, 21.105744047874641 ], [ -156.852669479402095, 21.10702720859398 ], [ -156.852633615134295, 21.107658160775738 ], [ -156.853755761659073, 21.109070254993789 ], [ -156.853182631160479, 21.111200887939624 ], [ -156.85251451698997, 21.111486363782316 ], [ -156.851438525921708, 21.112546894138116 ], [ -156.849621791844413, 21.111202697803002 ], [ -156.84799291779774, 21.11069586442018 ], [ -156.848287563661273, 21.109502939418689 ], [ -156.84929068615773, 21.107296692892948 ], [ -156.848861890713493, 21.106413262321002 ], [ -156.847442460575792, 21.105971657322595 ], [ -156.846838858209594, 21.105343432479142 ], [ -156.844189113528387, 21.10700526643064 ], [ -156.843441691824381, 21.107023537215944 ], [ -156.84181497946139, 21.106372087374957 ], [ -156.839116485680591, 21.105593327069212 ], [ -156.836515009572338, 21.105028612579805 ], [ -156.834665317275579, 21.103659642040654 ], [ -156.829738663833012, 21.103295548488045 ], [ -156.827307568113326, 21.103698960781028 ], [ -156.825277949332474, 21.104566254816341 ], [ -156.824216712276979, 21.105611843269358 ], [ -156.822355344366997, 21.105920634110181 ], [ -156.821207900292279, 21.106187124739289 ], [ -156.820038203112148, 21.106432684563284 ], [ -156.819468061669141, 21.106706587761199 ], [ -156.817785800275601, 21.107182590227044 ], [ -156.817146939699143, 21.107489465079908 ], [ -156.815977228168265, 21.107734995350857 ], [ -156.814710733287086, 21.108620849900113 ], [ -156.813066852240837, 21.109322975009594 ], [ -156.812204058159182, 21.10986399333899 ], [ -156.810570049248184, 21.110737131072398 ], [ -156.808647098347677, 21.113908524879161 ], [ -156.80866861192132, 21.11468967676889 ], [ -156.808640822676011, 21.115180223959182 ], [ -156.809770775682438, 21.117800504732063 ], [ -156.811195153049937, 21.119593707462396 ], [ -156.811716794339247, 21.120669436839975 ], [ -156.812189102218241, 21.121091440043749 ], [ -156.813006179329648, 21.121941997894616 ], [ -156.814026831227721, 21.1226206968364 ], [ -156.814896373717943, 21.123163436550431 ], [ -156.816038984252089, 21.124353125806344 ], [ -156.819569198885461, 21.125190337546218 ], [ -156.820351800980944, 21.127381126883485 ], [ -156.82028117044942, 21.128624554523419 ], [ -156.820575062957232, 21.129738669760201 ], [ -156.820923919862054, 21.131201797910016 ], [ -156.821682354794063, 21.133003950454558 ], [ -156.821939837922542, 21.134372177856459 ], [ -156.822963972175842, 21.136249376829348 ], [ -156.823327985778434, 21.138182903324171 ], [ -156.823866049549508, 21.139688609154259 ], [ -156.824150424529677, 21.14197841206337 ], [ -156.824134867062526, 21.142251909391931 ], [ -156.824147059152097, 21.142691450233706 ], [ -156.823532254822311, 21.144429770072591 ], [ -156.820630621477648, 21.144910850047115 ], [ -156.817262235218891, 21.145526807856587 ], [ -156.816462795451969, 21.144694611784043 ], [ -156.816018122898896, 21.145132621134824 ], [ -156.815714294763922, 21.145389299638147 ], [ -156.814964123943838, 21.146447214424267 ], [ -156.81224196067285, 21.146744471332671 ], [ -156.812211280113672, 21.145627002350647 ], [ -156.812539945046638, 21.145619014979676 ], [ -156.813030854212116, 21.145643615347087 ], [ -156.814574565369725, 21.145319686360164 ], [ -156.815382280462615, 21.143933723346748 ], [ -156.815530399737696, 21.141333471433644 ], [ -156.815188489913851, 21.141860576241601 ], [ -156.814348128433721, 21.143473381924522 ], [ -156.813444242549679, 21.143495305966329 ], [ -156.813436203038293, 21.143197695092162 ], [ -156.813459366812225, 21.142791617517641 ], [ -156.813448131761703, 21.142385095491075 ], [ -156.813483113844001, 21.141769434037357 ], [ -156.812058954640918, 21.143172288712648 ], [ -156.811101752481534, 21.143195495283795 ], [ -156.811165171769289, 21.142084667060441 ], [ -156.8105687959428, 21.141811194511963 ], [ -156.809784807906141, 21.141408894937836 ], [ -156.808945064726203, 21.142592615042666 ], [ -156.808828502673521, 21.142330506770069 ], [ -156.808479029748241, 21.141242312678866 ], [ -156.807974163178443, 21.141496572091523 ], [ -156.807981883040384, 21.141776849145955 ], [ -156.807076092431259, 21.143652935988566 ], [ -156.807089356863059, 21.144131115027484 ], [ -156.80619767371843, 21.145009297714338 ], [ -156.805628084227095, 21.144716973738362 ], [ -156.805043194694463, 21.144448789724379 ], [ -156.804609660294005, 21.143555146603425 ], [ -156.803907561432993, 21.14389222295506 ], [ -156.80329427480865, 21.144154055325295 ], [ -156.802732687064093, 21.145231554620985 ], [ -156.802402844426439, 21.145797280470806 ], [ -156.80242405271872, 21.146576969479067 ], [ -156.80239587735494, 21.147072070861661 ], [ -156.80268544004204, 21.147669188349532 ], [ -156.803437539589112, 21.148341164250581 ], [ -156.802954622079682, 21.148749404267001 ], [ -156.803520548572351, 21.149787702541623 ], [ -156.803232878073487, 21.149845611747885 ], [ -156.802937071903102, 21.149537452909637 ], [ -156.801801813559422, 21.149564905525672 ], [ -156.801517954049558, 21.149269202009137 ], [ -156.800649789391315, 21.148493520487072 ], [ -156.800727735840724, 21.147130362845811 ], [ -156.800380086554526, 21.146819674437985 ], [ -156.801537160399846, 21.146325487084134 ], [ -156.801569862895377, 21.145753125228321 ], [ -156.801562361490994, 21.14547801076035 ], [ -156.801874504736361, 21.144678576706642 ], [ -156.802184099058451, 21.143803177999622 ], [ -156.803504578111273, 21.142686785005306 ], [ -156.804491114433404, 21.1413809175409 ], [ -156.804622706133301, 21.139072622374243 ], [ -156.804260590960808, 21.138749055645782 ], [ -156.804318047841093, 21.137739749599589 ], [ -156.804144183059208, 21.137252674853197 ], [ -156.804497415615288, 21.137164525902818 ], [ -156.804248012395334, 21.136923709563071 ], [ -156.804144183059208, 21.137252674853197 ], [ -156.803976979064544, 21.137366055462739 ], [ -156.803721987206501, 21.137944398002865 ], [ -156.803084845923536, 21.138716470249982 ], [ -156.803307577502551, 21.140039418175594 ], [ -156.802410666919656, 21.141138559159973 ], [ -156.801903462822764, 21.140900873523247 ], [ -156.801602484321648, 21.140161005726878 ], [ -156.800785501409592, 21.140620791684931 ], [ -156.80027554596353, 21.140531553723182 ], [ -156.799047051656572, 21.140976391342118 ], [ -156.798497812944134, 21.138965554549603 ], [ -156.797627013945771, 21.140032532217276 ], [ -156.797125378249945, 21.140372651928409 ], [ -156.796748851130644, 21.140833850250274 ], [ -156.796581637935475, 21.140947222660934 ], [ -156.796475608940682, 21.139440791840229 ], [ -156.796080013097765, 21.138789174009784 ], [ -156.796459492259373, 21.138356919135699 ], [ -156.799352432831085, 21.138000285266809 ], [ -156.799102043875706, 21.137578551692684 ], [ -156.798784750053329, 21.137333538074955 ], [ -156.798532627447258, 21.137029314937042 ], [ -156.798085272453335, 21.136903052477159 ], [ -156.798541986744596, 21.135956884174597 ], [ -156.797664230118585, 21.13568348001829 ], [ -156.797695076866461, 21.135141850934524 ], [ -156.797387538163235, 21.134866933815239 ], [ -156.79740317271586, 21.134591392937718 ], [ -156.797381770793294, 21.133807204292648 ], [ -156.798570797934104, 21.13297592475741 ], [ -156.799700934643482, 21.132656402373723 ], [ -156.796853243366201, 21.132725195579898 ], [ -156.797135298959176, 21.132415420743964 ], [ -156.797439127133657, 21.13215877573634 ], [ -156.797736714225096, 21.130797748330256 ], [ -156.798318665453166, 21.130305881146754 ], [ -156.796913171898126, 21.130235347420342 ], [ -156.796281243448647, 21.130769550996554 ], [ -156.796303376345577, 21.131580271842971 ], [ -156.795449217127498, 21.131600900041462 ], [ -156.794822472882572, 21.131040720906817 ], [ -156.794887550196677, 21.129901288375223 ], [ -156.794266311811157, 21.130513074936847 ], [ -156.793127380689754, 21.13045583717556 ], [ -156.79226730466317, 21.130476637184028 ], [ -156.792259428953201, 21.130189745158287 ], [ -156.792274718163924, 21.129919029119868 ], [ -156.792267239703847, 21.129643386306729 ], [ -156.792868363769514, 21.128847736446794 ], [ -156.792845882481572, 21.128023651231107 ], [ -156.793402377240056, 21.128051606234987 ], [ -156.794537180626662, 21.127567087790712 ], [ -156.794932666552739, 21.127232733619053 ], [ -156.793479353934345, 21.126565946555257 ], [ -156.794386801943062, 21.126410231650802 ], [ -156.795223086503285, 21.126452208380467 ], [ -156.795647149201244, 21.126034687385797 ], [ -156.796000357758601, 21.125946554183518 ], [ -156.795750986508665, 21.125705727864379 ], [ -156.795647149201244, 21.126034687385797 ], [ -156.794934215778284, 21.125812628244461 ], [ -156.795296707443583, 21.124887000341079 ], [ -156.796689137770812, 21.124292451911629 ], [ -156.796970700108972, 21.124014880489931 ], [ -156.797563193368717, 21.123761988492166 ], [ -156.798099695145311, 21.123233481446938 ], [ -156.799590281521319, 21.122596926404608 ], [ -156.798276966174456, 21.12238017702451 ], [ -156.796429692095558, 21.122424808200051 ], [ -156.796407659946397, 21.121626059623363 ], [ -156.797053565927001, 21.120715423269296 ], [ -156.798695643230332, 21.11932722565582 ], [ -156.795290286039148, 21.119409531915323 ], [ -156.795907453712232, 21.118592512776342 ], [ -156.79589404207519, 21.118107255396712 ], [ -156.797850990589239, 21.117696700765862 ], [ -156.797128838729236, 21.117051160570487 ], [ -156.796600384448709, 21.11608205862813 ], [ -156.79828104617971, 21.115094454182422 ], [ -156.797091416763692, 21.114812174008684 ], [ -156.797699195857433, 21.114552598573361 ], [ -156.798269401469611, 21.114278775017834 ], [ -156.799728131319938, 21.114036994777834 ], [ -156.79971534116325, 21.113566031284371 ], [ -156.800438432857419, 21.112177975548153 ], [ -156.80178043464818, 21.111896430387528 ], [ -156.802061962630916, 21.111618847243665 ], [ -156.802365737234283, 21.111362188359987 ], [ -156.803603590017246, 21.10982337355432 ], [ -156.804995562473692, 21.109228935350679 ], [ -156.805934069829931, 21.108640519770951 ], [ -156.807659398632353, 21.10790367056541 ], [ -156.807621467810037, 21.106532186141585 ], [ -156.808230573062843, 21.106562817617764 ], [ -156.808784711511379, 21.106016638039055 ], [ -156.809377114254147, 21.10576369619946 ], [ -156.810475960110352, 21.105236058966724 ], [ -156.811690446658616, 21.105512345034146 ], [ -156.812546613306949, 21.105806486621574 ], [ -156.813664014772911, 21.105455005943032 ], [ -156.815575908061135, 21.105951518834633 ], [ -156.81724885564671, 21.104781583605476 ], [ -156.819359417978177, 21.105208120355886 ], [ -156.820110919008471, 21.105990464950228 ], [ -156.821473867781634, 21.105407944853035 ], [ -156.822112375376861, 21.104312627885143 ], [ -156.822947466986335, 21.102708947012569 ], [ -156.823561309438304, 21.102414161291605 ], [ -156.824153677302007, 21.102161164245096 ], [ -156.824728622590328, 21.101594557221652 ], [ -156.82633193793086, 21.101674785757766 ], [ -156.827340623755759, 21.101389281410341 ], [ -156.827913415970869, 21.099768318192712 ], [ -156.828560521403944, 21.099491797398734 ], [ -156.829097396670193, 21.098962784032295 ], [ -156.830112166555892, 21.099013609784866 ], [ -156.830563148628102, 21.098147750301003 ], [ -156.831623273271987, 21.098200734447353 ], [ -156.832108969766836, 21.096826674411545 ], [ -156.83260282648223, 21.096851376429012 ], [ -156.832944028106255, 21.095583807878306 ], [ -156.83490844316907, 21.097141043004331 ], [ -156.836015776461863, 21.098293768226405 ], [ -156.836625367125208, 21.097433486026649 ], [ -156.837477861569766, 21.09747611102943 ], [ -156.837525526617554, 21.096637759195499 ], [ -156.837495480443835, 21.095558845515573 ], [ -156.838246954268101, 21.096230257396851 ], [ -156.838957695137083, 21.096969936120431 ], [ -156.83983058489207, 21.096109424765011 ], [ -156.84141301650493, 21.096188446883758 ], [ -156.840440799592614, 21.093878248892938 ], [ -156.840791307232479, 21.092078852883596 ], [ -156.841325089954893, 21.092617176629883 ], [ -156.842747521937497, 21.095065650329087 ], [ -156.845123289728917, 21.09682405662587 ], [ -156.84588972509593, 21.093314965271141 ], [ -156.846293045450437, 21.092540521623686 ], [ -156.847374655000465, 21.09350685471847 ], [ -156.848410796587956, 21.094870921184945 ], [ -156.849098759621029, 21.094905313650404 ], [ -156.848759267198801, 21.094282961333302 ], [ -156.848121549399139, 21.090546490368371 ], [ -156.848617130085671, 21.090841957950715 ], [ -156.849643432439336, 21.09191009776908 ], [ -156.850007316001722, 21.091112257679846 ], [ -156.850171410698465, 21.089348171300792 ], [ -156.850605259056806, 21.089486486966763 ], [ -156.851449840352757, 21.090586310793565 ], [ -156.852049532616832, 21.090582398742956 ], [ -156.853882618939792, 21.092422046261881 ], [ -156.855188632192551, 21.09360838913183 ], [ -156.855174672937352, 21.091714384429046 ], [ -156.855237048064055, 21.089981809625705 ], [ -156.854958830313592, 21.087368521760066 ], [ -156.855553954388427, 21.087387424323921 ], [ -156.856128146670642, 21.086841588791103 ], [ -156.856702417335214, 21.086859826715635 ], [ -156.857011420047542, 21.08685777836412 ], [ -156.857573316546734, 21.08632355561744 ], [ -156.857888295983372, 21.08606190016506 ], [ -156.858440783199967, 21.08661628395981 ], [ -156.85930491733194, 21.086610656898433 ], [ -156.859578885581556, 21.087440384671819 ], [ -156.860162121737432, 21.087167558507801 ], [ -156.860736212760315, 21.087454457431598 ], [ -156.861587904071627, 21.086644483315045 ], [ -156.862102437371021, 21.086660891422898 ], [ -156.862461256324934, 21.087748191764845 ], [ -156.863521025782802, 21.087093490192526 ], [ -156.86419415759957, 21.087768965186697 ], [ -156.864775685684521, 21.08749689483534 ], [ -156.865635346842282, 21.087785124009024 ], [ -156.866762101957278, 21.088144043591871 ], [ -156.867043670538095, 21.090241180106272 ], [ -156.867334147653452, 21.090510468343815 ], [ -156.867624314243187, 21.090801579823545 ], [ -156.86759628329051, 21.091580141079977 ], [ -156.867847497987981, 21.092684335789237 ], [ -156.86957606452043, 21.089001191231212 ], [ -156.870537037050212, 21.089481297231558 ], [ -156.871072940708927, 21.091104591897519 ], [ -156.871650146215586, 21.091927396486593 ], [ -156.871620737505793, 21.092744703082406 ], [ -156.873499656445603, 21.091583498922926 ], [ -156.874508206259776, 21.090624349930675 ], [ -156.87494555676642, 21.090340383081326 ], [ -156.87651868262455, 21.092659137567654 ], [ -156.876849866919287, 21.090899476427744 ], [ -156.882065184521338, 21.09212738268895 ], [ -156.881704430129673, 21.094246515256202 ], [ -156.881712334794827, 21.09529910681902 ], [ -156.881673244315863, 21.096385241720839 ], [ -156.882089977668528, 21.096382510623251 ], [ -156.884007891953161, 21.095054196454804 ], [ -156.884466044152305, 21.094794276447047 ], [ -156.885147047400693, 21.096157547703225 ], [ -156.885718857009493, 21.096153831542907 ], [ -156.886298082317609, 21.096442830190856 ], [ -156.886592164282888, 21.096440940086815 ], [ -156.887729544595231, 21.097273324819085 ], [ -156.88859354434905, 21.097820653697841 ], [ -156.889455901910765, 21.098384891217492 ], [ -156.890865314341596, 21.097725372653578 ], [ -156.891235516293563, 21.094330130443623 ], [ -156.894023154697919, 21.094955187004793 ], [ -156.899030877495477, 21.09663337023434 ], [ -156.905310668386477, 21.099387973536839 ], [ -156.918743323314345, 21.105020360164293 ], [ -156.927877879324967, 21.110230812325277 ], [ -156.933685454287996, 21.114366670826314 ], [ -156.941364624234154, 21.119827459547512 ], [ -156.941550697503573, 21.120013938210661 ] ], [ [ -156.896265240010962, 21.137067986690223 ], [ -156.896618748990647, 21.138435755730235 ], [ -156.897407215698109, 21.138818409639278 ], [ -156.897059916142894, 21.13726987899172 ], [ -156.896265240010962, 21.137067986690223 ] ], [ [ -156.900968836903331, 21.131165922324449 ], [ -156.901855420270465, 21.131448105306308 ], [ -156.904229008796221, 21.134075943843722 ], [ -156.90456800039874, 21.133753581733725 ], [ -156.904557505770612, 21.132414080509225 ], [ -156.902840738128049, 21.131327294628058 ], [ -156.902274501551801, 21.130925130103229 ], [ -156.90516230450001, 21.131357620827664 ], [ -156.905153800043252, 21.130277300066144 ], [ -156.905464159297622, 21.130004983624108 ], [ -156.905459615028661, 21.12942529779755 ], [ -156.904358366397105, 21.128405870203718 ], [ -156.903241173534383, 21.126997372179325 ], [ -156.90491126271678, 21.127830833187669 ], [ -156.905490595359765, 21.12810350621719 ], [ -156.906913228622614, 21.129210242621706 ], [ -156.907487452556239, 21.129445738814564 ], [ -156.906832215187109, 21.127569171871215 ], [ -156.905792405151658, 21.127576225794169 ], [ -156.904975277361217, 21.127168520419747 ], [ -156.905523228391502, 21.126202303466023 ], [ -156.905519078760904, 21.125654636536773 ], [ -156.904348945857606, 21.125104054962414 ], [ -156.903647291112918, 21.125108798680873 ], [ -156.903085587343412, 21.123984720770441 ], [ -156.904681205758862, 21.124035093706848 ], [ -156.905546216896994, 21.123742848209702 ], [ -156.9044447249413, 21.122723354367292 ], [ -156.904127782487194, 21.122341611843378 ], [ -156.906715710070472, 21.12287234990033 ], [ -156.908379102054738, 21.123960549948141 ], [ -156.908688588055071, 21.126262059064157 ], [ -156.909385490165164, 21.124666177943794 ], [ -156.91043476385812, 21.125189768683317 ], [ -156.912146538150552, 21.125525268896908 ], [ -156.913052228252496, 21.124663577480845 ], [ -156.913032194737298, 21.122065470327389 ], [ -156.911535697704181, 21.121361296083396 ], [ -156.909986624402137, 21.121713529060237 ], [ -156.909028773996681, 21.121086820830445 ], [ -156.907327133624904, 21.121098416072112 ], [ -156.907036827872247, 21.120807494400157 ], [ -156.905584676943732, 21.120522781776693 ], [ -156.907187930097678, 21.119564508125308 ], [ -156.906462517673987, 21.118893166213823 ], [ -156.90561424878905, 21.11889895241552 ], [ -156.905335908465474, 21.11855969181239 ], [ -156.907367543342872, 21.117836698164599 ], [ -156.907365460572436, 21.117563095670445 ], [ -156.907379901002628, 21.117156877595672 ], [ -156.907375199409074, 21.116567465262936 ], [ -156.906490292751954, 21.115387481596766 ], [ -156.904482449397506, 21.116004796660082 ], [ -156.903353658858663, 21.11578829458773 ], [ -156.904518391441371, 21.115092173183605 ], [ -156.905103809166292, 21.114124961641455 ], [ -156.90366037200684, 21.112101322293576 ], [ -156.902529021923186, 21.112630637717675 ], [ -156.901750343618801, 21.112241985306213 ], [ -156.901375994992435, 21.11149321682154 ], [ -156.901404160628573, 21.110713582518493 ], [ -156.901049535896249, 21.110046284044738 ], [ -156.899664438891733, 21.109613466511643 ], [ -156.899102012765667, 21.11014835489987 ], [ -156.898487920145982, 21.110687759664454 ], [ -156.897656787101397, 21.110661575295548 ], [ -156.896758176212927, 21.111081821595295 ], [ -156.896793471056867, 21.110098154847591 ], [ -156.897623681486976, 21.109369088173235 ], [ -156.899130773356859, 21.107705048637825 ], [ -156.899764303391208, 21.107426228265943 ], [ -156.90116105221577, 21.107470254620416 ], [ -156.901158223289343, 21.107090017390604 ], [ -156.900015491477433, 21.106366653889737 ], [ -156.900026090251799, 21.106074291586523 ], [ -156.90061018169726, 21.105561230249606 ], [ -156.901732697364082, 21.104493525245296 ], [ -156.902130371964518, 21.102378230117619 ], [ -156.901795612706934, 21.101782881053417 ], [ -156.901066620572607, 21.102476449899395 ], [ -156.900636853233834, 21.103665047471793 ], [ -156.900322863135074, 21.104219158444721 ], [ -156.89917243672943, 21.104725332733249 ], [ -156.899180901785826, 21.105806512829002 ], [ -156.897954992603331, 21.106345872774622 ], [ -156.895969521328766, 21.106283268403139 ], [ -156.896025691960944, 21.104718843262674 ], [ -156.895071213863162, 21.103325091723836 ], [ -156.892250316601945, 21.104644683980698 ], [ -156.891663597974286, 21.104903024380164 ], [ -156.891360759181993, 21.106261840488088 ], [ -156.890787928701798, 21.105975845986471 ], [ -156.888765381674887, 21.105685025994571 ], [ -156.887926641724846, 21.104843930457395 ], [ -156.886158384135058, 21.104297888234584 ], [ -156.884873208399625, 21.104899116918521 ], [ -156.883594324951844, 21.104260599479382 ], [ -156.882986940281995, 21.103987377568689 ], [ -156.882143252480944, 21.104789621866537 ], [ -156.88183926255752, 21.105051459527679 ], [ -156.881863494404541, 21.10437708811644 ], [ -156.881854202329862, 21.103144434636153 ], [ -156.880941181350806, 21.103150484839851 ], [ -156.880399735176553, 21.105580610203464 ], [ -156.880073470727694, 21.105842165761423 ], [ -156.878960340322237, 21.105286383601534 ], [ -156.87812684367745, 21.104893900605006 ], [ -156.878698551640952, 21.103391905534952 ], [ -156.878996349596719, 21.102355576856755 ], [ -156.876394440395131, 21.102821728006305 ], [ -156.876108931093711, 21.102775156926146 ], [ -156.876708761624741, 21.101199572061169 ], [ -156.877006023638472, 21.100201472090834 ], [ -156.875841816148608, 21.100920825918696 ], [ -156.87551368641482, 21.099926929649957 ], [ -156.873724010537074, 21.100476904246275 ], [ -156.872651411127805, 21.101968229082157 ], [ -156.872390603754241, 21.100327223930051 ], [ -156.871994726788188, 21.100329795283514 ], [ -156.872542746593524, 21.098890230930969 ], [ -156.871888932116605, 21.098158935703726 ], [ -156.870398154750575, 21.100445605730119 ], [ -156.87006700970403, 21.099092632976756 ], [ -156.868019651240985, 21.100510426848857 ], [ -156.865769240515647, 21.100825131886602 ], [ -156.865459466069723, 21.100484690597046 ], [ -156.86605180337952, 21.099440193101518 ], [ -156.866644218838445, 21.097994992899174 ], [ -156.865489995715421, 21.098349416058497 ], [ -156.864563375700016, 21.098618858800435 ], [ -156.863505198871735, 21.098585154003718 ], [ -156.863204155017485, 21.096689774135921 ], [ -156.861738143384656, 21.0959992685389 ], [ -156.861792250261118, 21.094504568368912 ], [ -156.861347350678045, 21.094092701164946 ], [ -156.859936878561228, 21.094525873961128 ], [ -156.859463366187896, 21.095835101716357 ], [ -156.858608705199003, 21.096985001584695 ], [ -156.859442405455724, 21.098555731188302 ], [ -156.858275737541476, 21.098518639587851 ], [ -156.857467089402633, 21.098896553456335 ], [ -156.856814966733197, 21.097935046366196 ], [ -156.856063192489074, 21.097238439627709 ], [ -156.855679042636126, 21.097956400114398 ], [ -156.854817667130959, 21.097667434675479 ], [ -156.853916817239622, 21.097673230816962 ], [ -156.853930679101069, 21.099552812805879 ], [ -156.853444978647815, 21.099979242866524 ], [ -156.853893882475461, 21.101720139449125 ], [ -156.853878912015148, 21.102133876908319 ], [ -156.853027651663183, 21.101708773168031 ], [ -156.851817206589487, 21.101323033299231 ], [ -156.850052566650362, 21.100030969590851 ], [ -156.848967302280641, 21.100037971101131 ], [ -156.849265770579905, 21.102490920072597 ], [ -156.850410286933339, 21.103030221284143 ], [ -156.851142243400801, 21.104496115781615 ], [ -156.852698291436354, 21.104142919268931 ], [ -156.85481318983588, 21.103904066895389 ], [ -156.859372813549271, 21.104588360830043 ], [ -156.861684749344249, 21.106281063192291 ], [ -156.863922794212527, 21.106994008062454 ], [ -156.864490531849697, 21.107277380158578 ], [ -156.865572975099468, 21.107787228762732 ], [ -156.867654656993437, 21.109007863705688 ], [ -156.869072160000258, 21.110045636274535 ], [ -156.869940442013586, 21.109779012174243 ], [ -156.870953764676841, 21.109484308559662 ], [ -156.872294680690089, 21.109824727716713 ], [ -156.873362679064968, 21.110896441827251 ], [ -156.875237595163895, 21.111972846811909 ], [ -156.878601255533283, 21.112358414466737 ], [ -156.881136609120261, 21.112341588229125 ], [ -156.882278635274162, 21.11291187611031 ], [ -156.883759776150868, 21.113270364741883 ], [ -156.883707015504342, 21.114743538168295 ], [ -156.885358995206275, 21.116717017359864 ], [ -156.888038592047309, 21.116236896423043 ], [ -156.89009698371936, 21.115996906970519 ], [ -156.891210238787608, 21.116552625477553 ], [ -156.892948309319223, 21.117370899330712 ], [ -156.894463053875313, 21.118889831387651 ], [ -156.895776905715479, 21.121518813022966 ], [ -156.895740678613549, 21.122527402770395 ], [ -156.896005173589685, 21.12500569670301 ], [ -156.8962537613113, 21.127452572243676 ], [ -156.896550701018555, 21.128911315076707 ], [ -156.897107698027554, 21.130506370942548 ], [ -156.897639908486354, 21.132679819058502 ], [ -156.897570214857126, 21.134621561348457 ], [ -156.896814912422968, 21.136606048704738 ], [ -156.898431649197022, 21.137227648529443 ], [ -156.899561753338702, 21.13860187783412 ], [ -156.899862126591728, 21.138599850210358 ], [ -156.899853943403713, 21.137519801243307 ], [ -156.900303620591274, 21.137389054922014 ], [ -156.900397935344671, 21.137720552380902 ], [ -156.900654203164521, 21.137486138260719 ], [ -156.900303620591274, 21.137389054922014 ], [ -156.900458241702722, 21.136983189401246 ], [ -156.900165941775839, 21.136712735341568 ], [ -156.899870543181379, 21.136121968837937 ], [ -156.899021217037188, 21.135335881628524 ], [ -156.899622565832715, 21.134807966761763 ], [ -156.898978571741679, 21.133260056871681 ], [ -156.901017508184736, 21.13427765349077 ], [ -156.90122703785849, 21.13333656110651 ], [ -156.902124961383663, 21.133555318814587 ], [ -156.901891733509785, 21.13251441556304 ], [ -156.900968836903331, 21.131165922324449 ] ], [ [ -156.843641698683228, 21.10172773863037 ], [ -156.843349967863986, 21.102112949855933 ], [ -156.842595499977023, 21.102366863725837 ], [ -156.842355209376223, 21.102684467785515 ], [ -156.841381419730396, 21.103189706221912 ], [ -156.843069231332322, 21.104078463728349 ], [ -156.84533043229618, 21.103587734481998 ], [ -156.845764093483837, 21.102862362361662 ], [ -156.844495584426568, 21.102398445160322 ], [ -156.844099573489302, 21.101844154476865 ], [ -156.843641698683228, 21.10172773863037 ] ] ] } }
]
}
