{
"type": "FeatureCollection",
"name": "cyasole",
"crs": { "type": "name", "properties": { "name": "urn:ogc:def:crs:OGC:1.3:CRS84" } },
"features": [
{ "type": "Feature", "properties": { "ID": 1, "GRIDCODE": 2 }, "geometry": { "type": "Polygon", "coordinates": [ [ [ -156.882360165497687, 21.140145736329529 ], [ -156.882009592364369, 21.140048615576486 ], [ -156.882265890842291, 21.139814232136647 ], [ -156.882360165497687, 21.140145736329529 ] ] ] } },
{ "type": "Feature", "properties": { "ID": 2, "GRIDCODE": 2 }, "geometry": { "type": "Polygon", "coordinates": [ [ [ -156.888038020508816, 21.126670276655183 ], [ -156.887934380633453, 21.126999310136018 ], [ -156.887684845998564, 21.126758606481364 ], [ -156.888038020508816, 21.126670276655183 ] ] ] } },
{ "type": "Feature", "properties": { "ID": 3, "GRIDCODE": 2 }, "geometry": { "type": "Polygon", "coordinates": [ [ [ -156.962081552801919, 21.160089960954615 ], [ -156.961987087887081, 21.159758486305645 ], [ -156.961730866411074, 21.159992997580765 ], [ -156.962081552801919, 21.160089960954615 ], [ -156.962307926449711, 21.160737552218546 ], [ -156.959874012160299, 21.168183632780025 ], [ -156.959242291912801, 21.169366448256788 ], [ -156.957527123629774, 21.170998274252675 ], [ -156.954889394324283, 21.171016857088571 ], [ -156.954017889445652, 21.169776916667267 ], [ -156.954012148028767, 21.169066369236209 ], [ -156.954604494382835, 21.168021478007706 ], [ -156.954051603094541, 21.166628228719372 ], [ -156.953358586659732, 21.164964397310236 ], [ -156.953874026165124, 21.164054904318395 ], [ -156.953507229964174, 21.163365321777547 ], [ -156.953534343534187, 21.1626039081711 ], [ -156.95327238373909, 21.159849908405061 ], [ -156.953301243603164, 21.159043470032259 ], [ -156.952982898018519, 21.158749102665386 ], [ -156.951671567118296, 21.156128383943965 ], [ -156.949391050099592, 21.153843247106419 ], [ -156.948215639790732, 21.154301544695986 ], [ -156.947718924373447, 21.154773955531137 ], [ -156.947122779171053, 21.155297744347081 ], [ -156.94669236343276, 21.155707058960513 ], [ -156.945566338840706, 21.156202713147966 ], [ -156.944949626808466, 21.156744301405961 ], [ -156.944372285244441, 21.157825059645521 ], [ -156.942587811746591, 21.159715779290224 ], [ -156.942146133503712, 21.16093774598939 ], [ -156.941687751215682, 21.16214323565708 ], [ -156.941389541518674, 21.163228766173717 ], [ -156.941080196041753, 21.164303312218166 ], [ -156.940651272598956, 21.165865153597881 ], [ -156.939942683524833, 21.167191215310371 ], [ -156.938454882747294, 21.168606265306423 ], [ -156.936992119840426, 21.167949455134057 ], [ -156.938733400256922, 21.166908719369253 ], [ -156.938471724542751, 21.165355267932835 ], [ -156.937160032973395, 21.163488378240455 ], [ -156.935655224325274, 21.160173175075947 ], [ -156.934520704819249, 21.15826821506413 ], [ -156.934245163389022, 21.157717559642403 ], [ -156.933383554952513, 21.156920363030892 ], [ -156.933413253112036, 21.156081467907423 ], [ -156.93310691550252, 21.156083612162096 ], [ -156.932687976087408, 21.155663824887235 ], [ -156.932251610929427, 21.155260095582964 ], [ -156.932271034467192, 21.154714564184538 ], [ -156.931107824186597, 21.154433444361583 ], [ -156.931117866305613, 21.154157342532663 ], [ -156.930821019891823, 21.153882779065615 ], [ -156.930848855918526, 21.153097572669047 ], [ -156.930257469745328, 21.152504684385264 ], [ -156.928570683130232, 21.152516385527299 ], [ -156.927478013013513, 21.151505593412015 ], [ -156.928280370746535, 21.150090377566464 ], [ -156.9280014644402, 21.149784147404038 ], [ -156.927427854053519, 21.149253248449035 ], [ -156.92716535489393, 21.14760644544776 ], [ -156.926017939329427, 21.147066792812975 ], [ -156.926015978874062, 21.146782276393949 ], [ -156.926034026354529, 21.146276152697833 ], [ -156.9250346385287, 21.145274693775406 ], [ -156.923916985771143, 21.14424055830224 ], [ -156.923470046460125, 21.142960714170563 ], [ -156.922938027999777, 21.14135114777913 ], [ -156.922496348083683, 21.14090863708671 ], [ -156.922060332684453, 21.140505022387742 ], [ -156.921515166666524, 21.139414930846595 ], [ -156.920654260599406, 21.139387887106956 ], [ -156.919774540661336, 21.139799416994503 ], [ -156.919769369110384, 21.139119510046278 ], [ -156.919798160647446, 21.138309713788988 ], [ -156.918934941901909, 21.13790361974986 ], [ -156.918928435809477, 21.13707718426539 ], [ -156.918962151599771, 21.136137142191583 ], [ -156.918659794308041, 21.135857399989806 ], [ -156.918384347716199, 21.135306725608363 ], [ -156.918093688601374, 21.135037643532122 ], [ -156.917814462351174, 21.134757721488224 ], [ -156.91710768013229, 21.134762587130012 ], [ -156.916304099584181, 21.131948661684934 ], [ -156.915838828486272, 21.131482364561794 ], [ -156.915693504709878, 21.131347821831927 ], [ -156.915599157800585, 21.131016330176163 ], [ -156.915342923465886, 21.131250769979566 ], [ -156.915693504709878, 21.131347821831927 ], [ -156.91584088845417, 21.13228288182566 ], [ -156.91605538097923, 21.135295799892994 ], [ -156.916369097194519, 21.135811494550925 ], [ -156.916612335292598, 21.136769297252084 ], [ -156.915436658812922, 21.138238398633366 ], [ -156.914584036250119, 21.139554507574477 ], [ -156.915555780441281, 21.141153171817692 ], [ -156.916318033512965, 21.141741395672913 ], [ -156.916866332303783, 21.143008479100587 ], [ -156.916806174659314, 21.143417972265194 ], [ -156.916838479226442, 21.143689301355909 ], [ -156.916758997715874, 21.144230185872068 ], [ -156.916823324843534, 21.144772840562315 ], [ -156.91671642588517, 21.145499454341891 ], [ -156.917091365975125, 21.146115781999587 ], [ -156.917341616279799, 21.146694260633492 ], [ -156.917934463885047, 21.146632500222257 ], [ -156.918198652001252, 21.147243163709501 ], [ -156.918551895792973, 21.147515728761842 ], [ -156.918436546163548, 21.148302498382218 ], [ -156.918793138715728, 21.148577816265039 ], [ -156.918713941932253, 21.149118705248362 ], [ -156.919067190898744, 21.149391269613414 ], [ -156.919319595687057, 21.149695335240679 ], [ -156.919737583172747, 21.150017774357554 ], [ -156.919586082583947, 21.151050558180856 ], [ -156.919942683599459, 21.151325874274988 ], [ -156.919797724128784, 21.152314355008233 ], [ -156.92030885328532, 21.155560044292873 ], [ -156.921232737605976, 21.156779546242507 ], [ -156.921508630361814, 21.158392056271232 ], [ -156.922118609376696, 21.158641973780249 ], [ -156.922037253334793, 21.159196331378297 ], [ -156.92268481612885, 21.159461723867544 ], [ -156.922598153090036, 21.160052859636668 ], [ -156.923667486713441, 21.160877926126687 ], [ -156.924064948698714, 21.161481620199723 ], [ -156.923153616303068, 21.162148223933841 ], [ -156.923563357308353, 21.162822051884699 ], [ -156.923456469639433, 21.163548670125984 ], [ -156.923489779780851, 21.163829734270731 ], [ -156.92315246623275, 21.164352572696608 ], [ -156.923514655428562, 21.16560445728997 ], [ -156.923255323226243, 21.167370464095274 ], [ -156.92209218515589, 21.167220179378795 ], [ -156.921538758077986, 21.166554172741797 ], [ -156.920536320785203, 21.165966185034424 ], [ -156.91942510158384, 21.165109692587798 ], [ -156.918049472599535, 21.16430265636086 ], [ -156.917386192671955, 21.164030900254037 ], [ -156.916844987026025, 21.163723273445175 ], [ -156.913350817723028, 21.163439294341668 ], [ -156.910831082033638, 21.162680919902677 ], [ -156.909552270230392, 21.161954389074086 ], [ -156.909700117055365, 21.160946975625343 ], [ -156.907803696039736, 21.159834052552156 ], [ -156.906477223078099, 21.159290397502371 ], [ -156.906214566150169, 21.158974214533821 ], [ -156.905632537866722, 21.15928569480316 ], [ -156.904123605123743, 21.15886120474196 ], [ -156.903079966148056, 21.160425757588243 ], [ -156.902268381702669, 21.160833794695471 ], [ -156.902556656598193, 21.158871546045798 ], [ -156.903644537376437, 21.157629735766022 ], [ -156.903982062103125, 21.156574542175189 ], [ -156.903635279794401, 21.156004044675537 ], [ -156.903386715057678, 21.155429075505026 ], [ -156.901989450525093, 21.154609150533751 ], [ -156.901394269136006, 21.153233430171969 ], [ -156.900452559344018, 21.153331480015858 ], [ -156.900663455523699, 21.15283648984818 ], [ -156.901016688246841, 21.152748137700112 ], [ -156.900767091415076, 21.152507448654607 ], [ -156.900663455523699, 21.15283648984818 ], [ -156.899948702215937, 21.152680909861324 ], [ -156.899508610635564, 21.152708584908567 ], [ -156.898346961697769, 21.151744187497698 ], [ -156.897849129573871, 21.151187281637533 ], [ -156.896031759585526, 21.149944255982298 ], [ -156.894580169944561, 21.150300247140354 ], [ -156.892795547231003, 21.153940190110308 ], [ -156.893071443452584, 21.157801771597626 ], [ -156.892187056789822, 21.159087846775417 ], [ -156.892047915685623, 21.158835292817411 ], [ -156.89174231697794, 21.155599200965607 ], [ -156.890328274291164, 21.154017784310668 ], [ -156.889254924285069, 21.15363272991106 ], [ -156.886660065008272, 21.153320808305935 ], [ -156.887034116976338, 21.151567296894381 ], [ -156.888314462943129, 21.150560226441108 ], [ -156.889880526615855, 21.148734664714787 ], [ -156.889503294334077, 21.147153670679248 ], [ -156.887011839650938, 21.147373397827508 ], [ -156.88615213345426, 21.14765739975384 ], [ -156.885300793704801, 21.147352023139351 ], [ -156.884096175730434, 21.147079398484848 ], [ -156.885290075481919, 21.146597380497994 ], [ -156.885054279778274, 21.144056739027839 ], [ -156.884313404533316, 21.143441464080166 ], [ -156.883787058027252, 21.14285268085132 ], [ -156.883057900460273, 21.142247138564585 ], [ -156.88278679612813, 21.141360191620603 ], [ -156.882487898291743, 21.140563778967572 ], [ -156.882360165497687, 21.140145736329529 ], [ -156.883402135239663, 21.14052805325225 ], [ -156.884818198960204, 21.140841288595272 ], [ -156.887368694634546, 21.141899374172304 ], [ -156.888525755496403, 21.142540333741451 ], [ -156.888824201660725, 21.14251554857038 ], [ -156.889549853475728, 21.142594116747233 ], [ -156.88903170829812, 21.141246111804673 ], [ -156.889672351518783, 21.140655955798394 ], [ -156.892161735946445, 21.141351795111714 ], [ -156.892256033812458, 21.141683295661437 ], [ -156.892512320695545, 21.141448895619867 ], [ -156.892161735946445, 21.141351795111714 ], [ -156.891995905322261, 21.140794048939153 ], [ -156.890315648316545, 21.140097116418119 ], [ -156.888560233016051, 21.139829302350897 ], [ -156.888136860232947, 21.138879212482887 ], [ -156.887132977536794, 21.138455795193444 ], [ -156.887167714972293, 21.13817385801913 ], [ -156.887121146971396, 21.137679243659989 ], [ -156.888024655639327, 21.137086090171088 ], [ -156.888877835873473, 21.137178420984352 ], [ -156.88892055453465, 21.136830504293279 ], [ -156.888286739645537, 21.136323075492225 ], [ -156.888419952424158, 21.13524102514976 ], [ -156.888049371919891, 21.134944308270082 ], [ -156.888117256175349, 21.134392715994615 ], [ -156.888017438433877, 21.133337259233784 ], [ -156.890815973365022, 21.133640164345227 ], [ -156.891880247148379, 21.133361523415747 ], [ -156.890392192795446, 21.132260597675213 ], [ -156.890747748787646, 21.131407065460142 ], [ -156.889291177022386, 21.130872787847938 ], [ -156.887563998127348, 21.130490760705761 ], [ -156.887828778441957, 21.130312695483379 ], [ -156.888554438563318, 21.130028130141053 ], [ -156.888814523497047, 21.127911637407767 ], [ -156.888148194042799, 21.128149254397943 ], [ -156.887009063083582, 21.12889689700361 ], [ -156.887328450617417, 21.128009385903272 ], [ -156.889029988392167, 21.12705371600919 ], [ -156.88877266739928, 21.12652637833818 ], [ -156.888038020508816, 21.126670276655183 ], [ -156.889344962739358, 21.125042612080236 ], [ -156.88944335117813, 21.124665887765484 ], [ -156.888207935502038, 21.125464727652446 ], [ -156.887903768106582, 21.125437982370354 ], [ -156.886344142713568, 21.126031485946783 ], [ -156.885870901123525, 21.126533237984233 ], [ -156.885604479688539, 21.125952536388127 ], [ -156.88520230838219, 21.125618578134773 ], [ -156.8840092854457, 21.125693500343974 ], [ -156.883113122210887, 21.125614635109134 ], [ -156.882160581852901, 21.124462462484178 ], [ -156.883072840788856, 21.123744757492162 ], [ -156.881324028922791, 21.122292649671706 ], [ -156.881069903110756, 21.11993545770018 ], [ -156.880740230527095, 21.119680513918169 ], [ -156.880778536534052, 21.120219276258588 ], [ -156.879845055460919, 21.122509881591466 ], [ -156.87991343378215, 21.123471881040579 ], [ -156.878671499120003, 21.123973314281013 ], [ -156.878983560793188, 21.124515108168907 ], [ -156.879520795761522, 21.125839628769082 ], [ -156.878072901228876, 21.126129262642408 ], [ -156.877220218141161, 21.126680538016874 ], [ -156.875843636255951, 21.127050683373209 ], [ -156.875496288764225, 21.125522628630144 ], [ -156.874334923865035, 21.125018787320727 ], [ -156.874075661826254, 21.12445357232744 ], [ -156.873769111723419, 21.124198905452221 ], [ -156.873462927571865, 21.122495090688261 ], [ -156.873595471996055, 21.121169241577704 ], [ -156.872948318945674, 21.121209864298066 ], [ -156.872351179797562, 21.12088745238621 ], [ -156.872407746573117, 21.120322035347666 ], [ -156.871377006946204, 21.118532653525047 ], [ -156.870920692466285, 21.118202746797525 ], [ -156.871031351755818, 21.119754356645807 ], [ -156.869456255804835, 21.120069374094562 ], [ -156.870685540110998, 21.120433609017827 ], [ -156.87063193565757, 21.120968834402071 ], [ -156.870042464026767, 21.121432765431713 ], [ -156.870617920624568, 21.12191081424157 ], [ -156.870961120033144, 21.122659050866215 ], [ -156.870866041594127, 21.123610528572222 ], [ -156.870905013586366, 21.124159352709857 ], [ -156.870505547501722, 21.125139281328515 ], [ -156.867083470306852, 21.124837925387144 ], [ -156.867416218673327, 21.125724475816583 ], [ -156.867543899948487, 21.126142525813783 ], [ -156.867190718667359, 21.126230811953462 ], [ -156.867440216489314, 21.126471542974013 ], [ -156.867543899948487, 21.126142525813783 ], [ -156.867977873440765, 21.126280740764624 ], [ -156.868545688146895, 21.126564237810406 ], [ -156.86912493763549, 21.126837029368271 ], [ -156.869404053188106, 21.127116890830557 ], [ -156.870718216758121, 21.128333933914011 ], [ -156.870246738275426, 21.12874775457696 ], [ -156.870250802502483, 21.129292236956825 ], [ -156.870202596299322, 21.130633229223459 ], [ -156.870516254151909, 21.13092371006535 ], [ -156.870487311212344, 21.131725738820371 ], [ -156.870853641583608, 21.132415465417886 ], [ -156.870333213293577, 21.13333314976148 ], [ -156.868485285348925, 21.133647493105435 ], [ -156.868165849427072, 21.133327170932962 ], [ -156.867301739457162, 21.132779861155246 ], [ -156.866661766171859, 21.13213807407497 ], [ -156.866140886324388, 21.133578009807277 ], [ -156.864960614768876, 21.134096976246369 ], [ -156.864968389460017, 21.135148628316347 ], [ -156.864925101530389, 21.135453732820871 ], [ -156.863811826602159, 21.134897838907733 ], [ -156.862493287547125, 21.134477917801792 ], [ -156.861806350740864, 21.133788823011979 ], [ -156.860712817649073, 21.133273838006083 ], [ -156.860350723434919, 21.134590349360064 ], [ -156.859154598126082, 21.134189279787197 ], [ -156.859635356845217, 21.135567177229216 ], [ -156.860330833441139, 21.136211212425909 ], [ -156.860027522716763, 21.136477376715042 ], [ -156.860318022991208, 21.137024749449189 ], [ -156.859951876838352, 21.137346076696389 ], [ -156.861166711575748, 21.138115534436206 ], [ -156.862011616755979, 21.139215329831686 ], [ -156.862773914835373, 21.139921251364015 ], [ -156.864022880556774, 21.140318997325274 ], [ -156.865148235981053, 21.140880865549491 ], [ -156.866014097805561, 21.140875248774645 ], [ -156.866604362854702, 21.141169886309253 ], [ -156.86721498104265, 21.141165874496629 ], [ -156.868320961121213, 21.14227508364711 ], [ -156.86875682236888, 21.142678825045802 ], [ -156.869175535215589, 21.14309862095859 ], [ -156.869611401189957, 21.143502360518212 ], [ -156.870030118743898, 21.143922154676769 ], [ -156.870326544664323, 21.144196678337835 ], [ -156.870306953627079, 21.144738414895873 ], [ -156.871598375740007, 21.145050986916122 ], [ -156.871158040083174, 21.145827401568098 ], [ -156.870692350683157, 21.147114324942429 ], [ -156.870227042057991, 21.150740164143002 ], [ -156.871070735476451, 21.152328512317929 ], [ -156.87134602520652, 21.152879250717582 ], [ -156.871632751373369, 21.153419285069937 ], [ -156.872173191232349, 21.154500723320016 ], [ -156.872479660937756, 21.154784565041513 ], [ -156.872751088800158, 21.155606178564899 ], [ -156.8746468750698, 21.157055410547397 ], [ -156.873834455699921, 21.160243126616244 ], [ -156.873838530931238, 21.160767302131163 ], [ -156.873540044163633, 21.161029183309441 ], [ -156.873082462893905, 21.161884159555299 ], [ -156.871867276035232, 21.16147677175918 ], [ -156.871469590842082, 21.16027317477797 ], [ -156.869805345976431, 21.159632983575658 ], [ -156.868374989971443, 21.159067689195297 ], [ -156.866996045319695, 21.158733873296395 ], [ -156.863504536359756, 21.158756677001747 ], [ -156.861717756570783, 21.160072776292044 ], [ -156.86018275779972, 21.160333810816915 ], [ -156.859400992518658, 21.160308903479574 ], [ -156.859110454528121, 21.160310782023092 ], [ -156.855262235449231, 21.15995432715204 ], [ -156.852508625675455, 21.159972102270014 ], [ -156.849783321226056, 21.161037238043924 ], [ -156.847679910098663, 21.16233592291217 ], [ -156.846664146453548, 21.162303546122835 ], [ -156.845508756871283, 21.162310922283542 ], [ -156.844931382215236, 21.162292519724872 ], [ -156.844353687917419, 21.162296202870198 ], [ -156.842621566701638, 21.162240977523904 ], [ -156.840608101950323, 21.162253841115263 ], [ -156.840317865055681, 21.161962810479583 ], [ -156.839721728109538, 21.161410775117105 ], [ -156.840799898741324, 21.160465340495577 ], [ -156.842077877230452, 21.160094252590493 ], [ -156.843586484528004, 21.159631312382771 ], [ -156.845002890621629, 21.158756832150893 ], [ -156.844993738476262, 21.157518915584568 ], [ -156.843107750068526, 21.154831035467176 ], [ -156.84447035860299, 21.154435406990675 ], [ -156.844759761174004, 21.154004534789987 ], [ -156.842160499323256, 21.152780363690535 ], [ -156.842204710331828, 21.151559135174349 ], [ -156.842199824311336, 21.150884348642201 ], [ -156.84260688991219, 21.150527274813292 ], [ -156.842211835463814, 21.149783089351782 ], [ -156.843108225088173, 21.148996900592142 ], [ -156.842623998747456, 21.148548362927933 ], [ -156.842174566766801, 21.146710868503114 ], [ -156.842594499915947, 21.145970857584143 ], [ -156.843168080368542, 21.145467875920502 ], [ -156.843161964404004, 21.144643854360655 ], [ -156.842541113774075, 21.144068764101906 ], [ -156.842647350700929, 21.141134294331682 ], [ -156.842642021639449, 21.140392300008163 ], [ -156.841512246052872, 21.138955159919728 ], [ -156.840734482021617, 21.137397824759162 ], [ -156.840103981197615, 21.136498901179188 ], [ -156.839479441143908, 21.135578356902215 ], [ -156.83896232797261, 21.134542638260967 ], [ -156.838122267148577, 21.133764390174537 ], [ -156.837562355037505, 21.132939051471638 ], [ -156.837271859501442, 21.13266984320115 ], [ -156.836996731352883, 21.132119062048297 ], [ -156.836417531770934, 21.131846163929655 ], [ -156.834700459546326, 21.130721876556329 ], [ -156.834144605697674, 21.129677515341101 ], [ -156.836762984201926, 21.12832860019428 ], [ -156.837321398605724, 21.127798123179815 ], [ -156.838134751756485, 21.127440621721657 ], [ -156.837643091272071, 21.12698523352222 ], [ -156.837367970141287, 21.126434453414241 ], [ -156.837065798046012, 21.126154579722154 ], [ -156.837095424742444, 21.125336968214764 ], [ -156.836136336228691, 21.124448388749929 ], [ -156.834101420231292, 21.123158981794599 ], [ -156.836302625644436, 21.122899262918892 ], [ -156.837998642956023, 21.122378680870835 ], [ -156.838874194619962, 21.122124356725468 ], [ -156.839454763247915, 21.12185303667334 ], [ -156.839881007133812, 21.123144625190129 ], [ -156.841795541048413, 21.123520715443572 ], [ -156.842474887761398, 21.123516340754147 ], [ -156.841647838857909, 21.121958583137324 ], [ -156.842617589480028, 21.122443001642669 ], [ -156.843524167678737, 21.122870058274689 ], [ -156.844769901669082, 21.124901430910661 ], [ -156.845796685933124, 21.122982318147308 ], [ -156.845793056135506, 21.12247237362423 ], [ -156.846517682509273, 21.122495478540689 ], [ -156.846953658714824, 21.122492621013031 ], [ -156.847517175188671, 21.123323664537015 ], [ -156.847860495379734, 21.122375299052862 ], [ -156.849260850640064, 21.123074760470672 ], [ -156.850404375968139, 21.123067384313995 ], [ -156.851889860020691, 21.123809377633375 ], [ -156.851471395226667, 21.122185671934758 ], [ -156.852850813758749, 21.121579232852 ], [ -156.853588797911925, 21.122319802943633 ], [ -156.854160288237267, 21.121776465534492 ], [ -156.855055071338427, 21.121516478300101 ], [ -156.854765708505226, 21.120971560967565 ], [ -156.854785775714674, 21.120419450254609 ], [ -156.853049453418123, 21.11986631906759 ], [ -156.852485825659812, 21.119296094793192 ], [ -156.85321976166756, 21.118652032131145 ], [ -156.853793805563839, 21.11810661060251 ], [ -156.854815874045414, 21.117209553126411 ], [ -156.855103989087979, 21.116370267274899 ], [ -156.854263800619066, 21.117169092721124 ], [ -156.853084624504305, 21.117423092564149 ], [ -156.852526304596267, 21.117953564193549 ], [ -156.851352366989829, 21.118469678082249 ], [ -156.851049899908816, 21.118757269373681 ], [ -156.850723560261144, 21.11901862890916 ], [ -156.849610464254425, 21.118462655534636 ], [ -156.849031288024378, 21.118189802749967 ], [ -156.847989592759205, 21.117669451412674 ], [ -156.847612998142978, 21.116528324146884 ], [ -156.846882554790852, 21.117222674925245 ], [ -156.846343908907045, 21.116682183747017 ], [ -156.845072177395622, 21.117467668239374 ], [ -156.844469031871057, 21.116259362476093 ], [ -156.843527111578311, 21.115061294860691 ], [ -156.843019609910982, 21.114591302654638 ], [ -156.843049171653462, 21.113775339345729 ], [ -156.841208169573633, 21.113469989795664 ], [ -156.841613511310442, 21.112406015519863 ], [ -156.84188010768159, 21.111596643722514 ], [ -156.840178843864891, 21.112391702411106 ], [ -156.839595075483174, 21.112224722866852 ], [ -156.840481885742236, 21.111032354563843 ], [ -156.838743540913157, 21.110611215933719 ], [ -156.838763841285783, 21.110046744979506 ], [ -156.838751347556524, 21.109118465440272 ], [ -156.838185863325293, 21.109656006935641 ], [ -156.837857374124582, 21.109326391936261 ], [ -156.837003211505134, 21.111280733706188 ], [ -156.836419757201242, 21.111792639796437 ], [ -156.835861403500161, 21.112323251907867 ], [ -156.835247375578774, 21.112590430631162 ], [ -156.835276492944786, 21.111788488235664 ], [ -156.834982550697362, 21.111235084497888 ], [ -156.835286368301723, 21.110699768476483 ], [ -156.835577411940335, 21.11015079538355 ], [ -156.834704975268892, 21.110156317420333 ], [ -156.834729865806196, 21.10947086503122 ], [ -156.834723934792578, 21.108655510780284 ], [ -156.833842788055108, 21.109067432350649 ], [ -156.833912447282273, 21.107143297850008 ], [ -156.833312627162115, 21.107423616613314 ], [ -156.832732934124692, 21.107405092134343 ], [ -156.832439065977354, 21.107954156267798 ], [ -156.831828524368859, 21.109030163493443 ], [ -156.831837350892783, 21.110246644169823 ], [ -156.831812450463843, 21.110931830396051 ], [ -156.831206533632667, 21.110912567291521 ], [ -156.830118855926742, 21.109820514147639 ], [ -156.82922863823822, 21.10953686859829 ], [ -156.829257912662996, 21.108726200485489 ], [ -156.828682048008346, 21.108192458457097 ], [ -156.828405798440571, 21.107355387229315 ], [ -156.828115368257016, 21.107086035950285 ], [ -156.827765246968397, 21.10638506510255 ], [ -156.826965893827435, 21.107879035936222 ], [ -156.826216478476312, 21.108208339896905 ], [ -156.827082121064819, 21.109442817812987 ], [ -156.826322763908252, 21.109776624137375 ], [ -156.825474474675758, 21.110582602567259 ], [ -156.824464371259381, 21.109568501780469 ], [ -156.822294560253454, 21.10904257715907 ], [ -156.82144631853231, 21.109438715512887 ], [ -156.820859481385327, 21.1096967983766 ], [ -156.820285359429477, 21.110242365668775 ], [ -156.819697206517787, 21.110223554714356 ], [ -156.819109560200729, 21.110498023953834 ], [ -156.819114644128234, 21.111211105170703 ], [ -156.819063693674337, 21.112111971100653 ], [ -156.818243412001465, 21.111288520248845 ], [ -156.817665924924626, 21.111292063130875 ], [ -156.817381382978652, 21.111006631478393 ], [ -156.815670641128037, 21.110670278242779 ], [ -156.81507638554325, 21.111780554344048 ], [ -156.814439450553408, 21.112339179394837 ], [ -156.81360610990393, 21.112312421586346 ], [ -156.813290857877007, 21.112314438372152 ], [ -156.813304257331367, 21.114208661042284 ], [ -156.811184688486151, 21.114504329536206 ], [ -156.810682299185913, 21.114999989535164 ], [ -156.811829263598156, 21.115540637882127 ], [ -156.812108245165831, 21.115820450846755 ], [ -156.813737811964216, 21.116215721058843 ], [ -156.813251093496262, 21.116642670836143 ], [ -156.812963621772695, 21.116941626660246 ], [ -156.8141091787721, 21.118003179390566 ], [ -156.814079006381945, 21.118830560312976 ], [ -156.81465427942311, 21.120480890526942 ], [ -156.81666545835435, 21.120468331670288 ], [ -156.817229007186512, 21.121034166896038 ], [ -156.817664972285314, 21.121031384495179 ], [ -156.81826584912136, 21.12105063409274 ], [ -156.819528539590834, 21.121877667472955 ], [ -156.820923787688542, 21.121449426781005 ], [ -156.821537251426719, 21.123309373306736 ], [ -156.821509439858829, 21.1240742176828 ], [ -156.822949675585818, 21.126127677508052 ], [ -156.822915372684065, 21.127067055095658 ], [ -156.823215057070541, 21.128229922474663 ], [ -156.823123643136569, 21.130743484139536 ], [ -156.824289719567105, 21.132227166356071 ], [ -156.824914148199298, 21.133147757753559 ], [ -156.825411154706472, 21.134143435960308 ], [ -156.826823215040719, 21.136804227580679 ], [ -156.826796336214898, 21.137545009687432 ], [ -156.826801120200372, 21.138222370685178 ], [ -156.826791211523243, 21.138495676702895 ], [ -156.82707802508753, 21.139035973282141 ], [ -156.827364831892027, 21.139905593132386 ], [ -156.827336538766787, 21.140685381191087 ], [ -156.827905515760932, 21.141756983881216 ], [ -156.827542898510217, 21.143880663937324 ], [ -156.827556662548119, 21.145817824182441 ], [ -156.827512830268631, 21.147024626708003 ], [ -156.827794069925972, 21.149340116105726 ], [ -156.827860603665044, 21.150153729223103 ], [ -156.825857639854917, 21.148686957433771 ], [ -156.822338605220409, 21.147565501206785 ], [ -156.819310654991369, 21.148252085265845 ], [ -156.818851052492192, 21.14868865263038 ], [ -156.818254241631109, 21.149211947558992 ], [ -156.8176607810083, 21.149775762255775 ], [ -156.81699650890647, 21.152187399450742 ], [ -156.817020505098924, 21.155570745754467 ], [ -156.817005486197843, 21.1559794423776 ], [ -156.817435553190847, 21.156789809217514 ], [ -156.817848187841236, 21.157616022874855 ], [ -156.818134718405673, 21.158156131846514 ], [ -156.818420492966965, 21.158728706487128 ], [ -156.818401438123885, 21.159258986664597 ], [ -156.818993025092169, 21.159807196107398 ], [ -156.819533084529979, 21.160888771147036 ], [ -156.819823595082028, 21.16115801104451 ], [ -156.820594697188511, 21.162294946365996 ], [ -156.820941184482223, 21.163345185311169 ], [ -156.821512815719785, 21.164160014161144 ], [ -156.821502889988039, 21.164433384234659 ], [ -156.82150456390994, 21.164704324192815 ], [ -156.821494638028554, 21.164977694245106 ], [ -156.821787387653416, 21.165248878469487 ], [ -156.821481071459857, 21.165788621009703 ], [ -156.821773542443935, 21.166059669476962 ], [ -156.822276918504286, 21.167067943064428 ], [ -156.816972600937447, 21.167891466671065 ], [ -156.81566953275231, 21.168695524991133 ], [ -156.814587374371143, 21.169341239999181 ], [ -156.807763384274693, 21.170095273358136 ], [ -156.806420887524837, 21.169112191429317 ], [ -156.80579539742908, 21.168817483031123 ], [ -156.802781333734316, 21.16883601447821 ], [ -156.803260308201686, 21.167992914785387 ], [ -156.8035515172879, 21.167449442757558 ], [ -156.804735313493609, 21.165365349666079 ], [ -156.805059693685905, 21.163107913171935 ], [ -156.804486433395255, 21.162027852451974 ], [ -156.804515676690244, 21.16123102681815 ], [ -156.804224916284312, 21.160961627079793 ], [ -156.803835262254381, 21.160570631101361 ], [ -156.802628502031865, 21.159857228471957 ], [ -156.800178436428411, 21.160752550006595 ], [ -156.797868353886145, 21.161144468313481 ], [ -156.797292392235647, 21.161413306377973 ], [ -156.795500540634407, 21.16166305592257 ], [ -156.793811257311802, 21.162451588225821 ], [ -156.793224165630647, 21.162709419076734 ], [ -156.791063975196096, 21.164362921630591 ], [ -156.787427366194294, 21.165417551456969 ], [ -156.786247156205917, 21.166145661304775 ], [ -156.785952837614104, 21.166136119526776 ], [ -156.784783175565593, 21.167480922254274 ], [ -156.783040986964181, 21.167723576800213 ], [ -156.78174382155342, 21.168121067632349 ], [ -156.780429972896997, 21.16850205829784 ], [ -156.779565188640731, 21.168767039166411 ], [ -156.778689283671042, 21.169021022170032 ], [ -156.777230714849054, 21.169553796136867 ], [ -156.776669943431671, 21.168990708408881 ], [ -156.776376606738523, 21.169537868441921 ], [ -156.776078230063661, 21.169799432285448 ], [ -156.775218446068124, 21.170615472966333 ], [ -156.77462828533541, 21.170320324437011 ], [ -156.774316415566773, 21.17061623256356 ], [ -156.772691425520065, 21.170563678785022 ], [ -156.772328815053243, 21.169463746165238 ], [ -156.771738213646898, 21.168916322547631 ], [ -156.772935727337028, 21.167867106179752 ], [ -156.773376229817444, 21.167192916761067 ], [ -156.773729547062601, 21.167104840234003 ], [ -156.77348015281234, 21.166863979253286 ], [ -156.773376229817444, 21.167192916761067 ], [ -156.772640183857447, 21.167053983286579 ], [ -156.772967362118806, 21.166507606724828 ], [ -156.772660225076606, 21.166242901073609 ], [ -156.772380564940335, 21.165348766570006 ], [ -156.771182282053786, 21.165678692274984 ], [ -156.770411503483615, 21.166465324905758 ], [ -156.769776487959518, 21.166492401361726 ], [ -156.769199450417887, 21.166452512550912 ], [ -156.768393685778193, 21.166486921253032 ], [ -156.767930075408799, 21.166087001714356 ], [ -156.768405965271825, 21.165292256618571 ], [ -156.768356639957062, 21.164274696566551 ], [ -156.770383210562358, 21.164005782206356 ], [ -156.769823783049503, 21.163751304143783 ], [ -156.769520956423946, 21.163764241967517 ], [ -156.769256356055536, 21.163202790604231 ], [ -156.768780773851347, 21.162792927153191 ], [ -156.769260304406316, 21.161848285826522 ], [ -156.769877897963539, 21.161345099179496 ], [ -156.770620005853687, 21.160587852095116 ], [ -156.77130590786166, 21.160249786851612 ], [ -156.7721777384711, 21.159888240758402 ], [ -156.770343203932754, 21.159993700390523 ], [ -156.769296733309204, 21.160509421596235 ], [ -156.768121548304862, 21.16074961566321 ], [ -156.767379709885688, 21.161506854287616 ], [ -156.76612251395116, 21.161911301777252 ], [ -156.766066991230559, 21.160762702165329 ], [ -156.767156093465644, 21.160226003057435 ], [ -156.768192343451034, 21.159940726268658 ], [ -156.768998611020976, 21.159117861776071 ], [ -156.769604075275453, 21.159159777553334 ], [ -156.770665025898865, 21.15863690283965 ], [ -156.771338671609698, 21.158608146882486 ], [ -156.772196014271657, 21.158667393899126 ], [ -156.771932202166653, 21.158090744414238 ], [ -156.770204278281028, 21.15776458651969 ], [ -156.770776195044675, 21.157277989240644 ], [ -156.772225001462971, 21.157823689387765 ], [ -156.773315204543024, 21.15839825659025 ], [ -156.773652450590447, 21.158383846101177 ], [ -156.774156769624028, 21.158418725892339 ], [ -156.774819427153886, 21.158143966378958 ], [ -156.775884901341584, 21.157618801462522 ], [ -156.777108993631572, 21.158444985501543 ], [ -156.778557180370427, 21.159261538416725 ], [ -156.778897716007293, 21.160349661953919 ], [ -156.779712858002057, 21.160100498066569 ], [ -156.779169312988785, 21.15963189689592 ], [ -156.779099861978921, 21.158200226593515 ], [ -156.779724297559653, 21.158464125377797 ], [ -156.78048621346943, 21.159286864624423 ], [ -156.780657108340989, 21.158834256437746 ], [ -156.779717349592403, 21.157663200751234 ], [ -156.779882602422873, 21.156983788372298 ], [ -156.780235892309776, 21.15689569566576 ], [ -156.779986502026532, 21.156654844599753 ], [ -156.779882602422873, 21.156983788372298 ], [ -156.77885536936293, 21.157366617962271 ], [ -156.778537003498172, 21.157703458938638 ], [ -156.776303855942871, 21.156495948970932 ], [ -156.775701724899079, 21.15653340445435 ], [ -156.774980682061653, 21.156469487265184 ], [ -156.773983342373612, 21.156531434550093 ], [ -156.773961208892274, 21.156219885272229 ], [ -156.774540248882886, 21.155764982786806 ], [ -156.774604806790478, 21.155125391769563 ], [ -156.772348029014296, 21.154144915078394 ], [ -156.77193390874055, 21.153680974322107 ], [ -156.771107952294045, 21.154013760099392 ], [ -156.770602163052871, 21.154548918568793 ], [ -156.771046181830428, 21.152921758713617 ], [ -156.772216717216793, 21.153025541438687 ], [ -156.773029042663069, 21.151982087137981 ], [ -156.772575554211386, 21.151604935586356 ], [ -156.773372890378795, 21.1509784306798 ], [ -156.774148305699697, 21.15015770848721 ], [ -156.776044344616963, 21.150325704995414 ], [ -156.777524874508771, 21.149763583825195 ], [ -156.779418244011026, 21.149392128282948 ], [ -156.779512287928185, 21.149723670201912 ], [ -156.779768750735002, 21.149489457739843 ], [ -156.779418244011026, 21.149392128282948 ], [ -156.779938484426708, 21.148451883624983 ], [ -156.780782400930178, 21.14823536359102 ], [ -156.780882075864298, 21.148056767496303 ], [ -156.781235343638201, 21.147968670696997 ], [ -156.780985965109807, 21.147727822045638 ], [ -156.780882075864298, 21.148056767496303 ], [ -156.779554650070281, 21.148150006471685 ], [ -156.778424837453997, 21.148947914982173 ], [ -156.775556946586676, 21.148669151388525 ], [ -156.776100324392672, 21.147823871788997 ], [ -156.776928086125565, 21.148009427330685 ], [ -156.777842498055435, 21.146772964147861 ], [ -156.77847625519064, 21.146559978451361 ], [ -156.778596503256011, 21.146401297740411 ], [ -156.779254234668883, 21.146301393903208 ], [ -156.778762469743839, 21.146051342325492 ], [ -156.778596503256011, 21.146401297740411 ], [ -156.777515718294126, 21.146220100116501 ], [ -156.776840241922116, 21.147017483601385 ], [ -156.776420668248448, 21.147070042075427 ], [ -156.775639575483098, 21.146951238759918 ], [ -156.774356153266922, 21.147818134960254 ], [ -156.773695733592518, 21.147531391082541 ], [ -156.77338733981631, 21.147145568919669 ], [ -156.773676063834955, 21.14714936803956 ], [ -156.773680113237532, 21.146878508920445 ], [ -156.774033380900335, 21.146790427287808 ], [ -156.773784016877784, 21.146549569184611 ], [ -156.773680113237532, 21.146878508920445 ], [ -156.773391389743011, 21.146874709853765 ], [ -156.77338733981631, 21.147145568919669 ], [ -156.773225105616149, 21.147263876201229 ], [ -156.772955923052052, 21.148103098215664 ], [ -156.772342725436175, 21.148335910395943 ], [ -156.770992932242194, 21.149056593751983 ], [ -156.77148870821415, 21.147511928076451 ], [ -156.771813179369957, 21.147275316963992 ], [ -156.77237108861712, 21.146439898354611 ], [ -156.773809284480677, 21.145519561274646 ], [ -156.774127714212824, 21.144837539911887 ], [ -156.774711635230886, 21.144411336110867 ], [ -156.774252419245499, 21.144210975269019 ], [ -156.77272933574983, 21.145321148335835 ], [ -156.771551819218047, 21.14544288748116 ], [ -156.771813906635913, 21.14507800134977 ], [ -156.772427090948867, 21.144845189891413 ], [ -156.772688167432506, 21.144547686212359 ], [ -156.773239871472953, 21.144145072760793 ], [ -156.77368382031591, 21.142423515994626 ], [ -156.773293951071423, 21.142659271376289 ], [ -156.772753229462154, 21.143817687698196 ], [ -156.771857756808174, 21.144295869967735 ], [ -156.769968023482249, 21.144578796149357 ], [ -156.769119018105755, 21.146397054188359 ], [ -156.768094887786475, 21.145353343818726 ], [ -156.7679513299409, 21.144131289503207 ], [ -156.769556126096575, 21.143723725433016 ], [ -156.769821261316565, 21.143155367959483 ], [ -156.771044987757961, 21.14226238669308 ], [ -156.770971446656517, 21.141636388811996 ], [ -156.771509818140004, 21.139956692629244 ], [ -156.770720455165758, 21.14073257778448 ], [ -156.770778732148216, 21.141229003527709 ], [ -156.76957158620192, 21.142032184614457 ], [ -156.768447760555432, 21.142148262018782 ], [ -156.768138353045458, 21.14177524982945 ], [ -156.767173259334641, 21.14187495881847 ], [ -156.767641222637735, 21.141151734073937 ], [ -156.767305890322831, 21.13959234626213 ], [ -156.765278795006338, 21.140106557111299 ], [ -156.765559052776752, 21.139545748131592 ], [ -156.766710367758435, 21.138779757521416 ], [ -156.768871054885466, 21.138513794750917 ], [ -156.769190360281641, 21.138150195339058 ], [ -156.769848057316892, 21.138050325334536 ], [ -156.76935633681137, 21.137800249982298 ], [ -156.769190360281641, 21.138150195339058 ], [ -156.76890165458201, 21.138146390110563 ], [ -156.768909766895149, 21.137604673053605 ], [ -156.769263013816271, 21.137516599600588 ], [ -156.769013672250082, 21.137275736276216 ], [ -156.768909766895149, 21.137604673053605 ], [ -156.767038350521176, 21.137423639590093 ], [ -156.767989190908168, 21.136598112705503 ], [ -156.769675584896618, 21.135857871181834 ], [ -156.768507930464267, 21.135307272875739 ], [ -156.768524574763916, 21.134854891957097 ], [ -156.76562785279819, 21.135371867013749 ], [ -156.765623584728502, 21.1347162257264 ], [ -156.767361411942801, 21.134099442224713 ], [ -156.767397596561153, 21.133114689040138 ], [ -156.766244813714167, 21.132571019650186 ], [ -156.766820863567801, 21.13229163508284 ], [ -156.767696560105264, 21.132037695244136 ], [ -156.768248347815842, 21.131513992703521 ], [ -156.769479773312582, 21.13113655110639 ], [ -156.770302990932692, 21.131524793246076 ], [ -156.770625769733442, 21.132171799305628 ], [ -156.772221556286439, 21.131471143025902 ], [ -156.771754556543129, 21.131002078329931 ], [ -156.77089086213374, 21.130454307944717 ], [ -156.770357751240169, 21.129918890195018 ], [ -156.769463621031406, 21.129351862431328 ], [ -156.768611384390823, 21.128793385523256 ], [ -156.767829905368643, 21.128424867522178 ], [ -156.768334781366349, 21.127982427202078 ], [ -156.768623965765784, 21.127708050523463 ], [ -156.769198838131871, 21.127995664663334 ], [ -156.769488021116359, 21.127721286369464 ], [ -156.769637168892729, 21.127590506525724 ], [ -156.769731181580823, 21.127922051530227 ], [ -156.769987617286972, 21.127687851384987 ], [ -156.769637168892729, 21.127590506525724 ], [ -156.76937426433625, 21.127295958225073 ], [ -156.76865766648217, 21.126699915298666 ], [ -156.768557618229352, 21.125283583025777 ], [ -156.768956721859098, 21.125539646983324 ], [ -156.77057351947326, 21.127351303791521 ], [ -156.772959773203297, 21.128056215997294 ], [ -156.773248919085262, 21.127198732645532 ], [ -156.773838874478088, 21.127251068426876 ], [ -156.774272319737946, 21.126567842787839 ], [ -156.775225243327355, 21.12646435375849 ], [ -156.774482149047799, 21.126206230421758 ], [ -156.774272319737946, 21.126567842787839 ], [ -156.772885316324249, 21.126868207326776 ], [ -156.772612578001628, 21.125646173814154 ], [ -156.773000865028251, 21.125569861095705 ], [ -156.773620729983975, 21.125960239576273 ], [ -156.774138541314954, 21.125858443183425 ], [ -156.774439245706901, 21.125925824483886 ], [ -156.775012203368362, 21.125586444405862 ], [ -156.776403382992783, 21.126706492941715 ], [ -156.776793278678156, 21.126465700129788 ], [ -156.776314738961361, 21.126146371789641 ], [ -156.777055090311052, 21.125681001304816 ], [ -156.77749113822648, 21.125105609833881 ], [ -156.778626807492145, 21.124999538368169 ], [ -156.778720839635241, 21.125331080095428 ], [ -156.778977257704867, 21.125096864616044 ], [ -156.778626807492145, 21.124999538368169 ], [ -156.778086504774137, 21.124416097514729 ], [ -156.775362681100233, 21.123981112585568 ], [ -156.775322572954991, 21.123154220916124 ], [ -156.776199151630379, 21.123214809657213 ], [ -156.776488070482173, 21.12320246465643 ], [ -156.777781533346257, 21.123291865702669 ], [ -156.775958159682801, 21.122263580635014 ], [ -156.77487108185386, 21.120758684099638 ], [ -156.775373855623855, 21.121020989259272 ], [ -156.777216234834327, 21.122399745359182 ], [ -156.778682184005021, 21.122134307124689 ], [ -156.777974668594709, 21.12087079395431 ], [ -156.778363258612416, 21.12037573269852 ], [ -156.779861549137564, 21.121497024227192 ], [ -156.780818414475618, 21.120520092738467 ], [ -156.781952116798976, 21.119596002364442 ], [ -156.780039312182993, 21.11794665036977 ], [ -156.782195744018253, 21.117850816083536 ], [ -156.783303830208638, 21.117927360383689 ], [ -156.784938264725952, 21.117477086884033 ], [ -156.78466778114489, 21.117349997918271 ], [ -156.782980562800901, 21.116836826306518 ], [ -156.782925705421491, 21.11570932629694 ], [ -156.78298412978242, 21.114965472773786 ], [ -156.782478471352761, 21.113892261348955 ], [ -156.781691118574798, 21.1128023972325 ], [ -156.784204208764834, 21.113821977816329 ], [ -156.785037743014868, 21.113569237794835 ], [ -156.784126646613487, 21.113292229913299 ], [ -156.78444728036547, 21.112756842284664 ], [ -156.784908229650796, 21.11184787013709 ], [ -156.785609919545891, 21.111131206852232 ], [ -156.786779865639602, 21.110645802215199 ], [ -156.787073290918045, 21.109795748939664 ], [ -156.787967036434281, 21.109549599080061 ], [ -156.787397093216697, 21.108532046099381 ], [ -156.787674696091216, 21.10817810986314 ], [ -156.788272135698634, 21.107930337827018 ], [ -156.78883732945576, 21.107651453133844 ], [ -156.790026489036705, 21.107408219440785 ], [ -156.789439099789774, 21.106901719092399 ], [ -156.789134909786299, 21.105929703859641 ], [ -156.788323265324294, 21.104480404080352 ], [ -156.78876903216613, 21.104345206805259 ], [ -156.789471102540631, 21.104950564821458 ], [ -156.789843669142357, 21.105741317500449 ], [ -156.791227690493571, 21.105836878922918 ], [ -156.791173214480665, 21.104717185652046 ], [ -156.791615861713041, 21.105078531207074 ], [ -156.792284089689957, 21.105799979161333 ], [ -156.792377859953348, 21.104778518900307 ], [ -156.791973760846957, 21.10327885108698 ], [ -156.79293569671492, 21.103928191575999 ], [ -156.793231350458939, 21.103915505881716 ], [ -156.794653382384951, 21.104013649619016 ], [ -156.793555995310243, 21.102494776265921 ], [ -156.795005640249855, 21.102879404616733 ], [ -156.794949007498587, 21.101712853788239 ], [ -156.79550761707543, 21.102316453765408 ], [ -156.795860799282764, 21.102340757100929 ], [ -156.796151493403585, 21.101498980619088 ], [ -156.797285668126591, 21.101577219173034 ], [ -156.79759366513187, 21.101262682324887 ], [ -156.79789671285036, 21.101283551884759 ], [ -156.7981740831396, 21.10100009946715 ], [ -156.79861710100576, 21.100878067408555 ], [ -156.798807582860036, 21.101229108675124 ], [ -156.799580786046448, 21.101008312455345 ], [ -156.79861710100576, 21.100878067408555 ], [ -156.797673552905167, 21.097529219941745 ], [ -156.799422911191698, 21.096666296212252 ], [ -156.800004204592227, 21.096706382223257 ], [ -156.799964596298906, 21.095893116172263 ], [ -156.800567439265478, 21.095867205433208 ], [ -156.801089320505724, 21.09697418041408 ], [ -156.801429926544017, 21.09672223152894 ], [ -156.8013641017358, 21.095372213772404 ], [ -156.802275273944076, 21.095333097939573 ], [ -156.803779548129654, 21.096524363136179 ], [ -156.803672757120751, 21.094335529476748 ], [ -156.804559380118519, 21.094297537943266 ], [ -156.805265181055972, 21.09461251668208 ], [ -156.806005866608842, 21.095412369137463 ], [ -156.80607316316727, 21.095149332831948 ], [ -156.805697526588943, 21.093757074287552 ], [ -156.808000393181459, 21.093015246064184 ], [ -156.808404185630138, 21.093546957779196 ], [ -156.808949893912001, 21.094935854135112 ], [ -156.809724945019212, 21.094143959413952 ], [ -156.810358983691259, 21.095489281117136 ], [ -156.811400682664498, 21.095354307923412 ], [ -156.811494777365624, 21.095685837265076 ], [ -156.811751093262103, 21.095451562417761 ], [ -156.811400682664498, 21.095354307923412 ], [ -156.811000826263211, 21.094206868225502 ], [ -156.810991877604238, 21.09293258714969 ], [ -156.812453744088202, 21.092249682749941 ], [ -156.813329146334183, 21.091995346044477 ], [ -156.81417309170871, 21.091193468886303 ], [ -156.814491652212979, 21.091463202946052 ], [ -156.815127607436096, 21.092737761761686 ], [ -156.816200792758224, 21.093243554528328 ], [ -156.816054085615946, 21.097279662755689 ], [ -156.816411248217264, 21.097995294883408 ], [ -156.816984667691628, 21.099076172170577 ], [ -156.816964476380264, 21.099627937228828 ], [ -156.817255153221396, 21.09989730847553 ], [ -156.817530159412797, 21.1004479799508 ], [ -156.817965758038866, 21.100851897811065 ], [ -156.818668733900466, 21.101557426149149 ], [ -156.818965533493753, 21.101003002423585 ], [ -156.819263694427434, 21.100741210090277 ], [ -156.819556452454634, 21.100463208867598 ], [ -156.820416221768966, 21.100490669245453 ], [ -156.820426215761501, 21.100211676063729 ], [ -156.82042044722175, 21.099390243304093 ], [ -156.821568770886643, 21.099426963167222 ], [ -156.822171920740942, 21.09889803151151 ], [ -156.821897130513321, 21.098331494981753 ], [ -156.820182887538408, 21.097104475853619 ], [ -156.820764613049334, 21.096420499577818 ], [ -156.821062761186539, 21.096158702878299 ], [ -156.821349787896196, 21.095886179835425 ], [ -156.821947915739372, 21.095623209040973 ], [ -156.822665216549012, 21.094282846897887 ], [ -156.823055882500057, 21.094964767639635 ], [ -156.823518373748442, 21.09636697785302 ], [ -156.824512531421902, 21.097018279488978 ], [ -156.825851701941474, 21.095370644585056 ], [ -156.827823220277537, 21.09587187846186 ], [ -156.828284904600707, 21.095433312822205 ], [ -156.829734466241916, 21.095012288183408 ], [ -156.829432013186505, 21.09460163755465 ], [ -156.828606952264892, 21.093837176664088 ], [ -156.82832205646946, 21.093266418894562 ], [ -156.827740963562007, 21.092727848222321 ], [ -156.826378350817436, 21.091360014526 ], [ -156.825151516073191, 21.090968990037943 ], [ -156.822331302913881, 21.088355479664202 ], [ -156.829830655904686, 21.086413480666202 ], [ -156.830136480736854, 21.087600294693399 ], [ -156.830573148280621, 21.089386582504666 ], [ -156.83183674699265, 21.089789414478982 ], [ -156.832657005524965, 21.090612665436044 ], [ -156.832339117053749, 21.089167610047475 ], [ -156.831437294200811, 21.088331938610725 ], [ -156.83225838654576, 21.085736267190587 ], [ -156.833623492062742, 21.086019339475488 ], [ -156.834117973962719, 21.087009599715735 ], [ -156.836085485757678, 21.08957275994501 ], [ -156.836209640512919, 21.088533515202116 ], [ -156.836199682550784, 21.087138560824897 ], [ -156.836214305271227, 21.086732363661525 ], [ -156.836204463365817, 21.085387679344652 ], [ -156.840389773753515, 21.084772444103837 ], [ -156.840833233983346, 21.086116566493448 ], [ -156.841119737663547, 21.086656768366669 ], [ -156.841655305202494, 21.088280128353141 ], [ -156.842258747524141, 21.088581748144367 ], [ -156.842248880273587, 21.087215629651926 ], [ -156.842278092762712, 21.086403231430591 ], [ -156.84226427775593, 21.084510031844808 ], [ -156.849814087109365, 21.084461315658952 ], [ -156.850666081076469, 21.084886966917225 ], [ -156.851962683886853, 21.084878654370474 ], [ -156.862752510663512, 21.086839074585399 ], [ -156.871223384653092, 21.089509492781925 ], [ -156.884042360633515, 21.092621560839962 ], [ -156.89366896777824, 21.094861094818238 ], [ -156.895789159926522, 21.095535906030488 ], [ -156.899577555038093, 21.096873371513922 ], [ -156.905310668386477, 21.099387973536839 ], [ -156.918825454687806, 21.105054838397212 ], [ -156.928007430144248, 21.110323016369794 ], [ -156.933685454287996, 21.114366670826314 ], [ -156.943512863622686, 21.121354876957248 ], [ -156.953496599019786, 21.13123883726966 ], [ -156.957679390671274, 21.137901695411465 ], [ -156.961432612024907, 21.146509303297073 ], [ -156.963152871402201, 21.153738096538735 ], [ -156.963181746413824, 21.157296608885552 ], [ -156.962519367201793, 21.159962479217764 ], [ -156.962081552801919, 21.160089960954615 ] ], [ [ -156.780126906375756, 21.159967037502462 ], [ -156.780220956240697, 21.160298579372114 ], [ -156.780477437939965, 21.160064367611863 ], [ -156.780126906375756, 21.159967037502462 ] ], [ [ -156.775299136073585, 21.154485353711639 ], [ -156.775652421632969, 21.154397270278245 ], [ -156.775403043233638, 21.154156413406575 ], [ -156.775299136073585, 21.154485353711639 ], [ -156.774930373165006, 21.154627732736824 ], [ -156.775172807678103, 21.155106737839283 ], [ -156.775299136073585, 21.154485353711639 ] ], [ [ -156.779470751643743, 21.145870946161551 ], [ -156.779622391217373, 21.146216934950576 ], [ -156.780133121394357, 21.145989430802263 ], [ -156.779470751643743, 21.145870946161551 ] ], [ [ -156.774887616998143, 21.143372528099395 ], [ -156.774978574690408, 21.144136327300075 ], [ -156.775753283558544, 21.143794047193804 ], [ -156.774887616998143, 21.143372528099395 ] ], [ [ -156.795117423498994, 21.103270830409596 ], [ -156.79521148435802, 21.103602365781764 ], [ -156.795467838219253, 21.103368119203562 ], [ -156.795117423498994, 21.103270830409596 ] ] ] } }
]
}
