{
"type": "FeatureCollection",
"name": "cyrcord",
"crs": { "type": "name", "properties": { "name": "urn:ogc:def:crs:OGC:1.3:CRS84" } },
"features": [
{ "type": "Feature", "properties": { "ID": 1, "GRIDCODE": 2 }, "geometry": { "type": "Polygon", "coordinates": [ [ [ -157.938733502474861, 21.611888855673801 ], [ -157.939086169600046, 21.611983870057188 ], [ -157.938830288427596, 21.612219905823025 ], [ -157.938733502474861, 21.611888855673801 ] ] ] } },
{ "type": "Feature", "properties": { "ID": 2, "GRIDCODE": 2 }, "geometry": { "type": "Polygon", "coordinates": [ [ [ -157.893816479262313, 21.534899271067367 ], [ -157.89346403036447, 21.534804169027339 ], [ -157.893719839754141, 21.534568198189437 ], [ -157.893816479262313, 21.534899271067367 ] ] ] } },
{ "type": "Feature", "properties": { "ID": 3, "GRIDCODE": 1 }, "geometry": { "type": "Polygon", "coordinates": [ [ [ -158.14680428249946, 21.51714193181029 ], [ -158.147156876950817, 21.517236503391143 ], [ -158.146901492046879, 21.517472879667107 ], [ -158.14680428249946, 21.51714193181029 ] ] ] } },
{ "type": "Feature", "properties": { "ID": 4, "GRIDCODE": 1 }, "geometry": { "type": "Polygon", "coordinates": [ [ [ -158.151449480704485, 21.515268392393274 ], [ -158.151348425196659, 21.515598330092129 ], [ -158.151095810369242, 21.515359364225052 ], [ -158.151449480704485, 21.515268392393274 ] ] ] } },
{ "type": "Feature", "properties": { "ID": 5, "GRIDCODE": 1 }, "geometry": { "type": "Polygon", "coordinates": [ [ [ -158.1473962021538, 21.514976709813695 ], [ -158.149555549010245, 21.515356686013575 ], [ -158.149199546796069, 21.515775181688902 ], [ -158.147565396541012, 21.51661745578831 ], [ -158.1473962021538, 21.514976709813695 ] ] ] } },
{ "type": "Feature", "properties": { "ID": 6, "GRIDCODE": 1 }, "geometry": { "type": "Polygon", "coordinates": [ [ [ -158.151449480704485, 21.515268392393274 ], [ -158.151610332101114, 21.514626305221658 ], [ -158.152410759643146, 21.515145965248877 ], [ -158.151449480704485, 21.515268392393274 ] ] ] } },
{ "type": "Feature", "properties": { "ID": 7, "GRIDCODE": 1 }, "geometry": { "type": "Polygon", "coordinates": [ [ [ -158.154931345402076, 21.514201929295009 ], [ -158.155283938735664, 21.514296483681029 ], [ -158.15502857182446, 21.514532873074813 ], [ -158.154931345402076, 21.514201929295009 ] ] ] } },
{ "type": "Feature", "properties": { "ID": 8, "GRIDCODE": 1 }, "geometry": { "type": "Polygon", "coordinates": [ [ [ -158.130312789028181, 21.514075498123979 ], [ -158.130665364156812, 21.514170103971363 ], [ -158.130409959091878, 21.514406454388453 ], [ -158.130312789028181, 21.514075498123979 ] ] ] } },
{ "type": "Feature", "properties": { "ID": 9, "GRIDCODE": 1 }, "geometry": { "type": "Polygon", "coordinates": [ [ [ -158.141032264568622, 21.513588934267965 ], [ -158.141697709579944, 21.513702198162729 ], [ -158.141187643712158, 21.513933881534992 ], [ -158.141032264568622, 21.513588934267965 ] ] ] } },
{ "type": "Feature", "properties": { "ID": 10, "GRIDCODE": 1 }, "geometry": { "type": "Polygon", "coordinates": [ [ [ -158.134950063900902, 21.513557530415781 ], [ -158.135687800550301, 21.513952876237262 ], [ -158.135943689225826, 21.51425527201101 ], [ -158.136599200329158, 21.514517717011287 ], [ -158.134051716941883, 21.515184215356211 ], [ -158.134818735339195, 21.513978415673698 ], [ -158.134950063900902, 21.513557530415781 ] ] ] } },
{ "type": "Feature", "properties": { "ID": 11, "GRIDCODE": 1 }, "geometry": { "type": "Polygon", "coordinates": [ [ [ -158.13002638577899, 21.513531946002683 ], [ -158.130378959401412, 21.513626552410628 ], [ -158.130123554873848, 21.513862902421117 ], [ -158.13002638577899, 21.513531946002683 ] ] ] } },
{ "type": "Feature", "properties": { "ID": 12, "GRIDCODE": 1 }, "geometry": { "type": "Polygon", "coordinates": [ [ [ -158.159011128002817, 21.509886026552774 ], [ -158.159634998920694, 21.510293796077914 ], [ -158.15981981681108, 21.511084926196585 ], [ -158.159248296365433, 21.510770654175666 ], [ -158.159011128002817, 21.509886026552774 ] ] ] } },
{ "type": "Feature", "properties": { "ID": 13, "GRIDCODE": 1 }, "geometry": { "type": "Polygon", "coordinates": [ [ [ -158.158723064479204, 21.509613543863864 ], [ -158.159012686817078, 21.509615002815764 ], [ -158.159011128002817, 21.509886026552774 ], [ -158.158721505128284, 21.509884567580706 ], [ -158.158723064479204, 21.509613543863864 ] ] ] } },
{ "type": "Feature", "properties": { "ID": 14, "GRIDCODE": 1 }, "geometry": { "type": "Polygon", "coordinates": [ [ [ -158.158435002028938, 21.509341060704177 ], [ -158.158724623805625, 21.50934252013813 ], [ -158.158723064479204, 21.509613543863864 ], [ -158.158433442165858, 21.509612084409738 ], [ -158.158435002028938, 21.509341060704177 ] ] ] } },
{ "type": "Feature", "properties": { "ID": 15, "GRIDCODE": 1 }, "geometry": { "type": "Polygon", "coordinates": [ [ [ -158.157858880348385, 21.508796092972553 ], [ -158.158242484545667, 21.50898012651022 ], [ -158.158435002028938, 21.509341060704177 ], [ -158.15785575854909, 21.509338140329632 ], [ -158.157858880348385, 21.508796092972553 ] ] ] } },
{ "type": "Feature", "properties": { "ID": 16, "GRIDCODE": 1 }, "geometry": { "type": "Polygon", "coordinates": [ [ [ -158.157858880348385, 21.508796092972553 ], [ -158.1575062982796, 21.508701544342674 ], [ -158.157761650787506, 21.508465150531574 ], [ -158.157858880348385, 21.508796092972553 ] ] ] } },
{ "type": "Feature", "properties": { "ID": 17, "GRIDCODE": 1 }, "geometry": { "type": "Polygon", "coordinates": [ [ [ -158.156415468009072, 21.507975712650271 ], [ -158.15708090185899, 21.508088914854596 ], [ -158.156570878521592, 21.508320646828757 ], [ -158.156415468009072, 21.507975712650271 ] ] ] } },
{ "type": "Feature", "properties": { "ID": 18, "GRIDCODE": 1 }, "geometry": { "type": "Polygon", "coordinates": [ [ [ -158.156415468009072, 21.507975712650271 ], [ -158.155429757337174, 21.50773364375695 ], [ -158.155764855841142, 21.507083565718705 ], [ -158.156415468009072, 21.507975712650271 ] ] ] } },
{ "type": "Feature", "properties": { "ID": 19, "GRIDCODE": 1 }, "geometry": { "type": "Polygon", "coordinates": [ [ [ -158.15497363824295, 21.506884296757192 ], [ -158.155326214136039, 21.506978850558585 ], [ -158.155070860515281, 21.507215240642726 ], [ -158.15497363824295, 21.506884296757192 ] ] ] } },
{ "type": "Feature", "properties": { "ID": 20, "GRIDCODE": 1 }, "geometry": { "type": "Polygon", "coordinates": [ [ [ -158.15497363824295, 21.506884296757192 ], [ -158.154308211785775, 21.506771086371536 ], [ -158.154818232953886, 21.506539361206794 ], [ -158.15497363824295, 21.506884296757192 ] ] ] } },
{ "type": "Feature", "properties": { "ID": 21, "GRIDCODE": 1 }, "geometry": { "type": "Polygon", "coordinates": [ [ [ -158.13299497719683, 21.501351024798574 ], [ -158.133347523913159, 21.501445624150215 ], [ -158.133092146042856, 21.501681979919908 ], [ -158.13299497719683, 21.501351024798574 ] ] ] } },
{ "type": "Feature", "properties": { "ID": 22, "GRIDCODE": 1 }, "geometry": { "type": "Polygon", "coordinates": [ [ [ -158.153270457233646, 21.500912977022267 ], [ -158.153623017639717, 21.501007533978033 ], [ -158.153367672151262, 21.501243921876522 ], [ -158.153270457233646, 21.500912977022267 ] ] ] } },
{ "type": "Feature", "properties": { "ID": 23, "GRIDCODE": 1 }, "geometry": { "type": "Polygon", "coordinates": [ [ [ -158.153270457233646, 21.500912977022267 ], [ -158.152286334893859, 21.500405954973946 ], [ -158.15305714867435, 21.500116997532217 ], [ -158.153270457233646, 21.500912977022267 ] ] ] } },
{ "type": "Feature", "properties": { "ID": 24, "GRIDCODE": 1 }, "geometry": { "type": "Polygon", "coordinates": [ [ [ -158.15269909669189, 21.499554921811363 ], [ -158.153051653442986, 21.499649479868758 ], [ -158.152796309516987, 21.499885866979234 ], [ -158.15269909669189, 21.499554921811363 ] ] ] } },
{ "type": "Feature", "properties": { "ID": 25, "GRIDCODE": 1 }, "geometry": { "type": "Polygon", "coordinates": [ [ [ -158.15269909669189, 21.499554921811363 ], [ -158.151714985419062, 21.49904789668053 ], [ -158.152400387937888, 21.498440429950264 ], [ -158.15269909669189, 21.499554921811363 ] ] ] } },
{ "type": "Feature", "properties": { "ID": 26, "GRIDCODE": 1 }, "geometry": { "type": "Polygon", "coordinates": [ [ [ -158.148660442505332, 21.496824072799388 ], [ -158.15081724583024, 21.497597061832273 ], [ -158.15023430395371, 21.498019966363437 ], [ -158.149386489644598, 21.498079372941373 ], [ -158.149098720317568, 21.497763336190161 ], [ -158.148491826123092, 21.497805834737235 ], [ -158.148660442505332, 21.496824072799388 ] ] ] } },
{ "type": "Feature", "properties": { "ID": 27, "GRIDCODE": 1 }, "geometry": { "type": "Polygon", "coordinates": [ [ [ -158.147793232422913, 21.496548619704438 ], [ -158.148472906599011, 21.496901792864833 ], [ -158.147928710760567, 21.497154102568665 ], [ -158.147793232422913, 21.496548619704438 ] ] ] } },
{ "type": "Feature", "properties": { "ID": 28, "GRIDCODE": 1 }, "geometry": { "type": "Polygon", "coordinates": [ [ [ -158.1469260257565, 21.496273162206226 ], [ -158.147278570487885, 21.496367732101707 ], [ -158.147023223493676, 21.496604110359556 ], [ -158.1469260257565, 21.496273162206226 ] ] ] } },
{ "type": "Feature", "properties": { "ID": 29, "GRIDCODE": 1 }, "geometry": { "type": "Polygon", "coordinates": [ [ [ -158.144322841365749, 21.495717786456375 ], [ -158.14559763918362, 21.496030941636182 ], [ -158.145057659586485, 21.496432674819584 ], [ -158.144753449192024, 21.496367197732834 ], [ -158.144438723134414, 21.496431491278241 ], [ -158.144322841365749, 21.495717786456375 ] ] ] } },
{ "type": "Feature", "properties": { "ID": 30, "GRIDCODE": 1 }, "geometry": { "type": "Polygon", "coordinates": [ [ [ -158.144322841365749, 21.495717786456375 ], [ -158.143970300331404, 21.495623210430789 ], [ -158.14422565030938, 21.495386836919177 ], [ -158.144322841365749, 21.495717786456375 ] ] ] } },
{ "type": "Feature", "properties": { "ID": 31, "GRIDCODE": 1 }, "geometry": { "type": "Polygon", "coordinates": [ [ [ -158.143457233253827, 21.495171288184665 ], [ -158.143809772837585, 21.495265865250918 ], [ -158.143554422430412, 21.495502238114877 ], [ -158.143457233253827, 21.495171288184665 ] ] ] } },
{ "type": "Feature", "properties": { "ID": 32, "GRIDCODE": 1 }, "geometry": { "type": "Polygon", "coordinates": [ [ [ -158.143457233253827, 21.495171288184665 ], [ -158.142471632402476, 21.494929146002079 ], [ -158.142979719781522, 21.494516405721264 ], [ -158.143457233253827, 21.495171288184665 ] ] ] } },
{ "type": "Feature", "properties": { "ID": 33, "GRIDCODE": 1 }, "geometry": { "type": "Polygon", "coordinates": [ [ [ -158.133327928843556, 21.494034925545563 ], [ -158.133713718184936, 21.494220083852166 ], [ -158.133449128916851, 21.494939695840117 ], [ -158.132985208706629, 21.494671419435601 ], [ -158.133327928843556, 21.494034925545563 ] ] ] } },
{ "type": "Feature", "properties": { "ID": 34, "GRIDCODE": 1 }, "geometry": { "type": "Polygon", "coordinates": [ [ [ -158.141727626272797, 21.493807255693444 ], [ -158.142080161346769, 21.493901836278521 ], [ -158.141824810710034, 21.494138206522965 ], [ -158.141727626272797, 21.493807255693444 ] ] ] } },
{ "type": "Feature", "properties": { "ID": 35, "GRIDCODE": 1 }, "geometry": { "type": "Polygon", "coordinates": [ [ [ -158.14086363049546, 21.492989721553712 ], [ -158.141216162992066, 21.493084303886949 ], [ -158.140960812486782, 21.493320672834624 ], [ -158.14086363049546, 21.492989721553712 ] ] ] } },
{ "type": "Feature", "properties": { "ID": 36, "GRIDCODE": 1 }, "geometry": { "type": "Polygon", "coordinates": [ [ [ -158.13942206532468, 21.491898178201811 ], [ -158.139774594170774, 21.491992763470357 ], [ -158.139519243392812, 21.492229130230982 ], [ -158.13942206532468, 21.491898178201811 ] ] ] } },
{ "type": "Feature", "properties": { "ID": 37, "GRIDCODE": 1 }, "geometry": { "type": "Polygon", "coordinates": [ [ [ -158.137402952118833, 21.49053261128417 ], [ -158.137852594774245, 21.490655426905214 ], [ -158.139293433506282, 21.491746185505438 ], [ -158.13942206532468, 21.491898178201811 ], [ -158.138376266065563, 21.491726371750538 ], [ -158.137402952118833, 21.49053261128417 ] ] ] } },
{ "type": "Feature", "properties": { "ID": 38, "GRIDCODE": 1 }, "geometry": { "type": "Polygon", "coordinates": [ [ [ -158.137402952118833, 21.49053261128417 ], [ -158.137050428478176, 21.490438021163936 ], [ -158.137305779863823, 21.490201658155456 ], [ -158.137402952118833, 21.49053261128417 ] ] ] } },
{ "type": "Feature", "properties": { "ID": 39, "GRIDCODE": 1 }, "geometry": { "type": "Polygon", "coordinates": [ [ [ -158.136540598805709, 21.489444033115081 ], [ -158.136893119705974, 21.489538624230867 ], [ -158.136637768875801, 21.489774986643628 ], [ -158.136540598805709, 21.489444033115081 ] ] ] } },
{ "type": "Feature", "properties": { "ID": 40, "GRIDCODE": 1 }, "geometry": { "type": "Polygon", "coordinates": [ [ [ -158.135964637103086, 21.488898993881094 ], [ -158.13631715628523, 21.488993586161673 ], [ -158.136061805543221, 21.489229947710122 ], [ -158.135964637103086, 21.488898993881094 ] ] ] } },
{ "type": "Feature", "properties": { "ID": 41, "GRIDCODE": 1 }, "geometry": { "type": "Polygon", "coordinates": [ [ [ -158.135964637103086, 21.488898993881094 ], [ -158.135283776359501, 21.488758236105397 ], [ -158.135606031669624, 21.488278717374762 ], [ -158.135964637103086, 21.488898993881094 ] ] ] } },
{ "type": "Feature", "properties": { "ID": 42, "GRIDCODE": 1 }, "geometry": { "type": "Polygon", "coordinates": [ [ [ -158.134812726562075, 21.487808909783482 ], [ -158.135165242308034, 21.487903504393419 ], [ -158.134909891742524, 21.488139864213295 ], [ -158.134812726562075, 21.487808909783482 ] ] ] } },
{ "type": "Feature", "properties": { "ID": 43, "GRIDCODE": 1 }, "geometry": { "type": "Polygon", "coordinates": [ [ [ -158.134526353971665, 21.48726536485853 ], [ -158.134878868213747, 21.487359960028499 ], [ -158.134623518184526, 21.487596319442247 ], [ -158.134526353971665, 21.48726536485853 ] ] ] } },
{ "type": "Feature", "properties": { "ID": 44, "GRIDCODE": 1 }, "geometry": { "type": "Polygon", "coordinates": [ [ [ -158.134239983449532, 21.486721819479328 ], [ -158.134592496187821, 21.486816415209312 ], [ -158.134337146694833, 21.487052774216945 ], [ -158.134239983449532, 21.486721819479328 ] ] ] } },
{ "type": "Feature", "properties": { "ID": 45, "GRIDCODE": 1 }, "geometry": { "type": "Polygon", "coordinates": [ [ [ -158.129322045045768, 21.485883177318257 ], [ -158.129735955501701, 21.4861856771528 ], [ -158.129051601318935, 21.486516533339191 ], [ -158.129322045045768, 21.485883177318257 ] ] ] } },
{ "type": "Feature", "properties": { "ID": 46, "GRIDCODE": 1 }, "geometry": { "type": "Polygon", "coordinates": [ [ [ -158.133668852406146, 21.485363704630569 ], [ -158.134021361492103, 21.485458301458188 ], [ -158.133766013563758, 21.485694659679659 ], [ -158.133668852406146, 21.485363704630569 ] ] ] } },
{ "type": "Feature", "properties": { "ID": 47, "GRIDCODE": 2 }, "geometry": { "type": "Polygon", "coordinates": [ [ [ -157.795273405781643, 21.330416136250843 ], [ -157.79492014151441, 21.330506368237995 ], [ -157.795171565453217, 21.330745837578558 ], [ -157.795273405781643, 21.330416136250843 ], [ -157.796003336168411, 21.330275470850228 ], [ -157.796511329191304, 21.330816704797332 ], [ -157.797288463494738, 21.331157594848182 ], [ -157.796371882716613, 21.332709499932815 ], [ -157.797434374512648, 21.33217851665734 ], [ -157.797711501659933, 21.333043101172816 ], [ -157.798875249424896, 21.332461356059124 ], [ -157.799845630961642, 21.33349465039997 ], [ -157.800306839589183, 21.333018307805865 ], [ -157.800978796402774, 21.333060618757155 ], [ -157.800310268498606, 21.332492380923355 ], [ -157.800041618102711, 21.331973047195955 ], [ -157.802069546571772, 21.331691751658994 ], [ -157.802038494971242, 21.331132495784352 ], [ -157.802635908589167, 21.331170100059914 ], [ -157.803035570357167, 21.330757359252051 ], [ -157.802615858842785, 21.330020591406459 ], [ -157.803380826669468, 21.329389986882365 ], [ -157.803477289739959, 21.329721105573537 ], [ -157.803732580113433, 21.329485254965348 ], [ -157.803380826669468, 21.329389986882365 ], [ -157.803576556996973, 21.328486959586908 ], [ -157.806416047340178, 21.329278771034168 ], [ -157.812533097133979, 21.32965226191358 ], [ -157.815934862353913, 21.331033587954281 ], [ -157.818044620938736, 21.332522152898715 ], [ -157.823080991458369, 21.339422028894706 ], [ -157.825247507069065, 21.343065606010097 ], [ -157.827012237428619, 21.344812083546397 ], [ -157.828755543130796, 21.345668923175431 ], [ -157.8313752441247, 21.346485528011318 ], [ -157.833288819514053, 21.347680094037042 ], [ -157.837161448418271, 21.350726707909381 ], [ -157.839571227447522, 21.354110442953033 ], [ -157.841187344105606, 21.359057539256558 ], [ -157.842432312409386, 21.363499860938497 ], [ -157.844368512799292, 21.365415347679619 ], [ -157.851131103266283, 21.36854617628261 ], [ -157.85783424846241, 21.3762457243641 ], [ -157.860104530851288, 21.378854621283917 ], [ -157.875414207947387, 21.392139515772183 ], [ -157.88368928049988, 21.40081142511897 ], [ -157.887016939046219, 21.404301875392505 ], [ -157.892874485008662, 21.410092408617633 ], [ -157.900847590704075, 21.417933388190853 ], [ -157.90602927914361, 21.423131295590654 ], [ -157.917559332663842, 21.435527352643579 ], [ -157.94604924880349, 21.460883918574755 ], [ -157.954233488659867, 21.470290149282967 ], [ -157.963371912118077, 21.482484194726268 ], [ -157.970648474931011, 21.494372530677193 ], [ -157.976009145385234, 21.50548089800278 ], [ -157.977790825711423, 21.518764510238551 ], [ -157.978587186141681, 21.533774518699992 ], [ -157.97975771519279, 21.543756441567581 ], [ -157.983600397225672, 21.561877528088662 ], [ -157.986968512164111, 21.572759020988606 ], [ -157.992757818450485, 21.590821058633644 ], [ -157.994316732434015, 21.597162062325637 ], [ -157.994670938236254, 21.60459394777444 ], [ -157.993941640582705, 21.617969587022284 ], [ -157.992195254218842, 21.627606707905837 ], [ -157.98986695983703, 21.632020708579159 ], [ -157.986417066964549, 21.634898063791553 ], [ -157.983267443941969, 21.636149419202134 ], [ -157.979283042830758, 21.635838626898483 ], [ -157.971038526195343, 21.63432637147951 ], [ -157.958416421835324, 21.628503471704263 ], [ -157.9477734155262, 21.62076853577096 ], [ -157.946650110602263, 21.619660421626794 ], [ -157.939738062658904, 21.612846529767761 ], [ -157.939064032735843, 21.611216137823007 ], [ -157.938878561176296, 21.611480544825437 ], [ -157.938733502474861, 21.611888855673801 ], [ -157.938293068005834, 21.611487659961853 ], [ -157.937728955510465, 21.610931175944405 ], [ -157.930670927910796, 21.603972284629439 ], [ -157.931266012387937, 21.60344499462234 ], [ -157.932235930825527, 21.602513849504344 ], [ -157.933085896561352, 21.602134943872574 ], [ -157.933589610275476, 21.600788851093945 ], [ -157.931931378460774, 21.601824497366415 ], [ -157.929410760834656, 21.603018406291401 ], [ -157.921857131887805, 21.595563434911785 ], [ -157.922220767430275, 21.593959747623682 ], [ -157.92220619118109, 21.592947051683382 ], [ -157.922229875479985, 21.592136872276559 ], [ -157.921918591857292, 21.592671461238361 ], [ -157.92106299134565, 21.594292007993545 ], [ -157.920089856358544, 21.593461602283583 ], [ -157.915507571771485, 21.588422204218418 ], [ -157.912720517431552, 21.58339713320148 ], [ -157.912055701290825, 21.582465808908569 ], [ -157.912723776654843, 21.581273432627189 ], [ -157.912752812536638, 21.580283385511176 ], [ -157.912739377525838, 21.579353668830645 ], [ -157.913330741163207, 21.578522847322429 ], [ -157.914213652285781, 21.57744997106245 ], [ -157.914358739861115, 21.57704168135778 ], [ -157.914712687096142, 21.576951223686024 ], [ -157.914460373538361, 21.576711911749051 ], [ -157.914358739861115, 21.57704168135778 ], [ -157.913920317803075, 21.577171617725092 ], [ -157.913491252551182, 21.577583480227048 ], [ -157.912846653423713, 21.578154717548447 ], [ -157.91141073960992, 21.581491471900428 ], [ -157.908448680720454, 21.578408676560624 ], [ -157.905564367332488, 21.57169662504732 ], [ -157.902992454694754, 21.565839924129889 ], [ -157.903003902431777, 21.565446578167712 ], [ -157.902073946798936, 21.564143472799909 ], [ -157.90244252046358, 21.563816792662983 ], [ -157.902426960422758, 21.562726609896441 ], [ -157.903603862177249, 21.562756853848537 ], [ -157.903599780179263, 21.562471917286771 ], [ -157.903607778437134, 21.562198374540074 ], [ -157.903038608901824, 21.561679594657093 ], [ -157.903026660445363, 21.56084205613849 ], [ -157.903904833823589, 21.560450707485415 ], [ -157.9036259762523, 21.559759095053131 ], [ -157.903046492978774, 21.559766397673162 ], [ -157.903332655072575, 21.559486282494628 ], [ -157.903630009072543, 21.55922264951402 ], [ -157.904186429529773, 21.558688513504869 ], [ -157.9050799159902, 21.558290311256375 ], [ -157.904217026696529, 21.558136958168475 ], [ -157.903607699644851, 21.558144529917595 ], [ -157.904827282539884, 21.557063723840795 ], [ -157.903932379085603, 21.556785502806338 ], [ -157.903650420941119, 21.556507207703746 ], [ -157.903357066165796, 21.556239688360638 ], [ -157.902978083854606, 21.555865475062557 ], [ -157.901650858208683, 21.556494043162736 ], [ -157.901620700798418, 21.555952806986635 ], [ -157.90192460514092, 21.554874785432602 ], [ -157.90192074056921, 21.554598914839985 ], [ -157.90249484491315, 21.553574016241363 ], [ -157.902520517032457, 21.552699936530001 ], [ -157.901937950098244, 21.55270721600149 ], [ -157.901648306258323, 21.552699749922983 ], [ -157.900782378117412, 21.552710583696662 ], [ -157.90077452302188, 21.55215731982792 ], [ -157.901081975374098, 21.551884891173302 ], [ -157.900197148956039, 21.551476040323664 ], [ -157.900221119477322, 21.550660506728295 ], [ -157.900215272430586, 21.550253945577577 ], [ -157.900223460078507, 21.549974647636819 ], [ -157.899064290284514, 21.549989096309272 ], [ -157.899356613558695, 21.548890491062387 ], [ -157.90051840682392, 21.548188793135502 ], [ -157.900537454384391, 21.547538111842432 ], [ -157.899947137776792, 21.546999995433104 ], [ -157.900681923138904, 21.546348741356127 ], [ -157.900256715691228, 21.545092690589442 ], [ -157.899961577787735, 21.546191478342596 ], [ -157.898842373322964, 21.545824810569851 ], [ -157.89850113164411, 21.54647104758147 ], [ -157.897100031225648, 21.547712781830199 ], [ -157.896753468970729, 21.548331454540119 ], [ -157.896779309363751, 21.550152175792384 ], [ -157.896451105938041, 21.550773814056498 ], [ -157.895771676114748, 21.551375988551431 ], [ -157.896431099177903, 21.552670784938545 ], [ -157.897294250456895, 21.553457649294725 ], [ -157.896554836964782, 21.55353572814613 ], [ -157.895723439188146, 21.553151556346688 ], [ -157.891765917816485, 21.547605490032783 ], [ -157.890526635682619, 21.542047338006473 ], [ -157.891302730684544, 21.542067320590917 ], [ -157.891760612109522, 21.540778412318016 ], [ -157.892472649576206, 21.540441197902737 ], [ -157.892753614801109, 21.540992768444635 ], [ -157.893189929075646, 21.541128459324455 ], [ -157.893286570982326, 21.541459532388682 ], [ -157.893542392835542, 21.541223562519342 ], [ -157.893189929075646, 21.541128459324455 ], [ -157.893433091257009, 21.540267403917476 ], [ -157.894268517758775, 21.539735877362826 ], [ -157.894125939776586, 21.539120252034461 ], [ -157.894547486725799, 21.538852031569355 ], [ -157.894477636811843, 21.538550249627487 ], [ -157.894850507892187, 21.538022798913723 ], [ -157.89443781708394, 21.537420734230981 ], [ -157.894597576546715, 21.53677581643478 ], [ -157.894272600118796, 21.535555020809205 ], [ -157.893816479262313, 21.534899271067367 ], [ -157.894834782254236, 21.535036367377643 ], [ -157.896101258216135, 21.535461068797087 ], [ -157.896575593508771, 21.5350556992904 ], [ -157.8962642108757, 21.534205260832067 ], [ -157.897175716136957, 21.533426099073083 ], [ -157.897156897756616, 21.532883943888073 ], [ -157.897769020474044, 21.532360713522628 ], [ -157.897447129387302, 21.532077646137839 ], [ -157.897755751463421, 21.531813830984454 ], [ -157.898038531369622, 21.531263346197818 ], [ -157.899221998591685, 21.531007818667472 ], [ -157.899184539497952, 21.529935418939129 ], [ -157.899513936117216, 21.529653938621912 ], [ -157.899194525505862, 21.529079562387405 ], [ -157.900250749132795, 21.528176745868269 ], [ -157.900933318197161, 21.527497153441253 ], [ -157.90241009087967, 21.527070377174166 ], [ -157.902429758961745, 21.526673841376031 ], [ -157.901839861408064, 21.526691794927245 ], [ -157.900553876394667, 21.526367450211108 ], [ -157.899521455844223, 21.526665868061468 ], [ -157.898371113910429, 21.527034629246554 ], [ -157.898878792756847, 21.525878620542343 ], [ -157.900110301683213, 21.525585356498379 ], [ -157.900921553745604, 21.525620741138912 ], [ -157.901318823716139, 21.523571284973404 ], [ -157.89923208931657, 21.524357281741857 ], [ -157.89927938214052, 21.523411221798479 ], [ -157.898641543233936, 21.523430634766843 ], [ -157.89872384096455, 21.521781064692462 ], [ -157.898387596655169, 21.521791284769488 ], [ -157.898462374631492, 21.520295170037887 ], [ -157.898419808909523, 21.51907531757643 ], [ -157.898434136528635, 21.518788053216646 ], [ -157.897842997826444, 21.518806051752897 ], [ -157.897438889276003, 21.517989938218115 ], [ -157.896680049840171, 21.51824859538128 ], [ -157.897250296007485, 21.518750064298967 ], [ -157.897317125906341, 21.52067011298773 ], [ -157.896666050561436, 21.521226698904226 ], [ -157.896385333671958, 21.521506180460779 ], [ -157.89608228371776, 21.521765200832753 ], [ -157.896120160041846, 21.522854344110293 ], [ -157.896066008637206, 21.523938048394516 ], [ -157.896094372262525, 21.524751282802224 ], [ -157.896053722279646, 21.525564060583164 ], [ -157.896089624780416, 21.526596155355051 ], [ -157.895752122139982, 21.527182997123674 ], [ -157.895098888390379, 21.529067245283162 ], [ -157.894344457839424, 21.529090235697407 ], [ -157.893712289127052, 21.528805899075785 ], [ -157.893437728536014, 21.528251328939419 ], [ -157.892846551730116, 21.52826930808823 ], [ -157.892873065372612, 21.527738106193855 ], [ -157.892574700355254, 21.527432557347385 ], [ -157.892274798978463, 21.527441682495411 ], [ -157.891989768635995, 21.527149719012705 ], [ -157.891696387790404, 21.527995817890098 ], [ -157.891227440161401, 21.526574835068434 ], [ -157.889968993537792, 21.526613115019259 ], [ -157.889095250747943, 21.52657487900618 ], [ -157.888514812915815, 21.527152676960849 ], [ -157.888069926635296, 21.526253960719952 ], [ -157.88736710687192, 21.52659598442629 ], [ -157.886823916978784, 21.526572181000159 ], [ -157.886768844209882, 21.527674598005014 ], [ -157.887064226555424, 21.528481408544643 ], [ -157.8870437028678, 21.528891896192182 ], [ -157.887067006293506, 21.529564427791009 ], [ -157.885789401119837, 21.52918146884479 ], [ -157.883926313612392, 21.524091725516044 ], [ -157.883337948075848, 21.520468590664311 ], [ -157.881959883632362, 21.5184400532371 ], [ -157.875814887574421, 21.514390728724425 ], [ -157.874158069755993, 21.511816901817628 ], [ -157.874446444560846, 21.510508766169693 ], [ -157.875634689577652, 21.508087962132379 ], [ -157.877049485950181, 21.505125847348623 ], [ -157.877686811393943, 21.504849588979539 ], [ -157.878226015951043, 21.504312836013142 ], [ -157.878559108091309, 21.504302700129241 ], [ -157.879126505642887, 21.504588640278627 ], [ -157.879420984971375, 21.504579699174204 ], [ -157.879993635496533, 21.504604779966662 ], [ -157.880011507466463, 21.504246810502924 ], [ -157.878562839850645, 21.503760695105242 ], [ -157.877694964872688, 21.503787087754493 ], [ -157.878269873696581, 21.502945682436497 ], [ -157.878868385823296, 21.502971933038893 ], [ -157.88005254999274, 21.502395634001878 ], [ -157.88145892326267, 21.502457263769973 ], [ -157.880895174690693, 21.501879630896283 ], [ -157.878560822769458, 21.501515543897646 ], [ -157.877130556579061, 21.500257452113402 ], [ -157.877145405374364, 21.499962518689134 ], [ -157.877135781180328, 21.499687336634814 ], [ -157.877289597174183, 21.499285950238122 ], [ -157.8776433726851, 21.499195563329209 ], [ -157.877391250772575, 21.498956201474428 ], [ -157.877289597174183, 21.499285950238122 ], [ -157.876732858828717, 21.499124997251126 ], [ -157.876150867202398, 21.495993094673352 ], [ -157.876874152453809, 21.495418412652011 ], [ -157.876602135974309, 21.495340228294168 ], [ -157.875972722504343, 21.495383303054705 ], [ -157.87441813925065, 21.487612909911395 ], [ -157.876364435769432, 21.487772499697293 ], [ -157.876654157845849, 21.487752612857243 ], [ -157.877667014346031, 21.487835641782265 ], [ -157.877074408177663, 21.486568421463765 ], [ -157.876076627359055, 21.486143611585938 ], [ -157.875233782844333, 21.485575795713295 ], [ -157.873789171486834, 21.485158088039498 ], [ -157.874080015891735, 21.484440097125358 ], [ -157.875536809817504, 21.484559475945748 ], [ -157.875503845862568, 21.484138769979261 ], [ -157.876387750332697, 21.483684994275407 ], [ -157.877280333516012, 21.483758151162327 ], [ -157.877251364304129, 21.483387427426116 ], [ -157.878123093257187, 21.482694635147084 ], [ -157.878172993116976, 21.482160746291129 ], [ -157.876987369267766, 21.482063526389389 ], [ -157.876258283363342, 21.48211347758329 ], [ -157.875530828722532, 21.481803692558877 ], [ -157.875265589775609, 21.480956969372212 ], [ -157.874330865853182, 21.481567739979855 ], [ -157.873021442749206, 21.481189048967746 ], [ -157.872814987733221, 21.478658664955635 ], [ -157.873168573661161, 21.478568284293388 ], [ -157.872916776007742, 21.478328918884767 ], [ -157.872814987733221, 21.478658664955635 ], [ -157.872242809827156, 21.478310280007797 ], [ -157.87264707534564, 21.476999217105639 ], [ -157.871909416377491, 21.476550135528889 ], [ -157.872950214490771, 21.475784205588123 ], [ -157.873594237500015, 21.47557694750817 ], [ -157.873825057114061, 21.474977054318856 ], [ -157.874630079507853, 21.474718009899274 ], [ -157.875373329230058, 21.4734814071122 ], [ -157.875929338228616, 21.473153522353876 ], [ -157.876159861384707, 21.472553623284107 ], [ -157.876804148771896, 21.4723463538391 ], [ -157.877613712800809, 21.471750341256989 ], [ -157.878484470943363, 21.471470214557716 ], [ -157.877749335882953, 21.471098722346962 ], [ -157.876713710102763, 21.471363644401823 ], [ -157.876140041387458, 21.470511607654405 ], [ -157.87521285166406, 21.470260956116906 ], [ -157.874546308366774, 21.471157916311491 ], [ -157.874015430892968, 21.472539195532974 ], [ -157.87355591157646, 21.472324501632531 ], [ -157.873448254930651, 21.471616528567292 ], [ -157.873801823314295, 21.47152614572936 ], [ -157.873550036111283, 21.471286781561908 ], [ -157.873448254930651, 21.471616528567292 ], [ -157.87301573566242, 21.471751834511654 ], [ -157.871849946025691, 21.472009562765528 ], [ -157.870316143332559, 21.472579878598143 ], [ -157.866432835274736, 21.46113773495501 ], [ -157.865632364583263, 21.458770847355975 ], [ -157.863982818774133, 21.454882729003156 ], [ -157.862778520619798, 21.449695609413247 ], [ -157.863352403215885, 21.449186854723425 ], [ -157.86332997494776, 21.447593955655133 ], [ -157.863644989221001, 21.447291466848068 ], [ -157.86506218097648, 21.44732821169082 ], [ -157.865544387846995, 21.446900674318773 ], [ -157.865098603248811, 21.446493840886468 ], [ -157.864819021627483, 21.44594448736057 ], [ -157.864526375511588, 21.445403183195346 ], [ -157.865115171352471, 21.444352292089732 ], [ -157.863536939459294, 21.444306647799664 ], [ -157.862532418330431, 21.444319012291782 ], [ -157.861939033122212, 21.444027818378185 ], [ -157.861271720253342, 21.443719048686351 ], [ -157.859925403146434, 21.442388020864346 ], [ -157.857744002483173, 21.440916639007465 ], [ -157.856694816593489, 21.439444563409385 ], [ -157.855950610642481, 21.436493177649787 ], [ -157.854601990694732, 21.433841687641294 ], [ -157.852676579449593, 21.431937550680701 ], [ -157.848115280132106, 21.427949717984411 ], [ -157.84403983519374, 21.423710317740596 ], [ -157.840215463639879, 21.421244151945071 ], [ -157.836224907073444, 21.419863255747863 ], [ -157.835238902294321, 21.417098749458894 ], [ -157.835168254254654, 21.411999130657961 ], [ -157.836463270228734, 21.406788573242149 ], [ -157.836479910751819, 21.406221647792503 ], [ -157.835410200975815, 21.402759239008997 ], [ -157.832823108003709, 21.400199752231003 ], [ -157.828596090373452, 21.398392133028292 ], [ -157.826119799212961, 21.397978679696923 ], [ -157.821055996439554, 21.398481406949269 ], [ -157.820424982864154, 21.39731298357415 ], [ -157.821470336594103, 21.39495014956071 ], [ -157.822120945858359, 21.390989677686004 ], [ -157.820893118497963, 21.386895253563981 ], [ -157.816667174534672, 21.381471208370542 ], [ -157.810173635576689, 21.374760159879866 ], [ -157.802421414947247, 21.368912691659983 ], [ -157.800983303171051, 21.366892582258377 ], [ -157.800006401336731, 21.363997346154658 ], [ -157.79761978430767, 21.362164425079222 ], [ -157.794133485296243, 21.360899746100408 ], [ -157.791903045678481, 21.361260259031631 ], [ -157.789165793131872, 21.363297686207307 ], [ -157.788109593992942, 21.362998077793108 ], [ -157.786372576844542, 21.360767273590561 ], [ -157.783902529853833, 21.35962267347254 ], [ -157.783896735684095, 21.359195071790275 ], [ -157.784316729916355, 21.356641884918098 ], [ -157.783815863308689, 21.354650587683967 ], [ -157.78183988041576, 21.350758850603498 ], [ -157.776807348356471, 21.344716329702038 ], [ -157.771995826884961, 21.341084954802593 ], [ -157.766865592977695, 21.336003551945005 ], [ -157.76437926066626, 21.334206905228648 ], [ -157.761791273916515, 21.333355634833318 ], [ -157.758030802312248, 21.332835489166552 ], [ -157.754625198783742, 21.331071144927947 ], [ -157.751691525970443, 21.329458978564144 ], [ -157.74423974576726, 21.32680134846898 ], [ -157.7359090027077, 21.323775665565869 ], [ -157.731887866401905, 21.323194101705599 ], [ -157.728082551721485, 21.323662583971164 ], [ -157.725235712897984, 21.324411309483104 ], [ -157.724331824643372, 21.323139721300731 ], [ -157.72431914431678, 21.322188379541174 ], [ -157.724622469805666, 21.321897439936265 ], [ -157.727650742567789, 21.321229956180971 ], [ -157.729481306476856, 21.319950083203029 ], [ -157.730427688384111, 21.319502283708506 ], [ -157.73443992536113, 21.31919839644555 ], [ -157.739328795950996, 21.316884881755001 ], [ -157.743836465761518, 21.315937585990223 ], [ -157.756390075135158, 21.314609987151339 ], [ -157.773570679988097, 21.31440763313584 ], [ -157.777009971830495, 21.31474874901879 ], [ -157.788711813228247, 21.316338964655024 ], [ -157.791136735029369, 21.317463033208288 ], [ -157.792333509051844, 21.318874211937683 ], [ -157.795083045903652, 21.322870098010377 ], [ -157.797198082361518, 21.324605815299375 ], [ -157.798923625693334, 21.325823558880209 ], [ -157.7986277993638, 21.327326186514199 ], [ -157.79804152626636, 21.327587585031452 ], [ -157.797503734702502, 21.328104066204048 ], [ -157.795814535060572, 21.328904158232138 ], [ -157.794562419426427, 21.329274974917407 ], [ -157.794842237736049, 21.329738222029604 ], [ -157.79513495343582, 21.330005909332286 ], [ -157.795273405781643, 21.330416136250843 ] ], [ [ -157.757390596427712, 21.329327322755884 ], [ -157.757486954803596, 21.329658462893324 ], [ -157.757742314767029, 21.329422685667438 ], [ -157.757390596427712, 21.329327322755884 ] ], [ [ -157.788781154212245, 21.346088280494268 ], [ -157.788323992036453, 21.346750144579367 ], [ -157.788016517878816, 21.348928406998319 ], [ -157.78826747894712, 21.350944821077547 ], [ -157.787238159247295, 21.352505312281473 ], [ -157.786001980613008, 21.353418130394708 ], [ -157.786786785556416, 21.35469139680993 ], [ -157.786845340449702, 21.355162983036333 ], [ -157.786483280732938, 21.355730248913869 ], [ -157.786562763086579, 21.35637077407528 ], [ -157.786448150595675, 21.357182985002865 ], [ -157.786534280243842, 21.357874042253815 ], [ -157.785390146403472, 21.35851366045706 ], [ -157.785253623265049, 21.359480802901441 ], [ -157.787321658655088, 21.359833327004392 ], [ -157.787380486957659, 21.36030637053074 ], [ -157.787310893240772, 21.360798005272603 ], [ -157.788192003495567, 21.361291740575112 ], [ -157.788727575325169, 21.359586820000409 ], [ -157.790466047916283, 21.358614679570255 ], [ -157.791456383589775, 21.357365263722595 ], [ -157.791382963710902, 21.356775201732017 ], [ -157.792301072119415, 21.356097326115705 ], [ -157.792920496075936, 21.354563301286106 ], [ -157.793763261281498, 21.353940983421683 ], [ -157.792372311531693, 21.354126770709193 ], [ -157.790692623675938, 21.355035640071261 ], [ -157.791223398124799, 21.353771136809371 ], [ -157.791150501246079, 21.35318643774762 ], [ -157.791463221924147, 21.352190384545882 ], [ -157.791790092773567, 21.351949049016316 ], [ -157.791738156131601, 21.351529848224708 ], [ -157.791802945629684, 21.351070332202685 ], [ -157.790589877382274, 21.351202798781497 ], [ -157.790642075886723, 21.350832118986876 ], [ -157.78997612202437, 21.350324597903896 ], [ -157.790478077973404, 21.349954047818485 ], [ -157.79070934891817, 21.348313817870789 ], [ -157.789129278251863, 21.348486375153172 ], [ -157.789237576899524, 21.347717652059465 ], [ -157.789136342884007, 21.346903881732722 ], [ -157.789233829802185, 21.346213089562184 ], [ -157.788781154212245, 21.346088280494268 ] ], [ [ -157.940720837126491, 21.577753468106369 ], [ -157.940249279612715, 21.577637059310472 ], [ -157.940326244293971, 21.577325906133666 ], [ -157.939950590084379, 21.577095837648667 ], [ -157.939153814849476, 21.577750970827392 ], [ -157.939730569793085, 21.578128879635951 ], [ -157.940079929295507, 21.578609220420503 ], [ -157.940720837126491, 21.577753468106369 ], [ -157.941074772388475, 21.577662953801795 ], [ -157.940822412461301, 21.57742367999003 ], [ -157.940720837126491, 21.577753468106369 ] ], [ [ -157.940496116057346, 21.568808478473521 ], [ -157.940592882008559, 21.569139528273087 ], [ -157.940848681477036, 21.568903485385885 ], [ -157.940496116057346, 21.568808478473521 ] ], [ [ -157.939920614941769, 21.568262783400915 ], [ -157.940075563379565, 21.568607900084764 ], [ -157.940586116776018, 21.568376852595659 ], [ -157.939920614941769, 21.568262783400915 ] ], [ [ -157.935356332192583, 21.558477068696476 ], [ -157.936281185348719, 21.558402846618748 ], [ -157.935449133469973, 21.557604597264696 ], [ -157.935356332192583, 21.558477068696476 ], [ -157.935002441095463, 21.558567572821342 ], [ -157.935254759859674, 21.558806854250459 ], [ -157.935356332192583, 21.558477068696476 ] ], [ [ -157.925874057526755, 21.547846577247938 ], [ -157.924971531195098, 21.547682954091936 ], [ -157.924414670816674, 21.546527078352423 ], [ -157.924759842325955, 21.545543361846356 ], [ -157.925185599343962, 21.546427440815215 ], [ -157.926606038120042, 21.546081344446833 ], [ -157.927193068559063, 21.546117808523693 ], [ -157.927478062137283, 21.545274632612561 ], [ -157.927805200756865, 21.54472067512398 ], [ -157.927164897609146, 21.543600067209837 ], [ -157.926041965864869, 21.543655432313876 ], [ -157.925772386448728, 21.543095517449515 ], [ -157.925468193535323, 21.542837758924399 ], [ -157.92503184955396, 21.542374363544415 ], [ -157.92581768137623, 21.541726498508108 ], [ -157.92689980838017, 21.541793874941842 ], [ -157.927215694704699, 21.541557642469233 ], [ -157.926017011157398, 21.541202885290993 ], [ -157.925499829200049, 21.540653748415661 ], [ -157.924611802883987, 21.540697517042847 ], [ -157.924638143049037, 21.540328413022287 ], [ -157.923286155438603, 21.540395053431432 ], [ -157.923777728777594, 21.539562480474181 ], [ -157.923175990422493, 21.539299357134936 ], [ -157.923218441346222, 21.538702414701774 ], [ -157.922063578929226, 21.537723568480981 ], [ -157.921760358749083, 21.537202402169715 ], [ -157.923236782607546, 21.53657985353243 ], [ -157.922022268459983, 21.536307211653671 ], [ -157.92211695414656, 21.534976690906131 ], [ -157.921316358849595, 21.534409433515474 ], [ -157.920858338355885, 21.536195275275276 ], [ -157.920970722935124, 21.538193825184003 ], [ -157.920848853287509, 21.539908792572358 ], [ -157.92026831255157, 21.540891837654645 ], [ -157.919689002265358, 21.542051551955318 ], [ -157.918560305494992, 21.54298200918857 ], [ -157.917898156637762, 21.543941224950565 ], [ -157.917939650505161, 21.544678584758465 ], [ -157.9177624788787, 21.547168919573242 ], [ -157.917319407095476, 21.547919145466704 ], [ -157.917042001592876, 21.548474594546132 ], [ -157.916729138315077, 21.549004404905254 ], [ -157.917161900778581, 21.550559207363502 ], [ -157.915838845719122, 21.551649692579616 ], [ -157.91585796998865, 21.551988587009159 ], [ -157.915544664122052, 21.552519185623925 ], [ -157.915843808321199, 21.553875218919714 ], [ -157.915823907637076, 21.554154707043107 ], [ -157.916260183054391, 21.556131937724135 ], [ -157.91721730982357, 21.555653425920003 ], [ -157.91754664248478, 21.5563373396608 ], [ -157.918168873369581, 21.557183011293382 ], [ -157.918111235939847, 21.557992509245878 ], [ -157.916371870988627, 21.558482615291641 ], [ -157.915907475620372, 21.559412204610094 ], [ -157.916430984684524, 21.560807741206752 ], [ -157.916296409031389, 21.562698153878369 ], [ -157.917257685080671, 21.563095641939874 ], [ -157.91720469342161, 21.562154351409031 ], [ -157.917233598646334, 21.561748015495898 ], [ -157.917215969990849, 21.561435862219984 ], [ -157.918103530314369, 21.561491118934725 ], [ -157.919181450938424, 21.560121794299032 ], [ -157.919614269182802, 21.560148751326558 ], [ -157.919522678797478, 21.561436608390888 ], [ -157.919711089754031, 21.562298517357341 ], [ -157.920208497044968, 21.561302898927483 ], [ -157.921264281804895, 21.560857888635688 ], [ -157.921592160263032, 21.561876387318048 ], [ -157.922725637238528, 21.561504190043241 ], [ -157.923165813534609, 21.561531582567486 ], [ -157.923606210968757, 21.561509880133698 ], [ -157.923881408421011, 21.561599062842852 ], [ -157.923006927175749, 21.562319850777506 ], [ -157.922514299766306, 21.5642404440074 ], [ -157.923146038352712, 21.564209327525798 ], [ -157.923910740524605, 21.564256944819981 ], [ -157.924429361153301, 21.565867466923159 ], [ -157.924920864194604, 21.566283978373658 ], [ -157.923853493842898, 21.567163712789849 ], [ -157.923560620765642, 21.568029985329549 ], [ -157.922703041892504, 21.568391465171903 ], [ -157.923261006200505, 21.569367911081461 ], [ -157.923538284376519, 21.569943560766095 ], [ -157.923824037986918, 21.569371549070421 ], [ -157.924718351484984, 21.568307418859355 ], [ -157.924701342705646, 21.568004930263566 ], [ -157.925639004967451, 21.568063316783633 ], [ -157.925563881068967, 21.569119371875288 ], [ -157.925594403576156, 21.569661600985761 ], [ -157.925555890720432, 21.570203384832613 ], [ -157.925577038111442, 21.57057802100989 ], [ -157.926639234317548, 21.571286823915784 ], [ -157.927074979183885, 21.569998466442236 ], [ -157.928487114988343, 21.56960050134175 ], [ -157.928438188479845, 21.568731359654851 ], [ -157.928492307134462, 21.567970334393141 ], [ -157.929687186367943, 21.566985390575514 ], [ -157.929577389420388, 21.568528936373959 ], [ -157.929952982349221, 21.56918606290451 ], [ -157.93079490418296, 21.569144556565352 ], [ -157.931073697839452, 21.569440454056565 ], [ -157.932233192382, 21.568611747886365 ], [ -157.932625455800803, 21.568636162468582 ], [ -157.933735210036986, 21.569209452665433 ], [ -157.934723750140478, 21.569160660140454 ], [ -157.935118796109862, 21.570043857780874 ], [ -157.934535809342208, 21.57052446671965 ], [ -157.934062153059841, 21.571472773876259 ], [ -157.934542314325626, 21.571879591609193 ], [ -157.93482645507595, 21.572181207661316 ], [ -157.935176390979422, 21.570816385382557 ], [ -157.935719965416325, 21.571393255230372 ], [ -157.93568433193596, 21.57189450113075 ], [ -157.93570099527787, 21.572189311795039 ], [ -157.936278280815856, 21.572160776191534 ], [ -157.936817344202183, 21.573279713546572 ], [ -157.937438006804456, 21.574365491260927 ], [ -157.937400490753731, 21.574892728840087 ], [ -157.93770446989015, 21.575424526702125 ], [ -157.937666005185264, 21.575965520817189 ], [ -157.938139441026522, 21.57636672796972 ], [ -157.938826811609289, 21.577096158077634 ], [ -157.939126028036327, 21.576787149270043 ], [ -157.939861478524563, 21.576392916056168 ], [ -157.939958247247489, 21.576723966075569 ], [ -157.940214061587739, 21.576487924960997 ], [ -157.939861478524563, 21.576392916056168 ], [ -157.940026177042853, 21.575982211886281 ], [ -157.939694259084007, 21.575711133530792 ], [ -157.940420794830658, 21.575413443511195 ], [ -157.939452491724978, 21.574347628720147 ], [ -157.938334993917124, 21.573682949932575 ], [ -157.938266768005803, 21.572813752615456 ], [ -157.938585050214556, 21.572158551829997 ], [ -157.939094382465953, 21.572719246958471 ], [ -157.939759557035302, 21.572200305499361 ], [ -157.939717206056883, 21.571662633643275 ], [ -157.940048989046517, 21.571639800384961 ], [ -157.940958281310714, 21.572121914594106 ], [ -157.940859859306215, 21.570869753788212 ], [ -157.941236943202028, 21.570569969365565 ], [ -157.939784651297828, 21.570150833017756 ], [ -157.939753313511204, 21.569752312646795 ], [ -157.939779403728181, 21.569471867533924 ], [ -157.938621619207652, 21.569137766441962 ], [ -157.939204034460687, 21.568674805216407 ], [ -157.939339202698562, 21.568530100011916 ], [ -157.939693116010602, 21.568439587663445 ], [ -157.939440773715091, 21.568200312244464 ], [ -157.939339202698562, 21.568530100011916 ], [ -157.938021124583628, 21.568644706463147 ], [ -157.937545037944943, 21.569173449129323 ], [ -157.936755252029855, 21.569243641546063 ], [ -157.935888942341904, 21.568885643024736 ], [ -157.936315428525404, 21.567845785306364 ], [ -157.936584382423888, 21.567009440632798 ], [ -157.936995646110745, 21.566348417561322 ], [ -157.93481050384753, 21.566542621075371 ], [ -157.934913603529793, 21.565656189645324 ], [ -157.934826232228829, 21.564796462672298 ], [ -157.936309695653506, 21.564947468862123 ], [ -157.935488963051142, 21.564376572314423 ], [ -157.93354608642511, 21.563829724372678 ], [ -157.933426520983545, 21.562653516216965 ], [ -157.934659223290254, 21.562406066014994 ], [ -157.93517735869068, 21.561309098965214 ], [ -157.9363340788382, 21.560848558051287 ], [ -157.935791558421556, 21.560228954098669 ], [ -157.934604979619252, 21.559974837228417 ], [ -157.934723316970263, 21.558957625644791 ], [ -157.933481919435877, 21.558831248633439 ], [ -157.933159311336738, 21.559189525257832 ], [ -157.931989693822686, 21.558552859438603 ], [ -157.930886563226181, 21.558650924895485 ], [ -157.93083669054451, 21.558159850145547 ], [ -157.931438982725467, 21.557490934515886 ], [ -157.932370840803316, 21.556961488940296 ], [ -157.931152375456946, 21.556700527641794 ], [ -157.931217737291036, 21.556139658589711 ], [ -157.928593893907333, 21.555684859283055 ], [ -157.928536904808112, 21.555123800561443 ], [ -157.930399123476462, 21.554382457963616 ], [ -157.931711577817367, 21.553376677906591 ], [ -157.929714462503995, 21.553554161387883 ], [ -157.929761720549948, 21.553147674779876 ], [ -157.929325408350081, 21.55242346253608 ], [ -157.930031563493429, 21.551882323364815 ], [ -157.929772429288533, 21.551244339128512 ], [ -157.929325141018978, 21.551284078137211 ], [ -157.92864525233847, 21.551214867331666 ], [ -157.928266489486219, 21.55182394107505 ], [ -157.928450244061764, 21.55363370979531 ], [ -157.926591275487908, 21.553798876485654 ], [ -157.926283216389464, 21.553121534277263 ], [ -157.925707154179719, 21.552667561990511 ], [ -157.926481685287968, 21.552544056857563 ], [ -157.927708179559374, 21.552668932521328 ], [ -157.92744994147705, 21.552044978038541 ], [ -157.92698034318687, 21.551674998296441 ], [ -157.926548381988255, 21.550957887083683 ], [ -157.927859333279656, 21.550694776911872 ], [ -157.927419568179289, 21.549576584136666 ], [ -157.928590171667736, 21.548679486019346 ], [ -157.928667774427851, 21.548012565644665 ], [ -157.927740635137354, 21.548252611787227 ], [ -157.926518510437091, 21.548673240079271 ], [ -157.926002375602309, 21.54826643451635 ], [ -157.925874057526755, 21.547846577247938 ], [ -157.926227927046597, 21.547756091549697 ], [ -157.925975641995336, 21.547516797546834 ], [ -157.925874057526755, 21.547846577247938 ] ], [ [ -157.920766044441848, 21.533449705699532 ], [ -157.920923967481542, 21.534357734187207 ], [ -157.921467736376513, 21.533963723945423 ], [ -157.920766044441848, 21.533449705699532 ] ], [ [ -157.919641526956354, 21.528835138884286 ], [ -157.919398545673857, 21.529427804542216 ], [ -157.919803013900633, 21.530751499133757 ], [ -157.920600537664797, 21.532075354389121 ], [ -157.920959726122646, 21.533250938025994 ], [ -157.921790043596246, 21.533335507664308 ], [ -157.922352889811094, 21.533038749663241 ], [ -157.923383048453559, 21.533143724239057 ], [ -157.924089981701428, 21.532601883725381 ], [ -157.923422968876395, 21.532486619742862 ], [ -157.92257634263342, 21.532561810776251 ], [ -157.921489648493178, 21.531705280247778 ], [ -157.921229060514236, 21.531407567542537 ], [ -157.920090355159203, 21.530510065969835 ], [ -157.920880780970037, 21.52990426715774 ], [ -157.920056922189161, 21.529254940236864 ], [ -157.920091053456986, 21.52896177991984 ], [ -157.919641526956354, 21.528835138884286 ] ], [ [ -157.916218120193008, 21.521766497544736 ], [ -157.916068385666563, 21.523534744565328 ], [ -157.915465943229918, 21.524329853928371 ], [ -157.915482941382578, 21.524631086910848 ], [ -157.9163626647819, 21.524587706546935 ], [ -157.918063330895421, 21.525715826566881 ], [ -157.918657110126674, 21.525975474244714 ], [ -157.918924210296325, 21.526805474289858 ], [ -157.919517995541639, 21.527065119119964 ], [ -157.919820404387423, 21.527386263187019 ], [ -157.919784734357393, 21.527887506464719 ], [ -157.919799984165849, 21.528158622241559 ], [ -157.919780410572116, 21.528433945702549 ], [ -157.919841005646447, 21.528693312768048 ], [ -157.920392845121114, 21.528123288907057 ], [ -157.921239491600886, 21.528176007630591 ], [ -157.922139750614633, 21.52813167161414 ], [ -157.922683158103581, 21.527687102788214 ], [ -157.920934146352721, 21.527294418500542 ], [ -157.920969025918055, 21.526803888627139 ], [ -157.920126278072303, 21.526435316177231 ], [ -157.921508118443768, 21.525296002908611 ], [ -157.919807144955598, 21.524914072552324 ], [ -157.91924640269022, 21.524624206489175 ], [ -157.918073365577726, 21.524360806476441 ], [ -157.917272977928349, 21.523947104834974 ], [ -157.916612498384495, 21.522575426404018 ], [ -157.916660659429823, 21.521897534818866 ], [ -157.916218120193008, 21.521766497544736 ] ], [ [ -157.904192010324891, 21.503258845768322 ], [ -157.904385662560941, 21.503608746056788 ], [ -157.905159862605757, 21.50338296933403 ], [ -157.904192010324891, 21.503258845768322 ] ], [ [ -157.892138107855942, 21.488815460743815 ], [ -157.892402391188597, 21.489504149442155 ], [ -157.891910984181152, 21.493863751441921 ], [ -157.892765894242189, 21.493805172297499 ], [ -157.893589674180049, 21.494478841381987 ], [ -157.894248806596636, 21.495479402303253 ], [ -157.895140507394331, 21.496560700031875 ], [ -157.89689926854038, 21.499239612263093 ], [ -157.896809909033152, 21.500194923973655 ], [ -157.897154892222943, 21.502038605053066 ], [ -157.900283177402429, 21.501723902594367 ], [ -157.900015514903799, 21.501458203179222 ], [ -157.899436160983868, 21.501497923875114 ], [ -157.898927783287007, 21.500937718933006 ], [ -157.897425790983533, 21.500298570679622 ], [ -157.89831673942183, 21.499590318515406 ], [ -157.897965062396509, 21.49899051835985 ], [ -157.898062416646354, 21.497948845348034 ], [ -157.897716195550061, 21.497920491567207 ], [ -157.896875126281031, 21.497978194142831 ], [ -157.896570672547256, 21.497642772158635 ], [ -157.896026805229241, 21.497197916799312 ], [ -157.895973797702283, 21.496520951690425 ], [ -157.89687881107659, 21.495801617186416 ], [ -157.896853396982948, 21.495477764571515 ], [ -157.897437338911601, 21.495013692502965 ], [ -157.896280247430155, 21.494679323447968 ], [ -157.896333008031405, 21.494114414606017 ], [ -157.895567789110601, 21.494166922175371 ], [ -157.894351716047424, 21.493649399372099 ], [ -157.895485030634461, 21.492748566966593 ], [ -157.894308667718605, 21.491786405634873 ], [ -157.894237487310846, 21.490877142664722 ], [ -157.895742991364727, 21.490773955139304 ], [ -157.897758041016829, 21.490938913269289 ], [ -157.897204970504504, 21.490329512307412 ], [ -157.895977296041991, 21.490059916320806 ], [ -157.895468689435575, 21.489499369682942 ], [ -157.893657358625376, 21.490108289529893 ], [ -157.893763343622538, 21.488975168218793 ], [ -157.893440177856831, 21.488948679294996 ], [ -157.892933727801136, 21.488983436367096 ], [ -157.892138107855942, 21.488815460743815 ] ], [ [ -157.892735674264173, 21.48638027293374 ], [ -157.892293415773906, 21.486005091275523 ], [ -157.892315571390611, 21.485693066245933 ], [ -157.89170585409093, 21.48517597154693 ], [ -157.892037706080686, 21.484614039370783 ], [ -157.891412018877247, 21.48351788406347 ], [ -157.892215731456758, 21.482855331932662 ], [ -157.892893748442816, 21.483575874890732 ], [ -157.893187472574965, 21.482987948817151 ], [ -157.893849719338846, 21.482708744797471 ], [ -157.894600413742978, 21.482755594630152 ], [ -157.89550748723002, 21.482520746316148 ], [ -157.894062138935908, 21.482195906791713 ], [ -157.892969794367133, 21.4818208574662 ], [ -157.893505592472451, 21.4813791730178 ], [ -157.893780898470311, 21.481094760309574 ], [ -157.894378315825293, 21.480842914525059 ], [ -157.894652733129163, 21.480675873270705 ], [ -157.893654461904504, 21.480238989878707 ], [ -157.894302946194586, 21.479140488325662 ], [ -157.892934692964445, 21.479207721796303 ], [ -157.892561757850615, 21.479184409117501 ], [ -157.891484943257154, 21.480552734166405 ], [ -157.891234040159048, 21.480806868423887 ], [ -157.891787518523131, 21.478925861387047 ], [ -157.891742797941845, 21.478128262259872 ], [ -157.892084530126681, 21.477846542165395 ], [ -157.892362125601778, 21.477258840792917 ], [ -157.891184119452447, 21.477316668232469 ], [ -157.891688101308091, 21.476463091804991 ], [ -157.890652666027904, 21.476513987088587 ], [ -157.89036056825887, 21.476085408926501 ], [ -157.891811398372624, 21.475676597400053 ], [ -157.892090796021847, 21.474850180421271 ], [ -157.892937812993807, 21.474493067995734 ], [ -157.892098880065703, 21.473781384682443 ], [ -157.891554287156424, 21.473202658159831 ], [ -157.890663275597547, 21.473246439508323 ], [ -157.888487484233735, 21.476914996299531 ], [ -157.888903858892746, 21.477268180201886 ], [ -157.889172767958371, 21.477827218689693 ], [ -157.890049675308745, 21.478901891758664 ], [ -157.890370155764629, 21.481630594512168 ], [ -157.890171287881003, 21.484420227834857 ], [ -157.890677944550276, 21.485307769604518 ], [ -157.891444020660117, 21.485957575812456 ], [ -157.892062113460042, 21.486881516446097 ], [ -157.891952496894305, 21.488418225800572 ], [ -157.892761280130458, 21.488378461623419 ], [ -157.89315264046482, 21.487595000593352 ], [ -157.894039641255347, 21.48734507504691 ], [ -157.894177299786207, 21.487202868634721 ], [ -157.894531037042583, 21.487112444117471 ], [ -157.894278906091102, 21.486873107119546 ], [ -157.894177299786207, 21.487202868634721 ], [ -157.893117040313257, 21.48710480444959 ], [ -157.892735674264173, 21.48638027293374 ], [ -157.893089410248422, 21.486289851412856 ], [ -157.892837283112272, 21.486050512378487 ], [ -157.892735674264173, 21.48638027293374 ] ], [ [ -157.890813493959229, 21.472545677194439 ], [ -157.891476681115762, 21.47221110578818 ], [ -157.890964924305564, 21.471908706922992 ], [ -157.890813493959229, 21.472545677194439 ], [ -157.890459790428935, 21.472636095413105 ], [ -157.890711891480322, 21.472875437248877 ], [ -157.890813493959229, 21.472545677194439 ] ], [ [ -157.887407095779139, 21.463579491463797 ], [ -157.887310510137411, 21.463248414758777 ], [ -157.887054821253827, 21.463484382680139 ], [ -157.887407095779139, 21.463579491463797 ], [ -157.887503681823148, 21.463910568119047 ], [ -157.887759370795379, 21.463674599524055 ], [ -157.887407095779139, 21.463579491463797 ] ], [ [ -157.875053952207082, 21.451030113314079 ], [ -157.875422587771595, 21.450885305356557 ], [ -157.875176051800253, 21.450407649169435 ], [ -157.875053952207082, 21.451030113314079 ], [ -157.8741514624692, 21.451297574328443 ], [ -157.872530795767148, 21.453267409827891 ], [ -157.873444507500693, 21.454411488532621 ], [ -157.873421157185419, 21.455205985809911 ], [ -157.873854948397451, 21.455634751071258 ], [ -157.874573116050527, 21.45629019467458 ], [ -157.874859951250329, 21.458517090555219 ], [ -157.87482983905943, 21.459530287424169 ], [ -157.875126194948223, 21.460112358385992 ], [ -157.87542308860796, 21.460661481788762 ], [ -157.875400134622367, 21.461442219258405 ], [ -157.875748857685522, 21.4621275956776 ], [ -157.878242133276075, 21.460946332080994 ], [ -157.881234619117123, 21.461234809681084 ], [ -157.883717590194351, 21.462048899450462 ], [ -157.886852633345626, 21.462129739205068 ], [ -157.885825346759248, 21.461810065527036 ], [ -157.88554359885137, 21.461531746073451 ], [ -157.883837228047128, 21.461208063880374 ], [ -157.884695170038981, 21.460447383347745 ], [ -157.88407943017026, 21.460162665881143 ], [ -157.883385042867417, 21.459476387922294 ], [ -157.882666884937493, 21.460166205225192 ], [ -157.881502536992258, 21.459878540948278 ], [ -157.881207763475459, 21.45988225998666 ], [ -157.880853632531142, 21.459532121783127 ], [ -157.878935111195005, 21.460132503023477 ], [ -157.878311358490095, 21.459862135275824 ], [ -157.878882555410627, 21.457836318425304 ], [ -157.877843164232075, 21.458328771464515 ], [ -157.877464492474672, 21.457954377371347 ], [ -157.877172126628807, 21.457958039424092 ], [ -157.876593220044043, 21.457943103136444 ], [ -157.87630231182311, 21.458494297871592 ], [ -157.876010031211024, 21.458486710189138 ], [ -157.875434063671804, 21.458493822866608 ], [ -157.87543000566626, 21.458211994265689 ], [ -157.875729469019262, 21.457946497618796 ], [ -157.875434808877515, 21.457401558227275 ], [ -157.876430903332306, 21.455623221879716 ], [ -157.875940845440425, 21.455138836300549 ], [ -157.874614449517878, 21.455767231351825 ], [ -157.87401023619978, 21.454410201989816 ], [ -157.874602777807496, 21.45360444799363 ], [ -157.874749914098999, 21.45292518387134 ], [ -157.875103436145025, 21.452834796074178 ], [ -157.874851677307049, 21.452595434655148 ], [ -157.874749914098999, 21.45292518387134 ], [ -157.873756588353615, 21.452760297597365 ], [ -157.874304443056673, 21.451956162343372 ], [ -157.875053952207082, 21.451030113314079 ] ], [ [ -157.863315410129815, 21.434147799497428 ], [ -157.863216780136014, 21.434327101571238 ], [ -157.862541498904022, 21.43450460447189 ], [ -157.862344433226923, 21.434837801095519 ], [ -157.863931402789518, 21.435056073227702 ], [ -157.863515928761899, 21.434244439756977 ], [ -157.863315410129815, 21.434147799497428 ] ], [ [ -157.849492063328171, 21.425109880387858 ], [ -157.849603123045028, 21.425726515313205 ], [ -157.849867082863341, 21.425263181855371 ], [ -157.849492063328171, 21.425109880387858 ] ], [ [ -157.836860264396449, 21.412013926952508 ], [ -157.837507075978891, 21.411888333249347 ], [ -157.837238650866396, 21.411378582420873 ], [ -157.836860264396449, 21.412013926952508 ], [ -157.836398720348427, 21.4121214180932 ], [ -157.836154683101171, 21.413100564545779 ], [ -157.836730526659863, 21.413478796575212 ], [ -157.837662170830271, 21.415112873283043 ], [ -157.837522321074573, 21.415677223328409 ], [ -157.837585180701723, 21.415948674368302 ], [ -157.837451166522527, 21.41648977440083 ], [ -157.837576603630907, 21.417032674519586 ], [ -157.837337769450073, 21.417996970944216 ], [ -157.837098185972422, 21.418519936213254 ], [ -157.836744728346531, 21.418610246757087 ], [ -157.836996366624987, 21.418849661057845 ], [ -157.837098185972422, 21.418519936213254 ], [ -157.838978925950414, 21.418768795029653 ], [ -157.841867886548812, 21.420306965063062 ], [ -157.842138655337664, 21.420595069969558 ], [ -157.842594348917459, 21.420981914446728 ], [ -157.843000506489915, 21.421414070041649 ], [ -157.8438831465607, 21.421675960928415 ], [ -157.846004868436552, 21.42277465191713 ], [ -157.845886645713136, 21.422460211306909 ], [ -157.84504430751943, 21.421744909415356 ], [ -157.845022734148074, 21.421361197296353 ], [ -157.847276361675767, 21.421752211433148 ], [ -157.847656729916253, 21.421438555487565 ], [ -157.847037607777196, 21.420912842164828 ], [ -157.84709792643585, 21.420070105433293 ], [ -157.846492258059811, 21.420099680782627 ], [ -157.84621498598716, 21.419522988438299 ], [ -157.845360775266386, 21.419564808866191 ], [ -157.845059166963182, 21.419244075096088 ], [ -157.844755768697127, 21.419258921692972 ], [ -157.844193892407958, 21.418967952630535 ], [ -157.843293502568912, 21.418700780418138 ], [ -157.843332893745952, 21.418149229315244 ], [ -157.842440124459358, 21.417884288823423 ], [ -157.843169581907063, 21.416921585589229 ], [ -157.841821841429891, 21.417363988679313 ], [ -157.839933946900857, 21.417020429481664 ], [ -157.841035860757472, 21.415709172272461 ], [ -157.841175635273459, 21.415296007161913 ], [ -157.841834159356324, 21.415191982105533 ], [ -157.841339509393919, 21.414944873582783 ], [ -157.841175635273459, 21.415296007161913 ], [ -157.839853714828166, 21.415404899294561 ], [ -157.837864270536642, 21.41593314259773 ], [ -157.838647054558407, 21.414769950164846 ], [ -157.839636200008528, 21.414065785292077 ], [ -157.83922901927275, 21.413766873164228 ], [ -157.840567155034051, 21.412102605108288 ], [ -157.839886431780258, 21.412191981718586 ], [ -157.839312742815537, 21.411862539495814 ], [ -157.838561974725764, 21.413018613727477 ], [ -157.83657116524023, 21.412687737203072 ], [ -157.836860264396449, 21.412013926952508 ] ], [ [ -157.823382100144215, 21.396472019807437 ], [ -157.824109410356698, 21.396344327476122 ], [ -157.82516332511733, 21.396014733324506 ], [ -157.825569635146365, 21.395245161284382 ], [ -157.826147971164005, 21.394732522837501 ], [ -157.826868466443045, 21.394040707507273 ], [ -157.82730194294146, 21.394469714515065 ], [ -157.827614528260824, 21.394465879166315 ], [ -157.828395103174813, 21.393716383418866 ], [ -157.825647460154414, 21.392860035412383 ], [ -157.826511117846621, 21.391685552071916 ], [ -157.825304522377479, 21.390932409492432 ], [ -157.824746138348502, 21.389833587033628 ], [ -157.825318828813636, 21.389848582636553 ], [ -157.825627850407727, 21.389263327239046 ], [ -157.826487063344103, 21.38850155368273 ], [ -157.826772969907637, 21.388227113221348 ], [ -157.827370626022713, 21.38769726861074 ], [ -157.827050805471544, 21.387405292405045 ], [ -157.825916962257793, 21.387419061967758 ], [ -157.825618646447623, 21.387123991558916 ], [ -157.824758939560127, 21.38713444540976 ], [ -157.824454941731545, 21.387126492555733 ], [ -157.824479648920288, 21.386297675060693 ], [ -157.825061936713979, 21.385781427193574 ], [ -157.825641513547225, 21.384967015130922 ], [ -157.826227976539201, 21.384705530308818 ], [ -157.826526368015834, 21.384140246209149 ], [ -157.827104655184172, 21.383627601643436 ], [ -157.827390594987179, 21.383347601866443 ], [ -157.826255370168468, 21.383361365283712 ], [ -157.825658644927046, 21.383068176931065 ], [ -157.825370754193614, 21.383344454711626 ], [ -157.824784295387104, 21.383605936756837 ], [ -157.823128047990792, 21.384390431936904 ], [ -157.822766708520788, 21.383320775491107 ], [ -157.821099090593947, 21.382772460771807 ], [ -157.822244464091227, 21.384208626893859 ], [ -157.823039484594602, 21.384934883935724 ], [ -157.823318029976861, 21.386040217878023 ], [ -157.823608739828245, 21.386578861043382 ], [ -157.824170915601513, 21.387943302724409 ], [ -157.824473050964855, 21.388502866846061 ], [ -157.824418221812778, 21.390342683730363 ], [ -157.824731781714149, 21.390923169744237 ], [ -157.824715563059698, 21.391467599944932 ], [ -157.824730418410383, 21.392543955522196 ], [ -157.824405107623164, 21.392832275122089 ], [ -157.823562929515873, 21.39442751242769 ], [ -157.823382100144215, 21.396472019807437 ], [ -157.82302868933175, 21.396562303690068 ], [ -157.823280268307684, 21.396801736457995 ], [ -157.823382100144215, 21.396472019807437 ] ], [ [ -157.80683167015539, 21.367627604084099 ], [ -157.806537395392581, 21.368377616092552 ], [ -157.806951605345887, 21.369668672065195 ], [ -157.80944992657183, 21.370051513681116 ], [ -157.809852502044549, 21.370758106259014 ], [ -157.810244309318563, 21.3715739272211 ], [ -157.811548624120661, 21.370132883801013 ], [ -157.810714886318578, 21.369424365302869 ], [ -157.810448373577259, 21.368593288956799 ], [ -157.810151015694231, 21.368607788892795 ], [ -157.809861833338971, 21.368589594283005 ], [ -157.809355872716196, 21.368614258730126 ], [ -157.808400294901418, 21.368195199740267 ], [ -157.808432154285157, 21.367749668223038 ], [ -157.807612163526983, 21.367789631871673 ], [ -157.80683167015539, 21.367627604084099 ] ], [ [ -157.796988939167733, 21.332867554328704 ], [ -157.797085389549807, 21.333198675986765 ], [ -157.79734069593809, 21.332962835948592 ], [ -157.796988939167733, 21.332867554328704 ] ], [ [ -157.75738146843824, 21.330411302074541 ], [ -157.757190646095609, 21.330865635513653 ], [ -157.758944283155415, 21.332202818446209 ], [ -157.75997824032703, 21.332090029492875 ], [ -157.760391837766576, 21.331680012208238 ], [ -157.758658808323617, 21.33138430069431 ], [ -157.757898310026263, 21.330957740987728 ], [ -157.757541169950969, 21.330532969005603 ], [ -157.75738146843824, 21.330411302074541 ] ], [ [ -157.752776661591156, 21.327667083816923 ], [ -157.752873008586988, 21.3279982261048 ], [ -157.75312837251272, 21.327762456064065 ], [ -157.752776661591156, 21.327667083816923 ] ], [ [ -157.749604358129659, 21.326559473096694 ], [ -157.749779894156774, 21.32697801413206 ], [ -157.749184674989607, 21.327385991921236 ], [ -157.751380957974249, 21.327772313015739 ], [ -157.751600368182636, 21.326845053842892 ], [ -157.750339787426498, 21.32703881416483 ], [ -157.750058398378769, 21.326678439537897 ], [ -157.749604358129659, 21.326559473096694 ] ], [ [ -157.748169731876317, 21.325193740934591 ], [ -157.748037140815427, 21.325340764333141 ], [ -157.747179237215477, 21.325681937271057 ], [ -157.748369173113929, 21.326623128984647 ], [ -157.748293909925593, 21.325872193358368 ], [ -157.748356034819665, 21.325341219980874 ], [ -157.748169731876317, 21.325193740934591 ] ], [ [ -157.744129864833525, 21.324079568401515 ], [ -157.744020807363057, 21.324248929504172 ], [ -157.74344360844816, 21.32456366303812 ], [ -157.743842472717716, 21.32499128900248 ], [ -157.744524817743297, 21.324302979110538 ], [ -157.744129864833525, 21.324079568401515 ] ], [ [ -157.742105337397703, 21.324064433677091 ], [ -157.74223914490662, 21.324670180310836 ], [ -157.742783321049757, 21.324419185408665 ], [ -157.742105337397703, 21.324064433677091 ] ], [ [ -157.741526901315467, 21.324060104995052 ], [ -157.741623220801785, 21.324391252512683 ], [ -157.741878595180339, 21.324155500042757 ], [ -157.741526901315467, 21.324060104995052 ] ] ] } }
]
}
