{
"type": "FeatureCollection",
"name": "cyrferr",
"crs": { "type": "name", "properties": { "name": "urn:ogc:def:crs:OGC:1.3:CRS84" } },
"features": [
{ "type": "Feature", "properties": { "ID": 1, "GRIDCODE": 1 }, "geometry": { "type": "Polygon", "coordinates": [ [ [ -156.592600991288464, 20.896805721075872 ], [ -156.592950762590988, 20.896903372384308 ], [ -156.592694511212471, 20.897137322253229 ], [ -156.592600991288464, 20.896805721075872 ] ] ] } },
{ "type": "Feature", "properties": { "ID": 2, "GRIDCODE": 1 }, "geometry": { "type": "Polygon", "coordinates": [ [ [ -156.567536115188631, 20.895908892195308 ], [ -156.567191072841382, 20.89628756262152 ], [ -156.565090227967488, 20.896458550772792 ], [ -156.565706436564426, 20.896023301742709 ], [ -156.567536115188631, 20.895908892195308 ] ] ] } },
{ "type": "Feature", "properties": { "ID": 3, "GRIDCODE": 1 }, "geometry": { "type": "Polygon", "coordinates": [ [ [ -156.593801327372177, 20.893842804643899 ], [ -156.594151093057945, 20.893940452931567 ], [ -156.593894848887203, 20.89417440534605 ], [ -156.593801327372177, 20.893842804643899 ] ] ] } },
{ "type": "Feature", "properties": { "ID": 4, "GRIDCODE": 1 }, "geometry": { "type": "Polygon", "coordinates": [ [ [ -156.591818508107792, 20.891647723392225 ], [ -156.591724992241666, 20.891316122058893 ], [ -156.591468749614762, 20.891550070964346 ], [ -156.591818508107792, 20.891647723392225 ], [ -156.592904750607744, 20.893046992378679 ], [ -156.593555154441361, 20.893533524315419 ], [ -156.593801327372177, 20.893842804643899 ], [ -156.591929382192291, 20.893396467609914 ], [ -156.591654310813141, 20.893575258214572 ], [ -156.592513122567198, 20.893950051639255 ], [ -156.593829764574082, 20.896172517976868 ], [ -156.593332479312721, 20.896127948036355 ], [ -156.593043929052072, 20.896145575541627 ], [ -156.591763472624734, 20.896030707373036 ], [ -156.592338819266217, 20.89651102789426 ], [ -156.592600991288464, 20.896805721075872 ], [ -156.592182078711346, 20.897159729461357 ], [ -156.5921475670186, 20.897752218463935 ], [ -156.592744280018735, 20.898287732247265 ], [ -156.592271715337148, 20.898687015070003 ], [ -156.59132473138979, 20.89961888006448 ], [ -156.590416692227734, 20.898253064531342 ], [ -156.590128672146278, 20.898536825178049 ], [ -156.589824755583834, 20.898793509772382 ], [ -156.589845236069664, 20.899573144315866 ], [ -156.589530616293843, 20.899882850386934 ], [ -156.589222416953277, 20.900143044463835 ], [ -156.590072585945649, 20.901342445355489 ], [ -156.589218174984154, 20.90199359869322 ], [ -156.589205256890438, 20.901498455494828 ], [ -156.589235534564324, 20.900977996682098 ], [ -156.588062026555036, 20.900105764395754 ], [ -156.588089992032536, 20.901173723974352 ], [ -156.58724278980273, 20.902007371112898 ], [ -156.587172815354819, 20.901330871586058 ], [ -156.587225180395507, 20.900433222520594 ], [ -156.586879932313678, 20.899718311483397 ], [ -156.585493086406046, 20.89928404269239 ], [ -156.58522497232542, 20.89872815152178 ], [ -156.584926903356063, 20.89846084974884 ], [ -156.585410347973237, 20.897224596187709 ], [ -156.584054243424163, 20.897649855246051 ], [ -156.584102421844221, 20.896821194743421 ], [ -156.584095280977039, 20.896546365988787 ], [ -156.584510147983707, 20.895144863863674 ], [ -156.583486037760025, 20.895635658295774 ], [ -156.582909442005842, 20.893829669065056 ], [ -156.582233632917649, 20.894526832744653 ], [ -156.581722089685428, 20.895969682969007 ], [ -156.581230759011788, 20.895431261550289 ], [ -156.580838966198996, 20.89461938884406 ], [ -156.58011468058686, 20.894582148382806 ], [ -156.580082046079809, 20.895142515887521 ], [ -156.580550859951614, 20.897418135520709 ], [ -156.578319418151011, 20.896885077984948 ], [ -156.576958318581433, 20.896183392464593 ], [ -156.576137919915709, 20.896503622177139 ], [ -156.575156047629946, 20.896974196213606 ], [ -156.574869500961569, 20.896674503522345 ], [ -156.573458328103243, 20.896706976506149 ], [ -156.57290240444064, 20.896125818386963 ], [ -156.570261914150763, 20.8963488573802 ], [ -156.56984101218822, 20.897155539830646 ], [ -156.569388421980733, 20.896888528325956 ], [ -156.568883179652772, 20.896360193938577 ], [ -156.567971941870752, 20.89604538327448 ], [ -156.567536115188631, 20.895908892195308 ], [ -156.56767962576717, 20.895772845347867 ], [ -156.56826593105427, 20.895515593052657 ], [ -156.568732771171369, 20.895072650482732 ], [ -156.570596497878142, 20.893647229662676 ], [ -156.572312270638861, 20.89289479247542 ], [ -156.572933739161783, 20.892060396036413 ], [ -156.573380262801777, 20.890831197346486 ], [ -156.57407223200272, 20.891528963038013 ], [ -156.574380591238963, 20.89153929289462 ], [ -156.574668872021306, 20.891537829642445 ], [ -156.574992143353768, 20.891548634602003 ], [ -156.577836610275455, 20.890222355630389 ], [ -156.578439260142289, 20.89024240458442 ], [ -156.581223058780751, 20.889747588032719 ], [ -156.582048199540168, 20.889743393078064 ], [ -156.582958081900159, 20.889773725177239 ], [ -156.585149061252736, 20.889470318891529 ], [ -156.585660713196205, 20.888984704401096 ], [ -156.586570463096024, 20.888442278492882 ], [ -156.587124695964519, 20.88791625597873 ], [ -156.588236860510392, 20.88795325088164 ], [ -156.588857974269359, 20.887680672959672 ], [ -156.589960412669143, 20.886634344007373 ], [ -156.590908046919793, 20.886344404866875 ], [ -156.591614502423482, 20.886367985676106 ], [ -156.592635565046379, 20.886362795092964 ], [ -156.592310904779339, 20.886933605540328 ], [ -156.59348201939568, 20.886927746379186 ], [ -156.593743670810539, 20.888296083417671 ], [ -156.594184695796201, 20.887877434147324 ], [ -156.594607470950479, 20.888303482189531 ], [ -156.594897057731231, 20.888573160846889 ], [ -156.59517090402025, 20.889124093125155 ], [ -156.596025844787818, 20.889528971262688 ], [ -156.596031523101431, 20.890480221901683 ], [ -156.595566179684567, 20.890887819389839 ], [ -156.59628518276557, 20.891556651679348 ], [ -156.595825320287304, 20.89158470506597 ], [ -156.594843951889317, 20.891552111601438 ], [ -156.59441223373517, 20.892357524488887 ], [ -156.591818508107792, 20.891647723392225 ] ], [ [ -156.571863457202596, 20.895699561267378 ], [ -156.571956929828048, 20.896031169329415 ], [ -156.572213207887103, 20.895797253525078 ], [ -156.571863457202596, 20.895699561267378 ] ] ] } },
{ "type": "Feature", "properties": { "ID": 5, "GRIDCODE": 1 }, "geometry": { "type": "Polygon", "coordinates": [ [ [ -156.591659960799859, 20.883518690818292 ], [ -156.592939766635851, 20.884250327376776 ], [ -156.591870423163812, 20.884177329250146 ], [ -156.591659960799859, 20.883518690818292 ] ] ] } },
{ "type": "Feature", "properties": { "ID": 6, "GRIDCODE": 1 }, "geometry": { "type": "Polygon", "coordinates": [ [ [ -156.590099453143154, 20.872931858161923 ], [ -156.590298294981551, 20.873029896384494 ], [ -156.590661343626579, 20.873756292556816 ], [ -156.590183701749254, 20.873967149354872 ], [ -156.590099453143154, 20.872931858161923 ] ] ] } },
{ "type": "Feature", "properties": { "ID": 7, "GRIDCODE": 1 }, "geometry": { "type": "Polygon", "coordinates": [ [ [ -156.590693051155426, 20.871856648889498 ], [ -156.591099599498222, 20.872149804031224 ], [ -156.590295190629092, 20.872748112872134 ], [ -156.590693051155426, 20.871856648889498 ] ] ] } },
{ "type": "Feature", "properties": { "ID": 8, "GRIDCODE": 2 }, "geometry": { "type": "Polygon", "coordinates": [ [ [ -156.207512491673867, 20.772049572185288 ], [ -156.209195499145835, 20.772298453737744 ], [ -156.212405954087842, 20.773642249700025 ], [ -156.220112589728302, 20.778062146419433 ], [ -156.230371509697022, 20.786203866103978 ], [ -156.239493525268387, 20.794733296421743 ], [ -156.237767587783821, 20.794615180797535 ], [ -156.23605010440474, 20.794311247255127 ], [ -156.234627115870524, 20.794315549104688 ], [ -156.234048006446358, 20.793728959241747 ], [ -156.233746352723188, 20.794014239664332 ], [ -156.232904514640325, 20.793984524345159 ], [ -156.231523498065741, 20.794293773629484 ], [ -156.230301712082053, 20.793676827081818 ], [ -156.229177450108779, 20.793680221910559 ], [ -156.228579382110382, 20.793378296914899 ], [ -156.227446768957492, 20.792838681226037 ], [ -156.226882608033918, 20.792267123288187 ], [ -156.226016566912079, 20.792269780402279 ], [ -156.225724129464879, 20.79171240014437 ], [ -156.225451836799692, 20.79116089972398 ], [ -156.225147220845798, 20.791161790370641 ], [ -156.224192896092831, 20.790194981272471 ], [ -156.222565909101689, 20.789669287980658 ], [ -156.222642490308232, 20.787760126593664 ], [ -156.220997807992973, 20.788770151073987 ], [ -156.220606812173742, 20.78837422455662 ], [ -156.220318139471743, 20.788104000520278 ], [ -156.220040908213065, 20.787823381989053 ], [ -156.219193597968427, 20.78741952786644 ], [ -156.219190409878848, 20.78645806193482 ], [ -156.219223217484085, 20.785634845495039 ], [ -156.217783923180633, 20.786625554923653 ], [ -156.216400134585712, 20.785739817831153 ], [ -156.216059825594385, 20.785050330468142 ], [ -156.215766194046267, 20.78505111935041 ], [ -156.215503101206878, 20.783954912388047 ], [ -156.214376122911432, 20.784646897784281 ], [ -156.21291791853335, 20.78391028863706 ], [ -156.212060652222959, 20.783912889957538 ], [ -156.211748775770559, 20.783621117612157 ], [ -156.211781424264274, 20.78280861538353 ], [ -156.210940197927215, 20.782811075635149 ], [ -156.20948963359325, 20.782119791864215 ], [ -156.208648993987879, 20.780867527051786 ], [ -156.208229030274879, 20.780474544106681 ], [ -156.209636170326434, 20.778891867632741 ], [ -156.210457865266989, 20.77607958263453 ], [ -156.210471209972781, 20.775751306841766 ], [ -156.209904444616427, 20.775221186456609 ], [ -156.209488701641646, 20.773941319895265 ], [ -156.208499787151965, 20.773016197368385 ], [ -156.20808401560339, 20.77259511630842 ], [ -156.207651081724038, 20.772189888909011 ], [ -156.207512491673867, 20.772049572185288 ] ] ] } },
{ "type": "Feature", "properties": { "ID": 9, "GRIDCODE": 2 }, "geometry": { "type": "Polygon", "coordinates": [ [ [ -156.207512491673867, 20.772049572185288 ], [ -156.20685244336795, 20.771929070241299 ], [ -156.207362504531545, 20.771703299473351 ], [ -156.207512491673867, 20.772049572185288 ] ] ] } },
{ "type": "Feature", "properties": { "ID": 10, "GRIDCODE": 2 }, "geometry": { "type": "Polygon", "coordinates": [ [ [ -156.206083058780592, 20.77148464187157 ], [ -156.206432205384488, 20.771583027287036 ], [ -156.206175661247812, 20.771816360299418 ], [ -156.206083058780592, 20.77148464187157 ] ] ] } },
{ "type": "Feature", "properties": { "ID": 11, "GRIDCODE": 2 }, "geometry": { "type": "Polygon", "coordinates": [ [ [ -156.205229391815323, 20.770929076423027 ], [ -156.205900766169805, 20.771289525224311 ], [ -156.205356587076068, 20.771535498221155 ], [ -156.205229391815323, 20.770929076423027 ] ] ] } },
{ "type": "Feature", "properties": { "ID": 12, "GRIDCODE": 2 }, "geometry": { "type": "Polygon", "coordinates": [ [ [ -156.203804966043123, 20.770093376847328 ], [ -156.20415410748555, 20.770191766385036 ], [ -156.203897562909816, 20.770425095890449 ], [ -156.203804966043123, 20.770093376847328 ] ] ] } },
{ "type": "Feature", "properties": { "ID": 13, "GRIDCODE": 2 }, "geometry": { "type": "Polygon", "coordinates": [ [ [ -156.201804810621923, 20.769248282711473 ], [ -156.203337206113787, 20.769518830975613 ], [ -156.203431986195653, 20.770205261222806 ], [ -156.202190102043602, 20.769734868930605 ], [ -156.201804810621923, 20.769248282711473 ] ] ] } },
{ "type": "Feature", "properties": { "ID": 14, "GRIDCODE": 2 }, "geometry": { "type": "Polygon", "coordinates": [ [ [ -156.201234055092499, 20.768968144586026 ], [ -156.201809800027661, 20.768977530815118 ], [ -156.201804810621923, 20.769248282711473 ], [ -156.201229064663437, 20.769238896349002 ], [ -156.201234055092499, 20.768968144586026 ] ] ] } },
{ "type": "Feature", "properties": { "ID": 15, "GRIDCODE": 2 }, "geometry": { "type": "Polygon", "coordinates": [ [ [ -156.201234055092499, 20.768968144586026 ], [ -156.200160916542529, 20.768802664790925 ], [ -156.199077357908351, 20.768805882217414 ], [ -156.198499289735508, 20.768785340585413 ], [ -156.196599187381366, 20.769210423735686 ], [ -156.195620198852851, 20.768743750830062 ], [ -156.195055179318075, 20.768458397396138 ], [ -156.193902983487931, 20.768174024280466 ], [ -156.191620373704836, 20.767583924681627 ], [ -156.190339977921298, 20.767587570075889 ], [ -156.187872792282377, 20.767262852162368 ], [ -156.187307795778679, 20.76697747544592 ], [ -156.186731360942986, 20.766702488940847 ], [ -156.186166369024619, 20.766417108930725 ], [ -156.185589938753168, 20.766142119052461 ], [ -156.185024951420189, 20.765856735749001 ], [ -156.183942618762075, 20.7653405678378 ], [ -156.18303905463452, 20.764495269339918 ], [ -156.182675640997672, 20.763758144490094 ], [ -156.181903403743348, 20.763367922335735 ], [ -156.181090705656345, 20.763370185549174 ], [ -156.179084056737821, 20.762721117501748 ], [ -156.178770633418964, 20.761413262630839 ], [ -156.178188163359806, 20.762494546117345 ], [ -156.177579609636894, 20.76220974724643 ], [ -156.177040315983959, 20.761663190521116 ], [ -156.17329307259061, 20.76079130444872 ], [ -156.172747734356676, 20.760238289097856 ], [ -156.17190047066947, 20.760240602373351 ], [ -156.171311303659138, 20.759942746228763 ], [ -156.169772657453279, 20.760409987505849 ], [ -156.168717182180274, 20.759906472952878 ], [ -156.168151976873361, 20.759620903349141 ], [ -156.167616291596943, 20.75962225078786 ], [ -156.166408654810994, 20.759046258463311 ], [ -156.16586417106231, 20.75849442844228 ], [ -156.165183954872276, 20.758496160291575 ], [ -156.163010812699525, 20.75710402299503 ], [ -156.161474599890596, 20.756087106623625 ], [ -156.160168215773496, 20.75542666122308 ], [ -156.15987774568876, 20.755427412035445 ], [ -156.159446146778635, 20.755411943089392 ], [ -156.158762853197914, 20.755413732117017 ], [ -156.157433064575486, 20.7549833732031 ], [ -156.155978813710703, 20.754488130208834 ], [ -156.15473279335086, 20.755066006106127 ], [ -156.153594192048473, 20.754547144463565 ], [ -156.153275211447834, 20.754223823384333 ], [ -156.152145400394545, 20.754226780575287 ], [ -156.14926067980727, 20.753621010007706 ], [ -156.148826529397809, 20.753622134587772 ], [ -156.148394940364255, 20.753606638555151 ], [ -156.147869124638788, 20.753607957890321 ], [ -156.144660210110516, 20.75327376770182 ], [ -156.143938410505854, 20.753275651771013 ], [ -156.143216852077359, 20.753249766838124 ], [ -156.141331294179793, 20.753580329381471 ], [ -156.138325198111403, 20.753167939115631 ], [ -156.137169793679675, 20.753425986706333 ], [ -156.135738404599181, 20.753125349595805 ], [ -156.133566610703184, 20.752755352092688 ], [ -156.132587369570018, 20.752260176823679 ], [ -156.131494426771383, 20.752262821161011 ], [ -156.130289895645888, 20.751950986331156 ], [ -156.129567547967042, 20.75195280124683 ], [ -156.128848254822231, 20.751926894462297 ], [ -156.128263966335624, 20.75192836684111 ], [ -156.127662558642697, 20.751318221117685 ], [ -156.124603195008916, 20.751854560852433 ], [ -156.123667158976531, 20.75185674064744 ], [ -156.122660152874175, 20.751820568105614 ], [ -156.121796377039885, 20.751822758023078 ], [ -156.12093323284185, 20.751791630689766 ], [ -156.118017720535306, 20.751798672769084 ], [ -156.118514413462606, 20.750930150256718 ], [ -156.11763855681798, 20.750932249270019 ], [ -156.117350844870401, 20.750921867226364 ], [ -156.116506479060376, 20.75092395998313 ], [ -156.115365242584687, 20.750346499874436 ], [ -156.114778998645676, 20.750347893976702 ], [ -156.113970558704153, 20.749938929089538 ], [ -156.113611245239554, 20.750604779894118 ], [ -156.112750923260876, 20.7505737918157 ], [ -156.111679375301208, 20.750576405946283 ], [ -156.108864414631825, 20.749778087302118 ], [ -156.106784937095199, 20.747830431277318 ], [ -156.106234363129914, 20.746711972533856 ], [ -156.105138526636296, 20.745599929789222 ], [ -156.104211294589163, 20.745157318113638 ], [ -156.103379682959257, 20.74391655943958 ], [ -156.101364521824905, 20.743617047706611 ], [ -156.10109276813921, 20.743065541541807 ], [ -156.099971643639179, 20.742015063086544 ], [ -156.099604696974296, 20.740883159300775 ], [ -156.098842773617434, 20.740855619246293 ], [ -156.097852495560744, 20.741155862454089 ], [ -156.095393741967683, 20.740547828420425 ], [ -156.094527835982774, 20.739974105077408 ], [ -156.09339692824733, 20.740498196336819 ], [ -156.093373261000323, 20.73995669560102 ], [ -156.093677494039156, 20.739424839994456 ], [ -156.093676309489325, 20.739016085394304 ], [ -156.093693114066781, 20.738607502775508 ], [ -156.092828647154818, 20.73819472526916 ], [ -156.09144063615426, 20.737492219883595 ], [ -156.089447953498222, 20.737420136174894 ], [ -156.087767727474358, 20.738340313513422 ], [ -156.08629792423136, 20.736963315996498 ], [ -156.085803846069808, 20.733742203094614 ], [ -156.085161374429475, 20.732515293693975 ], [ -156.085193749169292, 20.731720592848916 ], [ -156.08450712202611, 20.731023452446966 ], [ -156.083195289025042, 20.73057606955437 ], [ -156.08176277121774, 20.730221571884375 ], [ -156.082677455621933, 20.729169448428269 ], [ -156.083231516919653, 20.72868628200408 ], [ -156.083806398914106, 20.728143300556866 ], [ -156.084790172956332, 20.728178894246405 ], [ -156.086653455544251, 20.727074198725656 ], [ -156.086150759996258, 20.726563986852369 ], [ -156.085585198306973, 20.726033931101117 ], [ -156.086763523578838, 20.725480272331652 ], [ -156.088182419808362, 20.725531547478866 ], [ -156.089930328448844, 20.72445963385552 ], [ -156.090784196209114, 20.725025497235041 ], [ -156.091523904724596, 20.724004604569053 ], [ -156.093104338657042, 20.724516892651412 ], [ -156.093070942114053, 20.725338161580044 ], [ -156.093943543553848, 20.725336118333001 ], [ -156.094803706860063, 20.72536718345258 ], [ -156.095108294667455, 20.72507969568807 ], [ -156.096106668213395, 20.725115733768092 ], [ -156.097648620825225, 20.72511214797311 ], [ -156.098373077686375, 20.725478763107315 ], [ -156.09944609390314, 20.725153322658862 ], [ -156.100597291687251, 20.72519482185421 ], [ -156.101989373242446, 20.723879678821707 ], [ -156.103162100486145, 20.723336119361559 ], [ -156.105556916541985, 20.723687595713546 ], [ -156.107091057704451, 20.724420077102852 ], [ -156.107551757479541, 20.725842082328363 ], [ -156.108334391413422, 20.725589718117405 ], [ -156.109582166137898, 20.724824427155959 ], [ -156.113459712946792, 20.724815116371371 ], [ -156.114370917325203, 20.72566865311865 ], [ -156.115119517278629, 20.727552219274884 ], [ -156.115897498358891, 20.727945846473656 ], [ -156.115481123757434, 20.72673181260657 ], [ -156.115539430792325, 20.725301866787547 ], [ -156.11553752273457, 20.724631266775589 ], [ -156.116412027996546, 20.724365991073132 ], [ -156.117289650113406, 20.72411411868373 ], [ -156.11616891518247, 20.722672071052457 ], [ -156.117616646333914, 20.721676274712674 ], [ -156.11844361111531, 20.7220947761767 ], [ -156.118525305020853, 20.720080866022304 ], [ -156.116543806176793, 20.717839710401762 ], [ -156.117706230480735, 20.716825901213781 ], [ -156.117045022465845, 20.715819875532944 ], [ -156.115447560847741, 20.714795770166088 ], [ -156.116081551539509, 20.712369819437168 ], [ -156.119299435374927, 20.708982943963857 ], [ -156.119905242498874, 20.7081466405455 ], [ -156.120543995052998, 20.707589375635617 ], [ -156.120102852929904, 20.706228155797991 ], [ -156.118523986734971, 20.704625731301203 ], [ -156.117372649612861, 20.704628532266195 ], [ -156.117084730759586, 20.704336624182208 ], [ -156.116796405239967, 20.704066263406308 ], [ -156.1162710472002, 20.703533276493555 ], [ -156.115080390699205, 20.703490443760661 ], [ -156.114517730528945, 20.704022252454585 ], [ -156.110489486794847, 20.704032019657877 ], [ -156.110199795457987, 20.703137870629504 ], [ -156.109916620836827, 20.702596767681744 ], [ -156.109639749809276, 20.702034612615769 ], [ -156.107707486970213, 20.701112073577306 ], [ -156.106497969414022, 20.699518010377712 ], [ -156.10514539121769, 20.698250800824223 ], [ -156.104278312190047, 20.696268820940372 ], [ -156.104866660159502, 20.696012263070678 ], [ -156.105814859075195, 20.69557278911223 ], [ -156.108051641732658, 20.694706418441079 ], [ -156.109957545184784, 20.694035724476748 ], [ -156.111240979402851, 20.692915937733488 ], [ -156.111727364704819, 20.69158692886645 ], [ -156.112986282982916, 20.691003063465114 ], [ -156.113373201401004, 20.691334190287449 ], [ -156.114665654019888, 20.6926460824962 ], [ -156.11589065374335, 20.692948932410623 ], [ -156.116830443989954, 20.693902757858741 ], [ -156.117582306457791, 20.693246628475688 ], [ -156.117869613902286, 20.692975328838379 ], [ -156.119894205236136, 20.692743678842579 ], [ -156.120469215563816, 20.692477186940579 ], [ -156.12220609264773, 20.692240696298576 ], [ -156.123163485251411, 20.691653167200684 ], [ -156.125114008403898, 20.690802535985455 ], [ -156.125976503801496, 20.690402635957575 ], [ -156.127713355616493, 20.690166085847029 ], [ -156.128815989635939, 20.689654732858369 ], [ -156.130588243348711, 20.692449759724507 ], [ -156.132737724898789, 20.695215750070549 ], [ -156.133394032372621, 20.69750064023664 ], [ -156.132916156969259, 20.697952339553623 ], [ -156.131588407057905, 20.698355362674757 ], [ -156.130714625852789, 20.698606332296723 ], [ -156.13013960434327, 20.6988728576912 ], [ -156.128114929836244, 20.699104620466109 ], [ -156.127768383905561, 20.699432207989798 ], [ -156.124739798299203, 20.700181675876504 ], [ -156.122900575450672, 20.701189396405546 ], [ -156.121159339048035, 20.701948674351872 ], [ -156.121435876064538, 20.702248187575631 ], [ -156.122741955386431, 20.703471927850998 ], [ -156.123414791057229, 20.704442553698183 ], [ -156.124441595602974, 20.705974620114809 ], [ -156.126499450945005, 20.706641221863773 ], [ -156.12710363194671, 20.706946860160912 ], [ -156.128209014653038, 20.707474557567416 ], [ -156.128636028301599, 20.707874560632838 ], [ -156.127622858230581, 20.709417651057485 ], [ -156.126748629355575, 20.710180342924684 ], [ -156.126751252262409, 20.711069416063541 ], [ -156.124677760487913, 20.714696807791647 ], [ -156.124051850702131, 20.716835190747602 ], [ -156.123955473498654, 20.71921397151786 ], [ -156.123967312705304, 20.723467428509316 ], [ -156.123393328261557, 20.722884978703483 ], [ -156.122336065797924, 20.722350112429172 ], [ -156.121751414064448, 20.723372962032091 ], [ -156.122359959093274, 20.725784693111404 ], [ -156.121820725231942, 20.727184778450876 ], [ -156.12291651152654, 20.728211289540212 ], [ -156.12197312374002, 20.72947197745609 ], [ -156.122901370878225, 20.730810936899598 ], [ -156.122903398540927, 20.731521344913222 ], [ -156.121453565776847, 20.731762603678209 ], [ -156.118956880365431, 20.732520012271721 ], [ -156.117725767835623, 20.73252304405889 ], [ -156.117131614448908, 20.731966284991021 ], [ -156.116592093348601, 20.730870786059906 ], [ -156.115415761419968, 20.730580100113276 ], [ -156.114689543390654, 20.729842996558823 ], [ -156.113134085379272, 20.729458524928322 ], [ -156.112314657588087, 20.728627018356764 ], [ -156.111150391271281, 20.728886872134201 ], [ -156.10918196262304, 20.729214257524884 ], [ -156.109857216185503, 20.733387187268388 ], [ -156.108722793575538, 20.73373135921614 ], [ -156.105926370343582, 20.733630610671195 ], [ -156.105255148686695, 20.734215819286561 ], [ -156.107012838536718, 20.734211692434801 ], [ -156.107014896595302, 20.735019947349784 ], [ -156.106101705357617, 20.737033851051045 ], [ -156.106733191440782, 20.736927190709746 ], [ -156.10860706668123, 20.736358775824009 ], [ -156.10968290814364, 20.737071635464265 ], [ -156.111839057466, 20.738100970801099 ], [ -156.112403779075095, 20.738386567958823 ], [ -156.113267738595368, 20.738666611394599 ], [ -156.11412025918608, 20.738957037538089 ], [ -156.114984507174171, 20.739237077787905 ], [ -156.11496258636933, 20.739770148328219 ], [ -156.116104012592785, 20.740615251786103 ], [ -156.117248583758112, 20.741161680907769 ], [ -156.117704187825495, 20.743066907960337 ], [ -156.118901055771516, 20.743109990012226 ], [ -156.119522179609305, 20.74283913781403 ], [ -156.119930682461046, 20.742453376688655 ], [ -156.121263660016155, 20.742048987977071 ], [ -156.122477671512428, 20.744053130675255 ], [ -156.12456901710496, 20.744594872881137 ], [ -156.127259475688305, 20.744588174107257 ], [ -156.128293410722421, 20.744625293954403 ], [ -156.130720825900227, 20.744374530730834 ], [ -156.13116187116006, 20.745734679878211 ], [ -156.131556063713191, 20.745748799184124 ], [ -156.13184397952196, 20.745748051961804 ], [ -156.13548583964598, 20.745878764453671 ], [ -156.136833241909301, 20.745051995254098 ], [ -156.138428138314993, 20.746669913466867 ], [ -156.138736077848904, 20.746680993018067 ], [ -156.139597022240395, 20.74667879975874 ], [ -156.139875151958478, 20.747243192535347 ], [ -156.140775784080489, 20.746969773474206 ], [ -156.141609137206075, 20.746999641574352 ], [ -156.141897057559873, 20.74699887775196 ], [ -156.142616336894406, 20.747024727373461 ], [ -156.143597066594168, 20.747022126143445 ], [ -156.147337899924281, 20.748714384263554 ], [ -156.153190230765972, 20.751450557144558 ], [ -156.163889979192078, 20.755346135746233 ], [ -156.170681304886614, 20.758244055775879 ], [ -156.187393319704341, 20.763650091017819 ], [ -156.195482833674475, 20.766436656149548 ], [ -156.201026186298463, 20.768757530928255 ], [ -156.201234055092499, 20.768968144586026 ] ] ] } }
]
}
