{
"type": "FeatureCollection",
"name": "cyrhash",
"crs": { "type": "name", "properties": { "name": "urn:ogc:def:crs:OGC:1.3:CRS84" } },
"features": [
{ "type": "Feature", "properties": { "ID": 1, "GRIDCODE": 2 }, "geometry": { "type": "Polygon", "coordinates": [ [ [ -156.586813703452009, 20.970135624450741 ], [ -156.587482120916633, 20.970465187230772 ], [ -156.586907419449517, 20.970929518052539 ], [ -156.586813703452009, 20.970135624450741 ] ] ] } },
{ "type": "Feature", "properties": { "ID": 2, "GRIDCODE": 2 }, "geometry": { "type": "Polygon", "coordinates": [ [ [ -156.567215206174183, 20.969315087392634 ], [ -156.568185412342359, 20.969458299433668 ], [ -156.567779760006033, 20.970507488170782 ], [ -156.567004563806023, 20.96973084357646 ], [ -156.567215206174183, 20.969315087392634 ] ] ] } },
{ "type": "Feature", "properties": { "ID": 3, "GRIDCODE": 2 }, "geometry": { "type": "Polygon", "coordinates": [ [ [ -156.577044960516133, 20.967829847408467 ], [ -156.576940802486035, 20.968158644215244 ], [ -156.576692054010238, 20.967917549172032 ], [ -156.577044960516133, 20.967829847408467 ] ] ] } },
{ "type": "Feature", "properties": { "ID": 4, "GRIDCODE": 2 }, "geometry": { "type": "Polygon", "coordinates": [ [ [ -156.593773016781824, 20.967796045749374 ], [ -156.594145393446126, 20.96795196173608 ], [ -156.593878613286734, 20.968413127497524 ], [ -156.593773016781824, 20.967796045749374 ] ] ] } },
{ "type": "Feature", "properties": { "ID": 5, "GRIDCODE": 2 }, "geometry": { "type": "Polygon", "coordinates": [ [ [ -156.550029777418303, 20.962025788365114 ], [ -156.550379658364164, 20.962123538483198 ], [ -156.550123225538954, 20.962357405380338 ], [ -156.550029777418303, 20.962025788365114 ] ] ] } },
{ "type": "Feature", "properties": { "ID": 6, "GRIDCODE": 2 }, "geometry": { "type": "Polygon", "coordinates": [ [ [ -156.626384065061814, 20.948207176462322 ], [ -156.626733981671151, 20.948304771521112 ], [ -156.626477681045202, 20.948538767516713 ], [ -156.626384065061814, 20.948207176462322 ] ] ] } },
{ "type": "Feature", "properties": { "ID": 7, "GRIDCODE": 2 }, "geometry": { "type": "Polygon", "coordinates": [ [ [ -156.556454311184154, 20.885998782873532 ], [ -156.5561891958302, 20.885335231743223 ], [ -156.556863746888922, 20.885711130199944 ], [ -156.556454311184154, 20.885998782873532 ] ] ] } },
{ "type": "Feature", "properties": { "ID": 8, "GRIDCODE": 2 }, "geometry": { "type": "Polygon", "coordinates": [ [ [ -156.555607322998895, 20.884903119177324 ], [ -156.555957035175254, 20.885000841355282 ], [ -156.555700754826717, 20.885234732347673 ], [ -156.555607322998895, 20.884903119177324 ] ] ] } },
{ "type": "Feature", "properties": { "ID": 9, "GRIDCODE": 2 }, "geometry": { "type": "Polygon", "coordinates": [ [ [ -156.29780000687839, 20.860437145880262 ], [ -156.298708783214977, 20.860586526940221 ], [ -156.298864664270837, 20.861295731478389 ], [ -156.297862497173298, 20.861490443997589 ], [ -156.297305274972757, 20.861115705375411 ], [ -156.29780000687839, 20.860437145880262 ] ] ] } },
{ "type": "Feature", "properties": { "ID": 10, "GRIDCODE": 2 }, "geometry": { "type": "Polygon", "coordinates": [ [ [ -156.572519600452011, 20.836925549437687 ], [ -156.572869219779875, 20.83702322765075 ], [ -156.572613052502732, 20.83725715578279 ], [ -156.572519600452011, 20.836925549437687 ] ] ] } },
{ "type": "Feature", "properties": { "ID": 11, "GRIDCODE": 2 }, "geometry": { "type": "Polygon", "coordinates": [ [ [ -156.563833421080489, 20.839511094176906 ], [ -156.563177001510667, 20.839610214884676 ], [ -156.563667390372046, 20.839860836196838 ], [ -156.563833421080489, 20.839511094176906 ], [ -156.564579583960693, 20.839378460221511 ], [ -156.565411526326983, 20.83940616439509 ], [ -156.56599814587247, 20.839132767852568 ], [ -156.566760056043023, 20.839158147080347 ], [ -156.567412100745997, 20.840783763003607 ], [ -156.56785591174102, 20.840781602931596 ], [ -156.568558926300938, 20.838238360883036 ], [ -156.569517094403921, 20.837817982948252 ], [ -156.570919686944933, 20.837864737280125 ], [ -156.572077741035798, 20.83785907252215 ], [ -156.571756363460736, 20.839228020090122 ], [ -156.572338614781529, 20.839769991352572 ], [ -156.572307224917381, 20.840603913550897 ], [ -156.571729247819064, 20.841110516699921 ], [ -156.571145557022504, 20.841920202030337 ], [ -156.570847570473347, 20.842181574658518 ], [ -156.570275789039528, 20.843247898839579 ], [ -156.569961248638066, 20.843523452135699 ], [ -156.569964447260901, 20.844060121267336 ], [ -156.569656027016634, 20.844602683622323 ], [ -156.56935597165301, 20.84569283366687 ], [ -156.569929540645319, 20.845689998750828 ], [ -156.570505568637458, 20.845709286077973 ], [ -156.570799733296468, 20.845160699949545 ], [ -156.571266229425419, 20.844359936253881 ], [ -156.571946085971831, 20.845729725343002 ], [ -156.572240245724998, 20.84518113622795 ], [ -156.572544229856476, 20.844914555739173 ], [ -156.57254042217167, 20.844239918375305 ], [ -156.572555662714109, 20.843833797190108 ], [ -156.572553459535669, 20.843427428633305 ], [ -156.57258127261855, 20.842693717461628 ], [ -156.574035207972088, 20.841419390060771 ], [ -156.574336894291264, 20.840856617100503 ], [ -156.575065845685458, 20.840217754841245 ], [ -156.575507614478511, 20.83979862596436 ], [ -156.576363191247964, 20.839827140909005 ], [ -156.576678953500476, 20.839825525903954 ], [ -156.577526269690793, 20.838999046265645 ], [ -156.57665009534486, 20.838183494361139 ], [ -156.577133708486372, 20.837399882711967 ], [ -156.58326081601632, 20.839468831835614 ], [ -156.585128660289712, 20.840569898121451 ], [ -156.586513702605032, 20.841966515168544 ], [ -156.586949498367346, 20.844390463970278 ], [ -156.584462440043353, 20.84657028451182 ], [ -156.584032101209147, 20.846978619455484 ], [ -156.582880902781511, 20.847483782969565 ], [ -156.581703290382109, 20.848602041809517 ], [ -156.582265983106453, 20.849667769674269 ], [ -156.582242058967807, 20.850301675432789 ], [ -156.580619726999686, 20.850771329227371 ], [ -156.580213030299717, 20.851529845450628 ], [ -156.579898256659021, 20.852083580987927 ], [ -156.578605221998856, 20.852040423425343 ], [ -156.579040881868366, 20.852866009821625 ], [ -156.578437471669758, 20.853394759398075 ], [ -156.580748223477968, 20.854789048213561 ], [ -156.580110273240791, 20.855348002144805 ], [ -156.578381375050668, 20.856106458223127 ], [ -156.57955786075172, 20.856663698750715 ], [ -156.57866715072322, 20.85773320977092 ], [ -156.578377989957602, 20.858144978957576 ], [ -156.579287925676198, 20.857720565829922 ], [ -156.580686774957229, 20.857767202627159 ], [ -156.581545516134696, 20.857762809240214 ], [ -156.582398714006501, 20.858879336688364 ], [ -156.582843718311381, 20.85804926958329 ], [ -156.584139904125948, 20.858092443909872 ], [ -156.585596193960953, 20.858085091315804 ], [ -156.585559637661305, 20.859052277586809 ], [ -156.58556677461911, 20.860279333495644 ], [ -156.58612520594221, 20.86027649968235 ], [ -156.586687459311861, 20.861109545238907 ], [ -156.587027097370537, 20.858786611442763 ], [ -156.587890131269518, 20.858407916827272 ], [ -156.587886996658568, 20.857863572524412 ], [ -156.588346829730654, 20.857054596285415 ], [ -156.588799705470535, 20.857069708913404 ], [ -156.589931040889155, 20.857637753124372 ], [ -156.590467419024776, 20.85871777223576 ], [ -156.590762855656436, 20.858987535731174 ], [ -156.590758193260911, 20.858185237935999 ], [ -156.5910686016, 20.857639090772924 ], [ -156.590777133409262, 20.85736766428386 ], [ -156.590497197575843, 20.856514004363092 ], [ -156.590517038070004, 20.855993130431539 ], [ -156.592166795323408, 20.856047966933026 ], [ -156.591344074139869, 20.854869347431741 ], [ -156.592563293744718, 20.854142074936764 ], [ -156.593546140444573, 20.853535937456567 ], [ -156.593004115641463, 20.852509550455384 ], [ -156.592295697297857, 20.852513076755731 ], [ -156.591728922120268, 20.852228652026056 ], [ -156.591435648837404, 20.85223008013438 ], [ -156.590018950216319, 20.851751943637797 ], [ -156.589743000035469, 20.850278113930681 ], [ -156.590860338452842, 20.848312403291523 ], [ -156.591798122170985, 20.847900740786134 ], [ -156.592969624246791, 20.847091044139166 ], [ -156.59296577832049, 20.846430816926336 ], [ -156.598285611972528, 20.843886931107164 ], [ -156.601789714413684, 20.843164902338955 ], [ -156.605052373670446, 20.844378156134955 ], [ -156.607882597622563, 20.846460168316902 ], [ -156.610025035690484, 20.849970619261146 ], [ -156.610433912893257, 20.853606321666277 ], [ -156.609704683866624, 20.854889907700525 ], [ -156.608391824867397, 20.855171428172856 ], [ -156.607833795553063, 20.855701055890908 ], [ -156.606626191153481, 20.856231120417693 ], [ -156.607843784263167, 20.856528302851139 ], [ -156.608930237192197, 20.856522589378063 ], [ -156.609521355980547, 20.85681933791766 ], [ -156.610694898771129, 20.856271713530298 ], [ -156.6116746725003, 20.85824423684268 ], [ -156.616080458583099, 20.861774836978491 ], [ -156.616912993473704, 20.862613811998322 ], [ -156.621308452445817, 20.869355115950128 ], [ -156.621963839531674, 20.872779822660721 ], [ -156.621890118551448, 20.874744792849164 ], [ -156.621238811725362, 20.876994582895012 ], [ -156.619283305232074, 20.877266039379553 ], [ -156.617263769017597, 20.87774186987507 ], [ -156.620394043469048, 20.87826562355994 ], [ -156.620651541686442, 20.881895639637847 ], [ -156.621338846293867, 20.886493006790325 ], [ -156.621736534444352, 20.887640862047885 ], [ -156.626738040527442, 20.900862978731539 ], [ -156.632697046438381, 20.916001980774521 ], [ -156.634987607937319, 20.923781065289564 ], [ -156.635207652848663, 20.927879605554594 ], [ -156.635529067461505, 20.933072138789996 ], [ -156.631717501646307, 20.932946120670977 ], [ -156.629667973532378, 20.932131815006095 ], [ -156.628683168734682, 20.931816279778459 ], [ -156.626209805005288, 20.931829237776274 ], [ -156.624880291997471, 20.931785337309652 ], [ -156.623631190566613, 20.930964114943535 ], [ -156.623052208680036, 20.930967160585137 ], [ -156.622071752116796, 20.929361318851697 ], [ -156.621060929790474, 20.929037443194066 ], [ -156.619926392066418, 20.928203640933024 ], [ -156.619352726023749, 20.928013629560326 ], [ -156.621333528392171, 20.930390435573013 ], [ -156.621598456039237, 20.931516206844169 ], [ -156.617161625141307, 20.931369244505184 ], [ -156.617947274082923, 20.931740925330136 ], [ -156.620558133293656, 20.932577349901347 ], [ -156.622435899032723, 20.932567551161711 ], [ -156.623307275116076, 20.932861303762884 ], [ -156.625741401566927, 20.933641090367296 ], [ -156.627908424069574, 20.934003641279165 ], [ -156.629834454335708, 20.935419291745788 ], [ -156.631911931639451, 20.935408330121142 ], [ -156.633024740702524, 20.935966364793579 ], [ -156.635459671383842, 20.936648280552483 ], [ -156.634946502028896, 20.937551083052124 ], [ -156.63592401631945, 20.938459736736299 ], [ -156.635881907967502, 20.939580974273913 ], [ -156.634719502782161, 20.940599773856043 ], [ -156.634286130899739, 20.941010956780765 ], [ -156.632609347253265, 20.940445628727623 ], [ -156.633472745148083, 20.941681017617391 ], [ -156.631376730362348, 20.941611707850203 ], [ -156.63024726917169, 20.940946683135913 ], [ -156.630153647569387, 20.940615093541737 ], [ -156.62989736611155, 20.94084909663146 ], [ -156.63024726917169, 20.940946683135913 ], [ -156.630375055256394, 20.942399374474235 ], [ -156.631821490973493, 20.942714438467696 ], [ -156.632631435330865, 20.943177004192748 ], [ -156.633688214289862, 20.943612700950165 ], [ -156.633074600190469, 20.944561057912818 ], [ -156.632507115397971, 20.944975399646712 ], [ -156.631596293761191, 20.944856138299652 ], [ -156.630935269607136, 20.944056617435809 ], [ -156.630536451596186, 20.943810072714495 ], [ -156.63092327667519, 20.945158294983596 ], [ -156.630799078539496, 20.945409213107823 ], [ -156.630291977969222, 20.944796086364164 ], [ -156.629168613775249, 20.94433285585005 ], [ -156.628491526895232, 20.943946062941382 ], [ -156.628050533656761, 20.944124451705381 ], [ -156.629252953990971, 20.945056906328357 ], [ -156.630527747654639, 20.94659842362034 ], [ -156.631886311120923, 20.94739969968311 ], [ -156.631415833738345, 20.948126757321781 ], [ -156.631146355962386, 20.948965599981715 ], [ -156.630105308830707, 20.949192135723528 ], [ -156.62913290346745, 20.948636821718875 ], [ -156.628441800892887, 20.94835194782215 ], [ -156.627992464611708, 20.947808268012743 ], [ -156.62657024418408, 20.946705549947577 ], [ -156.625793597939037, 20.946453073145758 ], [ -156.62627114892075, 20.947242518637967 ], [ -156.626384065061814, 20.948207176462322 ], [ -156.626236333702508, 20.948074830003232 ], [ -156.625478057027209, 20.947282533160969 ], [ -156.624533880289903, 20.946956818635275 ], [ -156.622044634521927, 20.947014844283018 ], [ -156.621349609991682, 20.946391665195421 ], [ -156.6202882916281, 20.945282954913235 ], [ -156.61992824779233, 20.945541550694411 ], [ -156.620223237311677, 20.946084417622302 ], [ -156.620526189883805, 20.946711521216802 ], [ -156.621355052569072, 20.947454690914888 ], [ -156.621860648026455, 20.947982901314258 ], [ -156.62277233267082, 20.948297463507256 ], [ -156.624405489914921, 20.948614006628315 ], [ -156.625147800576769, 20.950150125563493 ], [ -156.626197874176057, 20.950512365423858 ], [ -156.627672153958002, 20.95079809617318 ], [ -156.62820327219427, 20.951352967952683 ], [ -156.629055470244509, 20.951745374486975 ], [ -156.629073640701563, 20.952432922803951 ], [ -156.627754490193439, 20.952738112593885 ], [ -156.62646601838523, 20.952401661917335 ], [ -156.624807210700766, 20.952440329236715 ], [ -156.62444232268615, 20.952113290708485 ], [ -156.623849711628736, 20.951494191973943 ], [ -156.62387275271459, 20.952371090341568 ], [ -156.62385142604046, 20.952740630060845 ], [ -156.625285898147183, 20.953479526732785 ], [ -156.628227804255062, 20.954690976786232 ], [ -156.629571336229247, 20.955895502111801 ], [ -156.628403288887682, 20.956225017825172 ], [ -156.628443274689801, 20.957743416881268 ], [ -156.62782789284384, 20.958922539423344 ], [ -156.627186601184661, 20.958637424450021 ], [ -156.625624785121147, 20.957005902244553 ], [ -156.625445772012455, 20.957427345395416 ], [ -156.626070577445859, 20.95857783566246 ], [ -156.625531533844935, 20.95970113370235 ], [ -156.624904660152765, 20.959715810781383 ], [ -156.623757636883425, 20.959657096942664 ], [ -156.624029925093566, 20.959963535145416 ], [ -156.625211281120329, 20.961022714159295 ], [ -156.624284186159571, 20.962123931899086 ], [ -156.623846552488914, 20.963743206397375 ], [ -156.621975212180189, 20.9611496747243 ], [ -156.622103811817851, 20.958930466925739 ], [ -156.621619516572196, 20.95842450936415 ], [ -156.621172985535623, 20.958023970522966 ], [ -156.621601700464709, 20.957289487485028 ], [ -156.620804997447408, 20.956575335129976 ], [ -156.621339075376085, 20.955660447253507 ], [ -156.620647069174254, 20.955040214926861 ], [ -156.620523617222716, 20.954085197671375 ], [ -156.620876474671519, 20.953997399323868 ], [ -156.620627669640299, 20.953756363581327 ], [ -156.620523617222716, 20.954085197671375 ], [ -156.620083159975366, 20.954209470103844 ], [ -156.620097597778425, 20.954756489531547 ], [ -156.620065862907239, 20.955302599703714 ], [ -156.62043102266432, 20.955630047990606 ], [ -156.619901542303012, 20.958478434921293 ], [ -156.619174007289189, 20.957718284079508 ], [ -156.618590215051796, 20.957449549840522 ], [ -156.617801739727298, 20.956625845069915 ], [ -156.618009271463251, 20.957712326961339 ], [ -156.61855904325347, 20.958724359724101 ], [ -156.617132950266125, 20.959126774238193 ], [ -156.617402578546688, 20.959600113285621 ], [ -156.617969623483134, 20.960108561344121 ], [ -156.617981481166765, 20.960551180535425 ], [ -156.617944737962318, 20.961181609486463 ], [ -156.618233249864289, 20.961778886926652 ], [ -156.619073938918632, 20.963326458416681 ], [ -156.618754690871839, 20.963424641238188 ], [ -156.617675275410733, 20.962297269372328 ], [ -156.616930723618879, 20.962432755634296 ], [ -156.616837123935852, 20.962101161010644 ], [ -156.616580783650335, 20.962335138043478 ], [ -156.616930723618879, 20.962432755634296 ], [ -156.61738699815993, 20.963142563839128 ], [ -156.617044072223706, 20.964770016872524 ], [ -156.616058587782476, 20.964681761847608 ], [ -156.613857721780874, 20.965024889668893 ], [ -156.613590531033566, 20.962854652779544 ], [ -156.612939504025945, 20.961427570761789 ], [ -156.611346803464443, 20.959249341875974 ], [ -156.611093101336877, 20.958412997487635 ], [ -156.610787824703834, 20.957880421412671 ], [ -156.611238551776722, 20.956419174484989 ], [ -156.610844905829168, 20.955120559866234 ], [ -156.610451827796368, 20.956640417298424 ], [ -156.609676686048374, 20.95724911265966 ], [ -156.60954816526106, 20.958513157993863 ], [ -156.610502426075925, 20.960616446259777 ], [ -156.610450331375262, 20.96112985911758 ], [ -156.611244206287182, 20.962977197074672 ], [ -156.610127539558874, 20.963275950931592 ], [ -156.610156406937307, 20.963692352739546 ], [ -156.610101616821225, 20.964233372292753 ], [ -156.610130492432205, 20.964649245101356 ], [ -156.609219581342529, 20.965167539773891 ], [ -156.609539509709123, 20.965434457082058 ], [ -156.60979751715476, 20.965999969976167 ], [ -156.610100334376142, 20.966528413530984 ], [ -156.610018174895572, 20.967338090976231 ], [ -156.610782902086044, 20.967671561852974 ], [ -156.611412398001477, 20.968769785040681 ], [ -156.610038207986634, 20.968646546128554 ], [ -156.610086349753004, 20.969338609326993 ], [ -156.609620835902348, 20.970716175935856 ], [ -156.607941984574467, 20.971913481893427 ], [ -156.606535192368341, 20.971642932695872 ], [ -156.606272876269799, 20.971348248076019 ], [ -156.605477095367121, 20.971001224859712 ], [ -156.605406520831565, 20.969986103034767 ], [ -156.605777747102536, 20.968783412207198 ], [ -156.605344490677339, 20.967833693778758 ], [ -156.605149861896422, 20.968081745791292 ], [ -156.604873095723434, 20.968641333850186 ], [ -156.604287255528902, 20.968588785297616 ], [ -156.603687715909643, 20.969801752210376 ], [ -156.602834950137179, 20.968843349170342 ], [ -156.602532990898396, 20.970010499444413 ], [ -156.602271161807153, 20.968538464744885 ], [ -156.601689412617588, 20.968053171585353 ], [ -156.601435756303687, 20.967216817331408 ], [ -156.601085542634507, 20.966924724432875 ], [ -156.601217820256011, 20.965624767924567 ], [ -156.600867610434534, 20.96533267492622 ], [ -156.600530060459619, 20.964953327962327 ], [ -156.60059373677592, 20.965869280715129 ], [ -156.600115423264356, 20.966244809305756 ], [ -156.60057098896192, 20.969305512175026 ], [ -156.600213420041626, 20.970179420795759 ], [ -156.599757580772717, 20.97152746007967 ], [ -156.598841567207472, 20.969857319800745 ], [ -156.598787987329445, 20.969085818091383 ], [ -156.598833428577279, 20.968639116078208 ], [ -156.598234415954579, 20.967965875322726 ], [ -156.597741195105385, 20.969872360902531 ], [ -156.597368669030942, 20.969055754000308 ], [ -156.597062602617882, 20.9685218221891 ], [ -156.597650843547569, 20.967084655197585 ], [ -156.597720022228543, 20.966404035441023 ], [ -156.597401334422671, 20.965549829398444 ], [ -156.597577734560161, 20.96432814362954 ], [ -156.597930624952596, 20.964240396531551 ], [ -156.597681845212719, 20.963999329429789 ], [ -156.597577734560161, 20.96432814362954 ], [ -156.59593663842773, 20.96552401026031 ], [ -156.596471048908541, 20.965938416947875 ], [ -156.596573032621478, 20.966817344445481 ], [ -156.595804405274947, 20.96701204946417 ], [ -156.595710851750653, 20.966680447596996 ], [ -156.59545447342569, 20.96691438878538 ], [ -156.595804405274947, 20.96701204946417 ], [ -156.59534588667654, 20.968473129044291 ], [ -156.593912512139127, 20.967351203644249 ], [ -156.593773016781824, 20.967796045749374 ], [ -156.593553223077691, 20.967591756728016 ], [ -156.59260640315901, 20.965300935196076 ], [ -156.592252901455453, 20.963843999471937 ], [ -156.591967527933463, 20.96330347488863 ], [ -156.591590795022256, 20.962154534167365 ], [ -156.590143185092273, 20.960696149361691 ], [ -156.589691423259438, 20.960275884170024 ], [ -156.589770619699181, 20.958181434004533 ], [ -156.589467784382208, 20.957308262455861 ], [ -156.589483344272139, 20.956899764954677 ], [ -156.589479430567025, 20.956230285740535 ], [ -156.589794136537222, 20.955677345885086 ], [ -156.58978485719652, 20.954059671273786 ], [ -156.591045796960742, 20.953506878085609 ], [ -156.590222040037617, 20.950994251281866 ], [ -156.589005115067152, 20.950383412254887 ], [ -156.587924085882975, 20.950887416526708 ], [ -156.587011763486345, 20.949581424637138 ], [ -156.58700698636153, 20.948737997256568 ], [ -156.587062195964108, 20.947279697259084 ], [ -156.586616570990998, 20.946830811448915 ], [ -156.586182062744285, 20.9464263928195 ], [ -156.585908169740975, 20.945875442548196 ], [ -156.585068588725136, 20.944285958684343 ], [ -156.585365055269079, 20.943429734653744 ], [ -156.585745531615402, 20.942760539838513 ], [ -156.585112303763481, 20.941561664535143 ], [ -156.585434573579363, 20.93909646401374 ], [ -156.586036521087777, 20.93752209720407 ], [ -156.585758893908718, 20.93720481769299 ], [ -156.584940700385488, 20.93644365515604 ], [ -156.584620140185848, 20.935836489621988 ], [ -156.585577582624779, 20.934551539540635 ], [ -156.584662578832706, 20.933700120407565 ], [ -156.584657790751521, 20.932857618547626 ], [ -156.584688597008977, 20.932043000662656 ], [ -156.584263924454063, 20.930817581362046 ], [ -156.584714298133974, 20.930423044279017 ], [ -156.585001363874255, 20.930150925917619 ], [ -156.585299519379134, 20.929889545619332 ], [ -156.585586583045256, 20.929617426055117 ], [ -156.585952702452857, 20.929296690518402 ], [ -156.585613921912909, 20.928263356498281 ], [ -156.584648458223086, 20.927365063323531 ], [ -156.585216339823887, 20.926366782149618 ], [ -156.584197723539774, 20.926957636592292 ], [ -156.584179640295076, 20.92743554043037 ], [ -156.585463391707719, 20.928976548669912 ], [ -156.583558245373837, 20.930645159107865 ], [ -156.583541677717818, 20.931081021805333 ], [ -156.583548476004268, 20.932271688916625 ], [ -156.583069225318781, 20.933113946825621 ], [ -156.583882775571311, 20.934654126397778 ], [ -156.582780077896189, 20.935619821843265 ], [ -156.583724537840311, 20.937407881700103 ], [ -156.583728084855494, 20.937993891975232 ], [ -156.583425277869765, 20.938526224834906 ], [ -156.583112100259655, 20.940423312536641 ], [ -156.582784502455922, 20.940710326730979 ], [ -156.582794971300586, 20.942583296918237 ], [ -156.582774728467172, 20.943124790980619 ], [ -156.582776254531495, 20.943397951703545 ], [ -156.582417464254348, 20.944924957040165 ], [ -156.582735532825296, 20.945564894877986 ], [ -156.583163503558779, 20.946375564411941 ], [ -156.583574326874469, 20.947202127199013 ], [ -156.583859923858938, 20.947742797118721 ], [ -156.583849621906808, 20.948016054800544 ], [ -156.583851148996871, 20.948289215565907 ], [ -156.583494000546921, 20.949520752878737 ], [ -156.583816149609987, 20.950450949425772 ], [ -156.584076992370285, 20.951814389346438 ], [ -156.584635901237277, 20.952872803789408 ], [ -156.58463883497302, 20.953391611265609 ], [ -156.584323087484051, 20.954797671895115 ], [ -156.583982660528164, 20.955688451696876 ], [ -156.584278304296731, 20.957235050628313 ], [ -156.584837230619996, 20.958293465892375 ], [ -156.584840258955836, 20.95884137405492 ], [ -156.584526995351183, 20.959425671106295 ], [ -156.583671477955818, 20.960174628166712 ], [ -156.583126126403471, 20.961600839693553 ], [ -156.584179560948627, 20.962662302466192 ], [ -156.585894732437055, 20.96425785452179 ], [ -156.585898052804254, 20.964840289470096 ], [ -156.585852920987548, 20.966037096549311 ], [ -156.586118258938967, 20.968367629675051 ], [ -156.586669529124038, 20.96995832333462 ], [ -156.58616116715379, 20.970027440839591 ], [ -156.585525539018533, 20.969708390558019 ], [ -156.584947487774286, 20.969434597283804 ], [ -156.584359866498971, 20.968564787744103 ], [ -156.584375232037303, 20.971270995988984 ], [ -156.583965391898715, 20.971991480677683 ], [ -156.584324556010159, 20.972671286407564 ], [ -156.584304023221989, 20.97321264282126 ], [ -156.584699469103953, 20.973580539708749 ], [ -156.584290781179817, 20.974299056911555 ], [ -156.585029196076476, 20.975356184964998 ], [ -156.583694037896834, 20.975641998881141 ], [ -156.583396707043363, 20.976195961226932 ], [ -156.582534723127281, 20.9761671940966 ], [ -156.58168432076539, 20.976171390094724 ], [ -156.581678957733743, 20.975209709201359 ], [ -156.581704827067739, 20.974529942815547 ], [ -156.581117242014074, 20.974532841900661 ], [ -156.580752500810775, 20.972625748059261 ], [ -156.580565755038606, 20.972888694163537 ], [ -156.580254250428027, 20.973745348020703 ], [ -156.579670171936897, 20.974772195205322 ], [ -156.579306077791273, 20.976392355553987 ], [ -156.577762047754817, 20.975586570369146 ], [ -156.578358888396849, 20.974537823531993 ], [ -156.577304802018205, 20.974038989525294 ], [ -156.577701826838364, 20.972036645595228 ], [ -156.577414580369691, 20.97149263439174 ], [ -156.577723031853338, 20.970686205707 ], [ -156.577719848576066, 20.97014980546491 ], [ -156.57802854863553, 20.969607258071996 ], [ -156.578324435821088, 20.968793506341509 ], [ -156.578908931362776, 20.968281595641564 ], [ -156.578920113365882, 20.967989569798235 ], [ -156.578622716335559, 20.967131671686101 ], [ -156.578681973110093, 20.965568683847756 ], [ -156.57838352471336, 20.965003616800011 ], [ -156.578684046553434, 20.964740569788546 ], [ -156.578682538379326, 20.96446701363298 ], [ -156.578702764654025, 20.963928167800713 ], [ -156.577828583845275, 20.964678412611423 ], [ -156.577498411853128, 20.966344289667493 ], [ -156.577504412398298, 20.967404916332953 ], [ -156.577194085534529, 20.967699169133432 ], [ -156.577044960516133, 20.967829847408467 ], [ -156.576839607205983, 20.966644036018572 ], [ -156.576340959314933, 20.96579689643962 ], [ -156.57640401354837, 20.965292389734351 ], [ -156.575520106527875, 20.965195161423132 ], [ -156.575414007042639, 20.966045866735143 ], [ -156.575511090080056, 20.967098661866373 ], [ -156.575157322053172, 20.96765881627482 ], [ -156.575245791592806, 20.968616915769061 ], [ -156.57511089328213, 20.96969855033344 ], [ -156.575149240314801, 20.970114820323918 ], [ -156.57444942807453, 20.970999530147374 ], [ -156.574585830201073, 20.972477603161959 ], [ -156.573914754905559, 20.973325947615503 ], [ -156.573551146633292, 20.975086965108876 ], [ -156.572739075879838, 20.975508576707469 ], [ -156.572176597074133, 20.975195281280811 ], [ -156.571148884772072, 20.975278904418932 ], [ -156.570563053068639, 20.974807605771399 ], [ -156.570152693126261, 20.974110114983006 ], [ -156.569802436510628, 20.973318908403385 ], [ -156.568647744564913, 20.9729827345157 ], [ -156.569061045546022, 20.970276979076541 ], [ -156.569496109055279, 20.969237200405633 ], [ -156.569091822182116, 20.969192676858366 ], [ -156.568494793319587, 20.969241164447926 ], [ -156.568694400794158, 20.96764434732313 ], [ -156.568118363275431, 20.968275780196784 ], [ -156.566574019894404, 20.967620290305355 ], [ -156.56648894437447, 20.966699539267797 ], [ -156.56729158813846, 20.966092510755825 ], [ -156.567724294621854, 20.965407052188713 ], [ -156.567999709456075, 20.964573189403954 ], [ -156.568591664110926, 20.963635778931678 ], [ -156.567672691674829, 20.963391852982191 ], [ -156.566566829351331, 20.964010955960681 ], [ -156.566210842521002, 20.965089421275824 ], [ -156.565936243447169, 20.963402372407817 ], [ -156.566360182955236, 20.962057826115633 ], [ -156.56626771959202, 20.961054168750756 ], [ -156.566946962073871, 20.95997820127198 ], [ -156.567372929313422, 20.957915059600619 ], [ -156.56786448937234, 20.956740644280572 ], [ -156.568157398809944, 20.954823476873038 ], [ -156.568491219862068, 20.954294531611517 ], [ -156.567911587108028, 20.953828212785815 ], [ -156.568283933583672, 20.952274860589796 ], [ -156.569325117764663, 20.951487097811452 ], [ -156.569664593839548, 20.950781649711001 ], [ -156.57115840832833, 20.949202739141086 ], [ -156.571429393396699, 20.948639690981821 ], [ -156.57231250993911, 20.947523080093003 ], [ -156.572023215765455, 20.94726658964564 ], [ -156.571163189633495, 20.947336612188728 ], [ -156.571014778438183, 20.940236234887177 ], [ -156.570859387402322, 20.9401111429179 ], [ -156.57075048034821, 20.939217034323672 ], [ -156.570474822052205, 20.93991374140116 ], [ -156.570859387402322, 20.9401111429179 ], [ -156.570692802643464, 20.941325124067294 ], [ -156.570357594606037, 20.944576303129026 ], [ -156.570008707243204, 20.946336604111163 ], [ -156.570019970627868, 20.94834184193504 ], [ -156.569699949996021, 20.948645336635817 ], [ -156.567984637440816, 20.949397034483173 ], [ -156.567669862814512, 20.949950456831413 ], [ -156.567378347797387, 20.950493364177202 ], [ -156.565877847754052, 20.952186422253718 ], [ -156.564710872242586, 20.954236991574561 ], [ -156.563841642047549, 20.956628695524284 ], [ -156.562393818469303, 20.958001713911536 ], [ -156.562343375360399, 20.957673626488663 ], [ -156.562371917534392, 20.956920497821947 ], [ -156.56236906552607, 20.956384105911251 ], [ -156.563116975518966, 20.955380693473877 ], [ -156.562280336535252, 20.954960547388591 ], [ -156.561812810094608, 20.955831597679921 ], [ -156.561232317737051, 20.956339803130774 ], [ -156.560930305843755, 20.956902518522231 ], [ -156.560631772362939, 20.957163842021011 ], [ -156.560637651962168, 20.958224987606769 ], [ -156.56032731641335, 20.958519208572511 ], [ -156.55888517771595, 20.958827774786954 ], [ -156.55886166077201, 20.95944367822289 ], [ -156.558871832535459, 20.961315030292084 ], [ -156.557513674446568, 20.96194778540529 ], [ -156.557138325339707, 20.959551781366237 ], [ -156.556794345690349, 20.958900188822 ], [ -156.557266984555866, 20.957664828861457 ], [ -156.556615666202362, 20.957642926843729 ], [ -156.556005834053678, 20.957910227352421 ], [ -156.555428075978227, 20.958179308241842 ], [ -156.554134084359703, 20.957742377256437 ], [ -156.553700459966677, 20.958153328240609 ], [ -156.553058571078509, 20.958434574653907 ], [ -156.553468668212929, 20.960473692004889 ], [ -156.552511855083992, 20.961381069041973 ], [ -156.552058960011522, 20.961383293275805 ], [ -156.55105859872674, 20.961349740738243 ], [ -156.550484217849373, 20.961894233681377 ], [ -156.550454365384809, 20.961462081346948 ], [ -156.55051934426271, 20.959755433513905 ], [ -156.550213176518014, 20.95944681575115 ], [ -156.549357534125647, 20.959450914738579 ], [ -156.548997662602773, 20.958411535294569 ], [ -156.549390261383394, 20.956993447214348 ], [ -156.550575326205802, 20.956474267533352 ], [ -156.549698148352377, 20.955657865347227 ], [ -156.549253522050151, 20.953822998010441 ], [ -156.548715066374342, 20.954825783656592 ], [ -156.548481521684351, 20.95441636176243 ], [ -156.54924486560509, 20.953075293953443 ], [ -156.548886184890108, 20.952395569184592 ], [ -156.548606976938856, 20.951833382708323 ], [ -156.54775117068283, 20.952644839117479 ], [ -156.54744467400181, 20.952374835388081 ], [ -156.547166507527521, 20.952094525130832 ], [ -156.546283590242041, 20.952098748771842 ], [ -156.546314811125313, 20.951272391168189 ], [ -156.546312175082932, 20.9507434136302 ], [ -156.546920460163534, 20.949153840996821 ], [ -156.546419260782784, 20.948580521515403 ], [ -156.544523260980412, 20.949889526824663 ], [ -156.544029270797751, 20.949616817215144 ], [ -156.543692630927694, 20.948589404877278 ], [ -156.542041795644366, 20.948059820811334 ], [ -156.542931451230402, 20.947141347302718 ], [ -156.544351068047916, 20.947188914669443 ], [ -156.544371864129545, 20.946639376639922 ], [ -156.544369852735969, 20.946227730029008 ], [ -156.545314043700614, 20.945814100374744 ], [ -156.546558804523244, 20.944633799641611 ], [ -156.547155291896502, 20.944111456944714 ], [ -156.547586026988967, 20.943703256277107 ], [ -156.54846525164831, 20.943179419055618 ], [ -156.549036478833699, 20.942115199172832 ], [ -156.550174291043476, 20.941585147989677 ], [ -156.550939434448054, 20.941581456185837 ], [ -156.551657100911257, 20.941605517047911 ], [ -156.551379031709928, 20.941319792797472 ], [ -156.550618706521163, 20.940612216376255 ], [ -156.550261170708779, 20.939136520866544 ], [ -156.549107702641237, 20.939142037734751 ], [ -156.549590640269315, 20.938656674239716 ], [ -156.551152349615904, 20.93752942701358 ], [ -156.551439484788318, 20.937257372663851 ], [ -156.552258818191433, 20.93689825170458 ], [ -156.553151659770606, 20.934441606274373 ], [ -156.553765495178595, 20.933298084867424 ], [ -156.555545682425418, 20.932982084962255 ], [ -156.557285221389833, 20.932741406173978 ], [ -156.558675092782806, 20.932427983752078 ], [ -156.558985150081497, 20.934405346835195 ], [ -156.559568253450607, 20.933852339636559 ], [ -156.560152656697511, 20.933340484367275 ], [ -156.560172724770268, 20.932814472171835 ], [ -156.559892875038145, 20.931960772162771 ], [ -156.559606025541171, 20.93141753984111 ], [ -156.560014679234172, 20.930699475446218 ], [ -156.559346726994818, 20.930077911723874 ], [ -156.559922351740568, 20.929794094759465 ], [ -156.562835317581118, 20.928951773646777 ], [ -156.562830984661673, 20.928210341374314 ], [ -156.564854858562342, 20.927777352480966 ], [ -156.564886425343275, 20.926939478030711 ], [ -156.559525694711454, 20.926001288659403 ], [ -156.557620029732561, 20.926247158957839 ], [ -156.556072103369303, 20.927715403003084 ], [ -156.555624811300731, 20.928107257561987 ], [ -156.554780628750137, 20.928907821658481 ], [ -156.553900443352831, 20.928110586465657 ], [ -156.55428796306029, 20.926683537605928 ], [ -156.556843577989696, 20.92403627666268 ], [ -156.557466865193391, 20.921888153666096 ], [ -156.557464099576805, 20.921364063663361 ], [ -156.557479411482035, 20.920957951910218 ], [ -156.557476369761076, 20.920416133837549 ], [ -156.55749168125206, 20.920010022029636 ], [ -156.557488794139402, 20.919476010000736 ], [ -156.557799170618381, 20.918930872699455 ], [ -156.557510702640656, 20.918384970346864 ], [ -156.557815279539653, 20.917850066776232 ], [ -156.557812332603504, 20.917319624963106 ], [ -156.558110855730519, 20.917036474617102 ], [ -156.55957512671111, 20.915979155156009 ], [ -156.560368023202926, 20.915227161643624 ], [ -156.561625038745461, 20.914379152305887 ], [ -156.560183333385993, 20.914026954515943 ], [ -156.56076197168511, 20.913552836239628 ], [ -156.561354312481143, 20.913293055809334 ], [ -156.561349758754602, 20.912478210274351 ], [ -156.564404837363639, 20.912210457872664 ], [ -156.564837753605417, 20.911449203621604 ], [ -156.565226142738396, 20.91072527434881 ], [ -156.566277518460851, 20.910264356498981 ], [ -156.566313911941762, 20.909300494921208 ], [ -156.566312413545916, 20.909027071531522 ], [ -156.566768192269592, 20.908226058592724 ], [ -156.566199240103799, 20.908556032342126 ], [ -156.564859627973533, 20.910095072393606 ], [ -156.563980657099449, 20.910619020626527 ], [ -156.563417968569894, 20.911152768497978 ], [ -156.561952719648076, 20.910865196223735 ], [ -156.561998554580043, 20.909650028170102 ], [ -156.561728664733778, 20.907607105568871 ], [ -156.561583887601671, 20.9074722395357 ], [ -156.561490434136914, 20.90714062773819 ], [ -156.5612341199691, 20.907374523629464 ], [ -156.561583887601671, 20.9074722395357 ], [ -156.561422838138441, 20.90869158200325 ], [ -156.561124691857259, 20.908952921193983 ], [ -156.560679153028445, 20.910563287637288 ], [ -156.559132561915192, 20.910570813409269 ], [ -156.558487728404288, 20.910265310431644 ], [ -156.557679691084445, 20.909450747052745 ], [ -156.557359977635201, 20.909982790272959 ], [ -156.557365925029416, 20.911040500645115 ], [ -156.556757071740606, 20.912110841546486 ], [ -156.556448454858611, 20.913225554517016 ], [ -156.556150291060646, 20.91348688315497 ], [ -156.555858821937932, 20.914029775756724 ], [ -156.555560655483418, 20.914291103084039 ], [ -156.555088601709684, 20.915170678291233 ], [ -156.554080657319446, 20.915640476331735 ], [ -156.553173738490131, 20.915610019951067 ], [ -156.552341057101756, 20.918479956244262 ], [ -156.552296835461021, 20.919642361776035 ], [ -156.552835585761443, 20.922320330175374 ], [ -156.552263690969454, 20.92237574999006 ], [ -156.548928973497311, 20.922633958348705 ], [ -156.547938563375851, 20.924374800782672 ], [ -156.548451280439167, 20.926381669411274 ], [ -156.548138962318944, 20.927458079408968 ], [ -156.547515200385021, 20.931233311946702 ], [ -156.54603266915214, 20.932048986663251 ], [ -156.544645275715169, 20.932002438125398 ], [ -156.544023908113132, 20.932274827975242 ], [ -156.542861469727939, 20.932816259747074 ], [ -156.541889166493206, 20.932783602561003 ], [ -156.540351670225505, 20.93701279073213 ], [ -156.538454223876471, 20.937349418066674 ], [ -156.537900747823556, 20.936791593337897 ], [ -156.537611190743746, 20.936521820214903 ], [ -156.537337498399808, 20.935970810520608 ], [ -156.537050187188868, 20.935426217256147 ], [ -156.538508313965337, 20.934557897870313 ], [ -156.53823330420181, 20.934087421484595 ], [ -156.53793312289622, 20.934088776672287 ], [ -156.537974952897258, 20.932994337216144 ], [ -156.537103980508107, 20.932998430513177 ], [ -156.537099539201961, 20.932185450247744 ], [ -156.537699338905725, 20.931131867666025 ], [ -156.537426086304322, 20.930554411467121 ], [ -156.537138505725068, 20.930009550495583 ], [ -156.538583720993756, 20.929376475596985 ], [ -156.538620727082247, 20.92840431299344 ], [ -156.537743867307341, 20.92840845915384 ], [ -156.536909277853113, 20.92756683090705 ], [ -156.536321892818961, 20.927569593399252 ], [ -156.536316252800333, 20.926502906630862 ], [ -156.536626557372301, 20.926208726519857 ], [ -156.536924778916443, 20.925947438215822 ], [ -156.537258740004177, 20.925325574517323 ], [ -156.538691248938306, 20.924071446439669 ], [ -156.538688514360643, 20.923532283675403 ], [ -156.538708857293699, 20.922993718256127 ], [ -156.538267903725313, 20.922978892925183 ], [ -156.537832587141423, 20.922980945783952 ], [ -156.537407130155515, 20.922552079495095 ], [ -156.534650170963459, 20.923394498689987 ], [ -156.534698563329243, 20.922123446157105 ], [ -156.534245795796352, 20.922108175461073 ], [ -156.533521869334919, 20.922111602617989 ], [ -156.533562875964435, 20.921034216027518 ], [ -156.532973651235864, 20.920738282848657 ], [ -156.532115393377779, 20.92033158591919 ], [ -156.532565567720781, 20.918888709163355 ], [ -156.535596083743201, 20.918874294202286 ], [ -156.536413525585886, 20.918901834638088 ], [ -156.537620793788506, 20.918643609663892 ], [ -156.538484380882409, 20.918379890761969 ], [ -156.540422835378706, 20.9179652659986 ], [ -156.543114946272681, 20.917293492418587 ], [ -156.542547390221188, 20.91708401034526 ], [ -156.541104927123826, 20.916797643508247 ], [ -156.54025036606717, 20.916509156014037 ], [ -156.536796314196266, 20.916170211823385 ], [ -156.537405698173586, 20.915628241141832 ], [ -156.540199584019092, 20.915722091268766 ], [ -156.541594172001027, 20.915110997845005 ], [ -156.539985783897606, 20.914348978923162 ], [ -156.538109233443578, 20.913113925257115 ], [ -156.536271391245577, 20.912664685345792 ], [ -156.535128641910831, 20.912372015781269 ], [ -156.533794720894036, 20.912045891456298 ], [ -156.534848076882639, 20.911555312722061 ], [ -156.537286022747679, 20.91121842669158 ], [ -156.537743563065874, 20.910784441564211 ], [ -156.538329969256495, 20.910527303359867 ], [ -156.540362201518121, 20.909466173578416 ], [ -156.542016711793536, 20.910297363930109 ], [ -156.543222694952192, 20.910337867851979 ], [ -156.543521223041722, 20.910055008649028 ], [ -156.543819398826457, 20.909793703485573 ], [ -156.544786183784367, 20.908876967698269 ], [ -156.546443096117429, 20.907659047385621 ], [ -156.550222345588878, 20.905716709894786 ], [ -156.548085634052484, 20.905834582600587 ], [ -156.547047101840207, 20.906318585483668 ], [ -156.54532535761436, 20.906816437998526 ], [ -156.54367624065975, 20.907832485974204 ], [ -156.542403644758878, 20.908425518888301 ], [ -156.540142817683261, 20.906761570531735 ], [ -156.539542092388132, 20.906741408754595 ], [ -156.538076644495362, 20.906748460721172 ], [ -156.538697772273366, 20.90565668039584 ], [ -156.539256700513562, 20.904615056172695 ], [ -156.539858329039788, 20.904044389754084 ], [ -156.541898997677208, 20.903806591704424 ], [ -156.542248271025983, 20.903155832372434 ], [ -156.544504967446414, 20.902755245719014 ], [ -156.546289052973378, 20.902454447541459 ], [ -156.546829380269571, 20.90198128058163 ], [ -156.547116447459075, 20.901709226564886 ], [ -156.547995411850422, 20.901185365379742 ], [ -156.549241286408488, 20.899754241377138 ], [ -156.550919596452076, 20.898284731812286 ], [ -156.549482669849681, 20.89822153397375 ], [ -156.549049673362731, 20.898223654858491 ], [ -156.548344033070009, 20.898199905240013 ], [ -156.547735470686263, 20.898732942778029 ], [ -156.547161629111258, 20.899277190094374 ], [ -156.54658133228051, 20.899785365312542 ], [ -156.546140925455404, 20.900606114588989 ], [ -156.542230212084831, 20.900826328044747 ], [ -156.541127877522683, 20.901339932252249 ], [ -156.539918396781928, 20.901345795343278 ], [ -156.539101047339443, 20.901318281039909 ], [ -156.537237958383884, 20.901716668888152 ], [ -156.536120449596581, 20.902382392382986 ], [ -156.535569715565657, 20.902904708102241 ], [ -156.53337224442501, 20.901800427286354 ], [ -156.532272412955962, 20.90176337735749 ], [ -156.531566602183602, 20.901766801714288 ], [ -156.531562062280273, 20.900943370942514 ], [ -156.533301517722464, 20.900702907224218 ], [ -156.534745829738, 20.900176699946179 ], [ -156.537051578026023, 20.899683536611306 ], [ -156.537648911049871, 20.898633607936457 ], [ -156.534507525459418, 20.897464416904214 ], [ -156.533349255882001, 20.897181176601862 ], [ -156.535982135318079, 20.894494983876022 ], [ -156.53484140498702, 20.894500484428789 ], [ -156.534262958000966, 20.894481026478179 ], [ -156.531439475364948, 20.894982153489753 ], [ -156.530279766722003, 20.89463366570418 ], [ -156.531267911409515, 20.893768632628799 ], [ -156.530260302611453, 20.892830446118207 ], [ -156.530257523503138, 20.892312314115024 ], [ -156.530795803109697, 20.889917453606234 ], [ -156.531459154124263, 20.889288317488994 ], [ -156.532446671374913, 20.889784563846575 ], [ -156.533487480978465, 20.88932845262234 ], [ -156.53379315412559, 20.8879691832337 ], [ -156.535718563390901, 20.889536161388556 ], [ -156.53609435409075, 20.888553406179291 ], [ -156.53645858541239, 20.886933347856093 ], [ -156.536981071443734, 20.887206473197438 ], [ -156.53766377711645, 20.88821837460689 ], [ -156.538882903111158, 20.88706205630066 ], [ -156.540832403508631, 20.888345479416078 ], [ -156.541296350743835, 20.88808312134449 ], [ -156.541292125091644, 20.887271197151623 ], [ -156.541317788102418, 20.886594352140637 ], [ -156.541311142884041, 20.885377916187693 ], [ -156.541906521867475, 20.885652075399914 ], [ -156.542185954252119, 20.885933725722534 ], [ -156.543205784898731, 20.885621950333267 ], [ -156.547292024116985, 20.891412511307582 ], [ -156.548089913621908, 20.891439305872108 ], [ -156.547602680153602, 20.889531610460352 ], [ -156.547342219186618, 20.888168148696213 ], [ -156.546782156224367, 20.886810967788421 ], [ -156.545958565793995, 20.884626761114905 ], [ -156.545555787750004, 20.883863474229692 ], [ -156.546264260441149, 20.88355289481802 ], [ -156.546826889452632, 20.883019197768718 ], [ -156.548277140966945, 20.883847376037512 ], [ -156.549694699553527, 20.884956543093953 ], [ -156.550586515761893, 20.885524592235434 ], [ -156.551384976807753, 20.886329913296851 ], [ -156.551048076414531, 20.884852665885894 ], [ -156.549722050144481, 20.883618372305328 ], [ -156.550768507926563, 20.883554803060875 ], [ -156.552255427098345, 20.884501723864503 ], [ -156.553132440398372, 20.886625961084601 ], [ -156.553102009323368, 20.88742654812912 ], [ -156.55398315799107, 20.887456092750867 ], [ -156.55474357621631, 20.887101646856483 ], [ -156.555136526430374, 20.887467173978962 ], [ -156.55508202191902, 20.888902972271001 ], [ -156.555702589805009, 20.887746159146197 ], [ -156.556012687417535, 20.887474547803013 ], [ -156.556006588833242, 20.886390908894299 ], [ -156.556454311184154, 20.885998782873532 ], [ -156.556665083359462, 20.886211311275151 ], [ -156.558881336504612, 20.887093211475616 ], [ -156.558896005072597, 20.886708383883512 ], [ -156.558056705313163, 20.88511868094772 ], [ -156.558399285906233, 20.885065773483078 ], [ -156.559458792913603, 20.885101143377824 ], [ -156.560651114806689, 20.884756274769749 ], [ -156.560371638798728, 20.884562213971165 ], [ -156.558660366628118, 20.883751567523348 ], [ -156.558376316110838, 20.88317927935579 ], [ -156.55780409932558, 20.88235910078842 ], [ -156.558976021997239, 20.882108259190812 ], [ -156.558971292529151, 20.881251744830141 ], [ -156.560996401037187, 20.881591354108025 ], [ -156.560965083121147, 20.882414816586888 ], [ -156.562124599778571, 20.882409136775401 ], [ -156.562558341470549, 20.882846390498578 ], [ -156.562994565551804, 20.882432520861123 ], [ -156.563586775082427, 20.882172719424716 ], [ -156.563582493980618, 20.881374011428335 ], [ -156.564735529811145, 20.88136835307445 ], [ -156.565598877245776, 20.881801931488571 ], [ -156.565331773629879, 20.880840490609753 ], [ -156.564999368256252, 20.880210779013247 ], [ -156.567315322931194, 20.879130829482644 ], [ -156.568534247417773, 20.879542336894993 ], [ -156.569241095980487, 20.879538765327993 ], [ -156.570246557771185, 20.879572370765867 ], [ -156.569968640743326, 20.879281128625372 ], [ -156.568814619820785, 20.878999121298257 ], [ -156.56768075571128, 20.878165031854575 ], [ -156.564397894135368, 20.87778232673773 ], [ -156.564816498052096, 20.877045989187586 ], [ -156.565165534988125, 20.876085122688405 ], [ -156.566052075972806, 20.875671702893264 ], [ -156.568290531109454, 20.875746542251434 ], [ -156.568016896091137, 20.87519002395608 ], [ -156.567149856581807, 20.874637893229657 ], [ -156.569184657666852, 20.873916859342607 ], [ -156.56857846650243, 20.872022855292446 ], [ -156.568054875151802, 20.872481663336554 ], [ -156.567479747377575, 20.873553736066143 ], [ -156.565740832860655, 20.872995807136903 ], [ -156.564883650759128, 20.872706495736971 ], [ -156.563725058688789, 20.87306074585651 ], [ -156.562580944651756, 20.872674481150952 ], [ -156.562290169498397, 20.872675891422077 ], [ -156.561999292285606, 20.872666189052062 ], [ -156.561155481335959, 20.873466955529327 ], [ -156.560568929305418, 20.872454791330767 ], [ -156.560566990930681, 20.872104248135702 ], [ -156.561674328717601, 20.870775119241419 ], [ -156.561168256037831, 20.870758114589282 ], [ -156.560606415628172, 20.870760947059615 ], [ -156.560305281659311, 20.870480339080959 ], [ -156.560031595197131, 20.869929365580649 ], [ -156.55972630280931, 20.869644993896891 ], [ -156.559187669542439, 20.868560100549775 ], [ -156.557895007201779, 20.869357090500007 ], [ -156.557727542921128, 20.868782367402417 ], [ -156.557767728644791, 20.867724121047569 ], [ -156.557182257627289, 20.867727002553956 ], [ -156.556333007525154, 20.867698601205877 ], [ -156.556296635062068, 20.868659682601852 ], [ -156.556299025885863, 20.869068694811357 ], [ -156.555998964449088, 20.869331459475688 ], [ -156.556652782105175, 20.870915473406324 ], [ -156.555975548231061, 20.871231179096533 ], [ -156.555389325697945, 20.871488397082629 ], [ -156.554826771389799, 20.872022130236754 ], [ -156.553948495175149, 20.87147308389077 ], [ -156.551696375118212, 20.869815527953378 ], [ -156.55166064314696, 20.870353088248301 ], [ -156.551662145969402, 20.870625055608937 ], [ -156.551641956488908, 20.871158738010276 ], [ -156.552031088320092, 20.871896023293175 ], [ -156.551337569528414, 20.872503659169361 ], [ -156.551339778586424, 20.872922984572284 ], [ -156.551324469530925, 20.873329096695596 ], [ -156.55132594759408, 20.873602518541134 ], [ -156.551023187181272, 20.87413479900156 ], [ -156.55072592491203, 20.874952726800654 ], [ -156.549904256857218, 20.874124059783185 ], [ -156.548995783938807, 20.874378355378315 ], [ -156.548998761209901, 20.874923346871466 ], [ -156.548669612425982, 20.876057597317232 ], [ -156.548676751282613, 20.877351820349759 ], [ -156.548381365671958, 20.877081988470533 ], [ -156.547755243609885, 20.876154135891625 ], [ -156.546219537151103, 20.875635432354485 ], [ -156.544337017122615, 20.877284117243384 ], [ -156.543494238610464, 20.878083610286971 ], [ -156.543484124884969, 20.876196387578588 ], [ -156.543566302185354, 20.874033916571566 ], [ -156.543243077143757, 20.8740230560215 ], [ -156.542404783639228, 20.875585667169581 ], [ -156.542065159630994, 20.875907752996632 ], [ -156.541461042218401, 20.876172598291909 ], [ -156.541468293751137, 20.877507953506129 ], [ -156.540417371888338, 20.878504955416084 ], [ -156.539105487018702, 20.879313414165591 ], [ -156.539264605817351, 20.87512795572195 ], [ -156.538424177078184, 20.874280186553101 ], [ -156.537274432492723, 20.877057135429201 ], [ -156.536146864792414, 20.878127074979222 ], [ -156.535521366373587, 20.875544386308626 ], [ -156.534967745940151, 20.875525823822464 ], [ -156.534554356096379, 20.876606974189329 ], [ -156.533967296401215, 20.878222229030648 ], [ -156.533383958467994, 20.877678921848258 ], [ -156.532816854194721, 20.877107012870926 ], [ -156.532010661303048, 20.878609578707817 ], [ -156.530659849069451, 20.876288084472208 ], [ -156.530087346206727, 20.87735515100259 ], [ -156.528830836296464, 20.87579223985713 ], [ -156.527997638934607, 20.872528661265662 ], [ -156.528337902388756, 20.870138874578494 ], [ -156.529201685525493, 20.869760241444215 ], [ -156.52824289164613, 20.86930580236238 ], [ -156.528746324720004, 20.867487122435801 ], [ -156.529252012151517, 20.867044321509972 ], [ -156.529244748853671, 20.865732913988094 ], [ -156.530085715318705, 20.86416564994903 ], [ -156.531659527425376, 20.862357514969077 ], [ -156.533341126500801, 20.863202759774154 ], [ -156.533331178126474, 20.861311975815745 ], [ -156.534256832084793, 20.860880502606545 ], [ -156.535104339270958, 20.860908985148836 ], [ -156.53556518123446, 20.859641087203116 ], [ -156.537088926407392, 20.860363259425611 ], [ -156.537413839173979, 20.860665937614122 ], [ -156.53845849375864, 20.862033682333905 ], [ -156.538829510463245, 20.86204616324174 ], [ -156.539267467186107, 20.862043998599454 ], [ -156.540943204185794, 20.864238227941826 ], [ -156.540527194586986, 20.861871119125841 ], [ -156.53971284570784, 20.860704174887221 ], [ -156.539732562122765, 20.860184510494925 ], [ -156.539448348492243, 20.859611667928387 ], [ -156.538609662226634, 20.858022036376092 ], [ -156.540147112804505, 20.857192999057801 ], [ -156.542336541125849, 20.857182533389857 ], [ -156.54306393622943, 20.857916358967849 ], [ -156.544077524313394, 20.85886010101121 ], [ -156.545172660824278, 20.859964789183127 ], [ -156.544953489780767, 20.857794548353819 ], [ -156.544540399431298, 20.85701153983657 ], [ -156.546418261478152, 20.857002502006669 ], [ -156.547113558144275, 20.8577038424819 ], [ -156.547663504621141, 20.857181855349502 ], [ -156.550144064583151, 20.857598062857409 ], [ -156.551019001097615, 20.858173924419717 ], [ -156.552293441068599, 20.858167692131907 ], [ -156.553298746132413, 20.858201382981715 ], [ -156.553020899631179, 20.857910119712276 ], [ -156.550725846031355, 20.85752504655202 ], [ -156.550721892613865, 20.856796317402392 ], [ -156.551598589337289, 20.856411924120362 ], [ -156.550725693498805, 20.856249040676925 ], [ -156.549462653974388, 20.856837808036339 ], [ -156.547615884810085, 20.856213887754066 ], [ -156.545842915428864, 20.855916389326861 ], [ -156.545564908038983, 20.855636223727316 ], [ -156.544699243022308, 20.855358207755785 ], [ -156.544421238874037, 20.85507804059214 ], [ -156.542689270407806, 20.854787316061426 ], [ -156.54313455957535, 20.853622600912498 ], [ -156.541260411607141, 20.854496300768695 ], [ -156.540969856011117, 20.854486570227696 ], [ -156.540667861085012, 20.854488049897597 ], [ -156.540114925011522, 20.853930393099908 ], [ -156.539076743220193, 20.85457032772684 ], [ -156.538666456172592, 20.854187990060893 ], [ -156.538410273208541, 20.852551052121484 ], [ -156.537584785384553, 20.852935849199898 ], [ -156.536440897544963, 20.849630529210476 ], [ -156.536928579108178, 20.844481719234889 ], [ -156.53835845628447, 20.839705561261955 ], [ -156.540275772121191, 20.834866545591531 ], [ -156.542822191630535, 20.832449906236633 ], [ -156.545984234581681, 20.830030667826833 ], [ -156.551425851717255, 20.827875566940918 ], [ -156.557344862705662, 20.827095820542411 ], [ -156.56220809770798, 20.82746985115773 ], [ -156.563474776466819, 20.828070129135192 ], [ -156.564292308744228, 20.829619272286237 ], [ -156.565476006847547, 20.832004146853322 ], [ -156.566661480694961, 20.833703083915687 ], [ -156.565504068658328, 20.833740997835886 ], [ -156.563504167224437, 20.833674197773714 ], [ -156.563483180387493, 20.834226261694674 ], [ -156.563774272310269, 20.834777474762493 ], [ -156.56374401309256, 20.835573446283359 ], [ -156.564472715369305, 20.835597832645163 ], [ -156.565455427182201, 20.835592891913592 ], [ -156.566902516065028, 20.836633532488904 ], [ -156.566033897327145, 20.837242464278081 ], [ -156.565242363164487, 20.837589797338062 ], [ -156.563981235447471, 20.839104216350581 ], [ -156.563833421080489, 20.839511094176906 ] ], [ [ -156.576525049904006, 20.964300895845053 ], [ -156.57643154114632, 20.963969287576376 ], [ -156.576175141071644, 20.964203197331067 ], [ -156.576525049904006, 20.964300895845053 ], [ -156.576618710633255, 20.965094789971996 ], [ -156.577193415778083, 20.964630494523043 ], [ -156.576525049904006, 20.964300895845053 ] ], [ [ -156.585219917536421, 20.925686959099508 ], [ -156.585313431701962, 20.926018563466659 ], [ -156.585569747410659, 20.925784631293958 ], [ -156.585219917536421, 20.925686959099508 ] ], [ [ -156.5673395452786, 20.908096109261201 ], [ -156.567692310884013, 20.908008413136415 ], [ -156.567443667533837, 20.907767314208311 ], [ -156.5673395452786, 20.908096109261201 ], [ -156.566986779337753, 20.908183804615419 ], [ -156.567235422496196, 20.908424904194487 ], [ -156.5673395452786, 20.908096109261201 ] ] ] } },
{ "type": "Feature", "properties": { "ID": 12, "GRIDCODE": 2 }, "geometry": { "type": "Polygon", "coordinates": [ [ [ -156.032533679073566, 20.767217910589089 ], [ -156.033804176531248, 20.768088377672537 ], [ -156.032183733458623, 20.768693606903131 ], [ -156.031634855012726, 20.768335033827451 ], [ -156.032533679073566, 20.767217910589089 ] ] ] } },
{ "type": "Feature", "properties": { "ID": 13, "GRIDCODE": 2 }, "geometry": { "type": "Polygon", "coordinates": [ [ [ -156.05029489899843, 20.682761399447262 ], [ -156.049946091949892, 20.682662731508021 ], [ -156.050202676363284, 20.682429640286312 ], [ -156.05029489899843, 20.682761399447262 ] ] ] } },
{ "type": "Feature", "properties": { "ID": 14, "GRIDCODE": 2 }, "geometry": { "type": "Polygon", "coordinates": [ [ [ -156.283909489017162, 20.863738131203515 ], [ -156.283781940513791, 20.863131729809734 ], [ -156.28323750749243, 20.863377925461723 ], [ -156.283909489017162, 20.863738131203515 ], [ -156.284281948737316, 20.866171203396089 ], [ -156.283841675158641, 20.866884171962848 ], [ -156.282990485848984, 20.866770934857172 ], [ -156.282042397519376, 20.866866428428626 ], [ -156.280968011546861, 20.866458555377168 ], [ -156.280338878182334, 20.867797879450265 ], [ -156.279440465793925, 20.868275419142471 ], [ -156.279074168491519, 20.867332613307482 ], [ -156.278764244338049, 20.866244305472879 ], [ -156.27850830598905, 20.866752032599717 ], [ -156.278159360538126, 20.867829854717705 ], [ -156.276630719004089, 20.867472780591477 ], [ -156.276042248145444, 20.866757600923588 ], [ -156.275531877814132, 20.866689694525281 ], [ -156.275949200010331, 20.868156755527991 ], [ -156.275859034294655, 20.86875612094768 ], [ -156.275929983474697, 20.869378419204676 ], [ -156.274662460097687, 20.869506074308127 ], [ -156.273019655198453, 20.867507012928662 ], [ -156.272758571331394, 20.86689570061224 ], [ -156.271861226185763, 20.866986127239439 ], [ -156.270482019679349, 20.866194041936982 ], [ -156.270879971725407, 20.86693912733254 ], [ -156.271895068296203, 20.867730030322953 ], [ -156.272140756126589, 20.868305523535177 ], [ -156.272993248986126, 20.868969779030561 ], [ -156.27173440244519, 20.869193694738097 ], [ -156.270523635729432, 20.867722163518462 ], [ -156.269274659421825, 20.86744725028958 ], [ -156.268855111328946, 20.866465094305251 ], [ -156.268156628976016, 20.86553349701337 ], [ -156.26762778594977, 20.864682633810776 ], [ -156.267181823728208, 20.864555031004382 ], [ -156.267089052223497, 20.864223327447228 ], [ -156.26683241490187, 20.864456742077557 ], [ -156.267181823728208, 20.864555031004382 ], [ -156.267573802140078, 20.866329438713425 ], [ -156.267890470759028, 20.866604546955266 ], [ -156.267828251113883, 20.867368602747394 ], [ -156.26812546777461, 20.867692463685643 ], [ -156.268425242219365, 20.867952754170275 ], [ -156.26897011643905, 20.868789325001373 ], [ -156.269700717536949, 20.869424009296559 ], [ -156.269239167716194, 20.869893125637827 ], [ -156.268058222541413, 20.869808005239346 ], [ -156.268644434966518, 20.87086423925636 ], [ -156.267590515372831, 20.872266014443763 ], [ -156.26718611235745, 20.872282165115777 ], [ -156.266466630434962, 20.872230327929092 ], [ -156.264934065956368, 20.872291646053775 ], [ -156.264307169608657, 20.871416457518965 ], [ -156.264906317302462, 20.87042070238083 ], [ -156.264357849292821, 20.869783623246676 ], [ -156.264058079514541, 20.869523326044806 ], [ -156.263536502960449, 20.868955575710881 ], [ -156.262933573803906, 20.868979648590702 ], [ -156.262920059933549, 20.868684918787388 ], [ -156.262963773254455, 20.868151606135466 ], [ -156.262361914292484, 20.868613695480278 ], [ -156.262622593365876, 20.869229509840835 ], [ -156.263088862538865, 20.870069466961283 ], [ -156.262035267132916, 20.871140592145903 ], [ -156.261490508407888, 20.870547866732213 ], [ -156.261122157142694, 20.870562597110418 ], [ -156.261244439624789, 20.869064350577744 ], [ -156.260327794449267, 20.868651075203264 ], [ -156.260068443721025, 20.86620935183587 ], [ -156.259646727873161, 20.866591399242779 ], [ -156.259418039404125, 20.869393871989342 ], [ -156.259744492745568, 20.869982178700102 ], [ -156.25972174663471, 20.870258738243624 ], [ -156.259734447680216, 20.870535865875951 ], [ -156.259139333337316, 20.871524655150086 ], [ -156.259394786562751, 20.872427893424913 ], [ -156.260045718321607, 20.872721333990683 ], [ -156.259492052667923, 20.874309996372098 ], [ -156.258217876247244, 20.873763225671247 ], [ -156.257400090499175, 20.872507655022524 ], [ -156.256930003674398, 20.875055506383347 ], [ -156.255939540357986, 20.875095021634909 ], [ -156.25530317984331, 20.874541803472244 ], [ -156.255400558469887, 20.873349052772046 ], [ -156.255089876418396, 20.872342697809145 ], [ -156.253320198833222, 20.872413328487664 ], [ -156.253437476558446, 20.870978096193411 ], [ -156.251802354712879, 20.872269122145141 ], [ -156.2513142353219, 20.873669031013428 ], [ -156.250592231104406, 20.873616953900719 ], [ -156.250159665655389, 20.873634197679451 ], [ -156.249727981469277, 20.873603052643542 ], [ -156.249135737768995, 20.87362671764669 ], [ -156.24811307247009, 20.871434159990905 ], [ -156.24757145782479, 20.871969234834378 ], [ -156.247605679438891, 20.872731916139571 ], [ -156.246548233081768, 20.87380697074051 ], [ -156.245542576531335, 20.873846974848458 ], [ -156.245275262260748, 20.872981486825722 ], [ -156.244380285026381, 20.873017184632332 ], [ -156.244470145599195, 20.871917163057173 ], [ -156.243838688495742, 20.872162482231307 ], [ -156.242707144574467, 20.872717122391059 ], [ -156.242115176505138, 20.872402352805089 ], [ -156.241020301660825, 20.872751667238862 ], [ -156.240193922316337, 20.871851760135868 ], [ -156.238923296906989, 20.872655790625746 ], [ -156.238357563970339, 20.872615046631683 ], [ -156.236739582101393, 20.873131237987501 ], [ -156.234260084468445, 20.872178128968883 ], [ -156.233496956883442, 20.87151474368682 ], [ -156.233482074396505, 20.871190372199752 ], [ -156.233508495394886, 20.870869446157474 ], [ -156.23073957605348, 20.869620274510428 ], [ -156.228956037103558, 20.86750390884966 ], [ -156.229241133494156, 20.866780657933127 ], [ -156.229701156683689, 20.866016731832872 ], [ -156.228684589321517, 20.865703637485442 ], [ -156.227756052304215, 20.865071273204268 ], [ -156.225541273929963, 20.865159400488899 ], [ -156.225829103705507, 20.864287823187631 ], [ -156.226148109765973, 20.863495832417779 ], [ -156.226435043603715, 20.862672640012224 ], [ -156.226744103774138, 20.862422156699385 ], [ -156.227031031703604, 20.861598962608738 ], [ -156.227506428195795, 20.860809503314385 ], [ -156.226825002544246, 20.861172574235344 ], [ -156.226465987021953, 20.861875976336975 ], [ -156.225868872249094, 20.862121787273775 ], [ -156.225182947174943, 20.863464835420022 ], [ -156.224679204332318, 20.863192042146284 ], [ -156.224792035212488, 20.861813514036974 ], [ -156.223843069654578, 20.86185114323731 ], [ -156.223069267058008, 20.861008356820843 ], [ -156.222984607835144, 20.861634080963885 ], [ -156.223021393891628, 20.862449694852263 ], [ -156.221875388025012, 20.863011235399743 ], [ -156.220374257400834, 20.862333959846325 ], [ -156.219424480025623, 20.861299323061679 ], [ -156.218975723398387, 20.861755142552941 ], [ -156.218536782758179, 20.861723407622275 ], [ -156.217624988932045, 20.861759622967327 ], [ -156.217247407472314, 20.860336496212824 ], [ -156.217859263919991, 20.859840355252327 ], [ -156.21800274827396, 20.859428768116565 ], [ -156.218578845113683, 20.859438136877053 ], [ -156.218583828175468, 20.859167383939571 ], [ -156.218952221849833, 20.859026187181204 ], [ -156.218712025666292, 20.858546603158441 ], [ -156.218583828175468, 20.859167383939571 ], [ -156.218117267996206, 20.858939744222639 ], [ -156.21800274827396, 20.859428768116565 ], [ -156.217441659505823, 20.8592155905319 ], [ -156.216473045109183, 20.859312766536942 ], [ -156.216126595163445, 20.858736103360584 ], [ -156.215825086291062, 20.857675104104644 ], [ -156.215114874657587, 20.856011300777155 ], [ -156.214960845551985, 20.856399438747687 ], [ -156.215257466950447, 20.858992789750999 ], [ -156.215687183542997, 20.859707945723077 ], [ -156.21520015265267, 20.860744074504325 ], [ -156.212245516958461, 20.860246847497685 ], [ -156.211533990742083, 20.860318297601097 ], [ -156.210620250546782, 20.859667841516384 ], [ -156.210060672704003, 20.859724043020599 ], [ -156.209778869525195, 20.859381170274535 ], [ -156.208555977083165, 20.859503907176421 ], [ -156.208805243943544, 20.858195602050294 ], [ -156.209158008597967, 20.858108655929989 ], [ -156.208910073936664, 20.85786710341457 ], [ -156.208805243943544, 20.858195602050294 ], [ -156.20799119712774, 20.858501417710368 ], [ -156.207244508261425, 20.857445969717642 ], [ -156.206312861129476, 20.857994637656841 ], [ -156.206358417648602, 20.856641222163326 ], [ -156.206869574919779, 20.85593096480299 ], [ -156.206303865849975, 20.855802048321785 ], [ -156.205812202614993, 20.856447030106906 ], [ -156.205398693374434, 20.85586277437071 ], [ -156.205121975738194, 20.856584923823721 ], [ -156.205308536468692, 20.85743656896652 ], [ -156.203986940992991, 20.857115841401296 ], [ -156.204169423849606, 20.856407891163073 ], [ -156.203654152650756, 20.856290369605158 ], [ -156.203086559968341, 20.856400240623007 ], [ -156.202106098818263, 20.855739925679213 ], [ -156.202360941313941, 20.854680075683206 ], [ -156.203099923075683, 20.854218203488671 ], [ -156.203948403619165, 20.853038588571724 ], [ -156.203432612413764, 20.85269122244005 ], [ -156.203437620817937, 20.852420472794357 ], [ -156.203806007222227, 20.852279308337092 ], [ -156.203565869872477, 20.851799709323796 ], [ -156.203437620817937, 20.852420472794357 ], [ -156.203066076118461, 20.852549815227466 ], [ -156.203432612413764, 20.85269122244005 ], [ -156.203302565988764, 20.853135281038281 ], [ -156.20169389435938, 20.854082938548874 ], [ -156.200245200759241, 20.853273853993027 ], [ -156.200447690344618, 20.852488874737116 ], [ -156.199684581189132, 20.851974926375469 ], [ -156.200462852858635, 20.851715641124578 ], [ -156.200398236884638, 20.851421668500834 ], [ -156.200871428508066, 20.849738038240258 ], [ -156.199565851736565, 20.850030221229574 ], [ -156.199101287822344, 20.850639789073433 ], [ -156.198574832239046, 20.850519823206668 ], [ -156.197201080568533, 20.850785744912262 ], [ -156.196904833171061, 20.849433616383333 ], [ -156.197640695462979, 20.848410614971261 ], [ -156.197519037620054, 20.847854927466884 ], [ -156.197661211430415, 20.847303560515893 ], [ -156.197092101996788, 20.846449613804175 ], [ -156.197828898843284, 20.845375183117227 ], [ -156.198733505587199, 20.844809848058194 ], [ -156.199110153618022, 20.843522821099665 ], [ -156.199652764938122, 20.842768929520293 ], [ -156.198692182184345, 20.843152183861744 ], [ -156.198522745245469, 20.843808899681147 ], [ -156.198622623139983, 20.844264652266173 ], [ -156.197989993559929, 20.844637532358679 ], [ -156.197103896824984, 20.844932732596146 ], [ -156.195938749164782, 20.846499749970576 ], [ -156.195526858698287, 20.846757086587445 ], [ -156.195747608367327, 20.847764548158843 ], [ -156.194633378260079, 20.847980220420382 ], [ -156.193859696875734, 20.847007331885564 ], [ -156.193755148396036, 20.846303681247562 ], [ -156.194107889077884, 20.846216763928105 ], [ -156.193859998381015, 20.845975194214901 ], [ -156.193755148396036, 20.846303681247562 ], [ -156.191829783961879, 20.846034726151586 ], [ -156.192067260336415, 20.844109357719113 ], [ -156.192419996255239, 20.844022443392085 ], [ -156.192172111722954, 20.843780871891756 ], [ -156.192067260336415, 20.844109357719113 ], [ -156.191616973021581, 20.844222441213088 ], [ -156.190738980079004, 20.845217030593442 ], [ -156.190162968485055, 20.844767476829105 ], [ -156.190244469135223, 20.844227156051645 ], [ -156.189357023336555, 20.84353471798725 ], [ -156.189683082500949, 20.842687911821677 ], [ -156.190796188133788, 20.841879413851686 ], [ -156.189740592404092, 20.841651955133685 ], [ -156.187895100008575, 20.842114771220253 ], [ -156.187972105592877, 20.841604661336699 ], [ -156.187924992206092, 20.841187857891605 ], [ -156.188423422867885, 20.840421643481694 ], [ -156.186857389401411, 20.839972743787627 ], [ -156.186522294721016, 20.83918714883486 ], [ -156.184929524767114, 20.839586513501278 ], [ -156.18539154012376, 20.838161945328679 ], [ -156.185840734756624, 20.837471496368735 ], [ -156.184244580437763, 20.837872255298567 ], [ -156.182827174047475, 20.838357929142003 ], [ -156.183122829253364, 20.836228831034063 ], [ -156.183837311562172, 20.835342407932234 ], [ -156.184634614192561, 20.834116955616111 ], [ -156.18490621012333, 20.833279048744576 ], [ -156.185235777935929, 20.832772695661763 ], [ -156.185371573052521, 20.832353741469241 ], [ -156.185724282731485, 20.832266838168589 ], [ -156.185476427020262, 20.832025260080425 ], [ -156.185371573052521, 20.832353741469241 ], [ -156.184652635878308, 20.832482890664657 ], [ -156.182857329831279, 20.832386316734031 ], [ -156.181404002136617, 20.832718919490933 ], [ -156.180077198675548, 20.832647483413542 ], [ -156.179479584467174, 20.833149938574039 ], [ -156.17833419676623, 20.834755239040565 ], [ -156.177750523139508, 20.83291052457604 ], [ -156.176010363390162, 20.833386857044804 ], [ -156.175170728255068, 20.834209290920498 ], [ -156.174125756431238, 20.834231057764796 ], [ -156.172094743155156, 20.833740636756602 ], [ -156.171441276343955, 20.833150898309267 ], [ -156.173658051246633, 20.831677856889232 ], [ -156.176989971637425, 20.828257025720927 ], [ -156.177539786442992, 20.827209357988956 ], [ -156.178693915845258, 20.825690289361791 ], [ -156.178748258564696, 20.824796976513305 ], [ -156.17873718484384, 20.824319407083973 ], [ -156.179202833423631, 20.823016443501619 ], [ -156.179954551992267, 20.821290918972188 ], [ -156.182781352022289, 20.819855543722721 ], [ -156.183205206037741, 20.819133206456854 ], [ -156.181573878287992, 20.819167207055902 ], [ -156.17932613723687, 20.817559595515938 ], [ -156.178675201686559, 20.816201349282451 ], [ -156.177825181835033, 20.815307952943186 ], [ -156.176289312996687, 20.815610604193896 ], [ -156.171059622305989, 20.81953675224802 ], [ -156.170729333617913, 20.818123739972197 ], [ -156.170221996341667, 20.817590370013814 ], [ -156.168511699523947, 20.817050081808677 ], [ -156.168240247050221, 20.81676445453768 ], [ -156.167082051067496, 20.81648479667291 ], [ -156.165930072846322, 20.816083574174222 ], [ -156.16306591521419, 20.815605868710389 ], [ -156.162694891504628, 20.815215571089752 ], [ -156.16086220577813, 20.816285836250273 ], [ -156.160433943558104, 20.817718553950549 ], [ -156.160005481146044, 20.820961348490119 ], [ -156.159226067648092, 20.820687915039787 ], [ -156.158979751334726, 20.819048171744068 ], [ -156.15822671339302, 20.819063716592932 ], [ -156.15783708012745, 20.81795663230389 ], [ -156.157496671373138, 20.816879853433591 ], [ -156.156782118046266, 20.820090249013401 ], [ -156.156074099190107, 20.820104944152384 ], [ -156.155210831023822, 20.820058344532331 ], [ -156.15379564135543, 20.820087600677279 ], [ -156.153089478559451, 20.819345251546785 ], [ -156.152074174616075, 20.818663086904298 ], [ -156.150940239125788, 20.817947603927188 ], [ -156.15092033977453, 20.817091429542998 ], [ -156.151239803404849, 20.816482628927098 ], [ -156.15170621128928, 20.815688227926415 ], [ -156.150896932341027, 20.815958158421989 ], [ -156.149562948202259, 20.817264695652071 ], [ -156.148954842245161, 20.817277322117498 ], [ -156.148108201552361, 20.816513179225655 ], [ -156.148081492710588, 20.815362134957368 ], [ -156.148700756095849, 20.81454714590333 ], [ -156.148101511309932, 20.81426899501632 ], [ -156.148134853106285, 20.813723143925106 ], [ -156.147840290883863, 20.813457336253862 ], [ -156.14750199037465, 20.81275084550354 ], [ -156.146483303080515, 20.812222125553429 ], [ -156.145879390512306, 20.813371922999547 ], [ -156.144295163983401, 20.811941828626992 ], [ -156.145496814613324, 20.809895242449233 ], [ -156.144981311872215, 20.80826410174565 ], [ -156.144759852297653, 20.808791742464955 ], [ -156.144433182922285, 20.81026021785679 ], [ -156.143279347669932, 20.810933646650788 ], [ -156.14200879906349, 20.811724926961716 ], [ -156.141495679665837, 20.811430339498994 ], [ -156.140987097635872, 20.810895419372521 ], [ -156.140151154570589, 20.810507372425828 ], [ -156.139870096047787, 20.808976005726933 ], [ -156.138761470077185, 20.809504167983267 ], [ -156.13868641653454, 20.808756966540273 ], [ -156.138772624358353, 20.807349421390537 ], [ -156.138451180250001, 20.807332021324271 ], [ -156.137686520527609, 20.809470217101293 ], [ -156.136752892468905, 20.809489399554327 ], [ -156.136428683861624, 20.808099993196308 ], [ -156.135110698256113, 20.808127158914118 ], [ -156.133838714768132, 20.807536481401741 ], [ -156.133066621206609, 20.807135586227929 ], [ -156.132401470736283, 20.807786963031877 ], [ -156.131833822280839, 20.80749223068349 ], [ -156.131263468095653, 20.807503975065657 ], [ -156.130124483742776, 20.806738433661447 ], [ -156.128964456443043, 20.806371621804448 ], [ -156.128650064660633, 20.805715092596849 ], [ -156.127092295085504, 20.804668260314507 ], [ -156.125326807044814, 20.805217059994721 ], [ -156.122224501154136, 20.803971444581112 ], [ -156.121334658260906, 20.8030350864335 ], [ -156.120692967706447, 20.802701919311687 ], [ -156.120110836877927, 20.802431636806322 ], [ -156.117873206576149, 20.800757487718212 ], [ -156.117006327696203, 20.800775177048937 ], [ -156.116058808067379, 20.800138264347755 ], [ -156.11497989861536, 20.799637189469735 ], [ -156.114106262918, 20.799049908680196 ], [ -156.112180080338987, 20.799089146140407 ], [ -156.111800177016988, 20.79874620936917 ], [ -156.111195646815645, 20.797483497941315 ], [ -156.109923028168055, 20.796892252638155 ], [ -156.108203329943251, 20.795736091255346 ], [ -156.107283871757261, 20.795445270242947 ], [ -156.105340094446291, 20.794655823454303 ], [ -156.10284330333036, 20.794520431898778 ], [ -156.101285194542385, 20.794552150363177 ], [ -156.100203117994567, 20.793824685405305 ], [ -156.098255327818805, 20.793145510871568 ], [ -156.096738899350015, 20.792778549562296 ], [ -156.096101471528073, 20.790759528370241 ], [ -156.094367844733966, 20.790340077036582 ], [ -156.093123748310148, 20.789030779446811 ], [ -156.091999238938655, 20.788320534654272 ], [ -156.09079018608, 20.787048181778207 ], [ -156.090171107669846, 20.786760520301375 ], [ -156.089047224155024, 20.786004649341844 ], [ -156.086737998998188, 20.785879229506353 ], [ -156.085611272390736, 20.785902139571522 ], [ -156.085112903533485, 20.785377700197945 ], [ -156.083293287115481, 20.785018833602148 ], [ -156.082357765629865, 20.784692442686694 ], [ -156.08006073229555, 20.784739044222739 ], [ -156.079133618989232, 20.783333766786011 ], [ -156.077572346270472, 20.783025787200703 ], [ -156.077151482597003, 20.78169153861365 ], [ -156.075881662186617, 20.781101303569713 ], [ -156.075281945684281, 20.780789592723874 ], [ -156.074448399807409, 20.780806455362537 ], [ -156.073888502596191, 20.780515385996271 ], [ -156.072135377584175, 20.780169576151295 ], [ -156.072198493474957, 20.779142818546969 ], [ -156.071595261311302, 20.779393019538226 ], [ -156.070983927497167, 20.77968407158475 ], [ -156.069868713241107, 20.779623376510322 ], [ -156.067792890736854, 20.779665267805644 ], [ -156.065891494110048, 20.779063243514457 ], [ -156.064430994367939, 20.778187356542627 ], [ -156.062415046083174, 20.777621551541042 ], [ -156.061855188224541, 20.777330446910931 ], [ -156.061074273992006, 20.777346163895295 ], [ -156.059465195845377, 20.777000714419675 ], [ -156.058112947867869, 20.777027915088958 ], [ -156.057106196355562, 20.776973097954812 ], [ -156.05653007910044, 20.776984637311536 ], [ -156.055879229628658, 20.776949273128626 ], [ -156.054936332740766, 20.777212229551282 ], [ -156.054189034260901, 20.77756792599309 ], [ -156.053674467916522, 20.777103030464023 ], [ -156.052083434032738, 20.775265347269269 ], [ -156.052131428282053, 20.774488132402713 ], [ -156.051593541089005, 20.773921808164161 ], [ -156.050974606425314, 20.7736340199131 ], [ -156.050644956760493, 20.772944199044474 ], [ -156.048953036297775, 20.772496078501707 ], [ -156.048266670650605, 20.772509794995138 ], [ -156.047597590758329, 20.772473294507666 ], [ -156.045688240471236, 20.772752232836851 ], [ -156.042252104026517, 20.771988531191653 ], [ -156.041800597458234, 20.771580492709166 ], [ -156.041529480797294, 20.771294701025084 ], [ -156.040401008798256, 20.770274670418768 ], [ -156.040393179478457, 20.769926245099377 ], [ -156.040409700107489, 20.769655725653784 ], [ -156.040397486184588, 20.769113906385165 ], [ -156.040431181656857, 20.768568118469542 ], [ -156.04013691042644, 20.76830215706898 ], [ -156.039769368692305, 20.767914868047722 ], [ -156.038921054709306, 20.768318607087096 ], [ -156.037551723734083, 20.767986754509799 ], [ -156.036108370020287, 20.767399735068704 ], [ -156.035039484031444, 20.767421075962538 ], [ -156.034136546356365, 20.766604703287118 ], [ -156.034126249563144, 20.7661529662603 ], [ -156.035030654263551, 20.764964387394819 ], [ -156.035585857792341, 20.763414342957098 ], [ -156.036561387956482, 20.762210320149791 ], [ -156.037116512679319, 20.76174387870363 ], [ -156.036526916260328, 20.76146964270691 ], [ -156.036544193742259, 20.761189352216537 ], [ -156.036249942794626, 20.760923386490322 ], [ -156.035978854111193, 20.760637589272893 ], [ -156.035673829287418, 20.760361916324804 ], [ -156.035768372748805, 20.758830889531595 ], [ -156.033155388074618, 20.758393043633891 ], [ -156.032090886766554, 20.75743053941137 ], [ -156.031441737713351, 20.756507474140736 ], [ -156.031101017920776, 20.755426305814531 ], [ -156.030605312205296, 20.755399223378408 ], [ -156.030057973202815, 20.755410253809853 ], [ -156.029528088798969, 20.754931151276292 ], [ -156.028621652384686, 20.753479212095154 ], [ -156.028647578163401, 20.75305917623897 ], [ -156.026862029444118, 20.75177912095598 ], [ -156.025969792259673, 20.750839270701558 ], [ -156.023832041677764, 20.749400367564633 ], [ -156.021181460889125, 20.749012614888446 ], [ -156.020094975154393, 20.748447407786358 ], [ -156.017336925210969, 20.74777860306839 ], [ -156.016376210757215, 20.745991931917075 ], [ -156.016412455566041, 20.745405738957576 ], [ -156.016069277908201, 20.744427515340803 ], [ -156.016998209731668, 20.742847404184403 ], [ -156.017090089970935, 20.741359595795217 ], [ -156.017072017495821, 20.740546880037165 ], [ -156.017105401490909, 20.740005858185299 ], [ -156.017087234758321, 20.739197900876626 ], [ -156.017408790230832, 20.738927921429362 ], [ -156.017098041516988, 20.738646966684051 ], [ -156.017131049715459, 20.738110698333415 ], [ -156.017119814643081, 20.737608569893368 ], [ -156.017598390682195, 20.735638760378212 ], [ -156.016942854423746, 20.734419358017359 ], [ -156.016916756634885, 20.733255968975641 ], [ -156.017242736222698, 20.732429918454461 ], [ -156.017230089142856, 20.731870643216613 ], [ -156.017849787420573, 20.730816703309586 ], [ -156.018162632182481, 20.729943084623333 ], [ -156.019307004991617, 20.72898167306731 ], [ -156.019612998247965, 20.728399757105727 ], [ -156.019917087962796, 20.728144540969954 ], [ -156.020199100136153, 20.727868314054504 ], [ -156.021069073014587, 20.727137628421968 ], [ -156.021388420919976, 20.726246262827729 ], [ -156.022554505197945, 20.725753021486369 ], [ -156.02314543441264, 20.724398929436955 ], [ -156.023454804690402, 20.72387299466191 ], [ -156.023970674567863, 20.722432179534611 ], [ -156.024349333522338, 20.72171174440502 ], [ -156.024939468800568, 20.721216183958813 ], [ -156.025403792862761, 20.719520592517835 ], [ -156.027199677713156, 20.717762997344373 ], [ -156.028703444463702, 20.716885732758449 ], [ -156.028071087671151, 20.716219484357662 ], [ -156.027440515587159, 20.715649262615074 ], [ -156.02708553138666, 20.714122372044255 ], [ -156.02631579801772, 20.712690656604828 ], [ -156.026275645177435, 20.71091810661181 ], [ -156.026309344402364, 20.710372587216309 ], [ -156.025903875231222, 20.709618357438895 ], [ -156.026917443938885, 20.708766740636467 ], [ -156.026593210518428, 20.706428236529593 ], [ -156.027250807744423, 20.705784540680249 ], [ -156.027858582388689, 20.705274060592252 ], [ -156.028422765148122, 20.704721569875179 ], [ -156.029952331951108, 20.704474132260021 ], [ -156.029583635471852, 20.703044328983729 ], [ -156.030411213070977, 20.700022644766946 ], [ -156.031546955324018, 20.698910756860602 ], [ -156.032284236291702, 20.698559709909606 ], [ -156.032876220782725, 20.698309293212894 ], [ -156.032858817114374, 20.697543123979894 ], [ -156.034397883909691, 20.695388002670541 ], [ -156.036237463372032, 20.695351058223544 ], [ -156.03797387046734, 20.695445870261292 ], [ -156.03898068601228, 20.695164882350394 ], [ -156.039859009937999, 20.693815644653579 ], [ -156.04081027759031, 20.693413095963368 ], [ -156.040287315107776, 20.692440549222272 ], [ -156.041922350655483, 20.692529740669826 ], [ -156.041881335474386, 20.690718414858061 ], [ -156.042955906133841, 20.689666209345766 ], [ -156.043648134086453, 20.68908425215945 ], [ -156.044002688280159, 20.688481024040687 ], [ -156.044580012152835, 20.686867150183986 ], [ -156.045395875108511, 20.686850737972883 ], [ -156.046042874982675, 20.687151686524043 ], [ -156.0474562683915, 20.687886928959657 ], [ -156.047193589336075, 20.687171422788079 ], [ -156.046642310499692, 20.68667284920696 ], [ -156.046280530409973, 20.685270425902498 ], [ -156.046649689663155, 20.685537250786648 ], [ -156.047227220025292, 20.686145760734888 ], [ -156.047189727348922, 20.684497132446225 ], [ -156.048108193191979, 20.684478630526502 ], [ -156.049185758115271, 20.685039109996119 ], [ -156.049270082409606, 20.683963405790898 ], [ -156.04925687353861, 20.683382423392523 ], [ -156.050537272548524, 20.683452091455404 ], [ -156.05029489899843, 20.682761399447262 ], [ -156.050744808771697, 20.682645468844886 ], [ -156.050707658677254, 20.682226851805197 ], [ -156.05078978088909, 20.681584030602924 ], [ -156.053015246572045, 20.679907751052305 ], [ -156.05364324752756, 20.680260707989142 ], [ -156.05394073438427, 20.680237366832582 ], [ -156.05451500509426, 20.680302328522938 ], [ -156.056300496333904, 20.680161877655291 ], [ -156.057560120700231, 20.681642704017968 ], [ -156.05821778349511, 20.680283757790651 ], [ -156.058967569805219, 20.680705024518545 ], [ -156.059680873551883, 20.680336640789214 ], [ -156.060290181789185, 20.680100297121378 ], [ -156.060175160689653, 20.678806829309671 ], [ -156.060606318504767, 20.678481889466731 ], [ -156.061131911846189, 20.677908112928357 ], [ -156.062316990135116, 20.678241848327701 ], [ -156.064044923920221, 20.68027329741783 ], [ -156.065206825937253, 20.682119749835188 ], [ -156.066266417314438, 20.683427856880375 ], [ -156.066799260491678, 20.684274490296666 ], [ -156.067888531977189, 20.68561893046104 ], [ -156.068388281453139, 20.68602426734607 ], [ -156.068898899985925, 20.686624566016285 ], [ -156.069208549915004, 20.686875656030494 ], [ -156.069442268030343, 20.687802217762602 ], [ -156.069892700251273, 20.687337681732672 ], [ -156.069208549915004, 20.686875656030494 ], [ -156.069109396394424, 20.685103643900995 ], [ -156.068552690199766, 20.684123319895651 ], [ -156.068868474454945, 20.683996462590088 ], [ -156.069636278887941, 20.684067710902998 ], [ -156.070226307725335, 20.68360634122897 ], [ -156.069452137694299, 20.682242946093254 ], [ -156.070191778603885, 20.681219621519435 ], [ -156.072030608359654, 20.68172705974845 ], [ -156.071774943432445, 20.677931739879696 ], [ -156.070402542028859, 20.677327243911083 ], [ -156.069861567861096, 20.675908842801938 ], [ -156.069065475073387, 20.674810731241397 ], [ -156.06894529690328, 20.672991682502218 ], [ -156.06961777865726, 20.672653498950343 ], [ -156.069922408513492, 20.67268182041953 ], [ -156.07065737465723, 20.671620854384162 ], [ -156.072171727390497, 20.671532212027348 ], [ -156.072725085454493, 20.672159140448862 ], [ -156.073919393826884, 20.672685217174152 ], [ -156.075009079605678, 20.674169256341152 ], [ -156.075938020929897, 20.674114809174355 ], [ -156.077019208629878, 20.675955987816785 ], [ -156.079970429410366, 20.678437276319368 ], [ -156.081273928238943, 20.679914066626949 ], [ -156.081426043062663, 20.680042001340077 ], [ -156.081518335230243, 20.680373751814304 ], [ -156.081774873370762, 20.680140607183894 ], [ -156.081426043062663, 20.680042001340077 ], [ -156.081009700701372, 20.677479404980687 ], [ -156.079453596807184, 20.674739604459401 ], [ -156.077737584130205, 20.670917267257082 ], [ -156.079160113188294, 20.671192100826243 ], [ -156.080281926714946, 20.671601466197146 ], [ -156.080028263884088, 20.670936001047288 ], [ -156.079384612148743, 20.670047989142116 ], [ -156.07950397008176, 20.668906061834626 ], [ -156.079454741516315, 20.668159828359695 ], [ -156.080642178841316, 20.66881004061905 ], [ -156.080992341869631, 20.66747102599232 ], [ -156.08166721728395, 20.66743141366355 ], [ -156.082241684631612, 20.66748477791915 ], [ -156.08268306998545, 20.667458795294138 ], [ -156.083655083525485, 20.66856009225322 ], [ -156.083819148454694, 20.668312153620505 ], [ -156.084158443981295, 20.666172402501022 ], [ -156.08472247802942, 20.666139232872453 ], [ -156.08568294985119, 20.667227364959516 ], [ -156.087056578527012, 20.667354656669854 ], [ -156.08648865463212, 20.666354623930655 ], [ -156.087855319469242, 20.665476679535136 ], [ -156.089206858413348, 20.666216617149438 ], [ -156.089355667359143, 20.665618654823902 ], [ -156.089289595620016, 20.66461837720983 ], [ -156.089642641006975, 20.664597627756883 ], [ -156.090477971671703, 20.665176371645128 ], [ -156.090780382254309, 20.665158599969342 ], [ -156.09192309457012, 20.665473825512791 ], [ -156.092558619059446, 20.665154093678009 ], [ -156.093467160416907, 20.66618326033856 ], [ -156.093923504254661, 20.666567031110599 ], [ -156.094184271405055, 20.666862344260679 ], [ -156.094336387046724, 20.666990267466616 ], [ -156.094428704166688, 20.667322013856381 ], [ -156.094685200485856, 20.667088844701521 ], [ -156.094336387046724, 20.666990267466616 ], [ -156.094213456124322, 20.666037692185469 ], [ -156.093113686627305, 20.663348404731117 ], [ -156.093497225843095, 20.662596507135461 ], [ -156.09428548971141, 20.662252763516637 ], [ -156.095045251819897, 20.661900469255936 ], [ -156.095868773628382, 20.662672183712843 ], [ -156.097367601993398, 20.66419419758353 ], [ -156.098000815564802, 20.664217025838933 ], [ -156.097992800807702, 20.661282595865973 ], [ -156.098786523157884, 20.660532430987555 ], [ -156.1002823361938, 20.662051196128335 ], [ -156.100791630803286, 20.659809250614668 ], [ -156.101785907307772, 20.6588692463759 ], [ -156.103066736501717, 20.658583194524311 ], [ -156.104424946218074, 20.658632062816459 ], [ -156.104987448447417, 20.658100269053204 ], [ -156.10577958651885, 20.65809836203621 ], [ -156.118274871120178, 20.660405218629929 ], [ -156.120751356655092, 20.661443799141594 ], [ -156.121099034869786, 20.664583888594642 ], [ -156.121545173312086, 20.665959993498454 ], [ -156.122089551135673, 20.666999608203174 ], [ -156.122507771604063, 20.669112070864976 ], [ -156.121746563302224, 20.670838143252457 ], [ -156.1211340277668, 20.672189951325283 ], [ -156.121136376867554, 20.67292945955624 ], [ -156.120812055385812, 20.674614027942976 ], [ -156.120196831608723, 20.676717286762525 ], [ -156.1205390499033, 20.676467789960792 ], [ -156.121212306300407, 20.675831345220917 ], [ -156.122232346488545, 20.674941108849275 ], [ -156.122283234998292, 20.673688087399487 ], [ -156.122279800997404, 20.672469333513131 ], [ -156.122989017434918, 20.672159973060452 ], [ -156.124042384225305, 20.670871186645119 ], [ -156.125184578748758, 20.669505324755274 ], [ -156.124629932501847, 20.66542871583291 ], [ -156.125441852789237, 20.663587629593685 ], [ -156.127338632048094, 20.664781223748509 ], [ -156.130352435158102, 20.667604587708087 ], [ -156.132415096157928, 20.670937465216813 ], [ -156.135700253372391, 20.679242312131162 ], [ -156.139695548517579, 20.695776742784698 ], [ -156.140253972307789, 20.699029958779892 ], [ -156.141165740964908, 20.703630470030099 ], [ -156.142281214759976, 20.710514681871093 ], [ -156.142296543290882, 20.715734647596314 ], [ -156.141599777895607, 20.718230836076323 ], [ -156.14090921884727, 20.719511985965013 ], [ -156.139259067306966, 20.718318074547803 ], [ -156.1393045642495, 20.717198246386907 ], [ -156.138728599970847, 20.716614092088754 ], [ -156.137287395377143, 20.715926277848087 ], [ -156.13732084873547, 20.71510378613921 ], [ -156.137319538258424, 20.714695017072746 ], [ -156.137635186040569, 20.714143019196325 ], [ -156.137632263203272, 20.713102125953537 ], [ -156.138082246021924, 20.712267124528211 ], [ -156.1385218603981, 20.712282900507116 ], [ -156.139097208204873, 20.712016224111427 ], [ -156.14042607032448, 20.71163472659256 ], [ -156.139415332185024, 20.710688157413053 ], [ -156.138877026519026, 20.709028081729297 ], [ -156.138037717770857, 20.70742634105039 ], [ -156.138325520060562, 20.707128567123256 ], [ -156.13908051347525, 20.706799153954549 ], [ -156.137482550770613, 20.706036541668258 ], [ -156.137215794936822, 20.705214344347944 ], [ -156.136930615586266, 20.704669672272004 ], [ -156.13734183201754, 20.704310743086499 ], [ -156.13697384640372, 20.702772908901082 ], [ -156.136110022654776, 20.702493002489696 ], [ -156.13542379621353, 20.701796854171629 ], [ -156.134815123641118, 20.702327971463856 ], [ -156.134115747922351, 20.702988887786862 ], [ -156.132913593968084, 20.703257539176278 ], [ -156.131853250350844, 20.703219506111399 ], [ -156.129471246382423, 20.704258186338368 ], [ -156.128853324904185, 20.705621558448421 ], [ -156.13085293816178, 20.706023720703207 ], [ -156.130855784921579, 20.707006821025782 ], [ -156.130801216629891, 20.708351955470647 ], [ -156.131820219467727, 20.709005007082993 ], [ -156.130195675745625, 20.71117609890964 ], [ -156.130459568835363, 20.712148477797712 ], [ -156.131604003449183, 20.712694793724495 ], [ -156.131867712734049, 20.713796893317692 ], [ -156.132733117236654, 20.714607654064054 ], [ -156.133664594002141, 20.715552543289665 ], [ -156.135257708352782, 20.714813558990539 ], [ -156.135845030588712, 20.716526296694212 ], [ -156.135846428500344, 20.716975002558399 ], [ -156.135808138402723, 20.717919600100675 ], [ -156.13658822585009, 20.718291878907863 ], [ -156.136950514852401, 20.719027201495262 ], [ -156.13767987804772, 20.720079392163001 ], [ -156.138334139501922, 20.721986835719321 ], [ -156.138017939143793, 20.722029047036951 ], [ -156.136894814092358, 20.721988796985308 ], [ -156.1363144019179, 20.722537308027146 ], [ -156.13523752368198, 20.723176328028018 ], [ -156.136314602604983, 20.724185125168592 ], [ -156.134569216677761, 20.724122460570886 ], [ -156.133976445747379, 20.724639680179827 ], [ -156.133673504281688, 20.725201532446768 ], [ -156.133375111099781, 20.725462090712679 ], [ -156.132785742251372, 20.726275705824463 ], [ -156.131445435866993, 20.726227563673518 ], [ -156.130402027075917, 20.727668331549605 ], [ -156.127682879045892, 20.727185089523243 ], [ -156.127141807135558, 20.72765725931766 ], [ -156.126688140859301, 20.728085795092593 ], [ -156.1244027805038, 20.728003683254759 ], [ -156.124404367444697, 20.728559367948211 ], [ -156.123660566958364, 20.729553377562134 ], [ -156.124767152899437, 20.730262824668635 ], [ -156.124242077990147, 20.731181549063376 ], [ -156.124780186653624, 20.731685511677576 ], [ -156.124326272591759, 20.732081504837986 ], [ -156.123300669617976, 20.733050563966383 ], [ -156.119623755567829, 20.733364143437196 ], [ -156.116813536826839, 20.733856683761829 ], [ -156.113927331205105, 20.734249120244151 ], [ -156.114202448163411, 20.734625321604625 ], [ -156.11564196455393, 20.734915013840737 ], [ -156.117156510131878, 20.735681473185469 ], [ -156.117921103484377, 20.734959064223517 ], [ -156.118798556908928, 20.734956849027942 ], [ -156.11992741911132, 20.736346263538284 ], [ -156.120503595424054, 20.736621447962008 ], [ -156.121242906376352, 20.737724517190571 ], [ -156.12219881797526, 20.737722145779337 ], [ -156.122991594390101, 20.738526324640858 ], [ -156.123622618308303, 20.738845527174938 ], [ -156.12562845955415, 20.739341254993427 ], [ -156.125275512139353, 20.739763797575289 ], [ -156.124347054175132, 20.740573418854858 ], [ -156.125314174152606, 20.741035105144942 ], [ -156.125692098335691, 20.741418301220154 ], [ -156.127051819779268, 20.740787790869391 ], [ -156.127606293001747, 20.74135033852615 ], [ -156.129626134699492, 20.741107053822784 ], [ -156.129949232340181, 20.74111866566528 ], [ -156.132806682801657, 20.740617583005374 ], [ -156.133345276035072, 20.741710517151773 ], [ -156.136140519376283, 20.741810814974482 ], [ -156.137380236832257, 20.741236006418426 ], [ -156.137830609564418, 20.741252236200442 ], [ -156.13826528312913, 20.741251144702076 ], [ -156.138589214196884, 20.742249511722751 ], [ -156.139961553445602, 20.742904455666764 ], [ -156.140526356845726, 20.743189968409162 ], [ -156.141390413093802, 20.743469879373844 ], [ -156.142543904547523, 20.743862770631488 ], [ -156.144556219831969, 20.743527809056665 ], [ -156.146248274469087, 20.743014272007954 ], [ -156.147439503511464, 20.74329958694149 ], [ -156.148324541948512, 20.743600970740438 ], [ -156.149302440572285, 20.743598419867119 ], [ -156.150013282182414, 20.743623832473702 ], [ -156.150600084991339, 20.743351896214531 ], [ -156.151034175551871, 20.743367425302466 ], [ -156.151897922207013, 20.743365082519642 ], [ -156.153336464127591, 20.743416559144187 ], [ -156.154893008518286, 20.743412453736575 ], [ -156.158881347586146, 20.744908219502481 ], [ -156.176079431974358, 20.749728531423742 ], [ -156.179273743495941, 20.750761976627427 ], [ -156.18954421939938, 20.754346525066055 ], [ -156.199309067062956, 20.757002245758809 ], [ -156.212332534951088, 20.760867241263412 ], [ -156.217185050522716, 20.762975898955535 ], [ -156.218617598876335, 20.764705326682538 ], [ -156.219504324172249, 20.767434665533568 ], [ -156.2209924536036, 20.768942544520765 ], [ -156.225983592119604, 20.772058689420248 ], [ -156.236638280322921, 20.77659704710446 ], [ -156.24719092619884, 20.782845358359651 ], [ -156.256573053796103, 20.789217604413803 ], [ -156.258105606727923, 20.790650146376652 ], [ -156.26590020368792, 20.798839843760323 ], [ -156.267946761431688, 20.801103885668891 ], [ -156.275489820659146, 20.81129504239777 ], [ -156.282544699306186, 20.822046615447473 ], [ -156.283898852824393, 20.82406174500305 ], [ -156.289740177638294, 20.832744794009898 ], [ -156.293325993153928, 20.838135668407748 ], [ -156.298030812465726, 20.846122368921534 ], [ -156.301689843947855, 20.855924947923359 ], [ -156.300551463871329, 20.856453843300336 ], [ -156.299187529090545, 20.855180174494237 ], [ -156.299236267752065, 20.85394837483376 ], [ -156.297234323572155, 20.851628312372707 ], [ -156.295776961860412, 20.849713984099878 ], [ -156.294955010945159, 20.849685255317116 ], [ -156.296026938363298, 20.851060797547603 ], [ -156.296355640025041, 20.852426973047372 ], [ -156.296888455869919, 20.853441018189045 ], [ -156.296894522447559, 20.855005892608926 ], [ -156.296878210548783, 20.855414550952954 ], [ -156.297167430994847, 20.855684677780445 ], [ -156.297440088613598, 20.856235969998668 ], [ -156.298572625802393, 20.857294001832873 ], [ -156.298576815477304, 20.858382087137983 ], [ -156.297432730689025, 20.859464465965186 ], [ -156.296485747907269, 20.859752485726275 ], [ -156.295366492665153, 20.859713368006702 ], [ -156.295863822454265, 20.860226556301072 ], [ -156.296795714100114, 20.861097073141277 ], [ -156.295334205974427, 20.861517402020446 ], [ -156.295878665927233, 20.862982474601385 ], [ -156.296804481362528, 20.865404581007741 ], [ -156.29578419572897, 20.865698046911714 ], [ -156.294256963940086, 20.866407213239082 ], [ -156.292664261986062, 20.865649742163352 ], [ -156.292270581431637, 20.864440306171431 ], [ -156.291293543192722, 20.863451613127978 ], [ -156.290378925702811, 20.86370612001123 ], [ -156.290386069480491, 20.865598717129007 ], [ -156.288678850841791, 20.865061707390979 ], [ -156.287377593237437, 20.864202086108275 ], [ -156.287480805518697, 20.865287105392209 ], [ -156.288049746452486, 20.866105623605435 ], [ -156.287738576862807, 20.866650579317195 ], [ -156.287744118770547, 20.868113074475076 ], [ -156.286639658254671, 20.868626002390194 ], [ -156.285618358803532, 20.867157174520642 ], [ -156.28491937431437, 20.865010131160936 ], [ -156.284053952536453, 20.863873202894592 ], [ -156.283909489017162, 20.863738131203515 ] ], [ [ -156.185957619295294, 20.831821715874906 ], [ -156.186050196162057, 20.832153442318521 ], [ -156.186306881674966, 20.831920156069458 ], [ -156.185957619295294, 20.831821715874906 ] ], [ [ -156.138037306724954, 20.806653611992079 ], [ -156.138129766891467, 20.806985351349589 ], [ -156.13838646919649, 20.806752139986738 ], [ -156.138037306724954, 20.806653611992079 ] ], [ [ -156.037532354382989, 20.761888175460712 ], [ -156.037624573036084, 20.762219941253839 ], [ -156.037881324802385, 20.761986888780537 ], [ -156.037532354382989, 20.761888175460712 ] ] ] } }
]
}
