{
"type": "FeatureCollection",
"name": "cyrhema",
"crs": { "type": "name", "properties": { "name": "urn:ogc:def:crs:OGC:1.3:CRS84" } },
"features": [
{ "type": "Feature", "properties": { "ID": 1, "GRIDCODE": 2 }, "geometry": { "type": "Polygon", "coordinates": [ [ [ -156.849089974290138, 21.14433190324797 ], [ -156.849458655648249, 21.144189353942672 ], [ -156.84921598581505, 21.143710435639029 ], [ -156.849089974290138, 21.14433190324797 ], [ -156.848020390833369, 21.144753726067893 ], [ -156.848099082361529, 21.143367241096694 ], [ -156.847814315933874, 21.142288925465266 ], [ -156.847552670685019, 21.141191589770699 ], [ -156.846711429316002, 21.139650336299784 ], [ -156.845953352837853, 21.13729280696824 ], [ -156.844879606136942, 21.135081005221256 ], [ -156.843893637297953, 21.133840437541789 ], [ -156.843058531394121, 21.132464870977564 ], [ -156.841404823651231, 21.130504811280851 ], [ -156.842516253777546, 21.130029980948489 ], [ -156.843086453886855, 21.129756004851604 ], [ -156.844848485575369, 21.129257232811977 ], [ -156.8473628423923, 21.128466129318245 ], [ -156.851167486192423, 21.128794107151226 ], [ -156.853498910558073, 21.129346475063493 ], [ -156.855091060234599, 21.129892822240521 ], [ -156.856372073480856, 21.12995673407044 ], [ -156.858884940158532, 21.129895133294266 ], [ -156.856750777341176, 21.130643864950759 ], [ -156.854901509951276, 21.132717856863326 ], [ -156.85476198995778, 21.135181388496559 ], [ -156.855137582205913, 21.135869409630146 ], [ -156.856430069980689, 21.138863627152741 ], [ -156.85795466605893, 21.140781710007278 ], [ -156.858992487479327, 21.142919306061803 ], [ -156.859640579704063, 21.143251673257563 ], [ -156.860804905595501, 21.14361371456533 ], [ -156.865658131080266, 21.146193745156939 ], [ -156.865673818609935, 21.146752130009379 ], [ -156.865288913875048, 21.150859693657036 ], [ -156.865803855383263, 21.1522994580078 ], [ -156.865269460527315, 21.15282623073994 ], [ -156.864136767336049, 21.152769800709638 ], [ -156.864120528126847, 21.153056394524182 ], [ -156.864150456835773, 21.154135310563049 ], [ -156.863823927635707, 21.153599657427364 ], [ -156.863479792804497, 21.151775369772373 ], [ -156.862700021886951, 21.151418068315973 ], [ -156.862375730528242, 21.150059350306705 ], [ -156.862130449999086, 21.150858705321049 ], [ -156.86183727280428, 21.151949015296026 ], [ -156.861250850735274, 21.152444955391587 ], [ -156.860859839405038, 21.153551884662317 ], [ -156.860651530548182, 21.153288645007162 ], [ -156.860357036002881, 21.15138845341713 ], [ -156.859834876875027, 21.151906697787282 ], [ -156.85918554705043, 21.154109526854896 ], [ -156.859207115232181, 21.154884736748112 ], [ -156.858650737541097, 21.154898397646001 ], [ -156.857681888950253, 21.154293948588091 ], [ -156.85779492327228, 21.152299104929781 ], [ -156.857776695919853, 21.151644980023757 ], [ -156.858387271178742, 21.150078164733387 ], [ -156.858102242539445, 21.14999253876929 ], [ -156.856947306726624, 21.151130727851776 ], [ -156.856603118527801, 21.150060797293126 ], [ -156.855789706017333, 21.15074896500759 ], [ -156.856058799631597, 21.151334040167573 ], [ -156.856510000151872, 21.152160332341769 ], [ -156.855621600457027, 21.153413073920586 ], [ -156.854571187796523, 21.152931527243762 ], [ -156.854030498464283, 21.151818224013326 ], [ -156.85315704199067, 21.152678911142235 ], [ -156.852328730866503, 21.151817067871193 ], [ -156.851731739066111, 21.151831712473651 ], [ -156.851712413208304, 21.151138285773715 ], [ -156.851750663727131, 21.150461464486945 ], [ -156.851703935456442, 21.14877421787865 ], [ -156.852161790644544, 21.147220768533213 ], [ -156.851782445285551, 21.147476557541665 ], [ -156.850326415313617, 21.149093920536671 ], [ -156.849735401991097, 21.149593729079982 ], [ -156.849316845516569, 21.151509074994284 ], [ -156.848617062412188, 21.150713206551547 ], [ -156.848559865079665, 21.14865992455908 ], [ -156.848636672526936, 21.147306288877843 ], [ -156.848590648410493, 21.145650668900878 ], [ -156.848945304439667, 21.144741607497718 ], [ -156.849089974290138, 21.14433190324797 ] ], [ [ -156.864057565317069, 21.147772573356441 ], [ -156.864214450039469, 21.147649145235203 ], [ -156.864490922399256, 21.147013752748308 ], [ -156.862436375433958, 21.145480861146861 ], [ -156.859912491313111, 21.144072778727995 ], [ -156.858562218069977, 21.143148605695178 ], [ -156.857085834944456, 21.14130766492692 ], [ -156.856534042281083, 21.14084944685742 ], [ -156.854862938459775, 21.13786551238713 ], [ -156.853843364743113, 21.134525905027996 ], [ -156.85407587646506, 21.132205034557714 ], [ -156.855262480019775, 21.130678860347249 ], [ -156.852578093937439, 21.129883261043677 ], [ -156.847197133642823, 21.129552608425634 ], [ -156.84333630344031, 21.130827398810588 ], [ -156.843740674213734, 21.131529433001699 ], [ -156.844226350146329, 21.131933005569778 ], [ -156.845344927837772, 21.133811754263029 ], [ -156.846014142684595, 21.136247923163001 ], [ -156.84723579937949, 21.139076335320865 ], [ -156.84815483391381, 21.139839739134146 ], [ -156.848576116034621, 21.140311139689178 ], [ -156.848967997940861, 21.142037564280077 ], [ -156.849107049544756, 21.142290146644839 ], [ -156.849867807386403, 21.141184505659972 ], [ -156.851477399172182, 21.142054027683034 ], [ -156.850665483649038, 21.144477328210051 ], [ -156.850520987804231, 21.145559184099366 ], [ -156.851847293212586, 21.14415387860863 ], [ -156.853864733013978, 21.143339917227955 ], [ -156.854122198303656, 21.145083149769924 ], [ -156.85446609557161, 21.145368818044645 ], [ -156.854966485412916, 21.14700764669001 ], [ -156.855268346111131, 21.146687701017949 ], [ -156.855535497028882, 21.147270040069923 ], [ -156.856355517258407, 21.147218652449066 ], [ -156.856917052434767, 21.145551079110778 ], [ -156.857658444839728, 21.144044259447728 ], [ -156.858156711804384, 21.14567610914046 ], [ -156.858470970503959, 21.14651342846663 ], [ -156.859104965869165, 21.146473695201824 ], [ -156.858971937843307, 21.147801562937577 ], [ -156.859379102026651, 21.148886242789285 ], [ -156.859851931560712, 21.148385167703474 ], [ -156.860994950595057, 21.148485872273959 ], [ -156.861301996702736, 21.147863175360637 ], [ -156.861619659795679, 21.147345449440916 ], [ -156.861902590442241, 21.146771657104118 ], [ -156.862428298901563, 21.147360032010077 ], [ -156.862764211752847, 21.147338942093668 ], [ -156.863052640232439, 21.14736441225709 ], [ -156.863658694805792, 21.147326359665861 ], [ -156.864057565317069, 21.147772573356441 ], [ -156.863704330121237, 21.147860847483521 ], [ -156.863953854693165, 21.148101585669171 ], [ -156.864057565317069, 21.147772573356441 ] ] ] } },
{ "type": "Feature", "properties": { "ID": 2, "GRIDCODE": 2 }, "geometry": { "type": "Polygon", "coordinates": [ [ [ -156.909706357790412, 21.125855395630214 ], [ -156.909355794205027, 21.12575833271055 ], [ -156.909612026846304, 21.125523901829293 ], [ -156.909706357790412, 21.125855395630214 ] ] ] } },
{ "type": "Feature", "properties": { "ID": 3, "GRIDCODE": 2 }, "geometry": { "type": "Polygon", "coordinates": [ [ [ -156.812422924543995, 21.124084879810734 ], [ -156.814267675214126, 21.124887654945965 ], [ -156.815417721999125, 21.125493342612153 ], [ -156.817430577233978, 21.126391779315647 ], [ -156.818002418995775, 21.127009112962273 ], [ -156.818572722897159, 21.127500622449418 ], [ -156.817075355406416, 21.129255990092144 ], [ -156.815075156988343, 21.129665540000527 ], [ -156.815126768065682, 21.130723026150278 ], [ -156.814613050381382, 21.131141822829218 ], [ -156.814082866137483, 21.131683363401333 ], [ -156.812442242007336, 21.131184759991516 ], [ -156.812496385750279, 21.130492951580003 ], [ -156.812099159188932, 21.130064046648044 ], [ -156.810848515653788, 21.130680993445438 ], [ -156.810410145718862, 21.129751518991196 ], [ -156.809381056580918, 21.130259010434379 ], [ -156.809009015366257, 21.129594562372361 ], [ -156.809481382245252, 21.128804919277947 ], [ -156.808600796114689, 21.12874424945845 ], [ -156.807851942303415, 21.128776358078092 ], [ -156.807937651775944, 21.127684272966277 ], [ -156.807837109860742, 21.125623971248682 ], [ -156.808458326562942, 21.124989441840082 ], [ -156.809959470524205, 21.125264566278915 ], [ -156.810997147777897, 21.125629130721642 ], [ -156.812239459930339, 21.124616078661411 ], [ -156.812422924543995, 21.124084879810734 ] ] ] } },
{ "type": "Feature", "properties": { "ID": 4, "GRIDCODE": 2 }, "geometry": { "type": "Polygon", "coordinates": [ [ [ -156.807021537833663, 21.118325754700194 ], [ -156.807867899925498, 21.118485330664946 ], [ -156.808418234605227, 21.119467782454148 ], [ -156.805502286137653, 21.119593004048586 ], [ -156.806883272432287, 21.118467029852873 ], [ -156.807021537833663, 21.118325754700194 ] ] ] } },
{ "type": "Feature", "properties": { "ID": 5, "GRIDCODE": 2 }, "geometry": { "type": "Polygon", "coordinates": [ [ [ -156.806215273096143, 21.114251550126976 ], [ -156.806365902794823, 21.114381286896982 ], [ -156.806626045456085, 21.115212753178966 ], [ -156.807470071625545, 21.116719282425755 ], [ -156.806863021326819, 21.117140554077732 ], [ -156.805157946728002, 21.116818980390818 ], [ -156.805190251694427, 21.11640561477093 ], [ -156.805170102728312, 21.115992892386714 ], [ -156.806215273096143, 21.114251550126976 ] ] ] } },
{ "type": "Feature", "properties": { "ID": 6, "GRIDCODE": 2 }, "geometry": { "type": "Polygon", "coordinates": [ [ [ -156.908919905613004, 21.140746876697328 ], [ -156.908923707872958, 21.140475993149774 ], [ -156.90863497096089, 21.140472425776327 ], [ -156.908540636268157, 21.140140931340593 ], [ -156.908284374772165, 21.14037535799347 ], [ -156.90863497096089, 21.140472425776327 ], [ -156.908631168176868, 21.140743309273898 ], [ -156.908919905613004, 21.140746876697328 ], [ -156.909002971770775, 21.141740609248711 ], [ -156.909419391855494, 21.142553319509904 ], [ -156.90860454699984, 21.142639493496123 ], [ -156.908608350206094, 21.142368610063748 ], [ -156.908030869225428, 21.142361473141587 ], [ -156.90787892302717, 21.142015574271074 ], [ -156.907368365025235, 21.142243482171089 ], [ -156.908030869225428, 21.142361473141587 ], [ -156.908027064970895, 21.142632356473971 ], [ -156.90860454699984, 21.142639493496123 ], [ -156.908741304149572, 21.142781807910829 ], [ -156.909185566606055, 21.143178214592627 ], [ -156.909596123946955, 21.143605159872948 ], [ -156.910758721157038, 21.143880128014089 ], [ -156.911121022306531, 21.145395554781043 ], [ -156.911579344766182, 21.146338951925646 ], [ -156.91270953794367, 21.148122810041336 ], [ -156.912422695557865, 21.148787734890153 ], [ -156.912115210888544, 21.1493154837707 ], [ -156.911746602926172, 21.15036032808398 ], [ -156.911083890307168, 21.149671381542092 ], [ -156.909824940683819, 21.150912789615628 ], [ -156.909315771779205, 21.14748415111319 ], [ -156.910435059589901, 21.145561378656335 ], [ -156.909218615600338, 21.14528408856544 ], [ -156.90806135396565, 21.146917725491981 ], [ -156.906720273142753, 21.146458035604329 ], [ -156.907503730001594, 21.148647403250987 ], [ -156.907223723307908, 21.14872390966493 ], [ -156.906905247650286, 21.148708064287476 ], [ -156.906090147008825, 21.149511959839192 ], [ -156.905485566496822, 21.149023404459935 ], [ -156.905142631079968, 21.146816729682254 ], [ -156.902750403666744, 21.146479788663971 ], [ -156.902231019427717, 21.145410534562888 ], [ -156.902058444357266, 21.145669006103152 ], [ -156.90176556699123, 21.146759411341073 ], [ -156.90146186834167, 21.147016256126609 ], [ -156.901121107454543, 21.147981647275849 ], [ -156.899186108599793, 21.147380455115645 ], [ -156.898469691627241, 21.145905724791128 ], [ -156.898297109732056, 21.146164191886541 ], [ -156.898002869567733, 21.146729712922518 ], [ -156.896343296785602, 21.145879304481607 ], [ -156.894543416942469, 21.146117530171903 ], [ -156.892548901906366, 21.146417803391497 ], [ -156.892173432927848, 21.145368042497381 ], [ -156.892804384001153, 21.144745872814969 ], [ -156.894595501347055, 21.144448091570382 ], [ -156.896012696589167, 21.143248521666155 ], [ -156.896165037027401, 21.1405493290167 ], [ -156.894680531536409, 21.138790934044049 ], [ -156.89463607343464, 21.137207207337845 ], [ -156.895209777515049, 21.136721364880824 ], [ -156.896006600208239, 21.135352945603252 ], [ -156.896730026467452, 21.132310278034964 ], [ -156.896073702752034, 21.130959384101676 ], [ -156.895380704073148, 21.129690250424904 ], [ -156.895088420664052, 21.127982396790518 ], [ -156.894890556232866, 21.121864320269257 ], [ -156.893365519420399, 21.119355008282302 ], [ -156.891157330341088, 21.117722067431743 ], [ -156.889940879324882, 21.117304892629889 ], [ -156.888316450447604, 21.11760280766099 ], [ -156.886858038530505, 21.117845231772474 ], [ -156.885480855085632, 21.118165516862025 ], [ -156.883232986014349, 21.115601066780766 ], [ -156.882099779535508, 21.114010681625981 ], [ -156.882855427346414, 21.113992080405023 ], [ -156.883447332743032, 21.114822445752093 ], [ -156.884288072803884, 21.116080829568084 ], [ -156.885717729165805, 21.117030522228937 ], [ -156.887814606756194, 21.116542734949032 ], [ -156.890177217923963, 21.116484334451922 ], [ -156.89256303711619, 21.11757737344611 ], [ -156.89515314672613, 21.120401284716056 ], [ -156.895465029139899, 21.122558174857403 ], [ -156.895758537792887, 21.12711615827515 ], [ -156.896227970177563, 21.129080274555715 ], [ -156.897487643586771, 21.133058459537484 ], [ -156.896849233930283, 21.135433132541689 ], [ -156.895540264279163, 21.137681794458793 ], [ -156.896167301898259, 21.139090865414808 ], [ -156.896948800944216, 21.140187004835454 ], [ -156.897199345300464, 21.142096939200076 ], [ -156.897784422842534, 21.142364817851899 ], [ -156.89791734593237, 21.142778021706867 ], [ -156.897564136208473, 21.142866369296321 ], [ -156.897813712718232, 21.143107061545674 ], [ -156.89791734593237, 21.142778021706867 ], [ -156.898253724095582, 21.142503399011819 ], [ -156.897504626914383, 21.140748534069683 ], [ -156.897242185225565, 21.140040964215068 ], [ -156.898087599376709, 21.140485705450612 ], [ -156.898477021823027, 21.140468779333862 ], [ -156.89839694415727, 21.138848361387122 ], [ -156.898907810831133, 21.138598524411975 ], [ -156.899237040121221, 21.140770045073541 ], [ -156.899581938386717, 21.141710804255439 ], [ -156.901361492041133, 21.142250661573833 ], [ -156.901945442237007, 21.14109745495379 ], [ -156.903559639895008, 21.1421851686694 ], [ -156.903842384298997, 21.141853183398108 ], [ -156.902983883540401, 21.141114094349888 ], [ -156.90301904919076, 21.140659452715518 ], [ -156.901935287547929, 21.140176459402603 ], [ -156.901582573830495, 21.139429279526521 ], [ -156.901278025992639, 21.138886687234709 ], [ -156.901883388947169, 21.138635036001133 ], [ -156.90180568093308, 21.137063924161875 ], [ -156.90324883130279, 21.13862000713355 ], [ -156.904169638659511, 21.139119031609344 ], [ -156.903606199978185, 21.138114918558312 ], [ -156.903295102986817, 21.137456163931319 ], [ -156.902470341789808, 21.136746198733562 ], [ -156.90164890976348, 21.135860458004998 ], [ -156.90328242659092, 21.135972110078601 ], [ -156.902495068801727, 21.134568813991681 ], [ -156.90304281086307, 21.134121844602202 ], [ -156.904217953836906, 21.135684123590295 ], [ -156.904781078908428, 21.136168793570473 ], [ -156.905072734967206, 21.136786493740207 ], [ -156.906039665577964, 21.136170475575941 ], [ -156.905668387643971, 21.135158030178406 ], [ -156.905690384118827, 21.134877119545912 ], [ -156.905026096983136, 21.132421003725675 ], [ -156.905467289919358, 21.132451134360878 ], [ -156.905980767263998, 21.133538495217881 ], [ -156.906597763604253, 21.134343703172977 ], [ -156.906508396881634, 21.132534852001321 ], [ -156.906000531401503, 21.131630056388193 ], [ -156.906605005883534, 21.131378771279845 ], [ -156.906882391419828, 21.13102468603282 ], [ -156.906300254685931, 21.129987013724548 ], [ -156.906945130801688, 21.130031035364457 ], [ -156.907516944258646, 21.131241944683133 ], [ -156.90740470500657, 21.132688276640078 ], [ -156.907993187615176, 21.133737136949726 ], [ -156.909058827469778, 21.134103185860841 ], [ -156.907986668625455, 21.13219256669414 ], [ -156.90807546463958, 21.131049815204495 ], [ -156.908637442293809, 21.130591095155584 ], [ -156.90891628664491, 21.130132580816063 ], [ -156.90806646396382, 21.128958457617944 ], [ -156.907801919866614, 21.12839811445884 ], [ -156.907504244901702, 21.127867788397754 ], [ -156.907208731319315, 21.126601094295424 ], [ -156.906367176510571, 21.126226034143762 ], [ -156.906880436479327, 21.124937983485392 ], [ -156.907277514965784, 21.124613818118178 ], [ -156.907560464582218, 21.124324290844335 ], [ -156.908411590961066, 21.124941223631428 ], [ -156.907714705380869, 21.125510328008055 ], [ -156.908121042214674, 21.126234610669087 ], [ -156.908593949026937, 21.127741683583835 ], [ -156.909864228113065, 21.128694513028204 ], [ -156.910387786646737, 21.128159112464431 ], [ -156.911023628295254, 21.127640043955481 ], [ -156.909946932575423, 21.1271602360946 ], [ -156.909706357790412, 21.125855395630214 ], [ -156.910634769391635, 21.126049677800669 ], [ -156.911297399913707, 21.125731159839013 ], [ -156.912433900186301, 21.126571526673558 ], [ -156.912835123870508, 21.126837084783379 ], [ -156.915063160607218, 21.12439664355524 ], [ -156.914309788118089, 21.12372412739321 ], [ -156.913650133656546, 21.123004741187692 ], [ -156.914253132814082, 21.121968525185164 ], [ -156.914237469031775, 21.121415091826997 ], [ -156.91290770041789, 21.12080611539708 ], [ -156.91109901705903, 21.119602001212936 ], [ -156.912395758997263, 21.119386213561214 ], [ -156.91258714302316, 21.119653815093908 ], [ -156.913949360843873, 21.119958063982903 ], [ -156.913386263579667, 21.119170810965183 ], [ -156.912395758997263, 21.119386213561214 ], [ -156.912011459689666, 21.11900081040535 ], [ -156.909977602889114, 21.118936769614191 ], [ -156.908500438455945, 21.119390881617207 ], [ -156.910001825849321, 21.118113691400691 ], [ -156.911985713384951, 21.117536629339803 ], [ -156.911705321851116, 21.117342939054669 ], [ -156.91056124104631, 21.117350660234557 ], [ -156.910265652603982, 21.117054387283002 ], [ -156.909455061129904, 21.116303955737582 ], [ -156.910571995081824, 21.115979070380728 ], [ -156.910271442102896, 21.115413392461093 ], [ -156.910309375324346, 21.114356063672567 ], [ -156.909871734116848, 21.113532711888602 ], [ -156.910311190395362, 21.113803772219889 ], [ -156.916880952056289, 21.118495811895318 ], [ -156.922287515107826, 21.122307312685781 ], [ -156.922605993407927, 21.122906199601481 ], [ -156.922582006254004, 21.123575432090163 ], [ -156.922587272325586, 21.124249918112369 ], [ -156.922020982859834, 21.124253819051415 ], [ -156.921139648503953, 21.123695912914624 ], [ -156.920592345791192, 21.123147329384864 ], [ -156.920532685656639, 21.1242102847186 ], [ -156.921409917814913, 21.125022010680805 ], [ -156.921122625856214, 21.125321299172555 ], [ -156.920648430845802, 21.125737685243344 ], [ -156.92208785148722, 21.126679142538009 ], [ -156.92362122932289, 21.126727318700368 ], [ -156.924864547794044, 21.126179988776236 ], [ -156.925426955442134, 21.125645013086707 ], [ -156.926821001481073, 21.1262827300792 ], [ -156.931728382970647, 21.130562977290754 ], [ -156.929540763169257, 21.130673494578229 ], [ -156.928842199273589, 21.13002717310302 ], [ -156.928015887344202, 21.129198840229257 ], [ -156.927984067515297, 21.129520117994105 ], [ -156.927994077025659, 21.130808430196364 ], [ -156.927391695187339, 21.131337434014224 ], [ -156.927680996919861, 21.131644121216304 ], [ -156.928781484159259, 21.131636486189187 ], [ -156.930691014936258, 21.1320980505905 ], [ -156.932264431570729, 21.133553830229399 ], [ -156.931542899980656, 21.133585233344508 ], [ -156.930525575105776, 21.133553288327917 ], [ -156.930824318023127, 21.134115078586859 ], [ -156.930798520714063, 21.134835621005752 ], [ -156.93264583440839, 21.136004365808407 ], [ -156.933158417137605, 21.136968417715128 ], [ -156.932506098991297, 21.138189112271725 ], [ -156.930798879739513, 21.137652975995074 ], [ -156.930478954666171, 21.137356965031511 ], [ -156.930199697440997, 21.137077193494989 ], [ -156.929620278249189, 21.136804598721103 ], [ -156.92875653520008, 21.136373742443983 ], [ -156.928766306257529, 21.137618461204116 ], [ -156.927735143331262, 21.137586063615018 ], [ -156.926473002108679, 21.137594817546944 ], [ -156.925082790111389, 21.136715111062149 ], [ -156.92470773175225, 21.135579753340675 ], [ -156.922857976456697, 21.134166620687878 ], [ -156.920998130740998, 21.130992749132943 ], [ -156.918919540554384, 21.128908964118885 ], [ -156.916953474794155, 21.127757009905338 ], [ -156.914506822016392, 21.127136482587204 ], [ -156.91229091512642, 21.128102946940263 ], [ -156.910247806727455, 21.129896873316895 ], [ -156.910983245382766, 21.130944164395249 ], [ -156.910890486837843, 21.133538031005688 ], [ -156.911164231504955, 21.134952287015302 ], [ -156.911461336083818, 21.136410420666962 ], [ -156.911068528474829, 21.138499996760572 ], [ -156.908810869131656, 21.138428861834711 ], [ -156.909948530995251, 21.139272174884713 ], [ -156.911113750725036, 21.139820416655844 ], [ -156.911084517774412, 21.140638139938478 ], [ -156.911090647416927, 21.141447965273777 ], [ -156.909651358581414, 21.141457778139646 ], [ -156.909210556838957, 21.141015973917547 ], [ -156.908919905613004, 21.140746876697328 ] ] ] } },
{ "type": "Feature", "properties": { "ID": 7, "GRIDCODE": 2 }, "geometry": { "type": "Polygon", "coordinates": [ [ [ -156.909307425555141, 21.113116706896033 ], [ -156.909657960140748, 21.113213767577562 ], [ -156.909401750557095, 21.113448200610353 ], [ -156.909307425555141, 21.113116706896033 ] ] ] } },
{ "type": "Feature", "properties": { "ID": 8, "GRIDCODE": 2 }, "geometry": { "type": "Polygon", "coordinates": [ [ [ -156.906735875998379, 21.111188439762685 ], [ -156.908838119101574, 21.11274261825567 ], [ -156.907442316360886, 21.112647202306036 ], [ -156.906627367418423, 21.114561036830956 ], [ -156.906163808626388, 21.11458123760891 ], [ -156.906705676040247, 21.112778199001735 ], [ -156.905971847409404, 21.112146307898762 ], [ -156.906735875998379, 21.111188439762685 ] ] ] } },
{ "type": "Feature", "properties": { "ID": 9, "GRIDCODE": 2 }, "geometry": { "type": "Polygon", "coordinates": [ [ [ -156.900134377068781, 21.108397458435476 ], [ -156.902750338984646, 21.108680675031909 ], [ -156.903376035560569, 21.109380692796719 ], [ -156.90498469136142, 21.109856990023026 ], [ -156.906564999232899, 21.111168866432351 ], [ -156.905247871493401, 21.111837324521982 ], [ -156.904558022757499, 21.111307041546407 ], [ -156.90419575301911, 21.110901853642467 ], [ -156.903375883987252, 21.111317818576907 ], [ -156.903441205210527, 21.110662334373302 ], [ -156.902556306097921, 21.1099276233872 ], [ -156.902234575540604, 21.109567647725399 ], [ -156.900802121475976, 21.109053820877243 ], [ -156.900075719647816, 21.109099456973617 ], [ -156.899372299687684, 21.108794409110221 ], [ -156.899998705423002, 21.108541296461265 ], [ -156.900134377068781, 21.108397458435476 ] ] ] } },
{ "type": "Feature", "properties": { "ID": 10, "GRIDCODE": 2 }, "geometry": { "type": "Polygon", "coordinates": [ [ [ -156.847468356796497, 21.096628826633665 ], [ -156.848739799611423, 21.096808338986207 ], [ -156.850068905750646, 21.097995807420251 ], [ -156.850752771290132, 21.098707584799161 ], [ -156.85161318763781, 21.099102123800044 ], [ -156.850457640812863, 21.099663453726134 ], [ -156.849600971525263, 21.099224111071997 ], [ -156.849302581559186, 21.099231437854211 ], [ -156.848459353525698, 21.098798874701416 ], [ -156.848416645522661, 21.099551707108173 ], [ -156.848685413977819, 21.101932447673047 ], [ -156.848977682337249, 21.102467685934158 ], [ -156.849247104316419, 21.103023270692013 ], [ -156.850298820518049, 21.103350397477232 ], [ -156.851090976611005, 21.104982414584558 ], [ -156.854567961683017, 21.104174400902227 ], [ -156.858666108219296, 21.104717012844638 ], [ -156.859619009786599, 21.105311643996021 ], [ -156.861474025917829, 21.106544435001698 ], [ -156.863814712871232, 21.107433958121103 ], [ -156.867451169907412, 21.109100682797237 ], [ -156.868505584552167, 21.109758456508995 ], [ -156.868809803760911, 21.110075012057987 ], [ -156.871582965250923, 21.110006814226907 ], [ -156.873798743254042, 21.111478956290011 ], [ -156.875387542319743, 21.112293542461156 ], [ -156.881721548521739, 21.112986270095451 ], [ -156.881735010223338, 21.11346797015155 ], [ -156.880454391568293, 21.113404198644648 ], [ -156.879121229514595, 21.113684636651936 ], [ -156.877705882778741, 21.114013774888786 ], [ -156.877393594363497, 21.113370644017923 ], [ -156.875691633965971, 21.113412547796056 ], [ -156.875387392827008, 21.113096002915558 ], [ -156.874802472873682, 21.112828059006599 ], [ -156.874315695665189, 21.112321373186337 ], [ -156.87367077064863, 21.111990761918829 ], [ -156.872639704529945, 21.111670117150886 ], [ -156.870109594887055, 21.110372995945884 ], [ -156.868472547176822, 21.111400001263046 ], [ -156.868170318000409, 21.110134964266127 ], [ -156.867339481665311, 21.109754103216098 ], [ -156.86677743863882, 21.109465784422543 ], [ -156.86460251217386, 21.10857455136863 ], [ -156.86310562525253, 21.107806933538033 ], [ -156.861572228138357, 21.107443643302613 ], [ -156.859540533791062, 21.105849063566318 ], [ -156.857994723074597, 21.105056313096952 ], [ -156.854096255612063, 21.104861879347297 ], [ -156.85199025114585, 21.105304556586699 ], [ -156.850443326208534, 21.107039599285539 ], [ -156.850901013443121, 21.108462727244333 ], [ -156.851750003583675, 21.109654683160578 ], [ -156.851049149893129, 21.110079830460023 ], [ -156.850279689080025, 21.109630481026215 ], [ -156.85034659344123, 21.108450536105263 ], [ -156.850308878829622, 21.10709543877859 ], [ -156.850426848656525, 21.105012488352124 ], [ -156.849647732438967, 21.103845755239099 ], [ -156.847139136752901, 21.103720515742495 ], [ -156.846345089738293, 21.104059797571768 ], [ -156.84488550596987, 21.104761016927657 ], [ -156.842946511750881, 21.105371193740211 ], [ -156.841714721806909, 21.10482398485949 ], [ -156.840628848352424, 21.104266853247477 ], [ -156.839128591677337, 21.103978265468239 ], [ -156.838277980475027, 21.103686178155783 ], [ -156.836827219683187, 21.103407065139812 ], [ -156.835329621641137, 21.102411541831845 ], [ -156.832240975505584, 21.101909200828608 ], [ -156.8329181840964, 21.101443085858637 ], [ -156.833679982306876, 21.101481132610957 ], [ -156.834504874451426, 21.100668192024038 ], [ -156.835138164566729, 21.101207806597596 ], [ -156.836188866118732, 21.102301603342685 ], [ -156.836843330522612, 21.102334297418178 ], [ -156.837146512797887, 21.102035495423326 ], [ -156.837723500656153, 21.102064287115265 ], [ -156.838016383495102, 21.101775670330635 ], [ -156.839073160315792, 21.101828434872576 ], [ -156.8394644432272, 21.100721158708989 ], [ -156.841222951400226, 21.100481238599446 ], [ -156.84118687753417, 21.099174052961665 ], [ -156.842395186200235, 21.099977202720169 ], [ -156.843386915655287, 21.098072194840135 ], [ -156.843693920428507, 21.098561327620718 ], [ -156.844383035739639, 21.099981326309749 ], [ -156.844679195648553, 21.100245696944825 ], [ -156.845439424701681, 21.101037176084674 ], [ -156.846700479900136, 21.101470035829877 ], [ -156.847623874896613, 21.101075245684605 ], [ -156.84718840982265, 21.099424331300856 ], [ -156.847323741666798, 21.097038535216971 ], [ -156.847468356796497, 21.096628826633665 ] ], [ [ -156.843364789312631, 21.100911446618891 ], [ -156.842935098752321, 21.101595853973283 ], [ -156.842327751022225, 21.101833912531568 ], [ -156.842061319317423, 21.102126578153584 ], [ -156.840278685350711, 21.102473747082591 ], [ -156.840352019614613, 21.103251070484703 ], [ -156.843032130201976, 21.104382647571178 ], [ -156.845356480617681, 21.104009795728334 ], [ -156.846268356881581, 21.103007803930684 ], [ -156.844636587403755, 21.101888420903105 ], [ -156.84393810572945, 21.101077219178393 ], [ -156.843364789312631, 21.100911446618891 ] ], [ [ -156.847097685991116, 21.102313515357249 ], [ -156.847188153812255, 21.102765498045422 ], [ -156.848631370751747, 21.10278699700606 ], [ -156.84787436494733, 21.102415450072286 ], [ -156.847097685991116, 21.102313515357249 ] ] ] } },
{ "type": "Feature", "properties": { "ID": 11, "GRIDCODE": 2 }, "geometry": { "type": "Polygon", "coordinates": [ [ [ -156.873426968158924, 21.098311053246512 ], [ -156.873795513249206, 21.098168438564119 ], [ -156.873552822504621, 21.097689552461119 ], [ -156.873426968158924, 21.098311053246512 ], [ -156.872987640749869, 21.098177751043565 ], [ -156.872225452704157, 21.097355405802169 ], [ -156.871674793290111, 21.097714668472705 ], [ -156.870675751872454, 21.098970902075997 ], [ -156.870383374667398, 21.098655425653476 ], [ -156.868670693222214, 21.098729679055396 ], [ -156.868653411128861, 21.098380088363502 ], [ -156.869460971836247, 21.097325714651866 ], [ -156.870112705486889, 21.095434770907193 ], [ -156.870473231687953, 21.095419191618117 ], [ -156.871196531358549, 21.096199384346686 ], [ -156.871705354217823, 21.095194823336648 ], [ -156.8729374434443, 21.095843418018454 ], [ -156.873475016318281, 21.095293755229548 ], [ -156.874957572322757, 21.095954869588304 ], [ -156.875898647827029, 21.096589477789099 ], [ -156.876661459206133, 21.096556435892929 ], [ -156.879374232091465, 21.097705585075229 ], [ -156.878777791454127, 21.098192487331875 ], [ -156.879037996683394, 21.099067130314442 ], [ -156.879580493737905, 21.099043622493131 ], [ -156.880192702478297, 21.099570910141381 ], [ -156.880644474955801, 21.101509433986287 ], [ -156.881347910730426, 21.100178932710094 ], [ -156.881951630046188, 21.098761722829483 ], [ -156.891687367056477, 21.102841055870634 ], [ -156.891206394963859, 21.104495572762893 ], [ -156.890781562651938, 21.10493001728112 ], [ -156.890231325337652, 21.10376417970804 ], [ -156.889335877868348, 21.103803036941823 ], [ -156.888277807736728, 21.102661825440702 ], [ -156.887166508865846, 21.103210736186789 ], [ -156.885473798407901, 21.103284214830502 ], [ -156.884773595225624, 21.102915651447042 ], [ -156.883894889037236, 21.102649100957954 ], [ -156.883528331272515, 21.102253609809733 ], [ -156.882285844204887, 21.102867258507835 ], [ -156.881906871440634, 21.101240791145997 ], [ -156.881108388399412, 21.102057089541965 ], [ -156.879580401200514, 21.101511472293272 ], [ -156.879310531105489, 21.100939650631126 ], [ -156.878778102943755, 21.101484236840498 ], [ -156.877549862940327, 21.100936532170977 ], [ -156.877609887870534, 21.10016511368628 ], [ -156.877310832778363, 21.099842156265971 ], [ -156.87699247664537, 21.099568035841173 ], [ -156.877075611766344, 21.098499918559693 ], [ -156.875866638286396, 21.098740356899075 ], [ -156.873999924244288, 21.099791273384657 ], [ -156.873000405741294, 21.099834561071656 ], [ -156.872971554326824, 21.099247499259935 ], [ -156.873284921261046, 21.098723334701592 ], [ -156.873426968158924, 21.098311053246512 ] ] ] } },
{ "type": "Feature", "properties": { "ID": 12, "GRIDCODE": 2 }, "geometry": { "type": "Polygon", "coordinates": [ [ [ -156.851240179930869, 21.095322051720867 ], [ -156.850867174166297, 21.09516664893437 ], [ -156.85113346987626, 21.094705034554199 ], [ -156.851240179930869, 21.095322051720867 ] ] ] } },
{ "type": "Feature", "properties": { "ID": 13, "GRIDCODE": 2 }, "geometry": { "type": "Polygon", "coordinates": [ [ [ -156.851240179930869, 21.095322051720867 ], [ -156.851919285504806, 21.095129712560343 ], [ -156.85229158616599, 21.093746470483847 ], [ -156.853697633615866, 21.09468102594133 ], [ -156.855023242251889, 21.094995051038854 ], [ -156.857190783094921, 21.096599062224943 ], [ -156.857120637999458, 21.094080610168565 ], [ -156.857488712763768, 21.092831174527436 ], [ -156.857451259357134, 21.091491950039227 ], [ -156.857973989647604, 21.091213076964973 ], [ -156.85922618392226, 21.092045237589264 ], [ -156.860148459549009, 21.09146661009725 ], [ -156.86373508876261, 21.092014923169287 ], [ -156.86411567676555, 21.093198007465837 ], [ -156.865703742957123, 21.093159003335881 ], [ -156.865063167056974, 21.096849715178681 ], [ -156.868131671958452, 21.094481738666779 ], [ -156.868500317599853, 21.097294193207716 ], [ -156.868071571655776, 21.098394864581302 ], [ -156.86691477590881, 21.09833731967402 ], [ -156.866981921397922, 21.097150084087456 ], [ -156.86521074442399, 21.097806958162188 ], [ -156.864163551054673, 21.097754743578712 ], [ -156.86375002257131, 21.096902890073331 ], [ -156.863822511373712, 21.095619683554016 ], [ -156.862352643646915, 21.095061158552252 ], [ -156.862428922471196, 21.09371079868745 ], [ -156.861231289944641, 21.093338254536388 ], [ -156.858973458209732, 21.093863120134241 ], [ -156.858604109878428, 21.095555839605517 ], [ -156.8582779080715, 21.095831904656752 ], [ -156.858322519551479, 21.097438969639509 ], [ -156.857364479443874, 21.09769726023293 ], [ -156.855702295068966, 21.09659254560659 ], [ -156.855106203848209, 21.096324399092083 ], [ -156.855124043421512, 21.096966615837466 ], [ -156.853364469204365, 21.096362678400247 ], [ -156.853389269879358, 21.097245745886863 ], [ -156.85336284284773, 21.097711194992467 ], [ -156.85276158385696, 21.09874335886559 ], [ -156.852129664666819, 21.098711806623928 ], [ -156.851240179930869, 21.095322051720867 ] ] ] } }
]
}
