{
"type": "FeatureCollection",
"name": "cyrlydg",
"crs": { "type": "name", "properties": { "name": "urn:ogc:def:crs:OGC:1.3:CRS84" } },
"features": [
{ "type": "Feature", "properties": { "ID": 1, "GRIDCODE": 2 }, "geometry": { "type": "Polygon", "coordinates": [ [ [ -156.803195134591476, 21.162435579930133 ], [ -156.803563896680942, 21.162293138675391 ], [ -156.803321357249501, 21.161814165645236 ], [ -156.803195134591476, 21.162435579930133 ], [ -156.800448039011854, 21.162548160949989 ], [ -156.799241226168334, 21.163078060900801 ], [ -156.79799397720717, 21.164262357326468 ], [ -156.79508241738651, 21.163689731143254 ], [ -156.789323385731961, 21.161653257468906 ], [ -156.784959767935561, 21.158745018789563 ], [ -156.781360069800598, 21.154606360015748 ], [ -156.778264713993934, 21.150191178666617 ], [ -156.77597168123296, 21.143842356301391 ], [ -156.774836460606593, 21.138245149612562 ], [ -156.775545039474736, 21.129409510508292 ], [ -156.776867133438145, 21.124614127264156 ], [ -156.781712610248604, 21.113954726270247 ], [ -156.785729571750949, 21.108616223664214 ], [ -156.789073168347187, 21.105891462315316 ], [ -156.793122781015853, 21.10357399185726 ], [ -156.812479907559634, 21.095140176951887 ], [ -156.824703182996899, 21.091362344990912 ], [ -156.836189595900834, 21.089411243887749 ], [ -156.844172020957899, 21.089035086439377 ], [ -156.851009117178563, 21.089514755379305 ], [ -156.866045926318208, 21.092591824945728 ], [ -156.876902926759783, 21.09664610904241 ], [ -156.891456312789217, 21.102751267478173 ], [ -156.903695690408512, 21.108945310971663 ], [ -156.912535954361346, 21.115413395399777 ], [ -156.916880952056289, 21.118495811895318 ], [ -156.921697477140242, 21.121891293599571 ], [ -156.933967386369773, 21.132482549701582 ], [ -156.934841957052612, 21.133291733927354 ], [ -156.944891140564465, 21.145226545994454 ], [ -156.946483508499483, 21.148682373132644 ], [ -156.946497754783422, 21.150471669924503 ], [ -156.946057602358877, 21.151690032625268 ], [ -156.941741111385369, 21.15579651067398 ], [ -156.939282291910644, 21.157500063358651 ], [ -156.937760459980552, 21.157510620753342 ], [ -156.936602276948719, 21.156966072647961 ], [ -156.935745391363639, 21.156173376833152 ], [ -156.935281120560433, 21.155299943090263 ], [ -156.933205039666831, 21.151148877954885 ], [ -156.928366440860771, 21.144024745263259 ], [ -156.925486923086964, 21.140279363003639 ], [ -156.922273659950264, 21.137058546210373 ], [ -156.91971258609729, 21.135066407617874 ], [ -156.917896114190768, 21.135009284731026 ], [ -156.916428490952853, 21.135436188870571 ], [ -156.915209156533592, 21.137587438458219 ], [ -156.914814265581725, 21.14162246732544 ], [ -156.915183352370633, 21.145255085078976 ], [ -156.915894483312201, 21.147744360205895 ], [ -156.917799512633508, 21.152552172747701 ], [ -156.919188019145423, 21.156526601459444 ], [ -156.920324595698332, 21.161397501714401 ], [ -156.919837119659405, 21.162654022850155 ], [ -156.918033757096993, 21.163208353876655 ], [ -156.915480676467212, 21.162794848736116 ], [ -156.913840304253455, 21.162023278754646 ], [ -156.911099618888784, 21.160148036460757 ], [ -156.908275896910794, 21.157864406366848 ], [ -156.90506903715945, 21.155916041260841 ], [ -156.902100123245759, 21.154921469934234 ], [ -156.900497103072979, 21.15459275254852 ], [ -156.898473872923262, 21.154302125653039 ], [ -156.89761432289032, 21.154014167028308 ], [ -156.896746943081098, 21.154280663851935 ], [ -156.894851476718031, 21.15468927611742 ], [ -156.892547399490894, 21.156387158627837 ], [ -156.890395745537802, 21.156401546182469 ], [ -156.888532246106877, 21.154175951340061 ], [ -156.88725294415309, 21.151768396706007 ], [ -156.887227554062633, 21.148409730089782 ], [ -156.888114048454895, 21.145958503683861 ], [ -156.88893593791164, 21.144421837719772 ], [ -156.891098037184406, 21.140609565246645 ], [ -156.892072865778744, 21.137228290717207 ], [ -156.891881001061563, 21.126688592774311 ], [ -156.890456798199693, 21.124367700378826 ], [ -156.88714932399327, 21.122203428502587 ], [ -156.884443419155474, 21.121648103321032 ], [ -156.881098393064633, 21.121542197019803 ], [ -156.876986740333734, 21.121867667700045 ], [ -156.874358803480789, 21.122433908428679 ], [ -156.871347946133653, 21.123985934479446 ], [ -156.869036805839812, 21.126433368136773 ], [ -156.867467548124495, 21.129607174981565 ], [ -156.866950976775257, 21.132638921404876 ], [ -156.867376524181566, 21.135318016042838 ], [ -156.871719890800165, 21.145764025514808 ], [ -156.872011077031885, 21.147195205940129 ], [ -156.871625418865733, 21.14915767401606 ], [ -156.871962249868261, 21.150177748932808 ], [ -156.873112082389582, 21.151639634962567 ], [ -156.873076573827603, 21.152624799337133 ], [ -156.873783599723112, 21.153279317757029 ], [ -156.87445537839767, 21.156580538084839 ], [ -156.874479789346339, 21.15984815695553 ], [ -156.873281789129464, 21.162087545211872 ], [ -156.872156201202785, 21.16261364958633 ], [ -156.870595724290581, 21.162623838796485 ], [ -156.868966562847504, 21.160989806892328 ], [ -156.865937865374832, 21.1601260779981 ], [ -156.864046769794754, 21.160476379998901 ], [ -156.860361559772571, 21.162198606809074 ], [ -156.858940442819119, 21.162207872038493 ], [ -156.857352648349803, 21.162157336594962 ], [ -156.855186282568241, 21.162171347298226 ], [ -156.852632908945822, 21.16208999873766 ], [ -156.847544002516543, 21.163951390507187 ], [ -156.843363741502998, 21.163518535616625 ], [ -156.842052875340158, 21.162304626950856 ], [ -156.842048206436374, 21.161654118378333 ], [ -156.843803858122612, 21.157047828168785 ], [ -156.843978510926718, 21.152233191726122 ], [ -156.843531701547249, 21.147817677066001 ], [ -156.842325789688459, 21.143397445422675 ], [ -156.840610736661148, 21.139612168398852 ], [ -156.836643322817253, 21.136183789111353 ], [ -156.836365453056686, 21.135627415785049 ], [ -156.835247786585313, 21.13563449137877 ], [ -156.834634128023851, 21.135345337700851 ], [ -156.834359006073413, 21.134794552833068 ], [ -156.833779802279537, 21.134521645284323 ], [ -156.83350074684472, 21.134241729813873 ], [ -156.831796200917978, 21.133438696039445 ], [ -156.830268912633926, 21.131579635077781 ], [ -156.829099063648272, 21.13102855317258 ], [ -156.828106115084097, 21.129039609447801 ], [ -156.827521000287703, 21.128497472619991 ], [ -156.827515094084987, 21.127683776406261 ], [ -156.828119671612455, 21.126618896302588 ], [ -156.827543314197214, 21.12657935805144 ], [ -156.826966968392526, 21.12684857174272 ], [ -156.826348001126917, 21.127120543353829 ], [ -156.82664831832588, 21.129943792191437 ], [ -156.826613113800477, 21.130907699141911 ], [ -156.826903865160688, 21.131177059690085 ], [ -156.827171054837009, 21.132269592672888 ], [ -156.828311775617465, 21.132807085894935 ], [ -156.828317741034965, 21.133636193983239 ], [ -156.828278588423899, 21.134716726562772 ], [ -156.828869544641606, 21.134995160560052 ], [ -156.829144645710471, 21.135545952627542 ], [ -156.82988337143604, 21.136599089017686 ], [ -156.828599461131802, 21.138860443466157 ], [ -156.828017502056895, 21.141948448622387 ], [ -156.827320793226477, 21.143872322756298 ], [ -156.82614320114854, 21.145507983918602 ], [ -156.824661393544176, 21.14632518027339 ], [ -156.821856925242543, 21.146928502164975 ], [ -156.819747393617376, 21.147855237882961 ], [ -156.818543409146713, 21.14997551752354 ], [ -156.818848902896377, 21.15387919923867 ], [ -156.820870495007313, 21.158522839511676 ], [ -156.821574228748062, 21.159560482602501 ], [ -156.822805001531094, 21.16112630838284 ], [ -156.8238334950465, 21.163063690795653 ], [ -156.823411606036899, 21.165354124817746 ], [ -156.82238389729352, 21.166330314087741 ], [ -156.820899218009998, 21.166595664144516 ], [ -156.817048560964281, 21.16686684923506 ], [ -156.815091726377858, 21.167726288813391 ], [ -156.812785019444618, 21.16880341481794 ], [ -156.807945645397922, 21.16940288418408 ], [ -156.804427403408596, 21.16900939226192 ], [ -156.802425758794584, 21.167740983689448 ], [ -156.801706790209664, 21.166386384922689 ], [ -156.802742775944381, 21.163922452300696 ], [ -156.803195134591476, 21.162435579930133 ] ], [ [ -156.866418114912506, 21.103912438255104 ], [ -156.865878239619519, 21.105092265277712 ], [ -156.865182261724783, 21.104313319558493 ], [ -156.864360988059673, 21.10527674485591 ], [ -156.865083112151211, 21.105666699730584 ], [ -156.866664050112348, 21.106352677393808 ], [ -156.868623541190487, 21.107915710844882 ], [ -156.870694637714308, 21.107785778139419 ], [ -156.872455598960727, 21.108307548056022 ], [ -156.874326355641159, 21.109119066759803 ], [ -156.87618117366668, 21.110120862041867 ], [ -156.876306005964295, 21.109868564648398 ], [ -156.876267020180279, 21.109319210468552 ], [ -156.876321946103729, 21.108768387404499 ], [ -156.875147729126752, 21.108502452269075 ], [ -156.874888486604306, 21.107937239663041 ], [ -156.874269480765548, 21.107668603283248 ], [ -156.874380318062919, 21.106557975901723 ], [ -156.872884177755139, 21.106922179530049 ], [ -156.872554196782772, 21.105841341844194 ], [ -156.871305776202576, 21.106648632251147 ], [ -156.870581670588166, 21.106257619258862 ], [ -156.869697835592405, 21.105995693459814 ], [ -156.869170106633362, 21.104844898253507 ], [ -156.867301930505903, 21.10417437969447 ], [ -156.866418114912506, 21.103912438255104 ] ], [ [ -156.862380784940314, 21.103590643020894 ], [ -156.862501431977591, 21.104399517215171 ], [ -156.863328708397773, 21.105065434689021 ], [ -156.862993530021839, 21.103742298833684 ], [ -156.862380784940314, 21.103590643020894 ] ] ] } },
{ "type": "Feature", "properties": { "ID": 2, "GRIDCODE": 1 }, "geometry": { "type": "Polygon", "coordinates": [ [ [ -156.190528740048705, 20.880375199887453 ], [ -156.190934416977228, 20.880669226850731 ], [ -156.190128598970261, 20.881265476689563 ], [ -156.190528740048705, 20.880375199887453 ] ] ] } },
{ "type": "Feature", "properties": { "ID": 3, "GRIDCODE": 1 }, "geometry": { "type": "Polygon", "coordinates": [ [ [ -156.182871812167235, 20.873749303931024 ], [ -156.183243434339886, 20.87390604886232 ], [ -156.182975673971612, 20.874366460206648 ], [ -156.182871812167235, 20.873749303931024 ] ] ] } },
{ "type": "Feature", "properties": { "ID": 4, "GRIDCODE": 1 }, "geometry": { "type": "Polygon", "coordinates": [ [ [ -156.16332582532894, 20.855822512737422 ], [ -156.162942295538926, 20.856453674191457 ], [ -156.162680667625835, 20.855941803894332 ], [ -156.16332582532894, 20.855822512737422 ] ] ] } },
{ "type": "Feature", "properties": { "ID": 5, "GRIDCODE": 2 }, "geometry": { "type": "Polygon", "coordinates": [ [ [ -156.598572452013627, 20.847586931134543 ], [ -156.599586979461236, 20.847728937757914 ], [ -156.601002393124759, 20.848305916825758 ], [ -156.604957039714833, 20.848710634326771 ], [ -156.605579762226967, 20.850421708276262 ], [ -156.60511029633048, 20.851508380445516 ], [ -156.600930813861737, 20.854467655975267 ], [ -156.598431795466212, 20.854849129495058 ], [ -156.597494555704742, 20.854037970329802 ], [ -156.595798563809893, 20.850378102122292 ], [ -156.596197530512285, 20.848896958636796 ], [ -156.597837680345663, 20.847975291775438 ], [ -156.598434283090086, 20.847728112079292 ], [ -156.598572452013627, 20.847586931134543 ] ] ] } },
{ "type": "Feature", "properties": { "ID": 6, "GRIDCODE": 1 }, "geometry": { "type": "Polygon", "coordinates": [ [ [ -156.127451498433402, 20.833287597690518 ], [ -156.127346521757886, 20.833616028820497 ], [ -156.127098768462702, 20.833374376649267 ], [ -156.127451498433402, 20.833287597690518 ] ] ] } },
{ "type": "Feature", "properties": { "ID": 7, "GRIDCODE": 2 }, "geometry": { "type": "Polygon", "coordinates": [ [ [ -156.55467584382211, 20.835588103631533 ], [ -156.555396714321319, 20.835731195305712 ], [ -156.556843631672194, 20.836307115451831 ], [ -156.557613541648749, 20.837858120997193 ], [ -156.55788163320176, 20.843808284629109 ], [ -156.558720532153785, 20.845010417699513 ], [ -156.562999431634609, 20.846790375909766 ], [ -156.567717249247437, 20.84916058110867 ], [ -156.570220676946235, 20.849656971913465 ], [ -156.57193479877094, 20.849132505577423 ], [ -156.573341473324149, 20.848265047851356 ], [ -156.574644873172389, 20.847887634149789 ], [ -156.575997453528117, 20.848234034512 ], [ -156.577106625537681, 20.849352487118448 ], [ -156.577039503885004, 20.851135482722416 ], [ -156.576104357759192, 20.854785100261342 ], [ -156.576117694143761, 20.857148052609311 ], [ -156.577786696190117, 20.859075207090893 ], [ -156.579042066327105, 20.860718063871548 ], [ -156.584772535410508, 20.863432067056159 ], [ -156.596409170719937, 20.863943057001539 ], [ -156.603949691260198, 20.86269436814737 ], [ -156.606903142120217, 20.862470105590194 ], [ -156.609883245766099, 20.863087424580673 ], [ -156.611755213851609, 20.864190411425149 ], [ -156.614753823074324, 20.868631686130261 ], [ -156.615106679220304, 20.869707894389467 ], [ -156.615057712096643, 20.871008920148636 ], [ -156.614088991992276, 20.871858230281614 ], [ -156.610594200773505, 20.872448977141961 ], [ -156.608602150721111, 20.873378526043577 ], [ -156.607281032327393, 20.874632911691887 ], [ -156.606824904488917, 20.876666712394716 ], [ -156.60776863329184, 20.878803304527185 ], [ -156.609522340313049, 20.880434693951564 ], [ -156.611124941337323, 20.881193331750172 ], [ -156.612316692855558, 20.882069761014758 ], [ -156.613040180944012, 20.883525881647127 ], [ -156.612422040318222, 20.88566061045459 ], [ -156.613156530429876, 20.889305617449576 ], [ -156.615611500016058, 20.89438441454519 ], [ -156.618821095954729, 20.906025365695864 ], [ -156.621746079624472, 20.91959814714971 ], [ -156.622256976660225, 20.926350438422354 ], [ -156.622321325963128, 20.940517587618238 ], [ -156.61819760000526, 20.955530335728898 ], [ -156.615037741034371, 20.961514356055105 ], [ -156.613855891941455, 20.962549512024154 ], [ -156.61184191755774, 20.963132397722358 ], [ -156.608020761542974, 20.969760138101112 ], [ -156.607298671495016, 20.97039270804293 ], [ -156.601829717749496, 20.972409930732596 ], [ -156.598601306487581, 20.973101067061503 ], [ -156.596421907130406, 20.973660257165388 ], [ -156.59473625363708, 20.973902062203596 ], [ -156.591537359994248, 20.972502403508201 ], [ -156.590591808875416, 20.972223431050661 ], [ -156.586287727857268, 20.974229488145642 ], [ -156.583771894824366, 20.974653853041332 ], [ -156.579651236663608, 20.974199196499718 ], [ -156.573401827803821, 20.972403731456215 ], [ -156.568049451781263, 20.968217920651863 ], [ -156.566489254740958, 20.966645577844588 ], [ -156.5647564310691, 20.962327228893852 ], [ -156.563958771479122, 20.961184793969931 ], [ -156.561889941269868, 20.960679699437872 ], [ -156.557976801831614, 20.961194407229183 ], [ -156.55385124169527, 20.961400830277793 ], [ -156.550673712323061, 20.959805004286103 ], [ -156.54782113808983, 20.957421382757556 ], [ -156.545457476833917, 20.951072492980039 ], [ -156.545202208397598, 20.948768017217436 ], [ -156.54598274564168, 20.946078870982117 ], [ -156.548395638060271, 20.942595379916394 ], [ -156.549437154814967, 20.939730339725241 ], [ -156.550007708087605, 20.936647292146667 ], [ -156.549450999852354, 20.934468902731801 ], [ -156.54794541629272, 20.93306770871467 ], [ -156.54515176345663, 20.933474199599438 ], [ -156.540754390136669, 20.937129834904837 ], [ -156.538418960635909, 20.937611724768104 ], [ -156.537289026324089, 20.936472462584714 ], [ -156.537412399436562, 20.933233557598722 ], [ -156.538304055423424, 20.929759720357382 ], [ -156.538668724731338, 20.92813782467525 ], [ -156.53835596962162, 20.926238975061747 ], [ -156.538114051996956, 20.923744487577522 ], [ -156.538828589376863, 20.921283106427644 ], [ -156.54106194464029, 20.919776757615921 ], [ -156.54228269219945, 20.918933936582278 ], [ -156.542836988680961, 20.916659101491476 ], [ -156.541983293469713, 20.914591100009805 ], [ -156.542045400621674, 20.912957953898612 ], [ -156.542928254885567, 20.911406193950288 ], [ -156.543459885208193, 20.910415615353486 ], [ -156.543860946896842, 20.906897757144403 ], [ -156.542908014788054, 20.901574401733715 ], [ -156.541539610490929, 20.898981299534558 ], [ -156.538175446198863, 20.895849415593187 ], [ -156.536483899585193, 20.893780169039573 ], [ -156.53604485550855, 20.891585068006041 ], [ -156.537622122288724, 20.889805256165872 ], [ -156.541365345473508, 20.887390101722954 ], [ -156.545497374280387, 20.885811350746092 ], [ -156.548013426031332, 20.885474204370432 ], [ -156.550992392931931, 20.886237519513116 ], [ -156.553108884859427, 20.887714332238762 ], [ -156.554641099269531, 20.888440333928806 ], [ -156.557257666016255, 20.888851946775418 ], [ -156.562256931584983, 20.887636085103342 ], [ -156.565742395672402, 20.885487569688035 ], [ -156.569815195454282, 20.88209922090158 ], [ -156.571670205189349, 20.87761634230343 ], [ -156.572148459675788, 20.873990184263288 ], [ -156.571820056914362, 20.870851627831449 ], [ -156.571147089541739, 20.868907874554843 ], [ -156.569420578765119, 20.867808513799638 ], [ -156.567337928051046, 20.86682192556588 ], [ -156.558003572042367, 20.866384155660565 ], [ -156.554235420385737, 20.867536744770486 ], [ -156.549976808354444, 20.871924404062483 ], [ -156.547101121904774, 20.873363267925605 ], [ -156.542563966289379, 20.873742542990222 ], [ -156.537346966605924, 20.873109443705093 ], [ -156.534288565264717, 20.87247452659469 ], [ -156.533738402699868, 20.871365725587474 ], [ -156.534552372140041, 20.867537322840068 ], [ -156.535027155459176, 20.86629661294041 ], [ -156.536781291644246, 20.86552761350675 ], [ -156.539347810162525, 20.865613759749127 ], [ -156.542342081970361, 20.865599405938788 ], [ -156.551783326933759, 20.860401303784286 ], [ -156.552861765557935, 20.859378020486375 ], [ -156.553398004340409, 20.856989624989243 ], [ -156.553374882932104, 20.852801106476576 ], [ -156.551658761682404, 20.850818971824264 ], [ -156.547249579283942, 20.849110803224686 ], [ -156.545656521337122, 20.848310222785393 ], [ -156.545134144006965, 20.84666735497213 ], [ -156.546906198318595, 20.844012586864217 ], [ -156.548120453772555, 20.842069220478901 ], [ -156.548834131621192, 20.840104259192884 ], [ -156.549330453711946, 20.838805466409291 ], [ -156.549910906472633, 20.837784583274811 ], [ -156.552714479095783, 20.836113369124607 ], [ -156.554532385998442, 20.835724144910095 ], [ -156.55467584382211, 20.835588103631533 ] ], [ [ -156.578287665672519, 20.908522618235789 ], [ -156.578088236511348, 20.908879566458012 ], [ -156.577273962748279, 20.909252261783106 ], [ -156.577014274239389, 20.909977521088074 ], [ -156.577777657409399, 20.910231730461149 ], [ -156.578631787689972, 20.908692440105202 ], [ -156.578287665672519, 20.908522618235789 ] ], [ [ -156.589991407361651, 20.879702668158501 ], [ -156.589867232746769, 20.879282011865783 ], [ -156.589485765875907, 20.878633394417005 ], [ -156.589639788192443, 20.877395647635307 ], [ -156.591001740527332, 20.874261871262426 ], [ -156.592582199302825, 20.873644064970161 ], [ -156.592494312784822, 20.872694699386809 ], [ -156.592595341845453, 20.871883440359476 ], [ -156.592556930707275, 20.871467828895945 ], [ -156.593175167057979, 20.870487662807591 ], [ -156.59319387707788, 20.870143620986759 ], [ -156.590146083361077, 20.871314561920201 ], [ -156.589686967068587, 20.87226997446307 ], [ -156.58935533906967, 20.875236528106765 ], [ -156.588327203024619, 20.877311133300587 ], [ -156.588767139231578, 20.878880793753101 ], [ -156.589991407361651, 20.879702668158501 ], [ -156.590081820376639, 20.882555993124871 ], [ -156.590373597306694, 20.883357442610635 ], [ -156.590678476994896, 20.884678508917272 ], [ -156.590605556010161, 20.88559650722345 ], [ -156.588296953655998, 20.886553075382668 ], [ -156.586098348533881, 20.886843323662603 ], [ -156.585693186000782, 20.88764101859261 ], [ -156.584923860769692, 20.888643613382737 ], [ -156.582925715713174, 20.888964824313778 ], [ -156.581197856573709, 20.888843553664415 ], [ -156.579472248589838, 20.888915678106262 ], [ -156.577881752301238, 20.889426723677239 ], [ -156.576627799832806, 20.889682217299505 ], [ -156.575563196405852, 20.890206516953345 ], [ -156.574602235324164, 20.890604639106986 ], [ -156.573064278566818, 20.88956220170861 ], [ -156.572346117584146, 20.889916009468287 ], [ -156.571794953657729, 20.891507462253728 ], [ -156.571280343625062, 20.89236612374204 ], [ -156.569295859859096, 20.893512861946579 ], [ -156.567390193657587, 20.894937405973632 ], [ -156.564223988659819, 20.895240296651849 ], [ -156.561048638078233, 20.894663138398084 ], [ -156.561140725266455, 20.896611331613119 ], [ -156.560268154362888, 20.898066933564859 ], [ -156.563671272814929, 20.8975485944217 ], [ -156.569276036685068, 20.898028025486951 ], [ -156.569949409096523, 20.897696348168747 ], [ -156.572391085856538, 20.897303962251399 ], [ -156.573698038898414, 20.897765636573574 ], [ -156.573998330955447, 20.897753235313889 ], [ -156.575006895042492, 20.898109475297293 ], [ -156.576761138049875, 20.89745290944871 ], [ -156.579155461868822, 20.897887902205735 ], [ -156.580311457582951, 20.898671452843345 ], [ -156.581437028883101, 20.899176134920531 ], [ -156.581739464627447, 20.899504348967483 ], [ -156.583029498370792, 20.900463056200206 ], [ -156.583266617282845, 20.901389268271853 ], [ -156.583716352040511, 20.900923290040225 ], [ -156.583029498370792, 20.900463056200206 ], [ -156.583260322170048, 20.899796764728567 ], [ -156.583764817379432, 20.900059450010385 ], [ -156.584299705301277, 20.900639353776207 ], [ -156.584986387265133, 20.901233703693123 ], [ -156.585512218691889, 20.902678796214577 ], [ -156.585352187913827, 20.904691027835032 ], [ -156.586568907491227, 20.904975150266125 ], [ -156.587621082537879, 20.905531800495332 ], [ -156.588263749865092, 20.905113375620498 ], [ -156.588671357897283, 20.903936622602636 ], [ -156.588919311008681, 20.904891950306382 ], [ -156.588844271834915, 20.905834649267693 ], [ -156.590066714407158, 20.906589716223799 ], [ -156.591015679534138, 20.908039577296925 ], [ -156.591746187352072, 20.90800900926628 ], [ -156.591636995626573, 20.909380980001796 ], [ -156.592560753523912, 20.908867564460795 ], [ -156.593139573249431, 20.908039897695716 ], [ -156.594608202594628, 20.909142709207462 ], [ -156.594555517085098, 20.908033395005383 ], [ -156.59547426589981, 20.908097788432766 ], [ -156.595447700460369, 20.907539226006392 ], [ -156.595889819586148, 20.907179189347861 ], [ -156.594554350200667, 20.90494760338251 ], [ -156.592661144488147, 20.902579448845493 ], [ -156.593989722016232, 20.902699093190638 ], [ -156.595908848614556, 20.90388429260863 ], [ -156.597492356850012, 20.905073613951117 ], [ -156.597530756309396, 20.904589508396214 ], [ -156.596994007298463, 20.903627480185531 ], [ -156.596962206531401, 20.902955354068006 ], [ -156.597687826768436, 20.902364119415957 ], [ -156.597265770509779, 20.90160740489037 ], [ -156.597878183438638, 20.901353722592713 ], [ -156.597289043488587, 20.900535268136359 ], [ -156.597324599354749, 20.900088158635722 ], [ -156.595441858759614, 20.899377421405148 ], [ -156.5958962126698, 20.898619018342831 ], [ -156.595878692108784, 20.898252245300217 ], [ -156.598282138321281, 20.898420706587963 ], [ -156.596916043958288, 20.897459450845819 ], [ -156.595941683264158, 20.895712710100089 ], [ -156.596333466826223, 20.895594151262021 ], [ -156.597229540806865, 20.895787307925836 ], [ -156.597323070806993, 20.896118907529058 ], [ -156.597579313858688, 20.895884949820882 ], [ -156.597229540806865, 20.895787307925836 ], [ -156.597100193097532, 20.895371476101662 ], [ -156.596804049051457, 20.89484086657885 ], [ -156.596517897849026, 20.894230901567251 ], [ -156.595404122608983, 20.893267102052512 ], [ -156.596837423129756, 20.893593875063267 ], [ -156.599207761508893, 20.894847809399391 ], [ -156.600322711869183, 20.894925905841603 ], [ -156.599121827345272, 20.893507871226291 ], [ -156.599987826207695, 20.893149013193138 ], [ -156.599274284104013, 20.891869965597145 ], [ -156.600322569546137, 20.891943419944162 ], [ -156.602621313050577, 20.891573578531677 ], [ -156.600912945017598, 20.889496199079147 ], [ -156.600213068826577, 20.889447086967422 ], [ -156.599548001734718, 20.889474914584223 ], [ -156.598346541443135, 20.888732782750541 ], [ -156.596760917358665, 20.88701396465164 ], [ -156.595798878706546, 20.886582585062808 ], [ -156.596077745042521, 20.886146701936891 ], [ -156.597638811721197, 20.885321843319318 ], [ -156.597255026308062, 20.884267659359715 ], [ -156.600724911143118, 20.8839349281178 ], [ -156.600464219124632, 20.883228503168787 ], [ -156.600150171698488, 20.882956903154099 ], [ -156.602277463118725, 20.88243808908825 ], [ -156.599892818313691, 20.881881351194718 ], [ -156.59774966844995, 20.881309457166761 ], [ -156.596037472340072, 20.882506526381317 ], [ -156.595493175063126, 20.883578345947818 ], [ -156.594258441377207, 20.884186487536311 ], [ -156.592683352438399, 20.883119095366393 ], [ -156.591048257252368, 20.882109176745903 ], [ -156.590412874899954, 20.880067463629093 ], [ -156.589991407361651, 20.879702668158501 ] ], [ [ -156.559475350725734, 20.895252154090123 ], [ -156.559373133411725, 20.89542806745018 ], [ -156.558806877208468, 20.895698140003844 ], [ -156.559114239441385, 20.896153174288322 ], [ -156.560148949548704, 20.895394177197094 ], [ -156.559475350725734, 20.895252154090123 ] ] ] } },
{ "type": "Feature", "properties": { "ID": 8, "GRIDCODE": 2 }, "geometry": { "type": "Polygon", "coordinates": [ [ [ -156.866292371674746, 20.807784310524653 ], [ -156.868570635406172, 20.80797404445789 ], [ -156.872624383321096, 20.81025537069862 ], [ -156.881678400522844, 20.818295667224639 ], [ -156.885746889265846, 20.820684716174025 ], [ -156.888727405406883, 20.822175101124163 ], [ -156.890719773545811, 20.822584346369609 ], [ -156.894027992572376, 20.82306015022731 ], [ -156.896521318634086, 20.824969082577244 ], [ -156.897550293045327, 20.826908835638346 ], [ -156.897574856910438, 20.830044896305704 ], [ -156.897020982223239, 20.83253805175401 ], [ -156.895770241018539, 20.834281534678109 ], [ -156.893601636076966, 20.835077611440845 ], [ -156.886421704566231, 20.834397014880864 ], [ -156.882811699426668, 20.831698635864015 ], [ -156.877285515794881, 20.827097242172659 ], [ -156.87454123892536, 20.82590129507939 ], [ -156.870968995401967, 20.825491419374508 ], [ -156.865062124780081, 20.819131016403755 ], [ -156.863721685420813, 20.816602753962847 ], [ -156.864259359772433, 20.810838753049339 ], [ -156.865218051759456, 20.809041733980212 ], [ -156.866292371674746, 20.807784310524653 ] ] ] } },
{ "type": "Feature", "properties": { "ID": 9, "GRIDCODE": 1 }, "geometry": { "type": "Polygon", "coordinates": [ [ [ -156.199772499283313, 20.87917275219451 ], [ -156.200125317360914, 20.879085831047863 ], [ -156.199877368653603, 20.87884426367911 ], [ -156.199772499283313, 20.87917275219451 ], [ -156.198658260142224, 20.878981918580802 ], [ -156.197709391940577, 20.879645686829743 ], [ -156.197320436301709, 20.880102549701544 ], [ -156.197002232102079, 20.880052898331474 ], [ -156.196738240333417, 20.880630032487282 ], [ -156.196337901082956, 20.881229790597629 ], [ -156.196778018540073, 20.882746277109721 ], [ -156.196172997139001, 20.882820192428447 ], [ -156.195263257895419, 20.882466727241297 ], [ -156.194366245967103, 20.882216085427086 ], [ -156.193825654031116, 20.881897369422436 ], [ -156.192743391012186, 20.882029556045065 ], [ -156.192648877623213, 20.881346302729167 ], [ -156.193281244095488, 20.880573295017886 ], [ -156.193547940014298, 20.879730275666283 ], [ -156.194061466021225, 20.87896113105435 ], [ -156.193341181712896, 20.879286915435134 ], [ -156.192516926893092, 20.880255000845274 ], [ -156.191237607837422, 20.879998063795156 ], [ -156.19099522783219, 20.879412618529589 ], [ -156.190021853375185, 20.879531635770356 ], [ -156.189432383405318, 20.879088326913557 ], [ -156.188970922120347, 20.877498349146226 ], [ -156.189684198909077, 20.876626711545676 ], [ -156.189507354533646, 20.875348079940615 ], [ -156.189742369647604, 20.87401525648454 ], [ -156.189322498292142, 20.874515099278248 ], [ -156.189007439778152, 20.875204313524865 ], [ -156.186974160697986, 20.875452670084758 ], [ -156.186431062589207, 20.8750441019221 ], [ -156.185985940245018, 20.874482159623572 ], [ -156.184756144207256, 20.874138319602277 ], [ -156.185293869772352, 20.873642016785265 ], [ -156.186913373565858, 20.87282445188313 ], [ -156.187346352114901, 20.872315970805975 ], [ -156.188693727430916, 20.871467725684575 ], [ -156.18897163172042, 20.871141429451502 ], [ -156.189324433778438, 20.871054529131769 ], [ -156.189076515939092, 20.870812949332009 ], [ -156.18897163172042, 20.871141429451502 ], [ -156.18823319632952, 20.87124975778066 ], [ -156.186233133945422, 20.872059223387517 ], [ -156.185044317102978, 20.872280594902286 ], [ -156.183863906050277, 20.872684851991494 ], [ -156.183925819308939, 20.872277117838191 ], [ -156.183879661398464, 20.871870116064819 ], [ -156.183940964539886, 20.871464884351592 ], [ -156.18389480655452, 20.871057882572025 ], [ -156.183993364994024, 20.870405182007381 ], [ -156.183536951913624, 20.870344239127416 ], [ -156.182311799479038, 20.872166948507328 ], [ -156.181889445532505, 20.871652847045286 ], [ -156.181180684723842, 20.871723944854359 ], [ -156.180749533522146, 20.871666320019685 ], [ -156.17966186878607, 20.871775198642673 ], [ -156.179236893951924, 20.870678797053461 ], [ -156.179764160951748, 20.869868666917544 ], [ -156.179022212563154, 20.869442120128621 ], [ -156.178291192331415, 20.869515352106511 ], [ -156.17804983171601, 20.867387600703843 ], [ -156.179127617595469, 20.866796420406445 ], [ -156.179394270121264, 20.866229278890881 ], [ -156.179844630214603, 20.866116236376048 ], [ -156.179937204540096, 20.866447965830641 ], [ -156.180193963445362, 20.866214697299977 ], [ -156.179844630214603, 20.866116236376048 ], [ -156.179679713758958, 20.865484451912366 ], [ -156.178559387253046, 20.866259806065862 ], [ -156.177827739708505, 20.866111393621377 ], [ -156.176972162898153, 20.866255562004959 ], [ -156.176545100083189, 20.864052938547015 ], [ -156.175955503421164, 20.864810985708036 ], [ -156.175501990714451, 20.865860353316982 ], [ -156.174267598477769, 20.86606846970416 ], [ -156.17397629703882, 20.865319942086565 ], [ -156.173367302426357, 20.86454209585246 ], [ -156.172661114367855, 20.863349790404094 ], [ -156.171155793929927, 20.863902385532636 ], [ -156.172197534920542, 20.862665986934886 ], [ -156.171971520385767, 20.861481883040444 ], [ -156.172489391570792, 20.859760227346264 ], [ -156.173045573651507, 20.858968050588278 ], [ -156.173371408697818, 20.857884576839581 ], [ -156.174027982671248, 20.857786988851586 ], [ -156.173538321605122, 20.857535313784879 ], [ -156.173371408697818, 20.857884576839581 ], [ -156.172921071321753, 20.857997604630832 ], [ -156.172021229748452, 20.859336859798553 ], [ -156.171748108325403, 20.859091404196814 ], [ -156.171512966349439, 20.857974326771124 ], [ -156.170945015001564, 20.857531190183973 ], [ -156.171501167509746, 20.856890828385819 ], [ -156.171825772656689, 20.856655255532885 ], [ -156.172320983943933, 20.85423354555487 ], [ -156.173100792713569, 20.853939637411436 ], [ -156.174465366323858, 20.851999745742059 ], [ -156.174785906947591, 20.850716100321236 ], [ -156.175398513983367, 20.850485273827154 ], [ -156.176238353822981, 20.849235453499222 ], [ -156.177490111196789, 20.84768245212987 ], [ -156.17742636154415, 20.847118455836842 ], [ -156.177487663092563, 20.846713226240084 ], [ -156.177456263148997, 20.846435930435625 ], [ -156.177836914214737, 20.845260777369269 ], [ -156.177326658215662, 20.844064055366548 ], [ -156.175897616846186, 20.843872933319428 ], [ -156.175738723921938, 20.844923997218199 ], [ -156.175859254146189, 20.845987606378316 ], [ -156.174558596480949, 20.847462428227441 ], [ -156.174086584766656, 20.848466001985024 ], [ -156.172441108368673, 20.848878912844803 ], [ -156.171046705868804, 20.850383493360749 ], [ -156.170486971914613, 20.851216601665108 ], [ -156.169874356536184, 20.851447409335918 ], [ -156.16961277220409, 20.851743793975356 ], [ -156.169126160828341, 20.852097020523686 ], [ -156.16857309967483, 20.852723144937325 ], [ -156.167241583868162, 20.853570442377062 ], [ -156.166912216453738, 20.854585607706102 ], [ -156.165824096868477, 20.854995509248528 ], [ -156.165169561245904, 20.856515194515907 ], [ -156.164840702956269, 20.857831998261187 ], [ -156.16337116610967, 20.857979148503862 ], [ -156.163875604347822, 20.856422734527651 ], [ -156.163483612048225, 20.855945598358584 ], [ -156.16332582532894, 20.855822512737422 ], [ -156.163466960425723, 20.855408566174994 ], [ -156.165251666055667, 20.853562475623342 ], [ -156.165558956781126, 20.852944854843024 ], [ -156.166136039887306, 20.852493826820904 ], [ -156.166423360142204, 20.851395185036424 ], [ -156.167722270547472, 20.850380070442192 ], [ -156.168197121072154, 20.848987122367703 ], [ -156.168681948648924, 20.848202768839521 ], [ -156.167338145087797, 20.848702079675302 ], [ -156.166837875818487, 20.849228968242532 ], [ -156.165897401396137, 20.849284274054146 ], [ -156.164719163104309, 20.849175626306295 ], [ -156.164012806337695, 20.849919267843802 ], [ -156.163589624675552, 20.84944069065816 ], [ -156.162716496553656, 20.850360083500938 ], [ -156.161843370442767, 20.850799180859724 ], [ -156.161264499751269, 20.850745807006984 ], [ -156.160677730674507, 20.851592446372507 ], [ -156.160372707385903, 20.851564242612135 ], [ -156.159241376066262, 20.852133129186164 ], [ -156.158412530673104, 20.852056552324424 ], [ -156.158050449107549, 20.852339610809093 ], [ -156.157515926034193, 20.853414025094033 ], [ -156.157174183989298, 20.852884552215158 ], [ -156.157313831972971, 20.851547830443671 ], [ -156.155376332499458, 20.8521803887079 ], [ -156.154333698761178, 20.851459016674362 ], [ -156.152757533509941, 20.852251610299675 ], [ -156.15258286263159, 20.851083690053763 ], [ -156.153927297675523, 20.847923228147941 ], [ -156.155065627054, 20.848028243789923 ], [ -156.154665339924748, 20.846693656023913 ], [ -156.153707962374909, 20.846272823195445 ], [ -156.15456962846153, 20.845365719001961 ], [ -156.155268061225115, 20.844819947218564 ], [ -156.155709075633382, 20.843749802249182 ], [ -156.155343048457723, 20.843106728758997 ], [ -156.154357217269933, 20.8404008869305 ], [ -156.153430231816486, 20.839622858253723 ], [ -156.154408958256823, 20.838592467996168 ], [ -156.154880079856241, 20.838224214036426 ], [ -156.155748509225532, 20.8368644273373 ], [ -156.156493920470297, 20.835912132878946 ], [ -156.154484238129015, 20.835726668487172 ], [ -156.152827085821258, 20.835824082170632 ], [ -156.152066787966561, 20.834636636134132 ], [ -156.151609827198229, 20.834252950278341 ], [ -156.151028058475362, 20.833595173771609 ], [ -156.149723025192429, 20.83425156791602 ], [ -156.148634366736729, 20.833337796464662 ], [ -156.148923494244201, 20.832146919552269 ], [ -156.149363949430523, 20.831434748373436 ], [ -156.148519133481528, 20.830973057976692 ], [ -156.147438434987521, 20.831817642810847 ], [ -156.147540130769499, 20.833347472339593 ], [ -156.146518343761471, 20.834423387784913 ], [ -156.145387960190334, 20.834991809911273 ], [ -156.144845441160101, 20.834536463044877 ], [ -156.144351783736511, 20.833444943571951 ], [ -156.143709221059936, 20.833684946844166 ], [ -156.14343712375711, 20.8339713288517 ], [ -156.142769860068853, 20.834238024666071 ], [ -156.142269860166607, 20.8347643136701 ], [ -156.140445518998433, 20.836042996731635 ], [ -156.139523169538393, 20.837897150005542 ], [ -156.137361551358453, 20.835349449186111 ], [ -156.137641156271144, 20.834666890973569 ], [ -156.13853262793927, 20.833225603307266 ], [ -156.138255876095684, 20.833043648632735 ], [ -156.137385590785698, 20.833959781106561 ], [ -156.136512508945458, 20.83439875224839 ], [ -156.135602906330377, 20.834314641608866 ], [ -156.133793098729058, 20.834794124001569 ], [ -156.131913924356724, 20.836127594245728 ], [ -156.131835132854405, 20.834941439647952 ], [ -156.132311655715398, 20.833785348017354 ], [ -156.130729631073933, 20.834551200774772 ], [ -156.130328661797932, 20.835356937731564 ], [ -156.128726996947478, 20.834947525480882 ], [ -156.129012030472126, 20.833980769312099 ], [ -156.129917925207337, 20.833740742294729 ], [ -156.13221941471167, 20.831942944745972 ], [ -156.131784720796077, 20.831812684209552 ], [ -156.130741058035113, 20.832153293637411 ], [ -156.130202721435552, 20.832103543078322 ], [ -156.12952731633149, 20.832443043373534 ], [ -156.128313882540965, 20.832330924782411 ], [ -156.127896527640956, 20.833169704055123 ], [ -156.127451498433402, 20.833287597690518 ], [ -156.127336734753811, 20.832160611373219 ], [ -156.126404047599493, 20.830760057754969 ], [ -156.127193686214696, 20.829663453543329 ], [ -156.126987645868098, 20.82872138813163 ], [ -156.127261161763585, 20.828138850235025 ], [ -156.127613879070992, 20.828052069463535 ], [ -156.127366133247762, 20.827810418553522 ], [ -156.127261161763585, 20.828138850235025 ], [ -156.12646166962935, 20.828362138648313 ], [ -156.125947708539229, 20.829340652213901 ], [ -156.125406840241681, 20.829795191418292 ], [ -156.12505218158708, 20.830398578489547 ], [ -156.124629262406245, 20.83120393188943 ], [ -156.123346031953503, 20.829821544854706 ], [ -156.124224279836056, 20.828488949663349 ], [ -156.125282389998546, 20.826927558619275 ], [ -156.122628741244142, 20.828191330501749 ], [ -156.122476048853457, 20.827862804924663 ], [ -156.122556420919125, 20.826550001060635 ], [ -156.120838135299323, 20.82761960004315 ], [ -156.120721607561364, 20.826203386151285 ], [ -156.121400779497208, 20.824910567160188 ], [ -156.122186265863945, 20.82357351257459 ], [ -156.121730667284169, 20.823582915496381 ], [ -156.121442917318461, 20.823567236514393 ], [ -156.121154755249506, 20.823573236701215 ], [ -156.120603981936284, 20.823543349891619 ], [ -156.119488230126166, 20.823890219402543 ], [ -156.119144891076729, 20.823528864891607 ], [ -156.118279886662094, 20.822982993738538 ], [ -156.118008530324943, 20.822697296696241 ], [ -156.11716065351095, 20.821931934520265 ], [ -156.116795003875325, 20.820364351050827 ], [ -156.116216882334015, 20.819156836629816 ], [ -156.116043485605104, 20.819414420220088 ], [ -156.115643916904503, 20.820174919221916 ], [ -156.114892465725035, 20.819384328083046 ], [ -156.113600852248254, 20.819410703808206 ], [ -156.112934844510875, 20.818019481110944 ], [ -156.112515037240087, 20.817996802282103 ], [ -156.111401215917653, 20.81955650788781 ], [ -156.109457906280767, 20.819904695408628 ], [ -156.108705939897817, 20.81911354275719 ], [ -156.107687894326489, 20.819544366667717 ], [ -156.106720184543605, 20.82000512555226 ], [ -156.10598781198766, 20.819234525034311 ], [ -156.104263935512307, 20.818433677602453 ], [ -156.104582617034993, 20.816242131127929 ], [ -156.105475762433969, 20.814721854580977 ], [ -156.104413270480222, 20.815036470148964 ], [ -156.103425689041387, 20.816493390099907 ], [ -156.102835959113747, 20.818648877369029 ], [ -156.102266416860175, 20.818660534172281 ], [ -156.101802718623759, 20.81824170817406 ], [ -156.101370427268478, 20.816872785566002 ], [ -156.100339134722333, 20.817363771708546 ], [ -156.099725644939127, 20.816718270030577 ], [ -156.099106431387298, 20.816430625439313 ], [ -156.09798169164182, 20.815588822356389 ], [ -156.096161672814361, 20.815230047202999 ], [ -156.095693788498863, 20.814737614705908 ], [ -156.095399602185978, 20.814472128655073 ], [ -156.095061789156546, 20.81340152899654 ], [ -156.093458523951966, 20.814970523661653 ], [ -156.092159850855154, 20.814385705418299 ], [ -156.091395601725338, 20.813581452970013 ], [ -156.090739061795148, 20.813276485907824 ], [ -156.089745998430601, 20.812231381529376 ], [ -156.088829213716821, 20.811652498058834 ], [ -156.088561445474426, 20.810803644322878 ], [ -156.087176792341694, 20.810831684335675 ], [ -156.086121527809212, 20.810463592677237 ], [ -156.085023371983254, 20.8108047200428 ], [ -156.083812100678955, 20.810738888046647 ], [ -156.082780014891625, 20.810759800876259 ], [ -156.081077119895156, 20.809875130779702 ], [ -156.079568677469609, 20.809905629378946 ], [ -156.078408072697641, 20.808146471943676 ], [ -156.077149674162229, 20.806821740983722 ], [ -156.07622995447997, 20.807259475366202 ], [ -156.074412044202035, 20.806684056790967 ], [ -156.073814394605762, 20.8041194106601 ], [ -156.072716752843036, 20.80373650403903 ], [ -156.070986106994809, 20.803771336324481 ], [ -156.070410710157034, 20.803740081642186 ], [ -156.069397252935289, 20.803760443246912 ], [ -156.068707327447896, 20.803034335208782 ], [ -156.068119665301907, 20.802503295518012 ], [ -156.06722937139287, 20.801566021121022 ], [ -156.06620021171139, 20.80120699135961 ], [ -156.064561040417431, 20.801240021051846 ], [ -156.062878424012524, 20.800365587186029 ], [ -156.062530391319626, 20.80037258257493 ], [ -156.061860639855126, 20.799667425185735 ], [ -156.061419781284343, 20.799269128701422 ], [ -156.061153829105365, 20.798712641026032 ], [ -156.060571846028381, 20.798442170331597 ], [ -156.060305898187124, 20.797885681837229 ], [ -156.058860247749124, 20.797600395043986 ], [ -156.05859955983513, 20.796773187845872 ], [ -156.058229030982346, 20.796084788650891 ], [ -156.058766665830063, 20.795291772584015 ], [ -156.05911932450104, 20.79520512830268 ], [ -156.058871748095839, 20.794963396678501 ], [ -156.058766665830063, 20.795291772584015 ], [ -156.058046714230528, 20.795146662451295 ], [ -156.057481921945566, 20.794860874932787 ], [ -156.055112369543849, 20.794508133079539 ], [ -156.054037360745212, 20.793994599403483 ], [ -156.053189960963266, 20.7934331372978 ], [ -156.051174333285019, 20.793132970525825 ], [ -156.050759001614352, 20.792711553264414 ], [ -156.049030807579157, 20.792151054053726 ], [ -156.048094550533591, 20.791200609152959 ], [ -156.046385945920434, 20.790617679697622 ], [ -156.044563199078027, 20.790250283904115 ], [ -156.044040676399874, 20.78976049459137 ], [ -156.043486489606124, 20.788933239352566 ], [ -156.043192370868439, 20.788657364528802 ], [ -156.04321484342762, 20.788110457304271 ], [ -156.041207167801616, 20.788114312602151 ], [ -156.040922068173955, 20.787534993355301 ], [ -156.039491307932138, 20.78707090814849 ], [ -156.039780828240509, 20.786702888818738 ], [ -156.040366709428042, 20.786192548047175 ], [ -156.039802301622586, 20.785890715703392 ], [ -156.039226360753048, 20.785891750107872 ], [ -156.038943993246818, 20.785605229418778 ], [ -156.038649889481377, 20.785329348471539 ], [ -156.038679792597122, 20.784604195561773 ], [ -156.037248101544151, 20.78368561051861 ], [ -156.036832835543862, 20.783264166841956 ], [ -156.034689123414609, 20.782016576450424 ], [ -156.034412285375112, 20.781735698959732 ], [ -156.033553582943881, 20.781184536255743 ], [ -156.033214158949846, 20.780494916362521 ], [ -156.032110520682579, 20.779786788692103 ], [ -156.031581410839266, 20.77924951721662 ], [ -156.030700947290512, 20.778963875986754 ], [ -156.029881522830522, 20.778131468153433 ], [ -156.028009514209145, 20.776930161406206 ], [ -156.021426697872585, 20.767133962664069 ], [ -156.016630190622521, 20.757170691585689 ], [ -156.01363343418555, 20.748727510487864 ], [ -156.012499765680843, 20.739263127167018 ], [ -156.012999847330093, 20.730561394105461 ], [ -156.013680439317312, 20.723741592577955 ], [ -156.015629044144191, 20.715192305950332 ], [ -156.01842672683, 20.707562118968816 ], [ -156.02277093265667, 20.700005817413437 ], [ -156.029942967117051, 20.691485293704392 ], [ -156.033057566394888, 20.6885446727625 ], [ -156.033466042521155, 20.689375232729233 ], [ -156.03364409694106, 20.688543538897488 ], [ -156.03364258837783, 20.687768783309558 ], [ -156.03848987698305, 20.683653406599181 ], [ -156.044708090086374, 20.679604630303032 ], [ -156.051503711317395, 20.677316740005473 ], [ -156.057970099959789, 20.676311002220572 ], [ -156.079497890749025, 20.675523308316524 ], [ -156.106095701126975, 20.677234468369026 ], [ -156.111629566777879, 20.678438785256962 ], [ -156.113445727391081, 20.6793060184844 ], [ -156.114656024277565, 20.680439989624354 ], [ -156.114950613145794, 20.683497202138952 ], [ -156.116177397274441, 20.684742389150507 ], [ -156.118885687227021, 20.685311771980945 ], [ -156.120330190965632, 20.684897170545632 ], [ -156.123004953909259, 20.683431199318935 ], [ -156.124775076045182, 20.684004650518119 ], [ -156.126355841249193, 20.685485378829121 ], [ -156.126356747450046, 20.685810168635598 ], [ -156.126053044116389, 20.686341587000609 ], [ -156.125760658335963, 20.68688377246324 ], [ -156.124924836786249, 20.686853819273935 ], [ -156.124029082647326, 20.687125683937428 ], [ -156.123183151833331, 20.687095288856863 ], [ -156.122585766596643, 20.687372262061931 ], [ -156.121999740855671, 20.687628000445219 ], [ -156.121712448714504, 20.687899441378654 ], [ -156.120559259541579, 20.687858078488631 ], [ -156.119408047512849, 20.687860908015022 ], [ -156.118976657012951, 20.687845360128463 ], [ -156.117619150347025, 20.687848693151309 ], [ -156.112419489072835, 20.686858142543525 ], [ -156.10908668418756, 20.687981635107072 ], [ -156.107053042893654, 20.687908471933525 ], [ -156.106172004435251, 20.688677030821971 ], [ -156.105858284340087, 20.689258486722355 ], [ -156.104696834295765, 20.689504489554086 ], [ -156.104121815310748, 20.689770926855317 ], [ -156.103514502175756, 20.690035893115805 ], [ -156.102811925266224, 20.690699529804245 ], [ -156.102364382306661, 20.691090158357362 ], [ -156.101801737388826, 20.691621794067995 ], [ -156.101205887438397, 20.691623267386948 ], [ -156.100345908418916, 20.691592256651234 ], [ -156.100037393418347, 20.691883795499511 ], [ -156.098881408745001, 20.692387705753276 ], [ -156.10048214221132, 20.693546734794886 ], [ -156.102808168660005, 20.696250563525144 ], [ -156.104234758965617, 20.698975338932417 ], [ -156.104614170682964, 20.699745776625722 ], [ -156.10567288601311, 20.700088882153501 ], [ -156.106746744945582, 20.702269646365934 ], [ -156.108968705219354, 20.702989718673631 ], [ -156.109300081424749, 20.704752960041613 ], [ -156.111596173132483, 20.705094070618816 ], [ -156.110079078295598, 20.705604946771224 ], [ -156.107869930969713, 20.70552538378875 ], [ -156.107278025379543, 20.706041466711781 ], [ -156.106660399332185, 20.707645146527213 ], [ -156.10695140543811, 20.70994908234745 ], [ -156.10831927529361, 20.711230826877387 ], [ -156.108734592874242, 20.711652100715305 ], [ -156.1097440127987, 20.71259801659426 ], [ -156.110810173239429, 20.713680025457631 ], [ -156.113410081520811, 20.715691473173422 ], [ -156.113118382798973, 20.716191453801748 ], [ -156.111755476477015, 20.716999806881141 ], [ -156.111326764438701, 20.718113039300757 ], [ -156.111331198821148, 20.719657096082564 ], [ -156.110954218534033, 20.721243143661091 ], [ -156.111283521593208, 20.721577016313837 ], [ -156.112414824265045, 20.722636842645034 ], [ -156.112065930762128, 20.722683348937252 ], [ -156.110494208242301, 20.722626796373493 ], [ -156.108458963028681, 20.723057524767889 ], [ -156.107792580789862, 20.723687129732955 ], [ -156.10694197475712, 20.723123648274385 ], [ -156.106032573865861, 20.722828933230222 ], [ -156.10420860783654, 20.721905774119815 ], [ -156.101865721924952, 20.722401459177433 ], [ -156.100377472559046, 20.723807412932981 ], [ -156.097909239704876, 20.723813245625532 ], [ -156.095447448435436, 20.723393357749533 ], [ -156.093635698780702, 20.722231616014362 ], [ -156.092894516431755, 20.720725770148373 ], [ -156.092291630546697, 20.721251653636077 ], [ -156.091413190789183, 20.722325478989102 ], [ -156.090978905151275, 20.722309802124268 ], [ -156.090267684545324, 20.722311389203977 ], [ -156.089125936106257, 20.721733379265608 ], [ -156.088247874134424, 20.722271911077272 ], [ -156.087712461433426, 20.722252662341074 ], [ -156.086505461364595, 20.722778604789521 ], [ -156.084465573666591, 20.72437420069679 ], [ -156.08157813841089, 20.724853883967565 ], [ -156.081560180559336, 20.725291931072757 ], [ -156.084133828819859, 20.726371641963343 ], [ -156.083555605008172, 20.726796087930072 ], [ -156.081257160283513, 20.727797491821118 ], [ -156.080672814848128, 20.728818721270336 ], [ -156.080327272181052, 20.729715209142359 ], [ -156.080331318570444, 20.731306169265498 ], [ -156.080008938786222, 20.731610514499788 ], [ -156.078821581098623, 20.732645556521618 ], [ -156.079206774498061, 20.733769864005513 ], [ -156.078119319138239, 20.736232458645674 ], [ -156.077210820964893, 20.737090273247073 ], [ -156.075688356163454, 20.737551782066539 ], [ -156.074891525349585, 20.73714840104083 ], [ -156.073851192574182, 20.737463651275 ], [ -156.072977121917972, 20.737714288297852 ], [ -156.072594596669688, 20.739082455617591 ], [ -156.070948321402682, 20.739022799921035 ], [ -156.0704292736919, 20.740369591526772 ], [ -156.075136094096194, 20.740540218362941 ], [ -156.075525817294988, 20.740200271044266 ], [ -156.076099336774803, 20.739658886857821 ], [ -156.077390546395975, 20.740099367256025 ], [ -156.078686371367951, 20.740519553333652 ], [ -156.079516682629077, 20.741362235847959 ], [ -156.081245283940774, 20.742187911825152 ], [ -156.081809948723702, 20.742473604537132 ], [ -156.083825025677442, 20.742773339605566 ], [ -156.085091567278056, 20.743711469654908 ], [ -156.086116567253413, 20.743082897608698 ], [ -156.086550909843879, 20.743098593727382 ], [ -156.087969888455689, 20.743095408598311 ], [ -156.088408990185712, 20.743934332665617 ], [ -156.088670841630346, 20.745029826480668 ], [ -156.090054538089845, 20.74438866312715 ], [ -156.093941020179784, 20.743832548645688 ], [ -156.094720451918164, 20.744562833932118 ], [ -156.095076345448064, 20.745285691188712 ], [ -156.09699639869882, 20.746516978291524 ], [ -156.098088070188084, 20.747240229220537 ], [ -156.099272444372815, 20.747643975006667 ], [ -156.101474034960603, 20.74835738179841 ], [ -156.102402754160806, 20.749858042017095 ], [ -156.103184479594802, 20.751445345912039 ], [ -156.104798341389085, 20.753083173437215 ], [ -156.106493445696344, 20.753940982838476 ], [ -156.108071418409537, 20.754557459925714 ], [ -156.108636188388033, 20.754843075376488 ], [ -156.109500228065627, 20.75512314751543 ], [ -156.110592026186367, 20.755846332545214 ], [ -156.112520164568537, 20.756503573498115 ], [ -156.114317583501816, 20.756568299098987 ], [ -156.115523874109584, 20.75631298592236 ], [ -156.116217434999612, 20.755991664602551 ], [ -156.117753938031285, 20.756515325999189 ], [ -156.120134247146552, 20.756119541795684 ], [ -156.121127992797881, 20.755818175700369 ], [ -156.12387822109784, 20.755917150827099 ], [ -156.124992556231348, 20.755914386958459 ], [ -156.125603089199757, 20.756205873412618 ], [ -156.126564188826649, 20.756842410438775 ], [ -156.127346111595244, 20.756501494762862 ], [ -156.127905224602017, 20.755973436916456 ], [ -156.128915074289523, 20.756009629006755 ], [ -156.13021077846247, 20.756006425078137 ], [ -156.130930091839275, 20.756032328422602 ], [ -156.131635308541007, 20.756030488049138 ], [ -156.131935353602643, 20.756311742097783 ], [ -156.132471139036568, 20.756855058734402 ], [ -156.133683825886294, 20.757169134337335 ], [ -156.134507710542891, 20.757167015249873 ], [ -156.135227032504758, 20.757192901295578 ], [ -156.137308115459717, 20.757187669367031 ], [ -156.138328145990727, 20.757535131410577 ], [ -156.143941515473443, 20.757029807471444 ], [ -156.144883334587377, 20.757350673621453 ], [ -156.145447686385609, 20.75734921188943 ], [ -156.147452299175001, 20.757658767314389 ], [ -156.152012163932795, 20.758259966503957 ], [ -156.152912053953969, 20.75868919243387 ], [ -156.154300596073682, 20.759391254841766 ], [ -156.154908387115654, 20.7594130953741 ], [ -156.155725267151581, 20.759410891493328 ], [ -156.157603615322188, 20.759874680102261 ], [ -156.158627389642703, 20.760552290706539 ], [ -156.159991607257183, 20.760993793897295 ], [ -156.160339942497814, 20.761658635790035 ], [ -156.160875000599788, 20.762744176818142 ], [ -156.161748169741344, 20.763041341130656 ], [ -156.162900239501056, 20.763325919088022 ], [ -156.163476309953495, 20.763616975423083 ], [ -156.164046596128088, 20.763615552683927 ], [ -156.164323671091807, 20.763896377787347 ], [ -156.165945435460401, 20.764296865644209 ], [ -156.167913970618827, 20.765599646444485 ], [ -156.169192358192447, 20.765596266422602 ], [ -156.169779592535463, 20.76589304168732 ], [ -156.171180596137845, 20.765889155887084 ], [ -156.171912971763476, 20.766259461157553 ], [ -156.172639967849108, 20.765922057028135 ], [ -156.173180914153079, 20.766470241446548 ], [ -156.173778221679356, 20.766755268298809 ], [ -156.174354329931077, 20.767046291882416 ], [ -156.175494939979785, 20.767043242882142 ], [ -156.175894632618963, 20.767854106012472 ], [ -156.177988045352635, 20.768210010484371 ], [ -156.178450041194168, 20.769633771581372 ], [ -156.179438433111983, 20.770635606922596 ], [ -156.180056675666037, 20.770930612124573 ], [ -156.181403906603805, 20.772296309613463 ], [ -156.182022727019643, 20.772318372643628 ], [ -156.182910842692365, 20.77231589293978 ], [ -156.185138544660191, 20.773441846916548 ], [ -156.18632870851647, 20.773195822177374 ], [ -156.187212477898129, 20.771849807932497 ], [ -156.188750643699507, 20.772172420118793 ], [ -156.190232435764074, 20.772168252516071 ], [ -156.190664095329169, 20.77218364977076 ], [ -156.191498219527659, 20.772181299570939 ], [ -156.193069041168144, 20.772715863459581 ], [ -156.194388668874353, 20.773056937163361 ], [ -156.195828781266272, 20.773346015045508 ], [ -156.19668169968017, 20.773636070500714 ], [ -156.200424874928473, 20.773962713858502 ], [ -156.202077880444165, 20.77438996912419 ], [ -156.203884350052618, 20.773753567431243 ], [ -156.206028616802541, 20.772975986920276 ], [ -156.207425269252383, 20.773810161737433 ], [ -156.208737830942198, 20.77570077312371 ], [ -156.20874130672334, 20.776765784893868 ], [ -156.208415238324051, 20.777613714356175 ], [ -156.207981414821376, 20.778800151269355 ], [ -156.207062396158989, 20.779669108117982 ], [ -156.204849747763546, 20.781191957447273 ], [ -156.202678942694405, 20.781815676484072 ], [ -156.201712158539067, 20.782237369702216 ], [ -156.202021646483558, 20.784441744554194 ], [ -156.202810765760319, 20.784840365010108 ], [ -156.203386492741998, 20.784838775356153 ], [ -156.203921819488869, 20.785381233298338 ], [ -156.20564519378155, 20.78648444927973 ], [ -156.205943252466113, 20.787052659258631 ], [ -156.206323371471314, 20.78782295021837 ], [ -156.207395568708108, 20.788169562458034 ], [ -156.208207295632008, 20.788992103857598 ], [ -156.209079259853496, 20.788727128869073 ], [ -156.209635516409094, 20.789555557949189 ], [ -156.210787912745502, 20.789839846477186 ], [ -156.211254261315759, 20.790312132719936 ], [ -156.212774452901357, 20.789606595227966 ], [ -156.213076530875838, 20.790983397824277 ], [ -156.213023587382509, 20.79230338533954 ], [ -156.213606457178088, 20.792848574764786 ], [ -156.213608250950955, 20.793409184132706 ], [ -156.213575942128102, 20.794218518348796 ], [ -156.214730670335229, 20.79371980792499 ], [ -156.214774856350544, 20.792615630249042 ], [ -156.214773040433982, 20.792071286042056 ], [ -156.215359658365884, 20.7918152665275 ], [ -156.21651901988912, 20.791277340400473 ], [ -156.216783694377597, 20.792380052641469 ], [ -156.217360288409793, 20.792654954611454 ], [ -156.217714175386135, 20.793371903665125 ], [ -156.21853014150733, 20.793783987465492 ], [ -156.219931731847737, 20.793779869039291 ], [ -156.220195381897781, 20.794878594646878 ], [ -156.221337085777009, 20.794875145669049 ], [ -156.221629510748556, 20.795432532105586 ], [ -156.222281875700872, 20.797759886753106 ], [ -156.223579791131556, 20.798719445694438 ], [ -156.224703505603657, 20.799254846022635 ], [ -156.226749532763137, 20.800927255546522 ], [ -156.227430056245197, 20.800951354453026 ], [ -156.22841879075375, 20.80094829807302 ], [ -156.229548926599392, 20.801519082831433 ], [ -156.23102722520315, 20.801277417856262 ], [ -156.231800534908245, 20.800918562091503 ], [ -156.232700290473701, 20.801829973192973 ], [ -156.233907748369177, 20.802141721005594 ], [ -156.234609012856225, 20.802139545324419 ], [ -156.235184697417822, 20.802159939150325 ], [ -156.235760787407571, 20.802158120384092 ], [ -156.237487846851479, 20.802219152358248 ], [ -156.23908587913769, 20.80221421452589 ], [ -156.239860027321271, 20.802998200967224 ], [ -156.240772208799996, 20.803601378413923 ], [ -156.242450990130749, 20.8035962554812 ], [ -156.243476131780966, 20.804113822324187 ], [ -156.2464482136063, 20.802067470299658 ], [ -156.247437087750882, 20.802352074598883 ], [ -156.252931375133727, 20.808092424634523 ], [ -156.258141202985513, 20.814713609323746 ], [ -156.262579298101855, 20.820351649472045 ], [ -156.272387718732205, 20.836089554419043 ], [ -156.278205599070702, 20.845119219395762 ], [ -156.283502468877032, 20.855791728688615 ], [ -156.287033713093962, 20.864735280788423 ], [ -156.287733440529962, 20.869836238994736 ], [ -156.288795197064758, 20.878850360610418 ], [ -156.288287877136099, 20.883686053108068 ], [ -156.286496084482877, 20.891958847751191 ], [ -156.28381767115863, 20.896341175986763 ], [ -156.27968075979058, 20.900881531743661 ], [ -156.274602330870778, 20.903864733194268 ], [ -156.269409383056939, 20.905187556745823 ], [ -156.261529657214965, 20.905565090645506 ], [ -156.247483780125179, 20.903932552985346 ], [ -156.239980316856446, 20.903043757237423 ], [ -156.23577427732863, 20.902372822694165 ], [ -156.234466873197277, 20.901712916082314 ], [ -156.234079339936187, 20.902078906458886 ], [ -156.232618244969672, 20.901773026607874 ], [ -156.231843616894707, 20.901775283049698 ], [ -156.229411196664813, 20.901362645185124 ], [ -156.229862826933413, 20.900189168636434 ], [ -156.229506652193237, 20.899828449157251 ], [ -156.22841330721991, 20.901337856806506 ], [ -156.227467434067847, 20.900887422148458 ], [ -156.227184482181201, 20.900601149795385 ], [ -156.226325421230513, 20.900603597699337 ], [ -156.226719974923753, 20.899183099620963 ], [ -156.227219227066854, 20.898711426816941 ], [ -156.227610822552805, 20.898369719202936 ], [ -156.227243409477211, 20.89762570424184 ], [ -156.226146589957608, 20.898298601596235 ], [ -156.225802250005387, 20.89760124410315 ], [ -156.225287242965891, 20.898087864746763 ], [ -156.224690026029123, 20.896250692349803 ], [ -156.223410638615746, 20.895404834807792 ], [ -156.22351836278014, 20.896219087661343 ], [ -156.224075254661187, 20.897279736796786 ], [ -156.223225273098279, 20.898104870410144 ], [ -156.222912212537921, 20.897834236300209 ], [ -156.222368449272977, 20.897283726588199 ], [ -156.222335235289393, 20.897604801446153 ], [ -156.22234217613979, 20.899703610719087 ], [ -156.2211540813569, 20.89970702884802 ], [ -156.220865619605888, 20.899415103467742 ], [ -156.220000658100673, 20.899417556311938 ], [ -156.2200225623086, 20.898870559921619 ], [ -156.219727893403189, 20.898594930024419 ], [ -156.219460469868693, 20.89777278720701 ], [ -156.219170891020497, 20.897221248873144 ], [ -156.219213427944226, 20.896165850749899 ], [ -156.21865283128065, 20.89559826208265 ], [ -156.218337027834849, 20.895858662797647 ], [ -156.218338703379317, 20.896378271622908 ], [ -156.217743759112437, 20.896940530929566 ], [ -156.217463599101364, 20.896656935123904 ], [ -156.216595993237689, 20.896376594548361 ], [ -156.217047958366891, 20.895585742872449 ], [ -156.216502089392463, 20.894479896350461 ], [ -156.215188011597377, 20.894724020938654 ], [ -156.214320233253574, 20.894987315764151 ], [ -156.213156021765656, 20.894126867851156 ], [ -156.211508591033748, 20.893342235214678 ], [ -156.211502295808884, 20.891414041750142 ], [ -156.212116962071718, 20.89005840806028 ], [ -156.210539421049504, 20.890062941715804 ], [ -156.209823061509411, 20.888698672213167 ], [ -156.2098781966329, 20.887330205912392 ], [ -156.208976296375994, 20.888101390165545 ], [ -156.208959057458515, 20.888531291768224 ], [ -156.208963953964712, 20.890061940464534 ], [ -156.207479619927597, 20.89108266007414 ], [ -156.206892866378723, 20.891338609521345 ], [ -156.206147409005041, 20.891684133841814 ], [ -156.205174162047541, 20.890774128710948 ], [ -156.204886871669487, 20.889889889549998 ], [ -156.203485397290763, 20.88857984839969 ], [ -156.203501975975684, 20.888171228938155 ], [ -156.203499035356657, 20.887236497605329 ], [ -156.204231432541974, 20.886258125627833 ], [ -156.20367345435551, 20.885736559017687 ], [ -156.204414890350137, 20.885090127521327 ], [ -156.203933244751738, 20.883577734203531 ], [ -156.203289756830316, 20.884770602494775 ], [ -156.20297481383929, 20.885045403006536 ], [ -156.202411096695499, 20.885577835947611 ], [ -156.202105416424359, 20.88530729019892 ], [ -156.201689395787128, 20.884886165501488 ], [ -156.200979015131225, 20.884221787496248 ], [ -156.200975576976248, 20.883132458987223 ], [ -156.20157913515996, 20.882606236836374 ], [ -156.200771421120606, 20.882532177466988 ], [ -156.200422152533321, 20.882836958813218 ], [ -156.199910858323733, 20.883319726143668 ], [ -156.199439916362309, 20.881870182518863 ], [ -156.198831434267106, 20.880098624774806 ], [ -156.199895332587772, 20.880136423540087 ], [ -156.1999071218533, 20.879849785251679 ], [ -156.199772499283313, 20.87917275219451 ] ], [ [ -156.125276249496977, 20.826480631677299 ], [ -156.125368687170408, 20.82681237541637 ], [ -156.125625444306166, 20.826579189869353 ], [ -156.125276249496977, 20.826480631677299 ] ] ] } }
]
}
