{
"type": "FeatureCollection",
"name": "cyrmacr2",
"crs": { "type": "name", "properties": { "name": "urn:ogc:def:crs:OGC:1.3:CRS84" } },
"features": [
{ "type": "Feature", "properties": { "ID": 1, "GRIDCODE": 2 }, "geometry": { "type": "Polygon", "coordinates": [ [ [ -156.758718774626971, 21.162393784963669 ], [ -156.759091825482898, 21.162549396065533 ], [ -156.758825116700251, 21.163010826596821 ], [ -156.758718774626971, 21.162393784963669 ] ] ] } },
{ "type": "Feature", "properties": { "ID": 2, "GRIDCODE": 2 }, "geometry": { "type": "Polygon", "coordinates": [ [ [ -156.769032139168502, 21.148713672512848 ], [ -156.768928223324195, 21.14904260818809 ], [ -156.768678864914108, 21.148801743011024 ], [ -156.769032139168502, 21.148713672512848 ] ] ] } },
{ "type": "Feature", "properties": { "ID": 3, "GRIDCODE": 2 }, "geometry": { "type": "Polygon", "coordinates": [ [ [ -156.769032139168502, 21.148713672512848 ], [ -156.769136054486637, 21.148384736721276 ], [ -156.76938541307365, 21.148625601238582 ], [ -156.769032139168502, 21.148713672512848 ] ] ] } },
{ "type": "Feature", "properties": { "ID": 4, "GRIDCODE": 2 }, "geometry": { "type": "Polygon", "coordinates": [ [ [ -156.884819975711309, 21.129610318602197 ], [ -156.885170527309043, 21.129707431731756 ], [ -156.884914251897044, 21.129941821678329 ], [ -156.884819975711309, 21.129610318602197 ] ] ] } },
{ "type": "Feature", "properties": { "ID": 5, "GRIDCODE": 2 }, "geometry": { "type": "Polygon", "coordinates": [ [ [ -156.885978663608427, 21.129353860620057 ], [ -156.885812961359733, 21.129703945088025 ], [ -156.885321039380642, 21.129454192248716 ], [ -156.885978663608427, 21.129353860620057 ] ] ] } },
{ "type": "Feature", "properties": { "ID": 6, "GRIDCODE": 2 }, "geometry": { "type": "Polygon", "coordinates": [ [ [ -156.769393064736249, 21.124607254971249 ], [ -156.76949695709601, 21.124278316533292 ], [ -156.76974627986931, 21.124519177628091 ], [ -156.769393064736249, 21.124607254971249 ] ] ] } },
{ "type": "Feature", "properties": { "ID": 7, "GRIDCODE": 2 }, "geometry": { "type": "Polygon", "coordinates": [ [ [ -156.772609007717676, 21.12194045399092 ], [ -156.773889511460936, 21.12231134133523 ], [ -156.77279477051826, 21.122566869709029 ], [ -156.772609007717676, 21.12194045399092 ] ] ] } },
{ "type": "Feature", "properties": { "ID": 8, "GRIDCODE": 2 }, "geometry": { "type": "Polygon", "coordinates": [ [ [ -156.777966583787276, 21.111174274623124 ], [ -156.77923583877282, 21.111329943532169 ], [ -156.779292676044747, 21.111621841784583 ], [ -156.777632840511046, 21.111907106176439 ], [ -156.777966583787276, 21.111174274623124 ] ] ] } },
{ "type": "Feature", "properties": { "ID": 9, "GRIDCODE": 2 }, "geometry": { "type": "Polygon", "coordinates": [ [ [ -156.77860438302838, 21.107118926008447 ], [ -156.779795239580295, 21.107880075242338 ], [ -156.781131406516835, 21.10836916274426 ], [ -156.782443787141659, 21.109245252304071 ], [ -156.781289465178219, 21.109210829037924 ], [ -156.780769923983513, 21.10888337311496 ], [ -156.780142916633906, 21.108653984359258 ], [ -156.779609971673693, 21.108318148097784 ], [ -156.779122198833619, 21.108414010425864 ], [ -156.778413027351036, 21.107530196571574 ], [ -156.77860438302838, 21.107118926008447 ] ] ] } },
{ "type": "Feature", "properties": { "ID": 10, "GRIDCODE": 2 }, "geometry": { "type": "Polygon", "coordinates": [ [ [ -156.786702608401953, 21.106141224316861 ], [ -156.786352194874951, 21.106043917344994 ], [ -156.7866085658938, 21.105809685832469 ], [ -156.786702608401953, 21.106141224316861 ] ] ] } },
{ "type": "Feature", "properties": { "ID": 11, "GRIDCODE": 2 }, "geometry": { "type": "Polygon", "coordinates": [ [ [ -156.885978663608427, 21.129353860620057 ], [ -156.887073054470591, 21.128062819119595 ], [ -156.88789085167096, 21.127344901796853 ], [ -156.887186905178083, 21.127013533490445 ], [ -156.887766200919202, 21.125992278004176 ], [ -156.886741821335193, 21.126245002600143 ], [ -156.885693790688492, 21.126892638885661 ], [ -156.885032626318946, 21.126229552454763 ], [ -156.884579393330966, 21.126215160484005 ], [ -156.883588111194996, 21.126221758558664 ], [ -156.882998143339336, 21.125927317751703 ], [ -156.882146876540247, 21.125526554599055 ], [ -156.882138495843179, 21.124429180240387 ], [ -156.882163094016363, 21.123749589416729 ], [ -156.881021547837662, 21.122385965707675 ], [ -156.880612739686853, 21.121568068676712 ], [ -156.880440088924445, 21.122644921412203 ], [ -156.880448244110738, 21.12371768662619 ], [ -156.879828034001576, 21.124262229045282 ], [ -156.879842069025585, 21.126130717533933 ], [ -156.879238919774394, 21.126704044711168 ], [ -156.878656803582714, 21.126413259362256 ], [ -156.876935065291462, 21.127476977775984 ], [ -156.875420272091986, 21.127117006557867 ], [ -156.874819028959138, 21.125913377433225 ], [ -156.874046497027933, 21.125549677774732 ], [ -156.873771237720149, 21.12499894554114 ], [ -156.873484548290634, 21.124458917095389 ], [ -156.873220883957913, 21.12309555069049 ], [ -156.872937786418049, 21.122284309644712 ], [ -156.872957782431115, 21.121732521820896 ], [ -156.872101171194657, 21.120939409869038 ], [ -156.871546583661484, 21.119828827609041 ], [ -156.870944061011443, 21.120851912702999 ], [ -156.870923455038763, 21.121426181127177 ], [ -156.871476013662516, 21.123567793753271 ], [ -156.871038403372694, 21.125224890494792 ], [ -156.867996705786567, 21.125496246045675 ], [ -156.86855914989593, 21.126017132084829 ], [ -156.868838262907815, 21.126296994285493 ], [ -156.871094792514697, 21.127910981364714 ], [ -156.87110738350728, 21.129576447877696 ], [ -156.870700949816012, 21.130292836292835 ], [ -156.871103392068591, 21.130665392835471 ], [ -156.871074097782639, 21.131472510614348 ], [ -156.871636783962373, 21.132531605449078 ], [ -156.871349384116144, 21.132830799604783 ], [ -156.871051237973006, 21.133092552833848 ], [ -156.870746648436182, 21.134199941394744 ], [ -156.86901763591743, 21.134145114839722 ], [ -156.868142786644796, 21.134150835099948 ], [ -156.867316542557546, 21.133321898280027 ], [ -156.865535807606904, 21.134595346921113 ], [ -156.865542347953777, 21.135457812360237 ], [ -156.864343634834171, 21.135825931289666 ], [ -156.862356523293442, 21.13489031673409 ], [ -156.861216666336873, 21.13432097459469 ], [ -156.860809240894611, 21.135082564237564 ], [ -156.860194167126707, 21.135261249857091 ], [ -156.860099945060455, 21.134929737567852 ], [ -156.859843624062108, 21.135164085307185 ], [ -156.860194167126707, 21.135261249857091 ], [ -156.860916553797836, 21.136230983511837 ], [ -156.86088754698315, 21.137033600871455 ], [ -156.861459323040236, 21.137848307058409 ], [ -156.861734554068221, 21.138399056701051 ], [ -156.862698635413409, 21.139625167676726 ], [ -156.864026764331015, 21.140048121637495 ], [ -156.864887846532753, 21.140611749247004 ], [ -156.86601797807279, 21.140604372751895 ], [ -156.866608242108356, 21.140899010191415 ], [ -156.867296702711798, 21.140894457856742 ], [ -156.870318855133775, 21.143925788440139 ], [ -156.870609435914503, 21.1441949465734 ], [ -156.87088858389842, 21.144474808040556 ], [ -156.871799868095849, 21.14490383726023 ], [ -156.871293821651079, 21.1462327860032 ], [ -156.870605261731356, 21.148135945800124 ], [ -156.870231144619822, 21.150453349890789 ], [ -156.871803747286435, 21.153413631305167 ], [ -156.872768418843066, 21.154788196402016 ], [ -156.873043718802279, 21.155338932802554 ], [ -156.87334199284976, 21.155900540730055 ], [ -156.874511379671219, 21.156451070482245 ], [ -156.875033568059166, 21.157568452932644 ], [ -156.874433437092449, 21.159143935318873 ], [ -156.87412701680293, 21.160771060869198 ], [ -156.873673907056002, 21.161570005228967 ], [ -156.873236319751413, 21.162387663450254 ], [ -156.87187665035205, 21.161708789997942 ], [ -156.87119662156141, 21.160348119592211 ], [ -156.869801468771016, 21.159903859660407 ], [ -156.867490464838625, 21.158990461644638 ], [ -156.863516038964946, 21.159016369719996 ], [ -156.861713864563058, 21.16034365093055 ], [ -156.860330641254365, 21.160641463052155 ], [ -156.853006490637625, 21.160046815205479 ], [ -156.849779407310223, 21.161308110528303 ], [ -156.84811056598582, 21.162338493055252 ], [ -156.8469015935421, 21.162598723126205 ], [ -156.846082610133521, 21.162572618118688 ], [ -156.844782794707783, 21.162580927598984 ], [ -156.842906327173864, 21.162521021125727 ], [ -156.84033180609913, 21.162537504993427 ], [ -156.840010158502395, 21.16221472101342 ], [ -156.838868331477329, 21.161676943984514 ], [ -156.839170590685086, 21.161411737421631 ], [ -156.839461659309677, 21.160868190679594 ], [ -156.841041269065187, 21.159925256779296 ], [ -156.843533465041219, 21.159300053982484 ], [ -156.844570076375277, 21.158981957587756 ], [ -156.844999393536938, 21.157401054669815 ], [ -156.844429416422997, 21.156873180499449 ], [ -156.842443383394738, 21.154803844727521 ], [ -156.844074630637095, 21.154087015824981 ], [ -156.84245916026876, 21.153326082011358 ], [ -156.841862465746317, 21.1530281035363 ], [ -156.841910899572099, 21.151690848327448 ], [ -156.84190605232186, 21.151013482812431 ], [ -156.841930530323367, 21.150336491307129 ], [ -156.841926917244479, 21.149807433930665 ], [ -156.842273747951936, 21.148897034078519 ], [ -156.841868922966171, 21.146472692255401 ], [ -156.842664787400366, 21.14507081985445 ], [ -156.842299940524896, 21.144383638709915 ], [ -156.842029545074638, 21.143503663989488 ], [ -156.842645601762456, 21.140865599046418 ], [ -156.84264322199536, 21.140562567479012 ], [ -156.841223744027133, 21.139247735138845 ], [ -156.839633715078548, 21.136063235567271 ], [ -156.838683974051719, 21.134855248100319 ], [ -156.837696187209957, 21.133568920133943 ], [ -156.836124892412357, 21.132113345333483 ], [ -156.835845836262479, 21.131833433666618 ], [ -156.83414431742176, 21.130531812422063 ], [ -156.833860594613071, 21.129351039149274 ], [ -156.83614062831046, 21.128348957595939 ], [ -156.83707134286476, 21.127774226674987 ], [ -156.83706533244694, 21.126944651275604 ], [ -156.836459010554762, 21.125802290108606 ], [ -156.835364977739346, 21.124788758150899 ], [ -156.834827464867374, 21.124249304511125 ], [ -156.833357939000649, 21.123405180603399 ], [ -156.833377793039745, 21.122853869365152 ], [ -156.83739597311893, 21.122171036580983 ], [ -156.837724637811448, 21.121556861840954 ], [ -156.838737580789825, 21.121589169986212 ], [ -156.839209697730269, 21.120707024660582 ], [ -156.840392810029527, 21.122247968219931 ], [ -156.841177936306337, 21.122961078458768 ], [ -156.841172182947901, 21.122150950495065 ], [ -156.841205026208343, 21.121245737598446 ], [ -156.842340658449899, 21.121626706987719 ], [ -156.84384310945515, 21.121990710367527 ], [ -156.844622753947931, 21.123552353390831 ], [ -156.844926754192329, 21.123550401295457 ], [ -156.845512394188773, 21.121932580382552 ], [ -156.848234423719276, 21.121611265941766 ], [ -156.848987788764219, 21.121987599937661 ], [ -156.849559406606346, 21.121983878537186 ], [ -156.850636702425589, 21.122345202578245 ], [ -156.851141015676887, 21.121865910395968 ], [ -156.851894107179248, 21.121204900715917 ], [ -156.851007141682402, 21.120922263270931 ], [ -156.851037696195505, 21.120073832157779 ], [ -156.851912145704176, 21.119306613473537 ], [ -156.851413054828669, 21.119032799563175 ], [ -156.849875637912504, 21.120096985731198 ], [ -156.84927188326597, 21.12035482043213 ], [ -156.848724878465021, 21.119806027644962 ], [ -156.847998362834431, 21.119133050709866 ], [ -156.847020834336718, 21.118152224847524 ], [ -156.846139434215502, 21.118696756423518 ], [ -156.845284136621785, 21.118136757822864 ], [ -156.844399729533649, 21.11785498026963 ], [ -156.843841361316436, 21.11729445385928 ], [ -156.843870104354636, 21.11649594173473 ], [ -156.843285067849735, 21.116220217934167 ], [ -156.843006022040697, 21.115940451249557 ], [ -156.842699687416655, 21.11565650038041 ], [ -156.842154380229829, 21.114564410546357 ], [ -156.841007012846774, 21.114023822904631 ], [ -156.840577343534164, 21.113592782102156 ], [ -156.839755118164959, 21.114374033739882 ], [ -156.838958149029224, 21.113975742435848 ], [ -156.838149552927831, 21.112356562762422 ], [ -156.837762836254086, 21.11162802304467 ], [ -156.836523769168963, 21.112805691592396 ], [ -156.834736879041742, 21.113125750767274 ], [ -156.834145237843444, 21.110704632585445 ], [ -156.833822763874821, 21.110097154476158 ], [ -156.833043782558462, 21.109375496690912 ], [ -156.832468697922479, 21.111465268646942 ], [ -156.830495033265805, 21.111716883656996 ], [ -156.829995036148574, 21.110715296135876 ], [ -156.829007926575514, 21.110250102973005 ], [ -156.828274786066999, 21.108433952340036 ], [ -156.82750641067841, 21.108438787233435 ], [ -156.827512431325857, 21.109245276875775 ], [ -156.827076253177268, 21.110755675788827 ], [ -156.825699626043644, 21.111655415777367 ], [ -156.824336045569822, 21.110286618465913 ], [ -156.823164740330725, 21.110002639498308 ], [ -156.822039792327786, 21.10944052377782 ], [ -156.821579046614517, 21.109443464404539 ], [ -156.821122606256125, 21.111101609946157 ], [ -156.821126304818534, 21.111601298166967 ], [ -156.821088306697078, 21.111867099341666 ], [ -156.819994306544856, 21.110768951999738 ], [ -156.819683005189489, 21.110770899493325 ], [ -156.819689771832913, 21.111716294918594 ], [ -156.819659643734155, 21.112543085032133 ], [ -156.81877442367562, 21.112921005821239 ], [ -156.817953861696765, 21.112097285242935 ], [ -156.817637481788665, 21.112099295645731 ], [ -156.817073678846981, 21.111533526522468 ], [ -156.81618939917945, 21.111539064379468 ], [ -156.816201082206589, 21.113167904439354 ], [ -156.815186522854475, 21.112827420162741 ], [ -156.814156711088287, 21.11314339402001 ], [ -156.814166420488363, 21.114481974541466 ], [ -156.813825953301176, 21.114780513159769 ], [ -156.812131907529306, 21.114726235185707 ], [ -156.811838184529989, 21.114932509452263 ], [ -156.815133471397104, 21.116295503407066 ], [ -156.815561660680373, 21.116591654517233 ], [ -156.814391622436432, 21.11693135049984 ], [ -156.814970849034495, 21.118023026833068 ], [ -156.814366158320809, 21.118553557857034 ], [ -156.814375875575791, 21.119929905128583 ], [ -156.815517944856992, 21.119922810689101 ], [ -156.81719736039426, 21.120268161502878 ], [ -156.817732071446756, 21.119760331481643 ], [ -156.818243236549534, 21.120784582779379 ], [ -156.818981780973218, 21.120779939727239 ], [ -156.819679564769928, 21.121480309919114 ], [ -156.82012163078474, 21.121060307221605 ], [ -156.821576195383301, 21.121106933084782 ], [ -156.821537650455099, 21.122162666503765 ], [ -156.821830185170541, 21.122713559406368 ], [ -156.821791618281139, 21.123770813808502 ], [ -156.822094853060349, 21.12434228210909 ], [ -156.822369912183092, 21.124893081970608 ], [ -156.823539249621433, 21.127096504847568 ], [ -156.823409660185177, 21.130660712962726 ], [ -156.825140023194677, 21.133321770203704 ], [ -156.825415107388238, 21.133872566980234 ], [ -156.826808117585415, 21.136215232811505 ], [ -156.827101751097842, 21.13773789973693 ], [ -156.827083880679623, 21.138228448025401 ], [ -156.827647563249656, 21.13958512361069 ], [ -156.827914767541841, 21.14067765618552 ], [ -156.828268284891237, 21.141343618288964 ], [ -156.82784584497702, 21.145055870657469 ], [ -156.827851315792827, 21.145821606700803 ], [ -156.827831853724206, 21.146363196367442 ], [ -156.827842339760963, 21.147829115123532 ], [ -156.828371824847068, 21.14934786327095 ], [ -156.828361918232588, 21.149621036972338 ], [ -156.828370638465771, 21.150860130312228 ], [ -156.827445005264735, 21.150397617945174 ], [ -156.826919947475915, 21.149870730582485 ], [ -156.82524718999187, 21.148909817084185 ], [ -156.82363468651306, 21.14815014103408 ], [ -156.820264222758993, 21.148171310041693 ], [ -156.818305072779509, 21.149380604151858 ], [ -156.817569727744939, 21.150754285340515 ], [ -156.817602808340951, 21.155442800431835 ], [ -156.817582987495371, 21.15598676204403 ], [ -156.817899112395821, 21.156893481956541 ], [ -156.818427442808684, 21.157888989543228 ], [ -156.819006868508524, 21.159324470880069 ], [ -156.819580501971217, 21.160405221959977 ], [ -156.820401115612924, 21.161165455087033 ], [ -156.820676222870702, 21.161716260826218 ], [ -156.820962770616177, 21.162256366331018 ], [ -156.82123788166615, 21.162807171444022 ], [ -156.821528679060208, 21.163076544836617 ], [ -156.821518433868363, 21.163352490378607 ], [ -156.821820922753659, 21.163632530594455 ], [ -156.821791338110728, 21.164439613480944 ], [ -156.822078173466792, 21.16497991975783 ], [ -156.822356072579169, 21.166419909131722 ], [ -156.822325846676307, 21.167251588694647 ], [ -156.819433922089274, 21.167655022063506 ], [ -156.817277743072054, 21.167971403445016 ], [ -156.814902432920206, 21.169437447998337 ], [ -156.812760303656376, 21.169736158406412 ], [ -156.811029226040688, 21.169990094345735 ], [ -156.808503258955369, 21.170246475254515 ], [ -156.807248117173259, 21.170206124779604 ], [ -156.806562142743985, 21.169517686682809 ], [ -156.806084932643557, 21.169075488934851 ], [ -156.802350421354674, 21.169098419240427 ], [ -156.802929310561098, 21.168079161662408 ], [ -156.803860279787159, 21.166098873739777 ], [ -156.804449280766988, 21.165061749815479 ], [ -156.804757009874777, 21.164047825396956 ], [ -156.803892157152887, 21.161091904563058 ], [ -156.802738091915472, 21.160400484265821 ], [ -156.79989998862024, 21.161043588270029 ], [ -156.7981531019729, 21.161419091207378 ], [ -156.797288382741272, 21.161684169371213 ], [ -156.795835027617244, 21.161930724581044 ], [ -156.79431730938208, 21.162485307347179 ], [ -156.792541947790539, 21.163580656560868 ], [ -156.791761815864049, 21.164321239769517 ], [ -156.79060447652077, 21.165011583769683 ], [ -156.787648202986844, 21.165512906225906 ], [ -156.785071941254103, 21.167484705397186 ], [ -156.784144778468061, 21.167753523500785 ], [ -156.7833086108229, 21.167726556644769 ], [ -156.78057741529949, 21.168563586759561 ], [ -156.779273135324047, 21.169172283860615 ], [ -156.777172145120858, 21.170094586020539 ], [ -156.776640725185246, 21.170077412247966 ], [ -156.776071639283515, 21.170617505406916 ], [ -156.774555855877963, 21.170863046690741 ], [ -156.771445893592158, 21.170222778958749 ], [ -156.771463865133455, 21.169738669010741 ], [ -156.770298983784983, 21.169456036014164 ], [ -156.770900048134621, 21.169192124815542 ], [ -156.7708966043472, 21.168650256562866 ], [ -156.77091669291346, 21.168100232560242 ], [ -156.770316803307622, 21.168380165666928 ], [ -156.770346836938444, 21.167561941125925 ], [ -156.769899515426914, 21.167147293454722 ], [ -156.769463177056792, 21.167561595614515 ], [ -156.769466786539539, 21.168092089590992 ], [ -156.769164054991876, 21.168624692713557 ], [ -156.768829489585812, 21.169248611738478 ], [ -156.767704407440561, 21.168870715441628 ], [ -156.767743959831222, 21.16779506751163 ], [ -156.766869841109553, 21.167516118816678 ], [ -156.76687986875163, 21.167242694732664 ], [ -156.766877225925953, 21.166836293441612 ], [ -156.76689337010481, 21.166399649553032 ], [ -156.767610659721242, 21.165137572400479 ], [ -156.766887814552291, 21.164796796542987 ], [ -156.76604724576427, 21.164801765561041 ], [ -156.765467079314647, 21.16478298811575 ], [ -156.764163514086732, 21.165586954322588 ], [ -156.763722326794891, 21.16557265394761 ], [ -156.76285346384168, 21.166108537013592 ], [ -156.762254752525479, 21.166366101170485 ], [ -156.761710736568574, 21.165275259390469 ], [ -156.76107511977051, 21.16436813147121 ], [ -156.759860666624661, 21.163242479742671 ], [ -156.75928052121094, 21.161481087594819 ], [ -156.760933724424319, 21.161206742311705 ], [ -156.761753910848569, 21.162030330659434 ], [ -156.762055870221047, 21.162299813874554 ], [ -156.762919156992695, 21.160688881709913 ], [ -156.764731802612914, 21.160163487963043 ], [ -156.766102395990913, 21.16020785520838 ], [ -156.766406534038765, 21.159919134874894 ], [ -156.766704904440672, 21.159657587581293 ], [ -156.766992157365735, 21.159385045860187 ], [ -156.76732710702197, 21.159091439156587 ], [ -156.768453633011518, 21.158597025117459 ], [ -156.768834184375407, 21.15721779145775 ], [ -156.771554944773811, 21.156633459355792 ], [ -156.771937269799594, 21.157017481607276 ], [ -156.772516422624221, 21.157290598066137 ], [ -156.773368828359082, 21.157849069285842 ], [ -156.773819405471812, 21.158120488968457 ], [ -156.775109478997791, 21.157324594977943 ], [ -156.775401240817786, 21.157334054550436 ], [ -156.776264689897403, 21.157324111435528 ], [ -156.775677174613179, 21.156779654234882 ], [ -156.774811261372093, 21.156784866172099 ], [ -156.774248801598077, 21.15731895945121 ], [ -156.773925467628857, 21.157308487107084 ], [ -156.773007153593369, 21.156386105037527 ], [ -156.773412962400329, 21.155671837144709 ], [ -156.773408136000995, 21.154976370732655 ], [ -156.770530069429725, 21.154560733534073 ], [ -156.769189492457002, 21.153890384981608 ], [ -156.769981663580523, 21.153196234468357 ], [ -156.76968820488122, 21.152924165808965 ], [ -156.76941201673651, 21.152459458610618 ], [ -156.770572216550249, 21.152123082805225 ], [ -156.770978975993103, 21.151363989662045 ], [ -156.772469998566692, 21.150931689024453 ], [ -156.772900835500593, 21.150522857499688 ], [ -156.773199175124091, 21.150261295797353 ], [ -156.773486397380907, 21.149988740103602 ], [ -156.773821310509476, 21.149695249481422 ], [ -156.776072134468137, 21.149767974372121 ], [ -156.776670515033999, 21.149488787693368 ], [ -156.778360408272732, 21.149202306595321 ], [ -156.775811029463512, 21.149217557823309 ], [ -156.774359344179032, 21.14917068882821 ], [ -156.774378832628827, 21.148640430365639 ], [ -156.775466324705235, 21.148675499997779 ], [ -156.77568924763662, 21.147043099878697 ], [ -156.775111075848429, 21.148122059049069 ], [ -156.774528151381986, 21.148103215119601 ], [ -156.773780181663653, 21.148107728034908 ], [ -156.773223479697833, 21.148636142066721 ], [ -156.772636416399507, 21.148893903450329 ], [ -156.772349195045479, 21.14916645778165 ], [ -156.771068642870631, 21.149537705929241 ], [ -156.769747068758193, 21.149371209381446 ], [ -156.770340270259965, 21.148327260019848 ], [ -156.770904159681692, 21.146980129887154 ], [ -156.770059657029037, 21.147781738176594 ], [ -156.769559853187019, 21.14821987968585 ], [ -156.769196528396606, 21.147491776582555 ], [ -156.768548442636131, 21.147794289885383 ], [ -156.767433569033074, 21.148852712819586 ], [ -156.767437648729498, 21.14946463241154 ], [ -156.766264116053463, 21.150164451982391 ], [ -156.765695079441599, 21.150704514773128 ], [ -156.76539262129819, 21.150694699741635 ], [ -156.764517158749442, 21.150699933804578 ], [ -156.764542924818187, 21.149998127833715 ], [ -156.765411618975662, 21.149616795601442 ], [ -156.766844735748549, 21.148626149278872 ], [ -156.767166856778829, 21.147738165223508 ], [ -156.767789256011525, 21.147192781250659 ], [ -156.766597086260958, 21.147199868052017 ], [ -156.7666175034133, 21.146647070794735 ], [ -156.766103353157177, 21.146650072554355 ], [ -156.765456808112333, 21.1466054890839 ], [ -156.766050310150604, 21.145561361490248 ], [ -156.766048243538222, 21.14528552841611 ], [ -156.766356455293476, 21.144478516190048 ], [ -156.766193269465191, 21.144208890015285 ], [ -156.764894736940136, 21.145009967531351 ], [ -156.764308447040378, 21.144990978736821 ], [ -156.764343618367178, 21.144038161444218 ], [ -156.7672106939944, 21.143422347528144 ], [ -156.767813605200075, 21.143141068528703 ], [ -156.768107592163403, 21.14315063408311 ], [ -156.768684021884752, 21.14284856507123 ], [ -156.766232064335242, 21.142863178453641 ], [ -156.764924767408672, 21.142820916870992 ], [ -156.76498523160592, 21.141178124870233 ], [ -156.764395919545365, 21.1417372974004 ], [ -156.763787581609733, 21.142004404563405 ], [ -156.76316649245274, 21.142294225407401 ], [ -156.762626085527785, 21.142807209854482 ], [ -156.761750317781917, 21.143061116751795 ], [ -156.761169547580806, 21.143332149868804 ], [ -156.760757454600821, 21.142081076971508 ], [ -156.761503587559872, 21.14142709696176 ], [ -156.762210499418302, 21.141450004281587 ], [ -156.763235661491677, 21.141443912578758 ], [ -156.763228439256466, 21.140366125241062 ], [ -156.761580577870376, 21.140375888314981 ], [ -156.760937893585918, 21.139851294139454 ], [ -156.762674904171575, 21.139556922694695 ], [ -156.762962121271755, 21.139284384437957 ], [ -156.764126571122972, 21.1390342830171 ], [ -156.764702490714058, 21.138765554939045 ], [ -156.766020344038736, 21.138383531167545 ], [ -156.766446993599857, 21.13797029365309 ], [ -156.764572694104146, 21.137981465081204 ], [ -156.762982740657662, 21.137929968883078 ], [ -156.760823315952138, 21.138937769163949 ], [ -156.761251720587268, 21.138183549511314 ], [ -156.76154913411898, 21.137363704568568 ], [ -156.762962637998271, 21.137409508759411 ], [ -156.763572346303448, 21.137125026305714 ], [ -156.764138311508304, 21.137143350016952 ], [ -156.765019923330271, 21.136873234247307 ], [ -156.766035446544066, 21.136906151086841 ], [ -156.766475498806159, 21.136068798352007 ], [ -156.765351667069467, 21.136075461944266 ], [ -156.763475682377532, 21.135749681277098 ], [ -156.762594535238406, 21.134449224822763 ], [ -156.764286201740248, 21.133958787183666 ], [ -156.763712445091556, 21.133426979571983 ], [ -156.764504965265019, 21.133079163354719 ], [ -156.764502868399461, 21.132786596198251 ], [ -156.763933846241144, 21.132258952784692 ], [ -156.763657431018714, 21.131812755798983 ], [ -156.764957288287604, 21.13159247606789 ], [ -156.765051291923953, 21.131924022828542 ], [ -156.765307741800228, 21.131689831142744 ], [ -156.764957288287604, 21.13159247606789 ], [ -156.76531679347687, 21.130973317798805 ], [ -156.766259757773838, 21.131385845462979 ], [ -156.766840788339408, 21.131150112812417 ], [ -156.767155111524715, 21.131287597849514 ], [ -156.76751605246497, 21.130666072007813 ], [ -156.76862839204108, 21.130463793812549 ], [ -156.768832742679535, 21.130111575963493 ], [ -156.769312002248711, 21.130024433937557 ], [ -156.769418379313919, 21.130641472927536 ], [ -156.769684988801856, 21.130180016001738 ], [ -156.769312002248711, 21.130024433937557 ], [ -156.768637775934906, 21.129347264601019 ], [ -156.767465314891581, 21.129309387858711 ], [ -156.766313842353526, 21.12984674006691 ], [ -156.765195563225632, 21.127925217585599 ], [ -156.766166777306751, 21.127956684437009 ], [ -156.766599930314243, 21.127954064396761 ], [ -156.767151206314765, 21.127971917118 ], [ -156.768046440523534, 21.12757893878938 ], [ -156.767247846607177, 21.127148748397957 ], [ -156.766626603038162, 21.12715246123922 ], [ -156.766167444094179, 21.126726742614874 ], [ -156.7671160453867, 21.125895431198174 ], [ -156.766350309515445, 21.125512498175461 ], [ -156.766059007386275, 21.125514277643951 ], [ -156.765626111363304, 21.125500232794195 ], [ -156.764729929332788, 21.125505602628277 ], [ -156.765963658909698, 21.123616570033704 ], [ -156.766374937469351, 21.123887483280448 ], [ -156.766846342964044, 21.124361049737043 ], [ -156.768669290660483, 21.12473641735216 ], [ -156.769393064736249, 21.124607254971249 ], [ -156.769515032415455, 21.125030244004762 ], [ -156.770297387689055, 21.126319708639258 ], [ -156.771962847333128, 21.126537472354507 ], [ -156.772069234510866, 21.127154510663978 ], [ -156.772335828877004, 21.126693048105878 ], [ -156.771962847333128, 21.126537472354507 ], [ -156.77149875997651, 21.125327537128328 ], [ -156.771856400230746, 21.125056634318 ], [ -156.771805829551596, 21.124516061541112 ], [ -156.772724297288221, 21.12477405506386 ], [ -156.773785579659659, 21.125362972111201 ], [ -156.774146382613793, 21.125333255381488 ], [ -156.774434651898389, 21.125364690948167 ], [ -156.775012840127687, 21.125317060846605 ], [ -156.775600641318533, 21.125381068614107 ], [ -156.775869246184328, 21.125086300916799 ], [ -156.776555992211456, 21.124565992669844 ], [ -156.774671595709179, 21.124225352884107 ], [ -156.774803998689265, 21.123156668050754 ], [ -156.773914047362382, 21.12244321806234 ], [ -156.774307668183468, 21.122311214958451 ], [ -156.775619778081989, 21.122454120386418 ], [ -156.775078204787604, 21.12182495127287 ], [ -156.774766699138866, 21.121574946957679 ], [ -156.773882847470816, 21.120547937388551 ], [ -156.772794296700283, 21.120087837796063 ], [ -156.773277717641861, 21.119266506524507 ], [ -156.774532201080206, 21.11996259109246 ], [ -156.777044414964223, 21.121007008003691 ], [ -156.777708337487894, 21.118989291212451 ], [ -156.779005345781911, 21.119709183554647 ], [ -156.779483016291636, 21.119158141260659 ], [ -156.778136531189972, 21.117349649405849 ], [ -156.779419115331393, 21.116916575181023 ], [ -156.780632099480442, 21.117048614840915 ], [ -156.78148630171853, 21.116488410062285 ], [ -156.782636228372382, 21.116613656704864 ], [ -156.782090890857745, 21.115800653371565 ], [ -156.781108814784432, 21.115385654886133 ], [ -156.78164969690431, 21.114090021122923 ], [ -156.780421510044192, 21.113105231627049 ], [ -156.780320074880109, 21.112020642631602 ], [ -156.78270064840143, 21.112279867646226 ], [ -156.782163514061267, 21.111352151510879 ], [ -156.781015877890269, 21.110867126503109 ], [ -156.781304972016187, 21.110500124511056 ], [ -156.782713541825927, 21.110653490527252 ], [ -156.783113019783372, 21.109821104312839 ], [ -156.784158339901637, 21.109411869299031 ], [ -156.784490512037365, 21.108402530518578 ], [ -156.786515518743727, 21.108091143132214 ], [ -156.785249171151065, 21.107075730504725 ], [ -156.787154137228384, 21.106834727020395 ], [ -156.786702608401953, 21.106141224316861 ], [ -156.787430507055433, 21.106278514276703 ], [ -156.788586909661348, 21.106685033195848 ], [ -156.788558367759265, 21.106099705435966 ], [ -156.78721294738466, 21.104237458833001 ], [ -156.787790271298832, 21.103272451003537 ], [ -156.788677730768001, 21.103333637914588 ], [ -156.789315959745863, 21.104023221302 ], [ -156.790119364481484, 21.104715750171888 ], [ -156.790646634963025, 21.104693125262774 ], [ -156.7905928597323, 21.10358349468839 ], [ -156.791651437689779, 21.104141371419285 ], [ -156.791129201007209, 21.102204686640817 ], [ -156.791799759698279, 21.102558021698201 ], [ -156.792389612014688, 21.102821276525951 ], [ -156.792657672493419, 21.103111028736105 ], [ -156.79337296446792, 21.103375913986774 ], [ -156.792483353969033, 21.100943545523975 ], [ -156.794170214499928, 21.102082374122833 ], [ -156.79409299576082, 21.100496878519305 ], [ -156.795000504991691, 21.100974985097643 ], [ -156.795320979432773, 21.100961163049611 ], [ -156.795280792600266, 21.100131619675658 ], [ -156.79618344795179, 21.100193889681965 ], [ -156.796158596662337, 21.099681100061812 ], [ -156.797325983906774, 21.100469073990407 ], [ -156.797608793008209, 21.100180004919682 ], [ -156.797763171028436, 21.100054224573597 ], [ -156.797857236598134, 21.100385758930415 ], [ -156.798113580671071, 21.100151507416509 ], [ -156.797763171028436, 21.100054224573597 ], [ -156.797619132813224, 21.099651136895243 ], [ -156.79734489721406, 21.098499351647551 ], [ -156.79664741245108, 21.097219835745307 ], [ -156.804781502486833, 21.094107675848129 ], [ -156.808319910474125, 21.092892647816615 ], [ -156.808967440501277, 21.093567068736174 ], [ -156.809840775750445, 21.093838952368095 ], [ -156.81063104481305, 21.094661915042749 ], [ -156.810412830521813, 21.093528196236235 ], [ -156.809763290757274, 21.092336786348675 ], [ -156.815092305433666, 21.090506718486292 ], [ -156.815009956612698, 21.091954045084687 ], [ -156.815594762865885, 21.092562814758139 ], [ -156.816829779746541, 21.092855725164117 ], [ -156.81642339895518, 21.096913889767336 ], [ -156.817009254486976, 21.097182564961528 ], [ -156.816962984644277, 21.097994728007883 ], [ -156.817570688411706, 21.09827347204758 ], [ -156.81755474703553, 21.098553975584107 ], [ -156.817851128286065, 21.098818789223053 ], [ -156.817983796515108, 21.099232035591886 ], [ -156.817630661275444, 21.099320221564181 ], [ -156.817880031144313, 21.099561015581951 ], [ -156.817983796515108, 21.099232035591886 ], [ -156.818423529055508, 21.099372228996412 ], [ -156.818403731082725, 21.099916723986034 ], [ -156.818501009962318, 21.100726105152425 ], [ -156.81927396368684, 21.099652239101317 ], [ -156.81985700300109, 21.099670850413787 ], [ -156.819851158250515, 21.09883552690329 ], [ -156.821254782427388, 21.098880558503811 ], [ -156.81987833316424, 21.097129001044593 ], [ -156.819905146819423, 21.096393178870422 ], [ -156.820489445915143, 21.095880413551864 ], [ -156.820786435377585, 21.095060490923128 ], [ -156.821650118714729, 21.095088125354085 ], [ -156.821954299243032, 21.094799021176325 ], [ -156.821944744898531, 21.093443899697988 ], [ -156.823242261034011, 21.094092489367281 ], [ -156.823739030557022, 21.095599380043829 ], [ -156.824468109928858, 21.096738983982778 ], [ -156.825695667153781, 21.094856963037117 ], [ -156.827342196427509, 21.095275588553768 ], [ -156.829056886250299, 21.094749228084751 ], [ -156.827450451214787, 21.093260544841502 ], [ -156.826602870640414, 21.092010695284351 ], [ -156.824610717697112, 21.091071850305205 ], [ -156.824316751547997, 21.090776786147941 ], [ -156.823881160848828, 21.090372885233187 ], [ -156.823323240396775, 21.089813036064314 ], [ -156.822742459365486, 21.089274586651502 ], [ -156.822324023927877, 21.088854763728985 ], [ -156.821864522882464, 21.088428724237698 ], [ -156.830015174696655, 21.086383563781233 ], [ -156.830429917981405, 21.087641088803995 ], [ -156.830411556742035, 21.0881483029249 ], [ -156.83041684746641, 21.088890362607923 ], [ -156.831988031304235, 21.089116689714643 ], [ -156.832094659281722, 21.089733712165494 ], [ -156.832360998844592, 21.08927213117413 ], [ -156.831988031304235, 21.089116689714643 ], [ -156.831848542641922, 21.088976799792572 ], [ -156.831279413398221, 21.088449241733134 ], [ -156.831275758251422, 21.087943730073764 ], [ -156.832064600282308, 21.085763819295316 ], [ -156.833916038866562, 21.08575202138266 ], [ -156.834684742693725, 21.087291992060219 ], [ -156.835874568298408, 21.088486378983898 ], [ -156.835933950235443, 21.087890128511535 ], [ -156.835916307371207, 21.085430038668605 ], [ -156.840566620231385, 21.084746518608178 ], [ -156.841066891778638, 21.085748873548038 ], [ -156.841695956628399, 21.086676272398808 ], [ -156.842094862696229, 21.084236159560916 ], [ -156.850566111200521, 21.084624829489691 ], [ -156.862752510663512, 21.086839074585399 ], [ -156.871223384653092, 21.089509492781925 ], [ -156.884042360633515, 21.092621560839962 ], [ -156.89366896777824, 21.094861094818238 ], [ -156.895789159926522, 21.095535906030488 ], [ -156.899577555038093, 21.096873371513922 ], [ -156.905310668386477, 21.099387973536839 ], [ -156.918825454687806, 21.105054838397212 ], [ -156.928007430144248, 21.110323016369794 ], [ -156.933685454287996, 21.114366670826314 ], [ -156.943512863622686, 21.121354876957248 ], [ -156.953496599019786, 21.13123883726966 ], [ -156.957679390671274, 21.137901695411465 ], [ -156.961432612024907, 21.146509303297073 ], [ -156.963152871402201, 21.153738096538735 ], [ -156.963181746413824, 21.157296608885552 ], [ -156.962386817664196, 21.160496670459459 ], [ -156.959874012160299, 21.168183632780025 ], [ -156.959242291912801, 21.169366448256788 ], [ -156.957527123629774, 21.170998274252675 ], [ -156.954889394324283, 21.171016857088571 ], [ -156.953983030960785, 21.169727215806748 ], [ -156.954030452746821, 21.168391765614057 ], [ -156.954026058650555, 21.167849841462193 ], [ -156.954045422105679, 21.167303309915564 ], [ -156.953181752001143, 21.165229223705328 ], [ -156.953227432744598, 21.163938467386522 ], [ -156.952945383367648, 21.162255729654561 ], [ -156.952963465432333, 21.161740932889291 ], [ -156.952961551347016, 21.161469974183131 ], [ -156.952987434710735, 21.160736591859905 ], [ -156.952703250205388, 21.159270986502239 ], [ -156.952139886739673, 21.158211513301602 ], [ -156.951112138826062, 21.156157261940599 ], [ -156.949545741492813, 21.154120621491476 ], [ -156.948829080189995, 21.154098175344362 ], [ -156.94533928581572, 21.157163109856334 ], [ -156.944344767990543, 21.158387893388639 ], [ -156.942872847908262, 21.15999018058471 ], [ -156.942578397477035, 21.160804825818097 ], [ -156.941976536203157, 21.162146750095459 ], [ -156.941678328557629, 21.163232281292661 ], [ -156.941368985109023, 21.164306828035006 ], [ -156.940940064618275, 21.165868670393841 ], [ -156.940464007494569, 21.166759547456643 ], [ -156.939883781168618, 21.167269012896256 ], [ -156.938726127822548, 21.168878984497272 ], [ -156.936416601589485, 21.167793008798078 ], [ -156.936414211049254, 21.167497638534297 ], [ -156.938434821814013, 21.167061712806561 ], [ -156.93848247510104, 21.165719399875144 ], [ -156.936126389860959, 21.162726665019012 ], [ -156.93538303313909, 21.160478422997226 ], [ -156.93493221869258, 21.159630618295122 ], [ -156.934518901795911, 21.158804635677502 ], [ -156.934228168988625, 21.158535575858764 ], [ -156.933956388402379, 21.157714032710505 ], [ -156.933385789522617, 21.157186031858807 ], [ -156.933108871373946, 21.156349012992674 ], [ -156.932818145729328, 21.156079951278013 ], [ -156.932538851893952, 21.155800180938037 ], [ -156.932248128351887, 21.155531118399182 ], [ -156.931863380599793, 21.154761902303651 ], [ -156.930809229345357, 21.154426683553179 ], [ -156.929984325290746, 21.152777434838246 ], [ -156.92883177981065, 21.15278542163523 ], [ -156.92825253148095, 21.152496548764564 ], [ -156.927102372549513, 21.152130764141283 ], [ -156.927399454852264, 21.151131437312639 ], [ -156.927991611639442, 21.150086841669218 ], [ -156.927712705977854, 21.149780611079734 ], [ -156.927231263376655, 21.149335043732417 ], [ -156.926869357293754, 21.14785986133343 ], [ -156.926005894093322, 21.147060890512606 ], [ -156.926025854341447, 21.146498434193063 ], [ -156.925449756672293, 21.145965250286373 ], [ -156.925170495038003, 21.145685470160778 ], [ -156.924879804057639, 21.145416397370987 ], [ -156.924460915136876, 21.144996725861152 ], [ -156.923494459901576, 21.144102421886718 ], [ -156.922891782568257, 21.142968765568426 ], [ -156.922929760685378, 21.141903626485121 ], [ -156.922203829631258, 21.141175978618865 ], [ -156.921767814380729, 21.140772363178534 ], [ -156.921222654411508, 21.139681940151593 ], [ -156.92062427386287, 21.139940098407454 ], [ -156.919821197080154, 21.140315726784948 ], [ -156.919467254763987, 21.1396498555997 ], [ -156.919505668265714, 21.138575265131177 ], [ -156.91859064298302, 21.138284220971368 ], [ -156.918666700530594, 21.136150377098353 ], [ -156.917952219863594, 21.135434165619028 ], [ -156.917225293646709, 21.134761454434468 ], [ -156.916125368404494, 21.133658768651571 ], [ -156.916365494005873, 21.135040591532984 ], [ -156.917137356971409, 21.136492986178805 ], [ -156.916051101691522, 21.138525560728574 ], [ -156.914859325563185, 21.139571789530162 ], [ -156.915152751846421, 21.140187380664436 ], [ -156.916826587938289, 21.141736477212348 ], [ -156.917406165003939, 21.143711766046582 ], [ -156.917387527234695, 21.144237921704878 ], [ -156.917391549161437, 21.144777254529551 ], [ -156.916804205675561, 21.145292904645547 ], [ -156.917649724247667, 21.146140380653815 ], [ -156.918514397680298, 21.146687523929398 ], [ -156.918504335893914, 21.146963491084719 ], [ -156.918791510648106, 21.147503660997526 ], [ -156.919066977143672, 21.148054335964595 ], [ -156.919357941522208, 21.148323553962545 ], [ -156.919328749520304, 21.149141149244233 ], [ -156.920207498300954, 21.149954363087343 ], [ -156.920157522168694, 21.151351534014093 ], [ -156.920485739737956, 21.154991714689089 ], [ -156.921531738455712, 21.156959431867058 ], [ -156.921814612701155, 21.158112581248552 ], [ -156.922250674498287, 21.158516199995653 ], [ -156.922669591168329, 21.158935878977768 ], [ -156.922960301924121, 21.159204957012825 ], [ -156.92323202207524, 21.160026512941148 ], [ -156.924511429263589, 21.160835963717368 ], [ -156.924049013914754, 21.163553894518358 ], [ -156.924051375328617, 21.163829419362028 ], [ -156.923671390492274, 21.164499570198473 ], [ -156.924091363933456, 21.165289674381015 ], [ -156.923711008978984, 21.166289224687521 ], [ -156.923721350322069, 21.167629987265883 ], [ -156.922840261858113, 21.167602298569388 ], [ -156.922281423712889, 21.167606148038445 ], [ -156.920257172551658, 21.1662213801958 ], [ -156.918026832230083, 21.164590241839928 ], [ -156.916538983657432, 21.164002737574652 ], [ -156.913337440553818, 21.163669115898589 ], [ -156.909349126504196, 21.162400407298442 ], [ -156.909342973047728, 21.161613734705927 ], [ -156.909366638969033, 21.160953106206954 ], [ -156.906048682861922, 21.159297527895728 ], [ -156.904183443403753, 21.159238707407187 ], [ -156.903613347184233, 21.160304644050139 ], [ -156.902298230830411, 21.161117396957557 ], [ -156.902094136597185, 21.160048809710226 ], [ -156.902462086967631, 21.158397040950003 ], [ -156.903622406409312, 21.157378706294487 ], [ -156.903661352773213, 21.156295603684487 ], [ -156.903272362765961, 21.155517945920547 ], [ -156.901931383440598, 21.154886900119095 ], [ -156.901086086273835, 21.153787273856729 ], [ -156.900506667613456, 21.153514578861639 ], [ -156.900228522889591, 21.152958288657207 ], [ -156.899648027308018, 21.152962195106014 ], [ -156.898795113674055, 21.152404190080862 ], [ -156.897930772084152, 21.151857019205774 ], [ -156.896047049001453, 21.150478961238257 ], [ -156.89454909090577, 21.150862618883913 ], [ -156.892997654414671, 21.154107870397908 ], [ -156.892974390109089, 21.154755201941846 ], [ -156.89352735078927, 21.156896771728643 ], [ -156.892581250776686, 21.159135752728822 ], [ -156.891774434704956, 21.159902829532395 ], [ -156.891739875329478, 21.15941557539913 ], [ -156.891788245363614, 21.158071659381982 ], [ -156.891367144301881, 21.155423739667572 ], [ -156.889885191634477, 21.153937845676783 ], [ -156.888354213428414, 21.153623738396085 ], [ -156.886358870056029, 21.153636985708751 ], [ -156.886726929921963, 21.151650241574753 ], [ -156.888582702255093, 21.150021520419998 ], [ -156.889597055752631, 21.14865711369168 ], [ -156.889631515780337, 21.147698183840355 ], [ -156.888949319248411, 21.147357629018288 ], [ -156.887448885293423, 21.147698464555919 ], [ -156.883679286791278, 21.147579196862981 ], [ -156.882107823581237, 21.147936160752479 ], [ -156.882399698717819, 21.147323084628596 ], [ -156.885009643457153, 21.146564507632821 ], [ -156.884761469227584, 21.144101497160136 ], [ -156.882619133165463, 21.142342586080265 ], [ -156.882205180190425, 21.141089330021639 ], [ -156.881650220032327, 21.13949935391652 ], [ -156.885673827070349, 21.140861768564591 ], [ -156.888483229386026, 21.141899524509316 ], [ -156.888849834184384, 21.140886001524549 ], [ -156.889438962644761, 21.140368756500092 ], [ -156.887814956313719, 21.139604306689712 ], [ -156.886853782647307, 21.138714506669842 ], [ -156.886578454306914, 21.13816379003686 ], [ -156.886165070830344, 21.137385399727695 ], [ -156.887455507927598, 21.137010264277247 ], [ -156.886909578252272, 21.136092707102488 ], [ -156.885179498163353, 21.134997446414527 ], [ -156.886643235751052, 21.135187039356058 ], [ -156.88804895826874, 21.135888780761508 ], [ -156.887789168007117, 21.134102547918054 ], [ -156.886946880696371, 21.133322842903922 ], [ -156.890067511481988, 21.13300458121676 ], [ -156.889246650712607, 21.132244666834588 ], [ -156.889840591138523, 21.131723442583993 ], [ -156.888410624855453, 21.131142526343321 ], [ -156.886973281338499, 21.130684998524114 ], [ -156.887265484720388, 21.130044529325598 ], [ -156.887847717846256, 21.129533352019152 ], [ -156.885978663608427, 21.129353860620057 ] ], [ [ -156.776270538141404, 21.14745439757732 ], [ -156.776364574076609, 21.147785940591106 ], [ -156.776621037714648, 21.147551732996973 ], [ -156.776270538141404, 21.14745439757732 ] ], [ [ -156.782500521550048, 21.116922876370584 ], [ -156.782594559231399, 21.117254416547979 ], [ -156.782850956628323, 21.117020193230669 ], [ -156.782500521550048, 21.116922876370584 ] ], [ [ -156.862063588846183, 21.145850921637876 ], [ -156.862282132647721, 21.146697410697339 ], [ -156.863038522361677, 21.146500794776685 ], [ -156.862063588846183, 21.145850921637876 ] ], [ [ -156.859484409228202, 21.144463696902324 ], [ -156.859762167970246, 21.146133961342791 ], [ -156.860377848352471, 21.146760387945527 ], [ -156.860757355392792, 21.145922913809589 ], [ -156.861188442964078, 21.146461811035568 ], [ -156.861859486342013, 21.145668432249543 ], [ -156.859484409228202, 21.144463696902324 ] ], [ [ -156.858337257903713, 21.143907335537836 ], [ -156.858445026684194, 21.144610812777668 ], [ -156.858818890563725, 21.145107783650783 ], [ -156.859317917282993, 21.144156735333151 ], [ -156.858337257903713, 21.143907335537836 ] ], [ [ -156.847857595089692, 21.129686411864693 ], [ -156.847719353547006, 21.129827722636719 ], [ -156.846255783534161, 21.130064822569874 ], [ -156.844413648311274, 21.130973867268438 ], [ -156.844805110910841, 21.131671898657288 ], [ -156.845061579840348, 21.132774065683407 ], [ -156.845965225272948, 21.136120438118862 ], [ -156.847204102635544, 21.139025531075077 ], [ -156.848453365465986, 21.140101625060087 ], [ -156.848990127702308, 21.140680784809298 ], [ -156.849580243065134, 21.140943993252453 ], [ -156.851864869125876, 21.142309430823257 ], [ -156.852133120760698, 21.143166084316963 ], [ -156.852742946642763, 21.14286519791651 ], [ -156.854760464942103, 21.143003756381919 ], [ -156.854703394956459, 21.143735372741506 ], [ -156.855318011069727, 21.143708834351095 ], [ -156.855294861879656, 21.144004268216392 ], [ -156.855354179189732, 21.145212071160973 ], [ -156.855911074996101, 21.14563001095728 ], [ -156.856500993959514, 21.14502737717066 ], [ -156.857279397230656, 21.142771026951838 ], [ -156.856770166180922, 21.141863175610737 ], [ -156.856509702144223, 21.14103189303885 ], [ -156.854811466196736, 21.137503584584891 ], [ -156.853814162672677, 21.134967505253027 ], [ -156.854047277179546, 21.131978196867419 ], [ -156.854650317858386, 21.130969676791786 ], [ -156.853796876712579, 21.13023452400234 ], [ -156.848569115900773, 21.12983852183401 ], [ -156.847857595089692, 21.129686411864693 ] ], [ [ -156.890155934413258, 21.140243091028793 ], [ -156.890250227238596, 21.140574592304599 ], [ -156.890506514916297, 21.140340195378485 ], [ -156.890155934413258, 21.140243091028793 ] ], [ [ -156.896265240010962, 21.137067986690223 ], [ -156.896618748990647, 21.138435755730235 ], [ -156.897407215698109, 21.138818409639278 ], [ -156.897059916142894, 21.13726987899172 ], [ -156.896265240010962, 21.137067986690223 ] ], [ [ -156.900303620591274, 21.137389054922014 ], [ -156.900462206869605, 21.136981981826565 ], [ -156.900163087682756, 21.136715147299881 ], [ -156.899858606723825, 21.136088483731534 ], [ -156.899010285939227, 21.13533111582835 ], [ -156.899626779345482, 21.134809143500078 ], [ -156.898968056071283, 21.133245837515648 ], [ -156.90095117417701, 21.13426208074366 ], [ -156.901369718665649, 21.133457655274981 ], [ -156.901975604630479, 21.133487719937964 ], [ -156.901952519962464, 21.132663598160523 ], [ -156.9023764528622, 21.132136780551861 ], [ -156.904281439110576, 21.134117668942096 ], [ -156.904837462698879, 21.132880560599734 ], [ -156.903194557423433, 21.131413961036639 ], [ -156.902853687374602, 21.131008239148709 ], [ -156.905170705423075, 21.131361825760752 ], [ -156.905140455460838, 21.130283749480196 ], [ -156.90546694719356, 21.130007267043386 ], [ -156.905449631792976, 21.129393226219829 ], [ -156.904339520641116, 21.128402462012577 ], [ -156.904053999045004, 21.127790856555634 ], [ -156.905168226539899, 21.127846116699388 ], [ -156.906910374783308, 21.129212654716898 ], [ -156.907485118616194, 21.129411116045041 ], [ -156.906822215602801, 21.12755833275364 ], [ -156.905799349716517, 21.127583719930357 ], [ -156.904970335275948, 21.127159000528476 ], [ -156.905644205917724, 21.12600132934314 ], [ -156.904657769716067, 21.125120840512494 ], [ -156.904388794136025, 21.124515988840297 ], [ -156.905440712962076, 21.123625326452995 ], [ -156.904459863338474, 21.122749735134089 ], [ -156.904130652956496, 21.122338009380954 ], [ -156.906751605699185, 21.122886485585347 ], [ -156.908384598879934, 21.123970738054027 ], [ -156.908687292370416, 21.126274015351679 ], [ -156.909385072800944, 21.124655721839275 ], [ -156.910431910153392, 21.1251921808501 ], [ -156.912172186535798, 21.125526180399568 ], [ -156.913060023931735, 21.124650576755688 ], [ -156.912985874736052, 21.122030503992587 ], [ -156.911522739854774, 21.121360342571375 ], [ -156.909985998430727, 21.121717953071961 ], [ -156.90900927793021, 21.121069514678471 ], [ -156.907333723680949, 21.121111065082388 ], [ -156.907039681535821, 21.120805082287042 ], [ -156.905575636564862, 21.120523992899958 ], [ -156.907207681889702, 21.119563561535472 ], [ -156.906442949785941, 21.118881018242696 ], [ -156.905611955285792, 21.11890163601236 ], [ -156.905338827124325, 21.118552650367157 ], [ -156.90737032920515, 21.117839113806632 ], [ -156.907362641311749, 21.117563060845203 ], [ -156.907385539508709, 21.117156947244254 ], [ -156.90736757287533, 21.116528213064829 ], [ -156.906453325726261, 21.11538953831975 ], [ -156.904465659879037, 21.116015701380476 ], [ -156.903356593343716, 21.115780128905996 ], [ -156.904521175347895, 21.115094721132525 ], [ -156.905101268585923, 21.114105086667056 ], [ -156.903633272847514, 21.112103500539838 ], [ -156.902528967996403, 21.112634473467956 ], [ -156.901737837883957, 21.11222899829222 ], [ -156.901364886770779, 21.111461065013312 ], [ -156.90140700765437, 21.110711633424287 ], [ -156.901036468432608, 21.110033157745427 ], [ -156.899647207028352, 21.109615766445938 ], [ -156.89910479648691, 21.110150902923802 ], [ -156.898463302562931, 21.110693936572673 ], [ -156.897792705612972, 21.110660615738613 ], [ -156.897309256234507, 21.110672608870992 ], [ -156.896795948198417, 21.110082443089496 ], [ -156.897598394565279, 21.109402772985888 ], [ -156.899127989676856, 21.107702500617407 ], [ -156.899809347886503, 21.107411043952446 ], [ -156.901164321610764, 21.107478364815556 ], [ -156.901153004748153, 21.107080163283445 ], [ -156.900012640801634, 21.10636886750116 ], [ -156.900030278840575, 21.106057145759067 ], [ -156.900612965368396, 21.105563778245031 ], [ -156.901745481044571, 21.10444658814486 ], [ -156.902128862758929, 21.102365246981648 ], [ -156.901778381772061, 21.101785181284825 ], [ -156.901050454957613, 21.102503236949488 ], [ -156.900639636873137, 21.103667595464398 ], [ -156.90030881746759, 21.104235520728693 ], [ -156.899169651237656, 21.104722916984365 ], [ -156.899200136312203, 21.105802121091603 ], [ -156.897916855564745, 21.106351088234589 ], [ -156.895963447811056, 21.106254089215888 ], [ -156.89605591310621, 21.1046151062042 ], [ -156.894999576598394, 21.103326715593123 ], [ -156.892253100101584, 21.104647232100394 ], [ -156.89166081448127, 21.104900476251295 ], [ -156.891362945250137, 21.106266762403685 ], [ -156.890790783230273, 21.105973368008357 ], [ -156.889122221846037, 21.105652826516589 ], [ -156.887880623750249, 21.104828276006991 ], [ -156.886183719288937, 21.104300717698965 ], [ -156.881265040216618, 21.102104422813191 ], [ -156.877152212536515, 21.100825721759627 ], [ -156.876722691851427, 21.100378762300821 ], [ -156.87586642647355, 21.100399916670234 ], [ -156.875551933343559, 21.100072397414532 ], [ -156.87445424671094, 21.100099514679791 ], [ -156.87238508320317, 21.099666108875969 ], [ -156.872423117792692, 21.098995354190603 ], [ -156.872071838355168, 21.098163745083188 ], [ -156.87104697752531, 21.099174393961885 ], [ -156.866062072989507, 21.098011610480182 ], [ -156.863472602423712, 21.097513739705771 ], [ -156.863207009767052, 21.096687296643847 ], [ -156.861710203466657, 21.096001297347652 ], [ -156.861795099304942, 21.094502487690583 ], [ -156.861333851064984, 21.094090414285734 ], [ -156.859926621160781, 21.094533417187805 ], [ -156.859466148925833, 21.095837650315975 ], [ -156.858866086476411, 21.096632530664444 ], [ -156.858576916028881, 21.097451972427219 ], [ -156.856910965822721, 21.097728700750483 ], [ -156.855969729898703, 21.097405527398696 ], [ -156.855680958804896, 21.097960392975413 ], [ -156.854819680190445, 21.097664682111517 ], [ -156.854065533255834, 21.097683182838182 ], [ -156.853654396012558, 21.098473422051015 ], [ -156.851892758750353, 21.098972321062323 ], [ -156.850250419590623, 21.099761364209861 ], [ -156.848974255274442, 21.100122855307912 ], [ -156.849270095914733, 21.10250380679436 ], [ -156.850413142006033, 21.103027744037885 ], [ -156.851129720222531, 21.10450429109412 ], [ -156.852695508683667, 21.104140370557097 ], [ -156.854889546089026, 21.103907546738398 ], [ -156.859391316036834, 21.104595738045205 ], [ -156.861689327435755, 21.106296069470634 ], [ -156.863925649165054, 21.106991530576813 ], [ -156.864487676899699, 21.107279857653996 ], [ -156.865531378752138, 21.10775826294342 ], [ -156.867747935520498, 21.109070419095129 ], [ -156.869071261395277, 21.110049329043392 ], [ -156.870115807522012, 21.109720496116033 ], [ -156.872323923375291, 21.109830386423489 ], [ -156.873339967116038, 21.110887558035419 ], [ -156.875259219327347, 21.111978938668024 ], [ -156.878285729919213, 21.112319539548853 ], [ -156.880762461679609, 21.112697793175673 ], [ -156.883328939974319, 21.114402801059818 ], [ -156.885531330456189, 21.116693504305928 ], [ -156.888035808428782, 21.116234348225188 ], [ -156.890124012490958, 21.115999757080928 ], [ -156.89120738404614, 21.116555103443456 ], [ -156.892961733473413, 21.117358763362745 ], [ -156.894233087710035, 21.118681196303214 ], [ -156.895319718069146, 21.120306915269346 ], [ -156.895750211889379, 21.126986807833887 ], [ -156.896766938064275, 21.1308336564692 ], [ -156.897639830599644, 21.132905239721985 ], [ -156.897536779712283, 21.134732732453486 ], [ -156.896806717842566, 21.136607203646051 ], [ -156.898434503325973, 21.137225236603634 ], [ -156.89955945939721, 21.138604561308739 ], [ -156.899870347375355, 21.138596843395774 ], [ -156.899840116058414, 21.137520423432708 ], [ -156.900303620591274, 21.137389054922014 ], [ -156.900397935344671, 21.137720552380902 ], [ -156.900654203164521, 21.137486138260719 ], [ -156.900303620591274, 21.137389054922014 ] ], [ [ -156.843641698683228, 21.10172773863037 ], [ -156.843349967863986, 21.102112949855933 ], [ -156.842595499977023, 21.102366863725837 ], [ -156.842355209376223, 21.102684467785515 ], [ -156.841381419730396, 21.103189706221912 ], [ -156.843069231332322, 21.104078463728349 ], [ -156.84533043229618, 21.103587734481998 ], [ -156.845764093483837, 21.102862362361662 ], [ -156.844495584426568, 21.102398445160322 ], [ -156.844099573489302, 21.101844154476865 ], [ -156.843641698683228, 21.10172773863037 ] ] ] } }
]
}
