{
"type": "FeatureCollection",
"name": "cyrspat",
"crs": { "type": "name", "properties": { "name": "urn:ogc:def:crs:OGC:1.3:CRS84" } },
"features": [
{ "type": "Feature", "properties": { "ID": 1, "GRIDCODE": 2 }, "geometry": { "type": "Polygon", "coordinates": [ [ [ -156.580242972516231, 20.894463995480368 ], [ -156.579893217804567, 20.894366319457134 ], [ -156.58014948174889, 20.894132390214569 ], [ -156.580242972516231, 20.894463995480368 ] ] ] } },
{ "type": "Feature", "properties": { "ID": 2, "GRIDCODE": 2 }, "geometry": { "type": "Polygon", "coordinates": [ [ [ -156.591818508107792, 20.891647723392225 ], [ -156.591468749614762, 20.891550070964346 ], [ -156.591724992241666, 20.891316122058893 ], [ -156.591818508107792, 20.891647723392225 ] ] ] } },
{ "type": "Feature", "properties": { "ID": 3, "GRIDCODE": 2 }, "geometry": { "type": "Polygon", "coordinates": [ [ [ -156.131020959030593, 20.8577211519627 ], [ -156.130915965863863, 20.85804958339709 ], [ -156.130668171225693, 20.857807931685812 ], [ -156.131020959030593, 20.8577211519627 ] ] ] } },
{ "type": "Feature", "properties": { "ID": 4, "GRIDCODE": 2 }, "geometry": { "type": "Polygon", "coordinates": [ [ [ -156.555387591675441, 20.82720069868293 ], [ -156.561581676588361, 20.827421783039572 ], [ -156.563134401693304, 20.827819395835558 ], [ -156.563664360867847, 20.82835403346791 ], [ -156.565476006847547, 20.832004146853322 ], [ -156.567004748822001, 20.834195115019959 ], [ -156.569770404737739, 20.836413022998649 ], [ -156.572198919054387, 20.837006185762618 ], [ -156.57723586713908, 20.837434396114279 ], [ -156.58326081601632, 20.839468831835614 ], [ -156.585128660289712, 20.840569898121451 ], [ -156.586540571382045, 20.841993348406589 ], [ -156.586946448091652, 20.844581686727935 ], [ -156.587591383730398, 20.84580358181822 ], [ -156.589938519526896, 20.846556206707014 ], [ -156.592390728457787, 20.846543759069309 ], [ -156.59884012729313, 20.843772621667711 ], [ -156.601789714413684, 20.843164902338955 ], [ -156.605052373670446, 20.844378156134955 ], [ -156.607882597622563, 20.846460168316902 ], [ -156.610065914442714, 20.850037327055393 ], [ -156.610568455659688, 20.85574230736497 ], [ -156.61156655813997, 20.858157675498635 ], [ -156.616080458583099, 20.861774836978491 ], [ -156.616912993473704, 20.862613811998322 ], [ -156.621308452445817, 20.869355115950128 ], [ -156.621963839531674, 20.872779822660721 ], [ -156.621887624547469, 20.874813805427536 ], [ -156.62070283879649, 20.878640289490576 ], [ -156.620395865695173, 20.880186271629626 ], [ -156.621338846293867, 20.886493006790325 ], [ -156.621736534444352, 20.887640862047885 ], [ -156.626738040527442, 20.900862978731539 ], [ -156.632697046438381, 20.916001980774521 ], [ -156.634987334732045, 20.923780532404407 ], [ -156.635434650040338, 20.931409856860942 ], [ -156.636695104321916, 20.941289063830123 ], [ -156.636173628256671, 20.955213255569689 ], [ -156.634873533959535, 20.96222044180135 ], [ -156.632606376687221, 20.969190754933731 ], [ -156.628475368992241, 20.975702802782244 ], [ -156.626475455639593, 20.977454815637586 ], [ -156.616887071743463, 20.985589810017064 ], [ -156.614629408666843, 20.986935281876875 ], [ -156.61116978362594, 20.98767617201074 ], [ -156.601330863841099, 20.987810566798942 ], [ -156.599089081540797, 20.987237180784103 ], [ -156.597385300332803, 20.986947542606686 ], [ -156.594259832075295, 20.989490889075828 ], [ -156.592701917307664, 20.989941335569792 ], [ -156.589241313143447, 20.990348692886656 ], [ -156.580815152345451, 20.987675407767775 ], [ -156.56861464340065, 20.98282402152023 ], [ -156.566540778974513, 20.981602120542814 ], [ -156.562535399499097, 20.977144511443452 ], [ -156.561056126654108, 20.973223124026052 ], [ -156.559627208829255, 20.9718937262016 ], [ -156.557888356189267, 20.971336027206927 ], [ -156.551948702144159, 20.970643525009784 ], [ -156.547353281788219, 20.969233976632371 ], [ -156.545259640878953, 20.967693852764665 ], [ -156.542677244436931, 20.964457998339263 ], [ -156.539741999268642, 20.960108221797565 ], [ -156.538689360324298, 20.957316598449562 ], [ -156.538121337072482, 20.954340316074642 ], [ -156.538302521428335, 20.949584482386296 ], [ -156.538885457280116, 20.947104683592297 ], [ -156.539195385940786, 20.945441396230304 ], [ -156.538535252083847, 20.943534887714065 ], [ -156.537689188939822, 20.942322610335527 ], [ -156.536159016242721, 20.941222397898539 ], [ -156.533513299812597, 20.940254976336824 ], [ -156.532525174104904, 20.939604742454769 ], [ -156.531728485105987, 20.937171536787627 ], [ -156.530907029513145, 20.930944154725946 ], [ -156.531696218928232, 20.922562560338751 ], [ -156.532734993674637, 20.917327890261408 ], [ -156.533178411738788, 20.911359778158406 ], [ -156.532415992678807, 20.9040511671266 ], [ -156.531444277457325, 20.90052026444268 ], [ -156.530199571683397, 20.897279707369648 ], [ -156.529897972002345, 20.89462140044224 ], [ -156.530648850056537, 20.890262400137061 ], [ -156.531987147093901, 20.888467154750984 ], [ -156.534961627120254, 20.88686520376158 ], [ -156.536866778834906, 20.885464839323809 ], [ -156.537714781906487, 20.884660435165255 ], [ -156.538199419488137, 20.882852696660208 ], [ -156.537486537452679, 20.880792667573914 ], [ -156.536357798755176, 20.87974180211468 ], [ -156.533319223783337, 20.879298402051528 ], [ -156.531509227365547, 20.878686725735882 ], [ -156.529050080939186, 20.876206099613359 ], [ -156.528170311286374, 20.87351774148857 ], [ -156.528347989929131, 20.868851394747608 ], [ -156.529406811777505, 20.865202348113321 ], [ -156.531589122731845, 20.862274096082498 ], [ -156.534145959702556, 20.860896892973386 ], [ -156.536862855955292, 20.858761805313801 ], [ -156.538217033353988, 20.857954750218443 ], [ -156.538948322054324, 20.856287443787419 ], [ -156.538939584891835, 20.854697713803887 ], [ -156.537535406345711, 20.852684622007011 ], [ -156.536616198727415, 20.850392009254453 ], [ -156.536812602284414, 20.845227103476532 ], [ -156.538063248893877, 20.840502336161244 ], [ -156.540019420224439, 20.835386251493876 ], [ -156.54124572935828, 20.833740315777874 ], [ -156.545532392571374, 20.83033952371019 ], [ -156.550825331686269, 20.828018298369482 ], [ -156.555244143226787, 20.82733674153021 ], [ -156.555387591675441, 20.82720069868293 ] ], [ [ -156.565806926324342, 20.895884262750521 ], [ -156.56556561909926, 20.896323796843532 ], [ -156.566599680028702, 20.896528336827405 ], [ -156.567343055343116, 20.896010239903678 ], [ -156.565806926324342, 20.895884262750521 ] ], [ [ -156.593233567519917, 20.893293021117358 ], [ -156.593362398705978, 20.893899319544154 ], [ -156.59390655614061, 20.893652095083507 ], [ -156.593233567519917, 20.893293021117358 ] ], [ [ -156.591818508107792, 20.891647723392225 ], [ -156.592553116976006, 20.891778575025736 ], [ -156.593380824374634, 20.892091021851506 ], [ -156.594633341232736, 20.892349658684459 ], [ -156.594530372489913, 20.891462778620731 ], [ -156.59577174559135, 20.891625617045083 ], [ -156.595674967540731, 20.890791468596603 ], [ -156.596040060220389, 20.890227040384559 ], [ -156.595965564034316, 20.88958447127132 ], [ -156.594865653733819, 20.889130643512512 ], [ -156.594909178893289, 20.888837082454824 ], [ -156.59438588680203, 20.887970740588486 ], [ -156.593732888752328, 20.88831907924309 ], [ -156.593491122613813, 20.887186599071025 ], [ -156.592306488353017, 20.886928120162434 ], [ -156.592392913578124, 20.886345356093337 ], [ -156.59060472261649, 20.88663628601617 ], [ -156.590313702462481, 20.886598189057818 ], [ -156.589849321886305, 20.886645740048476 ], [ -156.588958233595491, 20.887660130333686 ], [ -156.588067811138671, 20.887997953845947 ], [ -156.587129018420598, 20.887874783672601 ], [ -156.586548186373335, 20.88874394021542 ], [ -156.585935871536719, 20.888976290422484 ], [ -156.584928515334127, 20.889513761698232 ], [ -156.582860755261123, 20.889821950297311 ], [ -156.582192474478347, 20.88973419141703 ], [ -156.5807369845881, 20.889883427825108 ], [ -156.578325283566642, 20.890275576652282 ], [ -156.577708691835198, 20.890194617240706 ], [ -156.575109001137236, 20.891581508947741 ], [ -156.574669097315621, 20.891523812134412 ], [ -156.574380365917676, 20.891553310399619 ], [ -156.573981475903651, 20.891500955805085 ], [ -156.573369025811672, 20.890759743846775 ], [ -156.572946768922208, 20.892072882290449 ], [ -156.572310197256144, 20.892866192561588 ], [ -156.570079443837443, 20.894009969538462 ], [ -156.569314079561707, 20.894880664640848 ], [ -156.56858655799067, 20.89541143029258 ], [ -156.567633458376946, 20.895772849390394 ], [ -156.569941727203144, 20.897002348430856 ], [ -156.57025165828918, 20.896338923503851 ], [ -156.570688912813523, 20.896019888788668 ], [ -156.57143474127875, 20.896117923559295 ], [ -156.572011440400757, 20.895810126321457 ], [ -156.572272935591201, 20.896126662410122 ], [ -156.574290306667024, 20.896699877212807 ], [ -156.5748621540356, 20.896641199266579 ], [ -156.575152097607798, 20.896992261242431 ], [ -156.576096783108056, 20.896488356450007 ], [ -156.577056386140754, 20.896194571399114 ], [ -156.578298274712921, 20.896904486642196 ], [ -156.580322581822855, 20.897346121300995 ], [ -156.580615981022021, 20.897166684410625 ], [ -156.580051341949655, 20.89623186300112 ], [ -156.58012741338942, 20.89571893484203 ], [ -156.579771193757296, 20.895129118148645 ], [ -156.580108160268139, 20.894883369750932 ], [ -156.580242972516231, 20.894463995480368 ], [ -156.580980954764755, 20.894858429336491 ], [ -156.581212470872828, 20.895448197891248 ], [ -156.581801856395913, 20.895858116935067 ], [ -156.582090809775366, 20.894603248428442 ], [ -156.582971200902023, 20.893576846232726 ], [ -156.583360896863923, 20.895557170764633 ], [ -156.584608616309112, 20.895095860580664 ], [ -156.583871228785114, 20.897792368605149 ], [ -156.584641243945896, 20.897348243819629 ], [ -156.585382544030921, 20.89713253903194 ], [ -156.585173246227441, 20.898055348853621 ], [ -156.585396607410217, 20.89920860690432 ], [ -156.586867816533271, 20.899595789093365 ], [ -156.587289233318273, 20.900670364392912 ], [ -156.587124180591076, 20.901396981711319 ], [ -156.587406311150716, 20.901992485653611 ], [ -156.588122699335827, 20.901082521553231 ], [ -156.587926616320999, 20.900070519846636 ], [ -156.588541734396728, 20.900193884449852 ], [ -156.589502897538154, 20.90156442716237 ], [ -156.589771318913989, 20.901027752556089 ], [ -156.589201382062924, 20.900155710218883 ], [ -156.589300716622461, 20.899717969875695 ], [ -156.5898537527884, 20.89935726460094 ], [ -156.589702392144829, 20.898576047935148 ], [ -156.58998118486852, 20.898394139494361 ], [ -156.590074699471558, 20.898725741587114 ], [ -156.590330957456388, 20.89849179634864 ], [ -156.58998118486852, 20.898394139494361 ], [ -156.590299527965499, 20.898044935444283 ], [ -156.591407488616539, 20.899337381876485 ], [ -156.592127556700433, 20.898547287965922 ], [ -156.592492304633197, 20.898271218599501 ], [ -156.591780485839053, 20.897698367945566 ], [ -156.592153494227347, 20.896922295116944 ], [ -156.592518237858656, 20.896646225260941 ], [ -156.591851730103741, 20.896109859673803 ], [ -156.593612100225357, 20.895840623644595 ], [ -156.592473193591616, 20.89414128351747 ], [ -156.591658277018638, 20.893485501414546 ], [ -156.591989409232838, 20.893374695096714 ], [ -156.593073000031296, 20.893493929241561 ], [ -156.592537301759478, 20.892593412927798 ], [ -156.591818508107792, 20.891647723392225 ] ], [ [ -156.591943820610908, 20.88379358360816 ], [ -156.591850307432537, 20.883461982512674 ], [ -156.591594079666663, 20.883695933117512 ], [ -156.591943820610908, 20.88379358360816 ], [ -156.591939500456363, 20.884064416146472 ], [ -156.592227681453522, 20.884068476018665 ], [ -156.592321195713708, 20.884400077003246 ], [ -156.592577423788157, 20.884166125331511 ], [ -156.592227681453522, 20.884068476018665 ], [ -156.592232001092242, 20.883797643422909 ], [ -156.591943820610908, 20.88379358360816 ] ], [ [ -156.590090811068876, 20.873473523178369 ], [ -156.59018431649946, 20.873805124611469 ], [ -156.590440527731317, 20.873571174454334 ], [ -156.590090811068876, 20.873473523178369 ] ] ] } },
{ "type": "Feature", "properties": { "ID": 5, "GRIDCODE": 2 }, "geometry": { "type": "Polygon", "coordinates": [ [ [ -156.219360449810182, 20.78551289279531 ], [ -156.219465187185961, 20.785184376973685 ], [ -156.219713036335236, 20.785425904457064 ], [ -156.219360449810182, 20.78551289279531 ] ] ] } },
{ "type": "Feature", "properties": { "ID": 6, "GRIDCODE": 2 }, "geometry": { "type": "Polygon", "coordinates": [ [ [ -156.219360449810182, 20.78551289279531 ], [ -156.219190400299141, 20.786489271376766 ], [ -156.219192928316005, 20.787195231107528 ], [ -156.220611773066452, 20.788103468911594 ], [ -156.220889005946788, 20.788384086688044 ], [ -156.221194550256456, 20.788654583232812 ], [ -156.221837372480962, 20.788046621918678 ], [ -156.223023588499899, 20.787606148783976 ], [ -156.222360330947538, 20.789330455145219 ], [ -156.223749092810863, 20.78977929525302 ], [ -156.224380576150679, 20.79009817401699 ], [ -156.225163147318909, 20.790890814562577 ], [ -156.225451834381232, 20.791161031929384 ], [ -156.226265621019081, 20.791985250893713 ], [ -156.227447480840794, 20.792276652843892 ], [ -156.227986797452047, 20.792822681059356 ], [ -156.228584330085027, 20.793107539591563 ], [ -156.229149512864865, 20.793392799282742 ], [ -156.230806822531008, 20.793724922098196 ], [ -156.23303453620386, 20.793718164634797 ], [ -156.233468805631418, 20.79373350227872 ], [ -156.234242353745543, 20.793374502564273 ], [ -156.234897961100501, 20.794038498473011 ], [ -156.236553002903491, 20.794033437286849 ], [ -156.238060449185326, 20.794349058925722 ], [ -156.240742704875885, 20.794666911785963 ], [ -156.24151369551123, 20.794664503870603 ], [ -156.242091605113814, 20.794684907597311 ], [ -156.243822819221094, 20.7944358175404 ], [ -156.24467792981244, 20.794726349844375 ], [ -156.246905990346278, 20.795027684602044 ], [ -156.249800624294124, 20.793904543404121 ], [ -156.250794256681104, 20.793443329358311 ], [ -156.251334832405206, 20.792932000376844 ], [ -156.252244951022448, 20.792391412726808 ], [ -156.252794102101888, 20.791872016341287 ], [ -156.253391100166056, 20.791350606861069 ], [ -156.254241575465585, 20.790545880344748 ], [ -156.255149138377163, 20.790285068555988 ], [ -156.255712582123124, 20.789752003798764 ], [ -156.256676313794998, 20.789231025948443 ], [ -156.258872400841909, 20.791455093275918 ], [ -156.267530252999023, 20.800553841238894 ], [ -156.275427940711268, 20.811200823481759 ], [ -156.280813546307002, 20.81940842199197 ], [ -156.283376842307717, 20.823286026265166 ], [ -156.289235923731155, 20.831995554565562 ], [ -156.292876113928799, 20.837411894778906 ], [ -156.297983587163941, 20.846009607688529 ], [ -156.302175313500072, 20.85721371091774 ], [ -156.305126941536599, 20.868584427134969 ], [ -156.306799626245294, 20.880342966449984 ], [ -156.306930464156466, 20.889587859531481 ], [ -156.304891739293566, 20.902420053799997 ], [ -156.303292426087012, 20.906320900973487 ], [ -156.301137333303018, 20.909704175411488 ], [ -156.296386328513336, 20.915385801342584 ], [ -156.292046351211468, 20.918508292114353 ], [ -156.286634520167524, 20.920300523450564 ], [ -156.277755186920984, 20.921424850419108 ], [ -156.254420360036988, 20.91927520769606 ], [ -156.227724627785108, 20.917205266631772 ], [ -156.227802123001908, 20.91527286464305 ], [ -156.227335440213892, 20.914384279715232 ], [ -156.22634951698393, 20.914683528910725 ], [ -156.226081507361613, 20.913859662808527 ], [ -156.225745567644452, 20.913545547604937 ], [ -156.223475841553665, 20.913552150380923 ], [ -156.222896750077098, 20.914625666465657 ], [ -156.220163995785754, 20.915302168130882 ], [ -156.217447941671537, 20.914600665574181 ], [ -156.217087602392951, 20.913871160515814 ], [ -156.21449290400156, 20.913033003236059 ], [ -156.214641326912755, 20.909342693968973 ], [ -156.214637858908276, 20.908250845525231 ], [ -156.215082326087924, 20.908401975979881 ], [ -156.215232427554241, 20.908748254365914 ], [ -156.215742967615483, 20.908522512477269 ], [ -156.215082326087924, 20.908401975979881 ], [ -156.214972668698692, 20.907969077381107 ], [ -156.214288198435526, 20.907508419123879 ], [ -156.215202816632029, 20.906237283644604 ], [ -156.214389115839964, 20.905017299483326 ], [ -156.214464908057664, 20.90472363571752 ], [ -156.214065320099905, 20.904124539047874 ], [ -156.214312959583282, 20.903243614032814 ], [ -156.214601090611581, 20.903248314251922 ], [ -156.214611093821503, 20.902706812972117 ], [ -156.214899223898129, 20.902711512573557 ], [ -156.21490422486761, 20.902440761852652 ], [ -156.215257094402006, 20.902353814772752 ], [ -156.215009085095915, 20.902112262932349 ], [ -156.21490422486761, 20.902440761852652 ], [ -156.214616095306695, 20.902436062317641 ], [ -156.214611093821503, 20.902706812972117 ], [ -156.214322963824713, 20.902702112885891 ], [ -156.214312959583282, 20.903243614032814 ], [ -156.212937103769292, 20.904099912369563 ], [ -156.213035890095, 20.904968239784104 ], [ -156.212388159408761, 20.904713679503402 ], [ -156.21274426062098, 20.903614874306339 ], [ -156.212105817243753, 20.903117139688121 ], [ -156.211447371768173, 20.902316242159028 ], [ -156.210530667047664, 20.902193889578854 ], [ -156.210131830595117, 20.902483331496207 ], [ -156.209660354066102, 20.903017290771409 ], [ -156.208606968976824, 20.902630458583218 ], [ -156.207169642641759, 20.901607342122283 ], [ -156.205396255498954, 20.900555045024412 ], [ -156.205042843774834, 20.898879315326663 ], [ -156.204438992222805, 20.898628488102755 ], [ -156.203303407554216, 20.897820018516757 ], [ -156.201866010508667, 20.897503032048817 ], [ -156.201327430606199, 20.897193491074717 ], [ -156.199668312297291, 20.896585890595205 ], [ -156.199144252423963, 20.89535843170821 ], [ -156.198486502198705, 20.894980279366475 ], [ -156.197279550929863, 20.894713982587909 ], [ -156.195867363847157, 20.89387606979793 ], [ -156.196385660341036, 20.893079891589576 ], [ -156.195315411305302, 20.893303265713477 ], [ -156.19462128481149, 20.893671530754645 ], [ -156.19522609539689, 20.891249818976771 ], [ -156.19588772021271, 20.889843322639098 ], [ -156.196281693973106, 20.889557403887011 ], [ -156.196674395881189, 20.889112641828905 ], [ -156.197420689025648, 20.888570795577028 ], [ -156.197099183012398, 20.888076758805127 ], [ -156.196730779989849, 20.887789438264175 ], [ -156.196626858603906, 20.887172283778611 ], [ -156.196359107652171, 20.887632717454103 ], [ -156.196730779989849, 20.887789438264175 ], [ -156.196578283693924, 20.888226637367158 ], [ -156.195303781014275, 20.888751213963655 ], [ -156.192985446521789, 20.891105638140985 ], [ -156.192770298624254, 20.890840398788747 ], [ -156.193256145827945, 20.890033779222527 ], [ -156.192058823631925, 20.888194210106938 ], [ -156.189986466472078, 20.886723082950052 ], [ -156.189115669036084, 20.886182443303255 ], [ -156.18771199365537, 20.885060694609617 ], [ -156.186630337337789, 20.884389094025892 ], [ -156.185300072950923, 20.882939391766843 ], [ -156.184164476643957, 20.882234093986771 ], [ -156.182283725840136, 20.87988413714827 ], [ -156.1803163529828, 20.87899596788181 ], [ -156.178629798114116, 20.877598663081297 ], [ -156.177034967458439, 20.877106847961699 ], [ -156.174938558151752, 20.875283147199223 ], [ -156.174863782041484, 20.873609481472641 ], [ -156.175411207955108, 20.872701315379118 ], [ -156.172341966426814, 20.87426587749647 ], [ -156.172070054983095, 20.873969528032895 ], [ -156.170141790114997, 20.873374810185631 ], [ -156.168160705881775, 20.871651068588147 ], [ -156.16698672353678, 20.868860822692273 ], [ -156.166963555457443, 20.868340740918264 ], [ -156.167008029685832, 20.867799828239601 ], [ -156.166980699339291, 20.867186581445221 ], [ -156.167330088809649, 20.865510822331444 ], [ -156.167637638338078, 20.863604802050904 ], [ -156.167946784559092, 20.863354436433209 ], [ -156.1685220649332, 20.862536146795964 ], [ -156.170264279148967, 20.861819286106808 ], [ -156.169998044920703, 20.861476481405141 ], [ -156.169114432878189, 20.861511315713756 ], [ -156.169251395919588, 20.859847636475848 ], [ -156.169168134297621, 20.857983672824162 ], [ -156.169545549682198, 20.857046922003075 ], [ -156.170114368345594, 20.854437734850791 ], [ -156.170428558163792, 20.853916620003858 ], [ -156.170572159019002, 20.853505086493275 ], [ -156.171151065591857, 20.853241717829633 ], [ -156.171451432728588, 20.852707147979842 ], [ -156.172107984037353, 20.852609564887601 ], [ -156.171618342561658, 20.852357886469225 ], [ -156.171451432728588, 20.852707147979842 ], [ -156.170760614388456, 20.852861685841038 ], [ -156.170572159019002, 20.853505086493275 ], [ -156.16908893655048, 20.854535553195568 ], [ -156.168067747255122, 20.856028820351895 ], [ -156.167785598248116, 20.856581139421376 ], [ -156.167139355451638, 20.857418750674583 ], [ -156.166324959481187, 20.859750912066225 ], [ -156.165117149666401, 20.86059930886756 ], [ -156.164377050675228, 20.860903751675757 ], [ -156.16392864823888, 20.861647563747553 ], [ -156.16323374791881, 20.863260984826255 ], [ -156.161119585166631, 20.862895440083754 ], [ -156.160766362607859, 20.862136744381271 ], [ -156.158919453438131, 20.861700499654241 ], [ -156.158460721769188, 20.861301322034933 ], [ -156.158224927575816, 20.859386300843433 ], [ -156.157670323679469, 20.858385168668882 ], [ -156.159127300720456, 20.856496416256402 ], [ -156.157957266061715, 20.856742118689628 ], [ -156.157385252302106, 20.85720576171359 ], [ -156.156121494139597, 20.858783379603068 ], [ -156.151657531795763, 20.859681709449013 ], [ -156.150704457867818, 20.860073655414048 ], [ -156.149247906276173, 20.861157003958745 ], [ -156.148720864182877, 20.860025392604307 ], [ -156.148122094838527, 20.859504313398929 ], [ -156.148014482065463, 20.85800533024425 ], [ -156.148367265056663, 20.857918513598634 ], [ -156.148119439353962, 20.857676883996696 ], [ -156.148014482065463, 20.85800533024425 ], [ -156.147302241987262, 20.85784680260257 ], [ -156.146720295081167, 20.857880999095698 ], [ -156.143151498267287, 20.85755140489557 ], [ -156.139174984338098, 20.85816067380944 ], [ -156.139248878381181, 20.857452725916463 ], [ -156.139230938461026, 20.857181605755713 ], [ -156.139286282146116, 20.85665094097758 ], [ -156.138949073072666, 20.856896021561322 ], [ -156.138676920154012, 20.857182389432911 ], [ -156.138362773425399, 20.857427854401063 ], [ -156.13787501516228, 20.857941233742668 ], [ -156.135297281395054, 20.858424646539415 ], [ -156.134338760516755, 20.857900672398959 ], [ -156.133763293062486, 20.857934536186022 ], [ -156.133391984026559, 20.857514415639539 ], [ -156.131715849302481, 20.858703548028153 ], [ -156.131461303977119, 20.857853896495769 ], [ -156.131020959030593, 20.8577211519627 ], [ -156.131157042637454, 20.85757797510087 ], [ -156.131687394298154, 20.857163714719295 ], [ -156.132627977122127, 20.855977724747163 ], [ -156.134075808234599, 20.855594303478163 ], [ -156.133068939108284, 20.854757569838732 ], [ -156.131613469762954, 20.855232494432862 ], [ -156.12947501223789, 20.854587944554368 ], [ -156.129893866799875, 20.853910785085066 ], [ -156.12929405880098, 20.852856721480602 ], [ -156.128829742315418, 20.850668630117106 ], [ -156.129045579005322, 20.848606864058265 ], [ -156.128518858002678, 20.848164689976056 ], [ -156.127930185436497, 20.846570232259563 ], [ -156.128235646264443, 20.844529674262724 ], [ -156.129434323269379, 20.843215790220139 ], [ -156.130258117384329, 20.842027185081452 ], [ -156.134073747673455, 20.840502697230434 ], [ -156.133825155842487, 20.839472646963724 ], [ -156.132668995071441, 20.839749360735297 ], [ -156.131490910383832, 20.839980341921137 ], [ -156.130299982833492, 20.840265315979654 ], [ -156.129138327626038, 20.839630279415935 ], [ -156.126415872069202, 20.840047289891636 ], [ -156.125886368252793, 20.839116718879737 ], [ -156.125775702197075, 20.837448958611347 ], [ -156.12668293398329, 20.836399163427018 ], [ -156.126824140447752, 20.835985255810531 ], [ -156.127192534914826, 20.835844259854913 ], [ -156.126952674152278, 20.835364583341423 ], [ -156.126824140447752, 20.835985255810531 ], [ -156.124693119181075, 20.836519015991289 ], [ -156.124573402165197, 20.835461370315592 ], [ -156.125264121481081, 20.833857978481792 ], [ -156.12497510016658, 20.833908135379826 ], [ -156.123703366882836, 20.836004391627384 ], [ -156.122328428432979, 20.837002009022527 ], [ -156.121691080488915, 20.838355695928424 ], [ -156.120958981592537, 20.837784030467795 ], [ -156.120641154829627, 20.836272660357167 ], [ -156.120175979082347, 20.835497344055291 ], [ -156.119746736352596, 20.83448976565818 ], [ -156.118385936208796, 20.833680995624245 ], [ -156.118680873878333, 20.831635789603578 ], [ -156.11885864338214, 20.830705863547003 ], [ -156.119211369414614, 20.830619101388834 ], [ -156.118963634962256, 20.830377439443456 ], [ -156.11885864338214, 20.830705863547003 ], [ -156.118688884732933, 20.830816067981381 ], [ -156.117828164156833, 20.832155667205488 ], [ -156.116598434290779, 20.831822095627299 ], [ -156.11565373125103, 20.830614882522088 ], [ -156.115529963857767, 20.829964980162845 ], [ -156.115893584213865, 20.829173597530175 ], [ -156.116267751043523, 20.827547857883637 ], [ -156.116092831585092, 20.826629715787988 ], [ -156.116354608440332, 20.826059828174934 ], [ -156.116707324034707, 20.825973070043272 ], [ -156.116459600698477, 20.82573140571181 ], [ -156.116354608440332, 20.826059828174934 ], [ -156.115267329045025, 20.825841182216248 ], [ -156.114561961475971, 20.825125811667412 ], [ -156.112819384902366, 20.82397179092936 ], [ -156.112210011103059, 20.824227044521283 ], [ -156.110934319320108, 20.825008986665612 ], [ -156.10991935367943, 20.825011301207905 ], [ -156.108145907094212, 20.824164953137533 ], [ -156.106947470106007, 20.822949319243868 ], [ -156.105730883578815, 20.823670069347664 ], [ -156.103856527463705, 20.825439541290606 ], [ -156.102483739011774, 20.825442636256689 ], [ -156.101534902640026, 20.825135270734886 ], [ -156.101233025326962, 20.824829198318128 ], [ -156.096400038042646, 20.825301520171152 ], [ -156.094711851276941, 20.825894782133716 ], [ -156.09431052439939, 20.8266378659516 ], [ -156.0937348253957, 20.826617121925416 ], [ -156.093177602234505, 20.827143075168525 ], [ -156.092279098596663, 20.827145012115949 ], [ -156.091408226515284, 20.826704434541234 ], [ -156.089111417787478, 20.827085777355141 ], [ -156.087959631284093, 20.8273424292253 ], [ -156.087669252676648, 20.827331937522107 ], [ -156.086563143292523, 20.827334412766401 ], [ -156.085661316115164, 20.827026967427255 ], [ -156.085082664766958, 20.827028226682359 ], [ -156.084556674963977, 20.825960227215585 ], [ -156.082821300163204, 20.824810672996225 ], [ -156.081850050835584, 20.825260376331975 ], [ -156.081245560201296, 20.824647231256009 ], [ -156.080812877389434, 20.824241707482919 ], [ -156.080269648015047, 20.823690430383554 ], [ -156.079388811531118, 20.823404999080665 ], [ -156.079042891275009, 20.822337281061859 ], [ -156.076810259072545, 20.822005375026464 ], [ -156.076039179065901, 20.821222760294734 ], [ -156.075127669549147, 20.820618901825753 ], [ -156.074268589756286, 20.820067901511692 ], [ -156.073189655434277, 20.818973241958915 ], [ -156.071132700917815, 20.81838946036105 ], [ -156.070854901658294, 20.818107819271265 ], [ -156.068827196763124, 20.818397366689016 ], [ -156.068873483166726, 20.817270231020412 ], [ -156.068279575794122, 20.816986615738212 ], [ -156.067714683666395, 20.816700850614652 ], [ -156.065733762683863, 20.815926708569673 ], [ -156.06516004448838, 20.814761452722262 ], [ -156.064588480760733, 20.814225649038825 ], [ -156.064609999867002, 20.813695774056011 ], [ -156.063793028641413, 20.812035773440865 ], [ -156.063050451402461, 20.812008766573051 ], [ -156.06205698437131, 20.812010909263066 ], [ -156.061756988853688, 20.811729536708906 ], [ -156.061485298827392, 20.811177974142485 ], [ -156.060196837259923, 20.810859017989856 ], [ -156.059218748548972, 20.80924344368006 ], [ -156.058111884283534, 20.808206276370598 ], [ -156.0578107264555, 20.807594436081374 ], [ -156.057233687499803, 20.80705362636402 ], [ -156.056578836791175, 20.805031167126085 ], [ -156.055858694814333, 20.804300130464174 ], [ -156.055419620129953, 20.805113072891078 ], [ -156.053865373792831, 20.805116115931032 ], [ -156.05216063447125, 20.804252966818819 ], [ -156.049513749243857, 20.804472940735284 ], [ -156.047690520815422, 20.805131913551229 ], [ -156.046341461519233, 20.804694397936192 ], [ -156.045235543799976, 20.804134521177286 ], [ -156.044771537507017, 20.80411753017933 ], [ -156.041557898586916, 20.804123843394855 ], [ -156.038079750973083, 20.80189258974314 ], [ -156.037767967921667, 20.801296803825483 ], [ -156.037230491547717, 20.800204699811307 ], [ -156.036382602837818, 20.800173779847373 ], [ -156.034656838042338, 20.800696120066302 ], [ -156.029357614078748, 20.800258861654765 ], [ -156.026578825640911, 20.799092309409577 ], [ -156.023825378243629, 20.797697403691444 ], [ -156.022014209349379, 20.797227357422805 ], [ -156.019998643925163, 20.796926825108947 ], [ -156.019146055883908, 20.796635915160049 ], [ -156.018282018435286, 20.796355380283142 ], [ -156.017141201714594, 20.795777541836806 ], [ -156.015242020140647, 20.795780985468518 ], [ -156.013785075410055, 20.795419894724304 ], [ -156.009428158874186, 20.788742196239266 ], [ -156.005222161596976, 20.780163541145072 ], [ -156.001312693447233, 20.771213430284593 ], [ -155.997692515976894, 20.761146799134586 ], [ -155.996311205093519, 20.753680629200275 ], [ -155.995691972294082, 20.744913339139327 ], [ -155.996140014129679, 20.736606734141542 ], [ -155.997323561779666, 20.72597879298797 ], [ -155.999746500702059, 20.715230165760133 ], [ -156.0037373912389, 20.704103891786534 ], [ -156.009072267757318, 20.695573543204119 ], [ -156.019887978413493, 20.685354811528391 ], [ -156.023487721889438, 20.681099689352944 ], [ -156.025711188544562, 20.681095390625533 ], [ -156.026395197152738, 20.68211782293238 ], [ -156.026871857013305, 20.681668012743465 ], [ -156.028022641729194, 20.681709956425198 ], [ -156.027287638752654, 20.680304376929811 ], [ -156.028064326903177, 20.67926748857969 ], [ -156.02806204627683, 20.678317122415823 ], [ -156.029491862560576, 20.677694525857227 ], [ -156.030125611331783, 20.677142158751462 ], [ -156.030710687205897, 20.676058315480457 ], [ -156.031307837875204, 20.675537708040203 ], [ -156.032135712774874, 20.674755821622043 ], [ -156.033621267906767, 20.674067766415714 ], [ -156.034781344620768, 20.674655661296789 ], [ -156.03477680862585, 20.672662095115435 ], [ -156.035974779405564, 20.671009345691612 ], [ -156.036278830193027, 20.671008757683154 ], [ -156.037138075332109, 20.671040063646796 ], [ -156.037149777584887, 20.670755707007984 ], [ -156.037148576270283, 20.670224123779686 ], [ -156.038352071854376, 20.669486212259546 ], [ -156.039456244585665, 20.670521900788881 ], [ -156.039756339030447, 20.67082668921422 ], [ -156.039751972546441, 20.668951067609012 ], [ -156.04036026270748, 20.667823943233937 ], [ -156.04095734887693, 20.667303293965173 ], [ -156.041339681654421, 20.665322046091717 ], [ -156.041877998023665, 20.664324355285743 ], [ -156.043038996046562, 20.663818531144251 ], [ -156.043378813613373, 20.66318912724379 ], [ -156.045234968310808, 20.661912935240771 ], [ -156.050574167965806, 20.65998018904649 ], [ -156.055701354320149, 20.658836368356081 ], [ -156.069593164174364, 20.656997945862575 ], [ -156.08813579461463, 20.656191042674809 ], [ -156.103560818825031, 20.657688591914663 ], [ -156.118209068017535, 20.660393010710703 ], [ -156.123612161633758, 20.662503835920592 ], [ -156.127301079262907, 20.664745951609795 ], [ -156.130352435158102, 20.667604587708087 ], [ -156.132415096157928, 20.670937465216813 ], [ -156.135700253372391, 20.679242312131162 ], [ -156.139857788312781, 20.696447241858859 ], [ -156.140320947456445, 20.6998494944167 ], [ -156.139048327043128, 20.699291987570511 ], [ -156.138781569443495, 20.698469792510981 ], [ -156.138215654608473, 20.697653202984263 ], [ -156.137953987125343, 20.696560268180534 ], [ -156.13719926037885, 20.695471564844471 ], [ -156.136710424313975, 20.693963987641954 ], [ -156.136293158164108, 20.692746408140383 ], [ -156.135954309982765, 20.689688585808042 ], [ -156.134651465213693, 20.68836674691741 ], [ -156.134028842664492, 20.688955290742975 ], [ -156.131189071426036, 20.688853520279743 ], [ -156.129444682133453, 20.689924268230083 ], [ -156.12915174337698, 20.689913830337208 ], [ -156.127425857555153, 20.690299477666649 ], [ -156.125683694905604, 20.690668569854374 ], [ -156.124815887278942, 20.691201013226141 ], [ -156.123650800359059, 20.691535551718896 ], [ -156.122227079014095, 20.6924093845446 ], [ -156.119894205236136, 20.692743678842579 ], [ -156.118157321821514, 20.692980145019316 ], [ -156.11677621534281, 20.693827665092098 ], [ -156.115573572789486, 20.692936876280587 ], [ -156.114392776115835, 20.692644814998555 ], [ -156.112771629657345, 20.69099946407405 ], [ -156.111856130644441, 20.691762582441651 ], [ -156.111429488646735, 20.693290815652475 ], [ -156.110002283689028, 20.694166463225486 ], [ -156.104381506474539, 20.696443917181305 ], [ -156.105345172021913, 20.698401602978105 ], [ -156.105811185056723, 20.698874510897365 ], [ -156.106497969414022, 20.699518010377712 ], [ -156.107829508523622, 20.701272938901017 ], [ -156.109537175528629, 20.701826337906617 ], [ -156.109916620836827, 20.702596767681744 ], [ -156.110199795457987, 20.703137870629504 ], [ -156.110468256660113, 20.703965809830784 ], [ -156.11104476377929, 20.703964381208579 ], [ -156.113841220437223, 20.704064992253166 ], [ -156.115166026103566, 20.703450753902793 ], [ -156.116519520262727, 20.703785515042728 ], [ -156.117040464306314, 20.704314195851662 ], [ -156.117660484426494, 20.704627799699992 ], [ -156.118841335367961, 20.704624961999677 ], [ -156.120484884910326, 20.706612348899796 ], [ -156.12048873300364, 20.707895768415472 ], [ -156.119874511622044, 20.708716461827432 ], [ -156.118996531565585, 20.70992851919398 ], [ -156.116355175785117, 20.712897664338016 ], [ -156.116264280893859, 20.715129607401156 ], [ -156.11771265932876, 20.716486294307344 ], [ -156.117414146799518, 20.717346777163339 ], [ -156.116705023372106, 20.717965524854254 ], [ -156.118870216896056, 20.720482030827636 ], [ -156.118487901918968, 20.721150955525154 ], [ -156.1181902819269, 20.721963848857666 ], [ -156.117345284864854, 20.721933553547043 ], [ -156.116742185767833, 20.722459527514314 ], [ -156.11670860470349, 20.723282530138544 ], [ -156.117498563442439, 20.724022543205525 ], [ -156.1155628665405, 20.724866278329856 ], [ -156.115486456125581, 20.726747109187219 ], [ -156.11596728196227, 20.728149999135159 ], [ -156.114916638011863, 20.727325204245684 ], [ -156.114174741155466, 20.725458940679214 ], [ -156.112611581762707, 20.724667847337425 ], [ -156.109202457869827, 20.725057389721204 ], [ -156.107913433813309, 20.725848166254188 ], [ -156.107465470309336, 20.725575102589943 ], [ -156.10703476311582, 20.724246430922729 ], [ -156.103948105411007, 20.723349358939103 ], [ -156.102445872090499, 20.723703565620735 ], [ -156.100878320113424, 20.725184353521108 ], [ -156.098384215140982, 20.725484372667673 ], [ -156.097659479723802, 20.7251176206391 ], [ -156.09610656227531, 20.725121285812818 ], [ -156.095384890778575, 20.725095211614516 ], [ -156.094787025817311, 20.725372190961831 ], [ -156.093799609126336, 20.725336462483035 ], [ -156.093070942114053, 20.725338161580044 ], [ -156.093093580179158, 20.724785806714536 ], [ -156.09251722678141, 20.724510536363464 ], [ -156.091491827948346, 20.723991499792156 ], [ -156.090792380431736, 20.725288516245076 ], [ -156.090492551101647, 20.725017917778214 ], [ -156.089925044305517, 20.724441957356262 ], [ -156.089054187362336, 20.725264386940097 ], [ -156.088467966035353, 20.725519986063251 ], [ -156.087890796460101, 20.72578724059036 ], [ -156.086496668612597, 20.725425898747694 ], [ -156.086077270839098, 20.726159165520365 ], [ -156.086606366371313, 20.727169798847633 ], [ -156.084534124913205, 20.728440605284913 ], [ -156.083538832628932, 20.728404550096478 ], [ -156.082053483588226, 20.730072984358337 ], [ -156.082619218483927, 20.730300770425519 ], [ -156.084389044387507, 20.730657147760027 ], [ -156.085466620090756, 20.731666904817413 ], [ -156.085743199272088, 20.732520266336714 ], [ -156.086299363035863, 20.734143865079652 ], [ -156.086901606627407, 20.736664652894838 ], [ -156.087647008013136, 20.737421362409656 ], [ -156.088228825118421, 20.737442460856442 ], [ -156.089937610921027, 20.736924354239175 ], [ -156.092056463948921, 20.737278505121331 ], [ -156.092813204536668, 20.738046626755246 ], [ -156.093715834930293, 20.738477768988535 ], [ -156.093654841204398, 20.739977590685786 ], [ -156.094809800497643, 20.739974905233787 ], [ -156.09605355002239, 20.740799249088347 ], [ -156.098211488479592, 20.74087709284214 ], [ -156.099223538590792, 20.740408087234261 ], [ -156.099689368222982, 20.740880621402617 ], [ -156.099977720603221, 20.741151014541156 ], [ -156.100498735900516, 20.742209218545419 ], [ -156.100809572499401, 20.742524420809154 ], [ -156.101097929856849, 20.742794812624194 ], [ -156.101651476604587, 20.743356494023839 ], [ -156.103379682959257, 20.74391655943958 ], [ -156.104666639558104, 20.745222382106178 ], [ -156.105646009847618, 20.745850469560214 ], [ -156.107793653919231, 20.748808896683965 ], [ -156.109309678138288, 20.749708884526523 ], [ -156.110173691537739, 20.749988950127044 ], [ -156.111842240401359, 20.750557722313665 ], [ -156.112175187184818, 20.750569667414108 ], [ -156.112607068323342, 20.750568596813903 ], [ -156.113473009035488, 20.75059981226449 ], [ -156.113916252924469, 20.749778276293434 ], [ -156.11477618543833, 20.750347978959784 ], [ -156.115628700475753, 20.750345899023152 ], [ -156.116501138706042, 20.750923870334887 ], [ -156.118511810767188, 20.750919131023288 ], [ -156.118478496075852, 20.751742004528356 ], [ -156.119352316143079, 20.751773455443068 ], [ -156.121079970076011, 20.751526047756442 ], [ -156.12498716821429, 20.751666468558525 ], [ -156.126846447479977, 20.751357202202744 ], [ -156.127713747801977, 20.751094142618946 ], [ -156.128517371916473, 20.751909461930335 ], [ -156.129567652833543, 20.751947249055018 ], [ -156.130732855934497, 20.751944369289809 ], [ -156.132587648153532, 20.752260313711378 ], [ -156.134246279664723, 20.752825274567687 ], [ -156.135738404599181, 20.753125349595805 ], [ -156.13717035335128, 20.753426128272395 ], [ -156.138103264021225, 20.753142951054635 ], [ -156.141391858363903, 20.753514557316752 ], [ -156.142954977960528, 20.753240385926535 ], [ -156.143794548500409, 20.753270482503723 ], [ -156.144802313300772, 20.75326779900853 ], [ -156.145521624298112, 20.75329363994188 ], [ -156.145953524031171, 20.753292486255329 ], [ -156.146528973534686, 20.753313155407835 ], [ -156.147424546240217, 20.75331084061531 ], [ -156.149549069915963, 20.753625928612472 ], [ -156.151449935705699, 20.753963332870249 ], [ -156.153285803489041, 20.75395859566482 ], [ -156.154099524868428, 20.75478402737215 ], [ -156.155251852837637, 20.754825201747014 ], [ -156.156078087530119, 20.754442035768722 ], [ -156.157300263064343, 20.75483769569767 ], [ -156.15821752197877, 20.755150016869056 ], [ -156.159595073989976, 20.755146357067506 ], [ -156.159882806112734, 20.755156669511177 ], [ -156.16045587232037, 20.75515516932963 ], [ -156.16100032376184, 20.755707013056465 ], [ -156.161597563133199, 20.755992075131331 ], [ -156.16518074879167, 20.758230966605833 ], [ -156.165874742472909, 20.758229197553458 ], [ -156.166673109405451, 20.759038720487606 ], [ -156.167575889980327, 20.759345996272419 ], [ -156.168440102020298, 20.759625786936613 ], [ -156.170112119830605, 20.760195005723425 ], [ -156.170737736252477, 20.759939776559722 ], [ -156.171315787646506, 20.759671727497064 ], [ -156.171883505745654, 20.759958651044027 ], [ -156.172747731896294, 20.760238421297753 ], [ -156.173595483412669, 20.760799324053707 ], [ -156.176988225792371, 20.76163667939776 ], [ -156.177998059705089, 20.762147331057339 ], [ -156.178771134248905, 20.761416576882596 ], [ -156.179180475715356, 20.762677342964235 ], [ -156.180751560089362, 20.7630836047475 ], [ -156.183044338350726, 20.763649408775567 ], [ -156.183045019208521, 20.763931093810029 ], [ -156.183023622136915, 20.764463145988209 ], [ -156.184453545073694, 20.765310994528132 ], [ -156.185029969826672, 20.76558598765325 ], [ -156.186159661362012, 20.766156879981001 ], [ -156.187312810414312, 20.766706726852469 ], [ -156.188454222047312, 20.767283484052488 ], [ -156.189765265298831, 20.767279825267803 ], [ -156.19219150315709, 20.767599085850406 ], [ -156.194190852599036, 20.768178729748882 ], [ -156.195343049252983, 20.768463100995291 ], [ -156.196276701616654, 20.768780658870014 ], [ -156.200675323786868, 20.768768075428991 ], [ -156.201666596513519, 20.769240607634966 ], [ -156.203585159682234, 20.770210004847957 ], [ -156.204665997346012, 20.770248372076367 ], [ -156.20537131867664, 20.770246235908559 ], [ -156.205673478203408, 20.770529130133756 ], [ -156.205234121364072, 20.771298508284989 ], [ -156.20785073743545, 20.772144471480196 ], [ -156.209331198641621, 20.773529333431561 ], [ -156.209637128660631, 20.774112740230404 ], [ -156.209902786941882, 20.775219572585563 ], [ -156.210512676438611, 20.775790331468695 ], [ -156.210153085408024, 20.777376432214357 ], [ -156.209844737265314, 20.778178632405531 ], [ -156.209547436761198, 20.778991590793755 ], [ -156.208357398231243, 20.780330107252269 ], [ -156.208936890793098, 20.780872210538465 ], [ -156.20993493157664, 20.782358988699212 ], [ -156.211781038650599, 20.782814295585979 ], [ -156.212051746134392, 20.783647597039717 ], [ -156.21291744559835, 20.783645132620443 ], [ -156.214333292796937, 20.784360291501727 ], [ -156.215464231113828, 20.783835526586568 ], [ -156.21577116513032, 20.784780232513604 ], [ -156.216059823168507, 20.785050462672586 ], [ -156.216858613402223, 20.785859664072575 ], [ -156.217955654350789, 20.786232798503928 ], [ -156.218923342856925, 20.785638580103562 ], [ -156.219360449810182, 20.78551289279531 ] ] ] } }
]
}
