{
"type": "FeatureCollection",
"name": "dortake",
"crs": { "type": "name", "properties": { "name": "urn:ogc:def:crs:OGC:1.3:CRS84" } },
"features": [
{ "type": "Feature", "properties": { "ID": 1, "GRIDCODE": 1 }, "geometry": { "type": "Polygon", "coordinates": [ [ [ -158.227497316836292, 21.484739598966634 ], [ -158.227872916776107, 21.484892071764072 ], [ -158.22761001185691, 21.485356037939329 ], [ -158.227497316836292, 21.484739598966634 ] ] ] } },
{ "type": "Feature", "properties": { "ID": 2, "GRIDCODE": 1 }, "geometry": { "type": "Polygon", "coordinates": [ [ [ -158.222012619764797, 21.481461731907732 ], [ -158.221911747960888, 21.481791719340286 ], [ -158.221659070439642, 21.481552857456027 ], [ -158.222012619764797, 21.481461731907732 ] ] ] } },
{ "type": "Feature", "properties": { "ID": 3, "GRIDCODE": 1 }, "geometry": { "type": "Polygon", "coordinates": [ [ [ -158.222012619764797, 21.481461731907732 ], [ -158.223221319760739, 21.480252854043563 ], [ -158.224470521351975, 21.481084135391225 ], [ -158.222453182986214, 21.481333425364713 ], [ -158.222012619764797, 21.481461731907732 ] ] ] } },
{ "type": "Feature", "properties": { "ID": 4, "GRIDCODE": 1 }, "geometry": { "type": "Polygon", "coordinates": [ [ [ -158.197216519367601, 21.46182998482017 ], [ -158.197687869989977, 21.461958632206983 ], [ -158.196093634727106, 21.463802829550332 ], [ -158.195891546116911, 21.46221594656123 ], [ -158.197086904557921, 21.461979900973258 ], [ -158.197216519367601, 21.46182998482017 ] ] ] } },
{ "type": "Feature", "properties": { "ID": 5, "GRIDCODE": 1 }, "geometry": { "type": "Polygon", "coordinates": [ [ [ -158.192588511073922, 21.460994605874252 ], [ -158.193253765946849, 21.461107658742336 ], [ -158.192743962215587, 21.461339509458959 ], [ -158.192588511073922, 21.460994605874252 ] ] ] } },
{ "type": "Feature", "properties": { "ID": 6, "GRIDCODE": 1 }, "geometry": { "type": "Polygon", "coordinates": [ [ [ -158.190852835698308, 21.460715184599746 ], [ -158.192412750030826, 21.460846395496208 ], [ -158.191100201659026, 21.461081113233273 ], [ -158.190852835698308, 21.460715184599746 ] ] ] } },
{ "type": "Feature", "properties": { "ID": 7, "GRIDCODE": 1 }, "geometry": { "type": "Polygon", "coordinates": [ [ [ -158.171554037631864, 21.443003509122985 ], [ -158.17573675919985, 21.443187069421374 ], [ -158.178211952806521, 21.443107394553348 ], [ -158.180093263120483, 21.443186429938304 ], [ -158.180932371651267, 21.443159437692412 ], [ -158.181244865676064, 21.443345317781628 ], [ -158.178628207782907, 21.445337003667643 ], [ -158.178346643041777, 21.445888013528055 ], [ -158.177921224781699, 21.446631203457677 ], [ -158.175450200980606, 21.446134481561373 ], [ -158.172365295846674, 21.445858543987434 ], [ -158.168920136764285, 21.447543442690304 ], [ -158.167321127980983, 21.450170069211893 ], [ -158.166482364609038, 21.451298267218789 ], [ -158.164589704732663, 21.452922508733955 ], [ -158.163253158889574, 21.452760595053757 ], [ -158.165917917763153, 21.45047375122234 ], [ -158.167334929117146, 21.448685274291218 ], [ -158.168417034604317, 21.445123936429876 ], [ -158.169158741870689, 21.444126328488171 ], [ -158.171414010168718, 21.443143494519997 ], [ -158.171554037631864, 21.443003509122985 ] ], [ [ -158.1721269036465, 21.444090480722188 ], [ -158.17199207811916, 21.444235388916102 ], [ -158.169395414125745, 21.445143219543567 ], [ -158.169303341152272, 21.446150273816983 ], [ -158.172534034298735, 21.444788938297304 ], [ -158.177647097394072, 21.445198918743827 ], [ -158.178396268000284, 21.444220758978958 ], [ -158.175538706584462, 21.444421564149827 ], [ -158.1721269036465, 21.444090480722188 ] ] ] } },
{ "type": "Feature", "properties": { "ID": 8, "GRIDCODE": 1 }, "geometry": { "type": "Polygon", "coordinates": [ [ [ -158.176542309845274, 21.431102591873199 ], [ -158.178141868755233, 21.431238357310647 ], [ -158.179099415938111, 21.431731658063349 ], [ -158.181430097990045, 21.432083448783789 ], [ -158.180986660462622, 21.432975908367993 ], [ -158.179863693191209, 21.433702193729953 ], [ -158.179422270100474, 21.433675415688636 ], [ -158.176884629837701, 21.434105973458475 ], [ -158.175189055542518, 21.435103952638705 ], [ -158.172293600675829, 21.437443351475022 ], [ -158.171887336023161, 21.437070986030864 ], [ -158.173564576678103, 21.433362141017739 ], [ -158.174557967259062, 21.432332132421479 ], [ -158.17640497052605, 21.431245043611039 ], [ -158.176542309845274, 21.431102591873199 ] ], [ [ -158.176537749169967, 21.431915674317015 ], [ -158.174345611751789, 21.434201066795936 ], [ -158.174069740949676, 21.434695985738969 ], [ -158.17550655437401, 21.433664717474329 ], [ -158.176792546171015, 21.432907832359561 ], [ -158.179597678380304, 21.432614103592279 ], [ -158.179079685273791, 21.432176294425513 ], [ -158.176537749169967, 21.431915674317015 ] ] ] } },
{ "type": "Feature", "properties": { "ID": 9, "GRIDCODE": 1 }, "geometry": { "type": "Polygon", "coordinates": [ [ [ -158.140495324411717, 21.407612585477956 ], [ -158.140394327890561, 21.407942522402063 ], [ -158.14014191037873, 21.407703543714682 ], [ -158.140495324411717, 21.407612585477956 ] ] ] } },
{ "type": "Feature", "properties": { "ID": 10, "GRIDCODE": 1 }, "geometry": { "type": "Polygon", "coordinates": [ [ [ -158.140495324411717, 21.407612585477956 ], [ -158.140638876667992, 21.406699376211705 ], [ -158.141175490496835, 21.40747062937524 ], [ -158.140495324411717, 21.407612585477956 ] ] ] } },
{ "type": "Feature", "properties": { "ID": 11, "GRIDCODE": 1 }, "geometry": { "type": "Polygon", "coordinates": [ [ [ -158.166881752004628, 21.399072682627931 ], [ -158.16819154591667, 21.399207093758513 ], [ -158.169041751574042, 21.399497564365877 ], [ -158.171368366098562, 21.399848932282289 ], [ -158.173934058545314, 21.402018696248692 ], [ -158.174025411103344, 21.403592556449382 ], [ -158.17351302056494, 21.403561445308156 ], [ -158.171906042014797, 21.403643176510791 ], [ -158.168126294149829, 21.403072400516777 ], [ -158.16643033478698, 21.402572724796176 ], [ -158.165553504314971, 21.402190594054829 ], [ -158.163960433760423, 21.401369551497755 ], [ -158.160593133961328, 21.40166650746184 ], [ -158.157055567845134, 21.405334461694011 ], [ -158.15560427918706, 21.405690632483484 ], [ -158.151948997106928, 21.405350723305745 ], [ -158.152455889987493, 21.404374359829593 ], [ -158.153785871208356, 21.402995533066147 ], [ -158.155532552488381, 21.401866007666644 ], [ -158.158408017965712, 21.401160265451001 ], [ -158.162104692137007, 21.400818216900507 ], [ -158.162958152830242, 21.400536225496719 ], [ -158.164133628541464, 21.400286273872226 ], [ -158.165119718218733, 21.39979080386632 ], [ -158.166744434695005, 21.399215127650979 ], [ -158.166881752004628, 21.399072682627931 ] ], [ [ -158.15789159199619, 21.402280191112098 ], [ -158.157756792762626, 21.402425089356019 ], [ -158.154542562099493, 21.404015003216216 ], [ -158.154273258938389, 21.404251726553284 ], [ -158.155804644565592, 21.404563433107594 ], [ -158.158313012343427, 21.402623880246868 ], [ -158.15789159199619, 21.402280191112098 ] ], [ [ -158.167745364401952, 21.39989007810188 ], [ -158.167610576864092, 21.400034984699015 ], [ -158.165582285048089, 21.40045593896788 ], [ -158.16588869397907, 21.400898094655332 ], [ -158.167292016520435, 21.401388580181962 ], [ -158.170927610903675, 21.40185245687864 ], [ -158.172107350061935, 21.402476454520503 ], [ -158.172664487985429, 21.40213908686562 ], [ -158.171443570173295, 21.400797664158631 ], [ -158.170044755681175, 21.400057639167866 ], [ -158.169625802707571, 21.400024001304946 ], [ -158.169335141728766, 21.400044464056183 ], [ -158.167745364401952, 21.39989007810188 ] ] ] } },
{ "type": "Feature", "properties": { "ID": 12, "GRIDCODE": 1 }, "geometry": { "type": "Polygon", "coordinates": [ [ [ -158.143215376219786, 21.387841006216174 ], [ -158.143846343934172, 21.388027057183113 ], [ -158.143226802380582, 21.388669387660272 ], [ -158.141383913298512, 21.390194723470344 ], [ -158.139108227768617, 21.39255401299441 ], [ -158.13864400544108, 21.391593150100459 ], [ -158.137442498601615, 21.390576552101827 ], [ -158.139014026462178, 21.390130895679967 ], [ -158.139578079670912, 21.389847536602481 ], [ -158.140679594922091, 21.389380924649263 ], [ -158.141976550003676, 21.388450060025178 ], [ -158.143078047616427, 21.387983431636041 ], [ -158.143215376219786, 21.387841006216174 ] ] ] } },
{ "type": "Feature", "properties": { "ID": 13, "GRIDCODE": 1 }, "geometry": { "type": "Polygon", "coordinates": [ [ [ -158.134319506667168, 21.37505671673857 ], [ -158.134671754176026, 21.375151304506588 ], [ -158.13441660589433, 21.375387673302338 ], [ -158.134319506667168, 21.37505671673857 ] ] ] } },
{ "type": "Feature", "properties": { "ID": 14, "GRIDCODE": 1 }, "geometry": { "type": "Polygon", "coordinates": [ [ [ -158.134623197750727, 21.372618971432374 ], [ -158.134975439707233, 21.372713558399226 ], [ -158.13472029627107, 21.372949927884054 ], [ -158.134623197750727, 21.372618971432374 ] ] ] } },
{ "type": "Feature", "properties": { "ID": 15, "GRIDCODE": 1 }, "geometry": { "type": "Polygon", "coordinates": [ [ [ -158.133491312311293, 21.368276576836934 ], [ -158.134156095903563, 21.368389850317321 ], [ -158.133646532738595, 21.368621531252014 ], [ -158.133491312311293, 21.368276576836934 ] ] ] } },
{ "type": "Feature", "properties": { "ID": 16, "GRIDCODE": 1 }, "geometry": { "type": "Polygon", "coordinates": [ [ [ -158.131197361895545, 21.364741269108784 ], [ -158.13232022782546, 21.364939103229705 ], [ -158.133631759691013, 21.367169870673269 ], [ -158.133349146013984, 21.367345947593194 ], [ -158.131638165874108, 21.365411078591627 ], [ -158.13132883550432, 21.365158559447025 ], [ -158.131197361895545, 21.364741269108784 ] ] ] } },
{ "type": "Feature", "properties": { "ID": 17, "GRIDCODE": 1 }, "geometry": { "type": "Polygon", "coordinates": [ [ [ -158.063244098748186, 21.358142146184118 ], [ -158.063619195425076, 21.358294972846913 ], [ -158.063356023480878, 21.358758678285543 ], [ -158.063244098748186, 21.358142146184118 ] ] ] } },
{ "type": "Feature", "properties": { "ID": 18, "GRIDCODE": 1 }, "geometry": { "type": "Polygon", "coordinates": [ [ [ -158.065288221184517, 21.355172191837539 ], [ -158.065409423470044, 21.354549547043014 ], [ -158.065656443623283, 21.355026946884347 ], [ -158.065288221184517, 21.355172191837539 ] ] ] } },
{ "type": "Feature", "properties": { "ID": 19, "GRIDCODE": 1 }, "geometry": { "type": "Polygon", "coordinates": [ [ [ -158.065288221184517, 21.355172191837539 ], [ -158.063941062031716, 21.3573312185509 ], [ -158.063251770262923, 21.356157427896616 ], [ -158.064296936668825, 21.355727526686554 ], [ -158.064156317756954, 21.353956305016979 ], [ -158.06487107397632, 21.354211201978487 ], [ -158.065133625594285, 21.355045873458618 ], [ -158.065288221184517, 21.355172191837539 ] ] ] } },
{ "type": "Feature", "properties": { "ID": 20, "GRIDCODE": 1 }, "geometry": { "type": "Polygon", "coordinates": [ [ [ -158.124915702040596, 21.350614844283168 ], [ -158.126216677396059, 21.350774007781226 ], [ -158.127028793598726, 21.350683672514993 ], [ -158.128220284532148, 21.351727614864579 ], [ -158.127026550497874, 21.352612998029453 ], [ -158.125898740222198, 21.35290873816793 ], [ -158.124740296529495, 21.35331898459178 ], [ -158.123020763893919, 21.354481895679744 ], [ -158.122424134649094, 21.355390609386991 ], [ -158.121655558778627, 21.35340901868631 ], [ -158.12304060480318, 21.352381811618461 ], [ -158.123353491605997, 21.351696925149369 ], [ -158.124786117886543, 21.350764707292722 ], [ -158.124915702040596, 21.350614844283168 ] ] ] } },
{ "type": "Feature", "properties": { "ID": 21, "GRIDCODE": 1 }, "geometry": { "type": "Polygon", "coordinates": [ [ [ -158.122615769183227, 21.348163534018955 ], [ -158.122967944595729, 21.348258144190261 ], [ -158.12271282648058, 21.348494496895579 ], [ -158.122615769183227, 21.348163534018955 ] ] ] } },
{ "type": "Feature", "properties": { "ID": 22, "GRIDCODE": 1 }, "geometry": { "type": "Polygon", "coordinates": [ [ [ -158.11741483926707, 21.347052151872791 ], [ -158.118701838009486, 21.34774655270888 ], [ -158.119974383286603, 21.348024456881681 ], [ -158.121587566069252, 21.348982778600966 ], [ -158.121053336776043, 21.351345979013811 ], [ -158.119308839477839, 21.349427490425452 ], [ -158.117860650170996, 21.348660518627824 ], [ -158.116574029494103, 21.348114599946665 ], [ -158.11741483926707, 21.347052151872791 ] ] ] } },
{ "type": "Feature", "properties": { "ID": 23, "GRIDCODE": 1 }, "geometry": { "type": "Polygon", "coordinates": [ [ [ -158.113946513803882, 21.346491826264401 ], [ -158.114783810069099, 21.346604362780969 ], [ -158.115199596107288, 21.347655554252352 ], [ -158.113730070068272, 21.34691966791344 ], [ -158.113946513803882, 21.346491826264401 ] ] ] } },
{ "type": "Feature", "properties": { "ID": 24, "GRIDCODE": 1 }, "geometry": { "type": "Polygon", "coordinates": [ [ [ -158.111354272077676, 21.344580894660506 ], [ -158.112050805601996, 21.345054189253869 ], [ -158.111732470398692, 21.346051217570857 ], [ -158.109782778477324, 21.345651418578644 ], [ -158.111232546202899, 21.344738133555136 ], [ -158.111354272077676, 21.344580894660506 ] ] ] } },
{ "type": "Feature", "properties": { "ID": 25, "GRIDCODE": 1 }, "geometry": { "type": "Polygon", "coordinates": [ [ [ -158.096321015308348, 21.342874507919376 ], [ -158.0980883904802, 21.343022498568551 ], [ -158.098504485286242, 21.343909561078895 ], [ -158.10040920043204, 21.343776445090349 ], [ -158.101674760908111, 21.344446904997124 ], [ -158.102421120938772, 21.34364467418159 ], [ -158.103307989277369, 21.343057515527612 ], [ -158.106141670584321, 21.343800356563566 ], [ -158.10801419565513, 21.344550953756649 ], [ -158.10892943726023, 21.343567091383729 ], [ -158.109802564228232, 21.343637493089183 ], [ -158.10971381137702, 21.344603707144547 ], [ -158.109072279814427, 21.345666643259122 ], [ -158.100244029549998, 21.344870812062535 ], [ -158.096722222956004, 21.344253007380019 ], [ -158.095027054780843, 21.343339536205097 ], [ -158.096186214080717, 21.343019357506627 ], [ -158.096321015308348, 21.342874507919376 ] ] ] } },
{ "type": "Feature", "properties": { "ID": 26, "GRIDCODE": 1 }, "geometry": { "type": "Polygon", "coordinates": [ [ [ -158.07082441868846, 21.348969181286751 ], [ -158.070921358952774, 21.349300169944883 ], [ -158.071176558367938, 21.349063898927305 ], [ -158.07082441868846, 21.348969181286751 ], [ -158.071023645268241, 21.347908454678734 ], [ -158.071697434493984, 21.348160912060305 ], [ -158.071695728036588, 21.348431934607678 ], [ -158.071985025811387, 21.3484335330301 ], [ -158.072094523965006, 21.348924324656405 ], [ -158.072950096543309, 21.349271477838517 ], [ -158.072646971340816, 21.348570785608896 ], [ -158.071985025811387, 21.3484335330301 ], [ -158.071986731737155, 21.348162510460497 ], [ -158.071697434493984, 21.348160912060305 ], [ -158.072030965978769, 21.347216855729297 ], [ -158.072427782578586, 21.347484653306886 ], [ -158.07299945861115, 21.348048599063098 ], [ -158.073299216329161, 21.346925297688745 ], [ -158.074887323186061, 21.346964422483612 ], [ -158.076174473796357, 21.346946890313163 ], [ -158.076477928692384, 21.347506967308277 ], [ -158.076846745825236, 21.348593123535284 ], [ -158.077618492176668, 21.347596144558562 ], [ -158.077927820128139, 21.346156527443803 ], [ -158.079387970653016, 21.347095481308205 ], [ -158.079361665421629, 21.345403501629931 ], [ -158.079952797021292, 21.344278738901675 ], [ -158.081126976212857, 21.343752958683183 ], [ -158.081563248086866, 21.342518029507652 ], [ -158.083397351627582, 21.341971487926987 ], [ -158.083743427516652, 21.341312997500534 ], [ -158.084625308591711, 21.339968065170499 ], [ -158.085187645458376, 21.338898045815309 ], [ -158.086076215243537, 21.338475288867624 ], [ -158.088527211914311, 21.339077978589 ], [ -158.089065912842244, 21.337552896615065 ], [ -158.090271765381374, 21.337970081067589 ], [ -158.090710298791009, 21.338369475937228 ], [ -158.091274010620538, 21.338925443790153 ], [ -158.091860742958829, 21.339459830406696 ], [ -158.093223786944066, 21.340804293691711 ], [ -158.094449036185722, 21.341105557325847 ], [ -158.095605889509926, 21.341089620669436 ], [ -158.094685113549673, 21.342894551828117 ], [ -158.090766701958046, 21.340814506964072 ], [ -158.089247355936436, 21.341132762839042 ], [ -158.086595584561564, 21.342995352197885 ], [ -158.078865698906498, 21.348026409799207 ], [ -158.074526726155739, 21.349882714986069 ], [ -158.070545752651327, 21.350910916923223 ], [ -158.067866969580876, 21.352535099630519 ], [ -158.066733555558073, 21.353543188906087 ], [ -158.06574627612693, 21.354494449021793 ], [ -158.066278619391284, 21.352904702385501 ], [ -158.067474961368958, 21.35206477211975 ], [ -158.069215750550399, 21.351109671333479 ], [ -158.068143283860337, 21.349608352509723 ], [ -158.069822517476183, 21.349649818123943 ], [ -158.069808866611595, 21.348768425858548 ], [ -158.07082441868846, 21.348969181286751 ] ] ] } },
{ "type": "Feature", "properties": { "ID": 27, "GRIDCODE": 2 }, "geometry": { "type": "Polygon", "coordinates": [ [ [ -157.805416160764679, 21.256501048003312 ], [ -157.805893360451364, 21.256669183504588 ], [ -157.806571616111654, 21.256622972648032 ], [ -157.807149452016063, 21.256670600258602 ], [ -157.807590134565714, 21.256640568843135 ], [ -157.810040070722692, 21.257503621668178 ], [ -157.81047708329757, 21.257473821535772 ], [ -157.810837814159669, 21.257872373229414 ], [ -157.813398876358264, 21.257697679114116 ], [ -157.813272630096549, 21.259041955592107 ], [ -157.814534861159842, 21.25940793889934 ], [ -157.814471253756039, 21.260088212734335 ], [ -157.814503502282491, 21.260503766838397 ], [ -157.814187526991759, 21.260754961726597 ], [ -157.814210054497408, 21.26104453255881 ], [ -157.813293246522846, 21.261296327341753 ], [ -157.813378196987912, 21.262392973429655 ], [ -157.812724635141166, 21.262912805789313 ], [ -157.812746389806961, 21.263192777062699 ], [ -157.812714288951668, 21.263534102216294 ], [ -157.812115846166506, 21.264010187165184 ], [ -157.812158076495649, 21.264553314418414 ], [ -157.811263881797117, 21.264798838309208 ], [ -157.811288945569828, 21.265123495296574 ], [ -157.810680829664449, 21.265607314020862 ], [ -157.810410836938132, 21.265896540384745 ], [ -157.808306498347974, 21.267471582768721 ], [ -157.805459141149413, 21.268253223643843 ], [ -157.803456996428906, 21.267724309606404 ], [ -157.801673721273914, 21.267331180342602 ], [ -157.800164221908261, 21.265663371192083 ], [ -157.799722677873632, 21.264716563924999 ], [ -157.799390866048697, 21.264444440461499 ], [ -157.799441845443027, 21.263902769948757 ], [ -157.799108352121863, 21.263629376859903 ], [ -157.799383688327339, 21.260698189333183 ], [ -157.800229953203512, 21.260025019076171 ], [ -157.801016320960827, 21.258867742531145 ], [ -157.802434912700676, 21.258048830011649 ], [ -157.803549595093898, 21.257592059850406 ], [ -157.80438822053091, 21.257161246340122 ], [ -157.805055041467654, 21.256887877576531 ], [ -157.805416160764679, 21.256501048003312 ] ], [ [ -157.811145815905206, 21.263045984308423 ], [ -157.811514027397578, 21.262901294975499 ], [ -157.811267986264909, 21.26242355818983 ], [ -157.811145815905206, 21.263045984308423 ], [ -157.810856709693269, 21.263043944529333 ], [ -157.810854533368854, 21.263314946898923 ], [ -157.810486320258377, 21.263459634705203 ], [ -157.810732360351381, 21.263937372537459 ], [ -157.810854533368854, 21.263314946898923 ], [ -157.811143640109577, 21.263316986706471 ], [ -157.811145815905206, 21.263045984308423 ] ], [ [ -157.810313330802785, 21.258703825268562 ], [ -157.810216890054249, 21.25837270922068 ], [ -157.809961738357401, 21.25860857785668 ], [ -157.810313330802785, 21.258703825268562 ], [ -157.810473592041092, 21.259103807813513 ], [ -157.810414301686393, 21.259525531362911 ], [ -157.811322897569994, 21.260999580201286 ], [ -157.811613494427064, 21.261659787355342 ], [ -157.812244260466599, 21.260285589253776 ], [ -157.812084839615125, 21.259005666018208 ], [ -157.810313330802785, 21.258703825268562 ] ] ] } }
]
}
