{
"type": "FeatureCollection",
"name": "droangl",
"crs": { "type": "name", "properties": { "name": "urn:ogc:def:crs:OGC:1.3:CRS84" } },
"features": [
{ "type": "Feature", "properties": { "ID": 1, "GRIDCODE": 2 }, "geometry": { "type": "Polygon", "coordinates": [ [ [ -159.510313756436858, 22.190164510942136 ], [ -159.510668910832095, 22.190256177471117 ], [ -159.510414561058354, 22.190494632573618 ], [ -159.510313756436858, 22.190164510942136 ] ] ] } },
{ "type": "Feature", "properties": { "ID": 2, "GRIDCODE": 2 }, "geometry": { "type": "Polygon", "coordinates": [ [ [ -159.545816665614723, 22.189778395901357 ], [ -159.545461491362317, 22.189686806427904 ], [ -159.545715779312729, 22.189448297770024 ], [ -159.545816665614723, 22.189778395901357 ] ] ] } },
{ "type": "Feature", "properties": { "ID": 3, "GRIDCODE": 2 }, "geometry": { "type": "Polygon", "coordinates": [ [ [ -159.525439563032251, 22.188219264317869 ], [ -159.52527902542073, 22.188572025399601 ], [ -159.524778652166191, 22.188329950985803 ], [ -159.525439563032251, 22.188219264317869 ] ] ] } },
{ "type": "Feature", "properties": { "ID": 4, "GRIDCODE": 2 }, "geometry": { "type": "Polygon", "coordinates": [ [ [ -159.560650856252153, 22.187830864886084 ], [ -159.560490407786887, 22.188183658895905 ], [ -159.559989978116761, 22.187941693824012 ], [ -159.560650856252153, 22.187830864886084 ] ] ] } },
{ "type": "Feature", "properties": { "ID": 5, "GRIDCODE": 2 }, "geometry": { "type": "Polygon", "coordinates": [ [ [ -159.546090920316288, 22.18544112540507 ], [ -159.545992590172204, 22.185771891262391 ], [ -159.545736473489285, 22.185535092318595 ], [ -159.546090920316288, 22.18544112540507 ] ] ] } },
{ "type": "Feature", "properties": { "ID": 6, "GRIDCODE": 2 }, "geometry": { "type": "Polygon", "coordinates": [ [ [ -159.526591491634349, 22.184963273404531 ], [ -159.526592501579131, 22.185234292801248 ], [ -159.525619159037319, 22.185101924579829 ], [ -159.526591491634349, 22.184963273404531 ] ] ] } },
{ "type": "Feature", "properties": { "ID": 7, "GRIDCODE": 2 }, "geometry": { "type": "Polygon", "coordinates": [ [ [ -159.560636877319325, 22.184307633114248 ], [ -159.560476432608567, 22.184660427179534 ], [ -159.559976015584198, 22.18441846170068 ], [ -159.560636877319325, 22.184307633114248 ] ] ] } },
{ "type": "Feature", "properties": { "ID": 8, "GRIDCODE": 2 }, "geometry": { "type": "Polygon", "coordinates": [ [ [ -159.454975766954618, 22.176506210090846 ], [ -159.455330853418445, 22.176597998648788 ], [ -159.455076432609616, 22.17683636897948 ], [ -159.454975766954618, 22.176506210090846 ] ] ] } },
{ "type": "Feature", "properties": { "ID": 9, "GRIDCODE": 2 }, "geometry": { "type": "Polygon", "coordinates": [ [ [ -159.440406772436262, 22.170312644499813 ], [ -159.440761834405237, 22.170404461147452 ], [ -159.440507399569839, 22.170642817409771 ], [ -159.440406772436262, 22.170312644499813 ] ] ] } },
{ "type": "Feature", "properties": { "ID": 10, "GRIDCODE": 2 }, "geometry": { "type": "Polygon", "coordinates": [ [ [ -159.429347912827268, 22.169800095590855 ], [ -159.429249318211589, 22.170130800427188 ], [ -159.428993422192661, 22.169893805302198 ], [ -159.429347912827268, 22.169800095590855 ] ] ] } },
{ "type": "Feature", "properties": { "ID": 11, "GRIDCODE": 2 }, "geometry": { "type": "Polygon", "coordinates": [ [ [ -159.429347912827268, 22.169800095590855 ], [ -159.429472455105468, 22.168914036748731 ], [ -159.430029532882713, 22.168698447082289 ], [ -159.429599145102912, 22.169670984210807 ], [ -159.429347912827268, 22.169800095590855 ] ] ] } },
{ "type": "Feature", "properties": { "ID": 12, "GRIDCODE": 2 }, "geometry": { "type": "Polygon", "coordinates": [ [ [ -159.474713102131403, 22.161543553217804 ], [ -159.474614619495838, 22.161874283929073 ], [ -159.474358664062095, 22.161637360805404 ], [ -159.474713102131403, 22.161543553217804 ] ] ] } },
{ "type": "Feature", "properties": { "ID": 13, "GRIDCODE": 2 }, "geometry": { "type": "Polygon", "coordinates": [ [ [ -159.474707646105742, 22.159917419048263 ], [ -159.474352590017446, 22.159825676138073 ], [ -159.474606947681394, 22.159587268049876 ], [ -159.474707646105742, 22.159917419048263 ] ] ] } },
{ "type": "Feature", "properties": { "ID": 14, "GRIDCODE": 2 }, "geometry": { "type": "Polygon", "coordinates": [ [ [ -159.441391174578399, 22.01907630577502 ], [ -159.441267665883458, 22.019983227672963 ], [ -159.441017832819142, 22.019260964472647 ], [ -159.441391174578399, 22.01907630577502 ] ] ] } },
{ "type": "Feature", "properties": { "ID": 15, "GRIDCODE": 2 }, "geometry": { "type": "Polygon", "coordinates": [ [ [ -159.463923161343814, 21.975920196782113 ], [ -159.464602354686775, 21.976046082733955 ], [ -159.464395497035525, 21.976682609164456 ], [ -159.463693720997952, 21.976353992400757 ], [ -159.463923161343814, 21.975920196782113 ] ] ] } },
{ "type": "Feature", "properties": { "ID": 16, "GRIDCODE": 2 }, "geometry": { "type": "Polygon", "coordinates": [ [ [ -159.526441582825896, 21.987656891900816 ], [ -159.525860379794182, 21.987658755638645 ], [ -159.525861378425731, 21.987929781603629 ], [ -159.525507406880735, 21.988023701489428 ], [ -159.525763127005831, 21.988260545591398 ], [ -159.525861378425731, 21.987929781603629 ], [ -159.52644258256106, 21.987927917840487 ], [ -159.526441582825896, 21.987656891900816 ], [ -159.527216099671023, 21.98774545391279 ], [ -159.527604990645528, 21.9879241841385 ], [ -159.527723693400674, 21.988539721964983 ], [ -159.527983274099483, 21.988073700765366 ], [ -159.527604990645528, 21.9879241841385 ], [ -159.528005748988733, 21.987532463530851 ], [ -159.529419428588398, 21.986661521722841 ], [ -159.530060612798479, 21.984796722149447 ], [ -159.530376287083243, 21.98392673484533 ], [ -159.530329477913114, 21.982097621120829 ], [ -159.532025856388316, 21.981449445299127 ], [ -159.533412561727602, 21.983407208653944 ], [ -159.535943625238616, 21.986199373889651 ], [ -159.540177137873684, 21.992327341333549 ], [ -159.544890948267323, 22.003822412100398 ], [ -159.550679455586334, 22.015440391594272 ], [ -159.553921317651685, 22.02306049605836 ], [ -159.556586676847104, 22.031166506609143 ], [ -159.557458618471543, 22.034449210857616 ], [ -159.559155935618975, 22.036084241210627 ], [ -159.562731026301947, 22.039263124163412 ], [ -159.567634846530666, 22.046423195809442 ], [ -159.57433889002067, 22.056923889461821 ], [ -159.577175734363038, 22.062771602410422 ], [ -159.581455630327497, 22.073089912254236 ], [ -159.582165937884014, 22.077502417527036 ], [ -159.581921579855077, 22.087968751685011 ], [ -159.580918802066918, 22.095273488597922 ], [ -159.57936227659809, 22.100832966401441 ], [ -159.577780716334615, 22.103900460579471 ], [ -159.576762309172608, 22.105759894080034 ], [ -159.576738136349974, 22.107114799667059 ], [ -159.578635667113701, 22.108941179196979 ], [ -159.581124678498071, 22.11012484526016 ], [ -159.585253473261275, 22.11135703692781 ], [ -159.592505558048572, 22.114946113359405 ], [ -159.599101131514374, 22.118383379896301 ], [ -159.609280626059672, 22.122346858225704 ], [ -159.62262889342594, 22.126555406530308 ], [ -159.625360340596444, 22.127777200002146 ], [ -159.628928088171961, 22.129594598189669 ], [ -159.6312785096612, 22.131203901056747 ], [ -159.635290871180075, 22.134765669456101 ], [ -159.637525886607534, 22.138045136607925 ], [ -159.638271410789969, 22.140708697263555 ], [ -159.638887213253241, 22.146098163933502 ], [ -159.638191649453489, 22.148571868159443 ], [ -159.636912316703473, 22.149192163255666 ], [ -159.634998801540945, 22.149236006675491 ], [ -159.633372382239543, 22.148946786308016 ], [ -159.62948878252547, 22.148148757664629 ], [ -159.625340291886516, 22.148733443852681 ], [ -159.623016306535447, 22.150165599056038 ], [ -159.621794330446136, 22.152397711498718 ], [ -159.621740258294636, 22.155481825501603 ], [ -159.622356058304035, 22.161108490420787 ], [ -159.623767939152145, 22.165990612231358 ], [ -159.625903674275804, 22.170536962372864 ], [ -159.62558551042963, 22.173512014579877 ], [ -159.623695328992625, 22.176505702200522 ], [ -159.621934494924261, 22.178737074588142 ], [ -159.615338021431427, 22.184617758219147 ], [ -159.60916193419726, 22.189041081820523 ], [ -159.605599274591185, 22.191741368214654 ], [ -159.603083558224938, 22.192960126736381 ], [ -159.59988353960108, 22.193032768137396 ], [ -159.599071928834064, 22.192312285500702 ], [ -159.597239768699325, 22.190550361342769 ], [ -159.595729304472997, 22.190527184302226 ], [ -159.594274353013759, 22.190560156778254 ], [ -159.593980544970918, 22.190555641444561 ], [ -159.593437257472402, 22.191086362574556 ], [ -159.591707539690759, 22.192151514291726 ], [ -159.588382281025389, 22.195604690514589 ], [ -159.587314129079942, 22.197084414743916 ], [ -159.58544252175713, 22.200270282472072 ], [ -159.583310751437637, 22.201302641562215 ], [ -159.579036229995097, 22.201804516071164 ], [ -159.57795827566477, 22.202296249676081 ], [ -159.576380669661489, 22.20383701379204 ], [ -159.574570582431051, 22.204988904877336 ], [ -159.574028824048952, 22.205001113193052 ], [ -159.57118819044976, 22.204580748925281 ], [ -159.568915911500994, 22.202563067810143 ], [ -159.566991043853363, 22.200163885246241 ], [ -159.565138339585104, 22.199126426316035 ], [ -159.561135103964205, 22.197931969362624 ], [ -159.561118989189481, 22.197309684508262 ], [ -159.562284132811698, 22.196778304347998 ], [ -159.561998343641136, 22.196631704747467 ], [ -159.560500788286362, 22.196297183658832 ], [ -159.559081711613373, 22.195036872397036 ], [ -159.559376437834942, 22.194732611494647 ], [ -159.561402461742347, 22.194764141419267 ], [ -159.561407812586197, 22.194465778796943 ], [ -159.561108688359184, 22.193929977796156 ], [ -159.560537261165763, 22.1923104203962 ], [ -159.560224033069858, 22.19203227195576 ], [ -159.560814884151682, 22.19176281932377 ], [ -159.561401270471691, 22.191478930679374 ], [ -159.561977735646565, 22.191487901760201 ], [ -159.562404013285715, 22.191071656559902 ], [ -159.563131366212787, 22.190415985409636 ], [ -159.563136665093367, 22.190123313207817 ], [ -159.562543553482868, 22.18985789360406 ], [ -159.563142265997612, 22.189318203030115 ], [ -159.562835242729903, 22.189045534057289 ], [ -159.562840252421893, 22.188769284708957 ], [ -159.562542072377681, 22.188504503982319 ], [ -159.562556783814529, 22.187684768114764 ], [ -159.560650856252153, 22.187830864886084 ], [ -159.561113824582463, 22.187083932904951 ], [ -159.561672743039679, 22.186615369879764 ], [ -159.561945193260328, 22.186057144068723 ], [ -159.56339539600279, 22.184841359804892 ], [ -159.561993011378661, 22.184110732324228 ], [ -159.560636877319325, 22.184307633114248 ], [ -159.561653462629323, 22.183087243463184 ], [ -159.561939174819457, 22.18225667649541 ], [ -159.562825308668238, 22.182270457588309 ], [ -159.563952315968578, 22.181169861337757 ], [ -159.567123646441303, 22.182168564036189 ], [ -159.565552007524531, 22.180772680552373 ], [ -159.56601652572806, 22.18035390721737 ], [ -159.56513143651452, 22.1795677761184 ], [ -159.56562549584595, 22.17905760285397 ], [ -159.566867133183706, 22.178456404898611 ], [ -159.568035993850401, 22.178186705844794 ], [ -159.568015490602363, 22.177398120138236 ], [ -159.568683212767837, 22.176441806788205 ], [ -159.570056002319092, 22.175464044345638 ], [ -159.572096542678082, 22.174920268681838 ], [ -159.572389774943332, 22.17435187053043 ], [ -159.572965097249323, 22.173833131552318 ], [ -159.573254792281347, 22.173550140686597 ], [ -159.574406012774205, 22.173567968313375 ], [ -159.575001046785189, 22.172186591039313 ], [ -159.574980247460445, 22.171386738222726 ], [ -159.5758431262432, 22.17060867385468 ], [ -159.5758626265592, 22.169518332149185 ], [ -159.575562938182941, 22.16866914802042 ], [ -159.57497888176843, 22.168150422126594 ], [ -159.575425540290155, 22.167689073747621 ], [ -159.576138275261059, 22.167046411754939 ], [ -159.576421185337495, 22.166497942708574 ], [ -159.576998118236475, 22.16544501476648 ], [ -159.577016956931885, 22.164386153895848 ], [ -159.576412653337655, 22.162974690798737 ], [ -159.575852001988835, 22.162476719038004 ], [ -159.575529423918169, 22.161898942540375 ], [ -159.575538453913992, 22.161394656886529 ], [ -159.574807469239175, 22.160004542818783 ], [ -159.574635000091916, 22.16152658856242 ], [ -159.574950959794933, 22.162714255546685 ], [ -159.575536439474917, 22.163763077579166 ], [ -159.57555109713158, 22.164327731680054 ], [ -159.575103409269019, 22.16514478351122 ], [ -159.574658458635241, 22.166007364196901 ], [ -159.573797653075928, 22.166783537546124 ], [ -159.573818689672123, 22.167591317938868 ], [ -159.573234335489957, 22.168118197082819 ], [ -159.572479462503026, 22.169920727218432 ], [ -159.571818779199134, 22.170566069235964 ], [ -159.570911444706923, 22.17112470015589 ], [ -159.56994720879436, 22.17173841508432 ], [ -159.56888118013083, 22.171402716819387 ], [ -159.568587669631484, 22.171409323798802 ], [ -159.568293901085639, 22.171404761262082 ], [ -159.567741175448361, 22.171944603713051 ], [ -159.567133117955194, 22.172221981143434 ], [ -159.566266684624338, 22.172641509231344 ], [ -159.564402322215358, 22.172203355261953 ], [ -159.565071322662561, 22.174002044596779 ], [ -159.564234935769719, 22.17440702928015 ], [ -159.563183590770194, 22.173907193370297 ], [ -159.562447806308938, 22.175333285321265 ], [ -159.561334478748932, 22.176041778009761 ], [ -159.560725185190307, 22.176319694465946 ], [ -159.559749796987717, 22.178209985826566 ], [ -159.559008270830475, 22.177946926793574 ], [ -159.558295433389702, 22.177608004315498 ], [ -159.55732041417366, 22.178052703445047 ], [ -159.556887460285566, 22.179311104661284 ], [ -159.556107808259156, 22.180390787230177 ], [ -159.556121886307096, 22.180935334480697 ], [ -159.555529155974142, 22.181205669483806 ], [ -159.555245071173857, 22.181483077097251 ], [ -159.554361264706557, 22.18175350626661 ], [ -159.554389316966791, 22.182837498266313 ], [ -159.553408283867753, 22.183137672886929 ], [ -159.553800828145626, 22.184193095171675 ], [ -159.553793407901964, 22.184602059950347 ], [ -159.553810911805044, 22.185279554933359 ], [ -159.552700224948666, 22.185786066838808 ], [ -159.553520440978701, 22.186904121067556 ], [ -159.553515473666494, 22.18717771125883 ], [ -159.55352258458268, 22.187451314163653 ], [ -159.553226505926858, 22.187718130941462 ], [ -159.553233697859781, 22.187994409219559 ], [ -159.552343814918373, 22.188266668234334 ], [ -159.552371769459285, 22.189347161696364 ], [ -159.55177110311439, 22.189888532089153 ], [ -159.552077964893414, 22.190161119388208 ], [ -159.552365294384515, 22.190707606084274 ], [ -159.552665171934933, 22.190973987878149 ], [ -159.552368452285322, 22.191515242830278 ], [ -159.552085400095791, 22.192063663164948 ], [ -159.551789592593906, 22.192330269700804 ], [ -159.551507594719965, 22.193149707073577 ], [ -159.550627132232705, 22.193551195647025 ], [ -159.550637841913584, 22.193965507871617 ], [ -159.550252496736476, 22.194668296122522 ], [ -159.551234696830193, 22.195864709039167 ], [ -159.550339383484214, 22.196671624988852 ], [ -159.550367664337386, 22.197766036778596 ], [ -159.549775664147717, 22.19829955469103 ], [ -159.548939976406132, 22.199115438380165 ], [ -159.545406683794141, 22.198861289063373 ], [ -159.546189881803713, 22.198155511520039 ], [ -159.545702853582071, 22.197229167304897 ], [ -159.544236963702161, 22.19669640056609 ], [ -159.545124369167752, 22.19532251412851 ], [ -159.543653248142363, 22.194015645655956 ], [ -159.543950942855133, 22.192831904564027 ], [ -159.545414215138493, 22.193175928588403 ], [ -159.545379109757107, 22.19181252551088 ], [ -159.546123046085341, 22.191473306805907 ], [ -159.545376357025276, 22.190455349404736 ], [ -159.54610977538519, 22.190319457255207 ], [ -159.546210663271808, 22.190649555076124 ], [ -159.54646495162504, 22.19041104526724 ], [ -159.54610977538519, 22.190319457255207 ], [ -159.545816665614723, 22.189778395901357 ], [ -159.54701376563338, 22.189463608379437 ], [ -159.544948846816766, 22.188022880268896 ], [ -159.54568604469705, 22.187489021557905 ], [ -159.545637067645231, 22.18718822284395 ], [ -159.546552017868549, 22.186947647671175 ], [ -159.546960742206579, 22.186007818530125 ], [ -159.548543492984436, 22.184861538320082 ], [ -159.547900814202393, 22.184717884301129 ], [ -159.546836733520848, 22.185320560338042 ], [ -159.546090920316288, 22.18544112540507 ], [ -159.546447890740524, 22.184566807123428 ], [ -159.545505117268533, 22.184460798346802 ], [ -159.544694704619928, 22.184557434523018 ], [ -159.54335788080698, 22.184038050105588 ], [ -159.545439981511038, 22.183212725076125 ], [ -159.544532418673498, 22.182064276304079 ], [ -159.544438565409052, 22.181381323332907 ], [ -159.544523427350299, 22.180726278920158 ], [ -159.544170607953674, 22.180686594970648 ], [ -159.54317695126224, 22.18123503164011 ], [ -159.543291948584823, 22.180692603721042 ], [ -159.544449368663834, 22.178984736060258 ], [ -159.543414355712031, 22.178086136683945 ], [ -159.542100431854806, 22.177740994967735 ], [ -159.542589126842245, 22.176960390078214 ], [ -159.541665471935744, 22.176601513546533 ], [ -159.540628080380031, 22.175833398456067 ], [ -159.54181651952328, 22.175362300260119 ], [ -159.541362511372256, 22.174273486679926 ], [ -159.540373115462927, 22.174162192503786 ], [ -159.53973403209244, 22.17423838891041 ], [ -159.539808976262833, 22.173660311210718 ], [ -159.539250648796951, 22.173246940941169 ], [ -159.539852380460758, 22.1707383945683 ], [ -159.538790932836889, 22.171324289431368 ], [ -159.538555589106494, 22.169611390764217 ], [ -159.538627637367767, 22.169055608911414 ], [ -159.537458241733361, 22.168601158094475 ], [ -159.537735410785785, 22.167922124466521 ], [ -159.538962735419375, 22.167435634574833 ], [ -159.536870607191076, 22.167103618524507 ], [ -159.537127490721019, 22.166619863895409 ], [ -159.538095736557239, 22.166358559028389 ], [ -159.536827613058506, 22.166107381890448 ], [ -159.536993559239562, 22.165415688764295 ], [ -159.537347962203995, 22.165321745667146 ], [ -159.537091897493724, 22.165084923240773 ], [ -159.536993559239562, 22.165415688764295 ], [ -159.536027738177239, 22.165247227952513 ], [ -159.535684093908202, 22.163924200393353 ], [ -159.53538003828416, 22.163393491616208 ], [ -159.535094921851254, 22.162028567927607 ], [ -159.534766574500281, 22.162041770367058 ], [ -159.531288267456006, 22.158528456366604 ], [ -159.530552099755909, 22.157474632557413 ], [ -159.529979941656279, 22.157307938644923 ], [ -159.529879116995971, 22.156977824068132 ], [ -159.529624858928116, 22.157216316602319 ], [ -159.529979941656279, 22.157307938644923 ], [ -159.530117783378927, 22.157450628210608 ], [ -159.531206851299089, 22.16024720722594 ], [ -159.532689470823044, 22.162016453137245 ], [ -159.533115272685507, 22.164904401079855 ], [ -159.534453324035752, 22.167178919836676 ], [ -159.534866579119551, 22.171130406762494 ], [ -159.534824668245193, 22.17182611555916 ], [ -159.535433543058588, 22.172329265478663 ], [ -159.535010562599155, 22.173060421843026 ], [ -159.535434654864559, 22.173410813781736 ], [ -159.535039198791281, 22.175164794570442 ], [ -159.535441828489496, 22.175849056002527 ], [ -159.535410010354752, 22.17637664901077 ], [ -159.53573599369301, 22.176930674606236 ], [ -159.536012916647991, 22.177529540534564 ], [ -159.535432771473609, 22.178015761653789 ], [ -159.535159614402971, 22.178411274394932 ], [ -159.536326196684286, 22.179096914032911 ], [ -159.536602316870898, 22.179482490044343 ], [ -159.535429900588639, 22.180465044148026 ], [ -159.536342943420465, 22.180851694179321 ], [ -159.536309461847594, 22.181408282158838 ], [ -159.536337006766956, 22.181814725197722 ], [ -159.536303790691761, 22.182366432381468 ], [ -159.536629320612377, 22.182347288563101 ], [ -159.536908534265166, 22.183489086982831 ], [ -159.536062292137927, 22.184198274353353 ], [ -159.535762600005285, 22.184812116619611 ], [ -159.535181112149928, 22.1845203098813 ], [ -159.534883634236337, 22.184537803856504 ], [ -159.534548511139889, 22.184520306495646 ], [ -159.534632408613504, 22.185757369085668 ], [ -159.533717529253636, 22.18615206432229 ], [ -159.533196372558052, 22.187219416206922 ], [ -159.532436141904469, 22.187856524143001 ], [ -159.532946129717914, 22.188723355464056 ], [ -159.53197561427271, 22.189142051777278 ], [ -159.532554037079933, 22.190125206530858 ], [ -159.531695800465258, 22.190495438615212 ], [ -159.531732584971309, 22.191037727088343 ], [ -159.531375050789137, 22.191337321921683 ], [ -159.531447117194659, 22.19240062265219 ], [ -159.530831890737488, 22.192666029473944 ], [ -159.530558554268765, 22.193024539130175 ], [ -159.531150355722815, 22.194030362594052 ], [ -159.530787784065609, 22.194334186647144 ], [ -159.530859246392055, 22.195388631088875 ], [ -159.530154219458581, 22.197874972199145 ], [ -159.529070511113105, 22.197818358622072 ], [ -159.529180484692773, 22.195993311810991 ], [ -159.528510960993628, 22.194855493587724 ], [ -159.528576653520332, 22.193765074853399 ], [ -159.52850325196502, 22.192681223718086 ], [ -159.528538439166908, 22.192097085633591 ], [ -159.527335672551033, 22.192167763715851 ], [ -159.527356678686402, 22.191818516977218 ], [ -159.528144293602594, 22.191158565351987 ], [ -159.528496464279726, 22.190733979527412 ], [ -159.527877127508759, 22.190222237825687 ], [ -159.526854093012815, 22.190282350661086 ], [ -159.525891019026687, 22.19003584960096 ], [ -159.527373790533261, 22.189150873726877 ], [ -159.526668942658148, 22.188568472281005 ], [ -159.525439563032251, 22.188219264317869 ], [ -159.525198060758015, 22.186879255267915 ], [ -159.525853216316648, 22.186083084718895 ], [ -159.527450956249396, 22.186297695547079 ], [ -159.526592501579131, 22.185234292801248 ], [ -159.526964705671276, 22.18509757801715 ], [ -159.526591491634349, 22.184963273404531 ], [ -159.52672991823772, 22.184551126715789 ], [ -159.527621954301111, 22.184010557976283 ], [ -159.52701750228016, 22.18374726886967 ], [ -159.52703850033825, 22.18320534577828 ], [ -159.52643487520146, 22.183467989502898 ], [ -159.525897656778341, 22.184011769836793 ], [ -159.525260099215473, 22.183748225359409 ], [ -159.525291157908015, 22.182948484850584 ], [ -159.523140488883286, 22.182133816640881 ], [ -159.522431072345654, 22.182511474528912 ], [ -159.522069414429808, 22.183483086332323 ], [ -159.522094970463996, 22.184035186196109 ], [ -159.521495332805756, 22.18401497350877 ], [ -159.520818253174809, 22.185363118269681 ], [ -159.520035847660921, 22.184311938388561 ], [ -159.51962086224691, 22.183500193676522 ], [ -159.519112026935801, 22.183790137322617 ], [ -159.518588298372634, 22.184320220478018 ], [ -159.516671794697203, 22.183383547446102 ], [ -159.515997434369638, 22.185391033965136 ], [ -159.515671719849649, 22.185673993486787 ], [ -159.515983760029599, 22.186218583141297 ], [ -159.515069498730981, 22.187012871049976 ], [ -159.515682502098429, 22.187538238785102 ], [ -159.515404696676313, 22.188120976052058 ], [ -159.514516485818007, 22.188385956790768 ], [ -159.515037535163287, 22.189295526325065 ], [ -159.514526034852906, 22.18973992456835 ], [ -159.514545010962394, 22.190151200232748 ], [ -159.514529226653622, 22.190557784382634 ], [ -159.514548434850838, 22.19097421207919 ], [ -159.513636128311532, 22.191378708621873 ], [ -159.514254847600483, 22.191908963752986 ], [ -159.514234839125578, 22.192424071994658 ], [ -159.514628588530798, 22.193804578850113 ], [ -159.513958269887326, 22.193546003147414 ], [ -159.513677306863343, 22.193265536290543 ], [ -159.512499217574515, 22.192466509418278 ], [ -159.512115360816125, 22.192083327962131 ], [ -159.510915667493208, 22.192810138906328 ], [ -159.51017547678984, 22.19381915097842 ], [ -159.510200450125382, 22.19435972069687 ], [ -159.5098870851252, 22.194372268979585 ], [ -159.50953445265219, 22.193682499094894 ], [ -159.508414830848949, 22.193014139225493 ], [ -159.511026182133179, 22.192327437951739 ], [ -159.51105771092395, 22.191517293321493 ], [ -159.511014614933345, 22.190583247971865 ], [ -159.511338366758451, 22.190301974499345 ], [ -159.511617281417614, 22.190019745322292 ], [ -159.512741350872716, 22.189684417123882 ], [ -159.512162088250591, 22.18800019078828 ], [ -159.510215916957321, 22.186838432920784 ], [ -159.511801207517692, 22.186365522053585 ], [ -159.510823114761422, 22.185527173717265 ], [ -159.511599617473593, 22.185141386050759 ], [ -159.512762398245599, 22.184794506082032 ], [ -159.512188784644025, 22.184055442422626 ], [ -159.511874136315242, 22.183785772030699 ], [ -159.511895262218502, 22.183243485634481 ], [ -159.511300803663516, 22.182984469205959 ], [ -159.510940147410224, 22.181935873542798 ], [ -159.510436568761662, 22.182445529481225 ], [ -159.510140341912461, 22.182435522978587 ], [ -159.509849379594925, 22.182447177685386 ], [ -159.509532546912027, 22.182436473623987 ], [ -159.508980258997582, 22.18299540290521 ], [ -159.508379785688845, 22.182701879720852 ], [ -159.507486295820996, 22.182737649714216 ], [ -159.50645613488615, 22.181709042384743 ], [ -159.50544765736575, 22.182210032938759 ], [ -159.504610351240814, 22.182181719518777 ], [ -159.504046398294719, 22.182204287252301 ], [ -159.504014443240607, 22.181511377262854 ], [ -159.504030257383079, 22.181104793130444 ], [ -159.504017781707972, 22.180833808231768 ], [ -159.504037114294476, 22.180338064414247 ], [ -159.50373398323444, 22.179745025364348 ], [ -159.503432512545828, 22.179757085621418 ], [ -159.503124290647435, 22.179449256963039 ], [ -159.501736704629394, 22.178844571597857 ], [ -159.50052460606986, 22.177316102918052 ], [ -159.500219258450244, 22.177054329066703 ], [ -159.500601988566615, 22.175675500841262 ], [ -159.49965377401557, 22.175713417592615 ], [ -159.49906232376037, 22.174158079245871 ], [ -159.499034090879945, 22.173545946851068 ], [ -159.49951402334014, 22.172694379964714 ], [ -159.498494939228408, 22.172735128759474 ], [ -159.498060845421264, 22.172362991452406 ], [ -159.49847159327885, 22.171634293588045 ], [ -159.498164623108352, 22.171371143298213 ], [ -159.497877202025109, 22.170808692189819 ], [ -159.497289923881141, 22.170832171444921 ], [ -159.497006990902719, 22.170009218199365 ], [ -159.496703065238563, 22.169478435161103 ], [ -159.49641565392082, 22.168915981167078 ], [ -159.496001050361542, 22.169741258050401 ], [ -159.495799429406503, 22.169434388731354 ], [ -159.49516404441917, 22.167585948181433 ], [ -159.494320349526589, 22.169708614466408 ], [ -159.494959921271374, 22.170256993000791 ], [ -159.49468585448605, 22.171923781948962 ], [ -159.493733534340038, 22.172345930424374 ], [ -159.494389268863017, 22.173491105330342 ], [ -159.494111259092449, 22.174094122415511 ], [ -159.493530351631648, 22.174074435771015 ], [ -159.493499438487106, 22.174865381386478 ], [ -159.493813190085689, 22.175178716493654 ], [ -159.49417901842827, 22.175492368648079 ], [ -159.493829005940455, 22.17653378836911 ], [ -159.493236427942207, 22.176796466598478 ], [ -159.493286317129531, 22.177880349272463 ], [ -159.490791496032358, 22.178624294083175 ], [ -159.491791228374439, 22.179481401381782 ], [ -159.491221399790192, 22.179793956440175 ], [ -159.490629228811741, 22.180056433906444 ], [ -159.490343777422254, 22.180345218811276 ], [ -159.48958701657952, 22.179261425827789 ], [ -159.487730049793726, 22.179198452575683 ], [ -159.487707661695993, 22.179772365464682 ], [ -159.488010290529701, 22.180074628658748 ], [ -159.488313698752194, 22.180334777152172 ], [ -159.488302929314472, 22.18061063470563 ], [ -159.488327202204346, 22.181138168717979 ], [ -159.487834745861136, 22.182011687829974 ], [ -159.489203896136047, 22.181957030609993 ], [ -159.489172832567476, 22.182752797480621 ], [ -159.489771024343526, 22.184326103132602 ], [ -159.48808683586185, 22.184424048730534 ], [ -159.487440954411113, 22.183870304009762 ], [ -159.487476994333946, 22.182948989537039 ], [ -159.485994889257398, 22.182224241972211 ], [ -159.485502333467679, 22.182722524253187 ], [ -159.484708389961582, 22.181168580055896 ], [ -159.48439109840993, 22.182556842753147 ], [ -159.484996059600661, 22.183613387328023 ], [ -159.484243089369443, 22.183587836403216 ], [ -159.483962260010969, 22.184423086039885 ], [ -159.483395636742699, 22.184915151341709 ], [ -159.483352712229475, 22.186012546038008 ], [ -159.483682641955824, 22.186588708492692 ], [ -159.483069822555109, 22.187120854586713 ], [ -159.483396396009653, 22.18740086391664 ], [ -159.483089240977591, 22.187667633690772 ], [ -159.482817682175806, 22.19011798385533 ], [ -159.482227302313902, 22.190922473644154 ], [ -159.48194925074327, 22.191475674630638 ], [ -159.481375720970533, 22.191973712694278 ], [ -159.481079667994948, 22.192562741570722 ], [ -159.480778873069966, 22.192552530051088 ], [ -159.479381436491167, 22.193013277916211 ], [ -159.476521426886734, 22.192179249091389 ], [ -159.477502959596819, 22.191326980809542 ], [ -159.47617909201881, 22.190679573385275 ], [ -159.475244646969287, 22.191485043878895 ], [ -159.474707198111219, 22.192028659052784 ], [ -159.474056095607779, 22.191523386118909 ], [ -159.474126320412154, 22.189731811916428 ], [ -159.474070362156084, 22.18851236637553 ], [ -159.474081159501765, 22.188236455762507 ], [ -159.47261098385394, 22.187166651206944 ], [ -159.472330114376462, 22.186886111088732 ], [ -159.472017600315581, 22.186618105872736 ], [ -159.473213225463923, 22.186349200211708 ], [ -159.47317513550621, 22.185519303306467 ], [ -159.473782814593761, 22.184991654494549 ], [ -159.473474511307558, 22.184453182053232 ], [ -159.473485311039781, 22.184177680738493 ], [ -159.473472893491106, 22.183906692550323 ], [ -159.473504177692178, 22.183107928581965 ], [ -159.472885362352571, 22.182577279725848 ], [ -159.472907032749589, 22.182025606852307 ], [ -159.472573155292451, 22.181442336370573 ], [ -159.473750588953209, 22.181482377308171 ], [ -159.474627667151537, 22.180916511459728 ], [ -159.475789393857838, 22.180956004501727 ], [ -159.475801499152112, 22.180647617790495 ], [ -159.475788847343836, 22.180371539602792 ], [ -159.477524628958264, 22.180057626964881 ], [ -159.476775494470274, 22.179415207297318 ], [ -159.477819982802203, 22.17850816427023 ], [ -159.477144341627792, 22.178463036405965 ], [ -159.476355003961118, 22.178494488540125 ], [ -159.475792146001652, 22.177932236198973 ], [ -159.475179757718848, 22.177407093514564 ], [ -159.476357838658686, 22.176384062097718 ], [ -159.475976046098509, 22.17627666194695 ], [ -159.474561623893294, 22.176333009886552 ], [ -159.475480228930934, 22.17553525668291 ], [ -159.475512027288374, 22.174724021657937 ], [ -159.475187553130468, 22.174399925484707 ], [ -159.4737431734072, 22.174457461717086 ], [ -159.473159599675284, 22.173874532665167 ], [ -159.472557707523549, 22.173612098492658 ], [ -159.472866836370201, 22.173343663530879 ], [ -159.473145796477496, 22.173061498837917 ], [ -159.4734469893572, 22.17279993009398 ], [ -159.473834635401374, 22.17202866867774 ], [ -159.475177883428159, 22.171628262409847 ], [ -159.474521487869083, 22.171401844929534 ], [ -159.47286056391664, 22.171467992964395 ], [ -159.47397706487402, 22.17001281447109 ], [ -159.475941026275166, 22.170389560463516 ], [ -159.476918144568828, 22.169956537362541 ], [ -159.476637716209893, 22.169799025507505 ], [ -159.475456661680795, 22.169540630709946 ], [ -159.475765546393831, 22.168992717494955 ], [ -159.474816877408529, 22.167847838192294 ], [ -159.475161735135941, 22.166822062315369 ], [ -159.475464895306061, 22.166284298243998 ], [ -159.475059017191654, 22.16557521575055 ], [ -159.47652044625616, 22.163583730424438 ], [ -159.476029241825586, 22.163567035188155 ], [ -159.475228764551872, 22.163598922638702 ], [ -159.474544745309743, 22.163300668436374 ], [ -159.475159195822158, 22.162767035563231 ], [ -159.475437220011827, 22.162213836481143 ], [ -159.476308811027167, 22.161827575143519 ], [ -159.475674215659609, 22.161353322603919 ], [ -159.474713102131403, 22.161543553217804 ], [ -159.475232005489374, 22.160566912551321 ], [ -159.474806902688641, 22.160368132655346 ], [ -159.474707646105742, 22.159917419048263 ], [ -159.475994653465705, 22.159472904364158 ], [ -159.477459815627611, 22.159578253521847 ], [ -159.476604603979638, 22.158411165891255 ], [ -159.475392683819194, 22.157605904181736 ], [ -159.475461496814916, 22.156775813257543 ], [ -159.474806192561601, 22.155689668231162 ], [ -159.474860123652121, 22.155038523087633 ], [ -159.474823670010608, 22.154632091418623 ], [ -159.474867909224514, 22.15409868775884 ], [ -159.474293073457545, 22.153640242728933 ], [ -159.474153906125849, 22.152087586787484 ], [ -159.474878264200299, 22.151299375501356 ], [ -159.476264695171636, 22.150281403677468 ], [ -159.477717336498699, 22.149672477201481 ], [ -159.476088990474125, 22.149380299139793 ], [ -159.474753837701826, 22.149759017166453 ], [ -159.474249800433682, 22.150307438768401 ], [ -159.473647173715875, 22.150560050246707 ], [ -159.472789420580966, 22.151009125027944 ], [ -159.472144887002429, 22.14938972748374 ], [ -159.472765311366999, 22.147852354010666 ], [ -159.473533783097821, 22.14683601284549 ], [ -159.472491143680742, 22.146406236939285 ], [ -159.472874076726924, 22.145370163547931 ], [ -159.473745140895375, 22.144218110384564 ], [ -159.473245038825183, 22.143389123942466 ], [ -159.473652145952627, 22.142704315928633 ], [ -159.473028528457689, 22.142447224690052 ], [ -159.473348901774926, 22.141908264030661 ], [ -159.473616349238398, 22.14134527182463 ], [ -159.474485261829983, 22.140196016458063 ], [ -159.473698737221696, 22.140282997054111 ], [ -159.472094497603734, 22.141349681851942 ], [ -159.4716705035313, 22.139865543235974 ], [ -159.473606704782156, 22.13846112720578 ], [ -159.473329308207013, 22.138362009443597 ], [ -159.471011320329126, 22.138840066800437 ], [ -159.471445395419693, 22.137189143674942 ], [ -159.471855490606487, 22.136742934483919 ], [ -159.473890409913167, 22.13630603392183 ], [ -159.473038001421259, 22.135926433742995 ], [ -159.471560137958591, 22.135408823418089 ], [ -159.470434232263898, 22.133745595209319 ], [ -159.469624288223713, 22.133099526228794 ], [ -159.46895221706032, 22.131985411262679 ], [ -159.469218460688523, 22.131058990358671 ], [ -159.470109868207459, 22.129719160410648 ], [ -159.470074246759452, 22.129321582043961 ], [ -159.472319389644952, 22.128106898138221 ], [ -159.470683611627635, 22.127765627372359 ], [ -159.47095033298757, 22.126988610574998 ], [ -159.471528878286875, 22.126015413195201 ], [ -159.470158943060909, 22.123767814129074 ], [ -159.468950860984478, 22.123269730654709 ], [ -159.468499708734583, 22.12213581305684 ], [ -159.469028926254794, 22.121021487346734 ], [ -159.469648633586587, 22.119979015152229 ], [ -159.468960121711433, 22.119929456774145 ], [ -159.468319359316638, 22.120447030109883 ], [ -159.468001203435222, 22.122101064910236 ], [ -159.467467020371402, 22.122682364087829 ], [ -159.46731119943297, 22.122808240906892 ], [ -159.467112981921133, 22.122460149314069 ], [ -159.466337825488694, 22.122693218850607 ], [ -159.46731119943297, 22.122808240906892 ], [ -159.468323444459372, 22.124306068505852 ], [ -159.468929423464232, 22.12509724347607 ], [ -159.469207167253245, 22.12764825968716 ], [ -159.468542505536107, 22.128766216467213 ], [ -159.468048605184322, 22.129165165429637 ], [ -159.467780262755895, 22.12945712566707 ], [ -159.466895864190377, 22.130171457054939 ], [ -159.466032415089671, 22.131989274052643 ], [ -159.464286591094321, 22.131863591093062 ], [ -159.462864473512468, 22.131974111566141 ], [ -159.46225851334529, 22.131078848056983 ], [ -159.461822911819553, 22.130829219534593 ], [ -159.461522714179722, 22.13176857833804 ], [ -159.461231815171317, 22.131769400561648 ], [ -159.461232697420229, 22.132040424403563 ], [ -159.460941797841798, 22.132041246119901 ], [ -159.460942679547912, 22.13231226996389 ], [ -159.460651779399484, 22.132313091172936 ], [ -159.460652660562829, 22.132584115019004 ], [ -159.460298284675929, 22.132677891293749 ], [ -159.460554163700806, 22.13291483863205 ], [ -159.460652660562829, 22.132584115019004 ], [ -159.460943561267698, 22.132583293798859 ], [ -159.460942679547912, 22.13231226996389 ], [ -159.461233579682755, 22.132311448236461 ], [ -159.461232697420229, 22.132040424403563 ], [ -159.461523596984989, 22.132039602168859 ], [ -159.461522714179722, 22.13176857833804 ], [ -159.461970266701655, 22.131892743050322 ], [ -159.462823453991263, 22.132809679934127 ], [ -159.465644228708896, 22.133398298734654 ], [ -159.466998388440317, 22.135571058634788 ], [ -159.468364278623994, 22.136660578420489 ], [ -159.468097123961883, 22.1373159741858 ], [ -159.467470801274231, 22.138144345695519 ], [ -159.468109397366305, 22.13920303811177 ], [ -159.467730102009114, 22.139840988581092 ], [ -159.467830836564843, 22.140965505162335 ], [ -159.467784594332102, 22.141523181103523 ], [ -159.468133306579176, 22.142590164019879 ], [ -159.469781942176127, 22.143545578751418 ], [ -159.469149102259905, 22.144234186113003 ], [ -159.468520062441428, 22.144742223157696 ], [ -159.468310304042262, 22.147271822102407 ], [ -159.468983017971425, 22.147808384312754 ], [ -159.468524740633598, 22.147937521825973 ], [ -159.465804112419647, 22.147741720783763 ], [ -159.466160371392448, 22.148295913760233 ], [ -159.467563293465247, 22.149228247371742 ], [ -159.467237159973536, 22.149776741494801 ], [ -159.46810013382418, 22.150903248280894 ], [ -159.468193135722316, 22.151941005393162 ], [ -159.468082614580709, 22.153273630098166 ], [ -159.470315978529896, 22.154872837225664 ], [ -159.469792857026704, 22.155973921274057 ], [ -159.468180558290015, 22.156320010816046 ], [ -159.46812119923635, 22.157036097321434 ], [ -159.46843279516591, 22.157370907421225 ], [ -159.468864328707241, 22.15771505749326 ], [ -159.468436317171324, 22.158434833633635 ], [ -159.468168818014931, 22.158997817097607 ], [ -159.467603825418166, 22.159454072101898 ], [ -159.467306695625382, 22.162252592512708 ], [ -159.466994307733614, 22.162777912260367 ], [ -159.467031405717137, 22.163191886909502 ], [ -159.466997655968669, 22.163598521282175 ], [ -159.467046258399961, 22.164140432308752 ], [ -159.467001234846492, 22.164682611480377 ], [ -159.467046520322498, 22.165187957440775 ], [ -159.46642644800113, 22.166571350003803 ], [ -159.465565521865329, 22.168704121534603 ], [ -159.464106688980962, 22.16901719592121 ], [ -159.46357076910968, 22.170145011422701 ], [ -159.462890120457729, 22.169793830662602 ], [ -159.461668439797791, 22.170140212030386 ], [ -159.46094650779122, 22.171354035163265 ], [ -159.460913900842314, 22.171746587631549 ], [ -159.460974575846649, 22.172423978591056 ], [ -159.460917909688078, 22.173107205696507 ], [ -159.46123669017075, 22.174179395018513 ], [ -159.461202513446437, 22.174591533499854 ], [ -159.461251027277939, 22.175133446044917 ], [ -159.461216576922197, 22.175548856448181 ], [ -159.46182807318965, 22.176036529494581 ], [ -159.461781662342077, 22.17659600128415 ], [ -159.462126242931902, 22.177167188992826 ], [ -159.461804694726652, 22.177426813886346 ], [ -159.461851074371936, 22.177945035592789 ], [ -159.461248654548115, 22.178260316849407 ], [ -159.460354890438623, 22.178513712449583 ], [ -159.46008644029925, 22.178805651884826 ], [ -159.459512911008716, 22.179268689732499 ], [ -159.459484538025833, 22.179610346360146 ], [ -159.459508863697323, 22.179881302570475 ], [ -159.459430103755722, 22.180830111393789 ], [ -159.460401890963254, 22.181230704769845 ], [ -159.459848123053575, 22.181677815864077 ], [ -159.45918199484683, 22.183383139532665 ], [ -159.460362127191701, 22.184923408316276 ], [ -159.45921819398302, 22.185318318832731 ], [ -159.458941277924453, 22.185020780133556 ], [ -159.458593800272013, 22.185047762651699 ], [ -159.458067849832247, 22.184482702404736 ], [ -159.457754431476559, 22.184232715048928 ], [ -159.457468038414646, 22.18392499805692 ], [ -159.457028791713412, 22.18529869450375 ], [ -159.45607797680708, 22.184753987112103 ], [ -159.455994323451108, 22.183819798761014 ], [ -159.456876964277427, 22.182859897752774 ], [ -159.457450516727647, 22.182396868991543 ], [ -159.45747889506157, 22.182055212741279 ], [ -159.457407617824003, 22.181259376756234 ], [ -159.457740321744751, 22.179876201810451 ], [ -159.458056031186828, 22.179345419240299 ], [ -159.457715226884687, 22.178489031565455 ], [ -159.457778336541821, 22.177728052451002 ], [ -159.457232623666044, 22.178138028328235 ], [ -159.457154805022583, 22.179074849102797 ], [ -159.457198069664827, 22.179557594180608 ], [ -159.455790130206935, 22.181263115196902 ], [ -159.45541740845772, 22.181236271594258 ], [ -159.455136761045935, 22.181826829261613 ], [ -159.452823067140145, 22.182423495797515 ], [ -159.453091066980534, 22.181784798461329 ], [ -159.453668947362843, 22.181826427308998 ], [ -159.453758007600129, 22.180754362156868 ], [ -159.453368961496182, 22.180444086464828 ], [ -159.453688009825214, 22.179907690964921 ], [ -159.453955605038033, 22.17934473931227 ], [ -159.454267393384157, 22.179093001976515 ], [ -159.454533241888782, 22.177988004267394 ], [ -159.455735418282217, 22.17764723028133 ], [ -159.455693706966372, 22.177181766725546 ], [ -159.455759087827403, 22.176394831428002 ], [ -159.455376602388526, 22.17608977747085 ], [ -159.455454361679472, 22.175153312881307 ], [ -159.453655040577871, 22.176364301060424 ], [ -159.453155358488431, 22.176907741369739 ], [ -159.453072557198368, 22.176652835156251 ], [ -159.453095611406098, 22.176375935580502 ], [ -159.453047866814359, 22.175842793676924 ], [ -159.45357910099932, 22.175413923018841 ], [ -159.452586270694496, 22.174901612906105 ], [ -159.452197484810199, 22.175555276425882 ], [ -159.451909865053494, 22.176454676187763 ], [ -159.4504502270633, 22.176349510528244 ], [ -159.450523671464538, 22.177169818607634 ], [ -159.450166599740243, 22.17745807477176 ], [ -159.449898287282508, 22.17802258569764 ], [ -159.449277573861764, 22.177977856292244 ], [ -159.449617037252324, 22.178831106570517 ], [ -159.448448753337658, 22.179517115854182 ], [ -159.449011298902974, 22.180191669646483 ], [ -159.449768218644095, 22.180795434998384 ], [ -159.449327341830525, 22.181274898670495 ], [ -159.448433536121371, 22.181528229470477 ], [ -159.447871357671261, 22.181822371551817 ], [ -159.447302148223997, 22.181781347589844 ], [ -159.446102989040526, 22.182578161727459 ], [ -159.444258503791445, 22.181817655334012 ], [ -159.44464880588751, 22.180996551065221 ], [ -159.445179832261772, 22.180103942979322 ], [ -159.445890838090264, 22.17721611568042 ], [ -159.444977549732727, 22.176487576453603 ], [ -159.445819084762519, 22.176135056128782 ], [ -159.446087559856579, 22.175843139691587 ], [ -159.446435211287394, 22.175562477880788 ], [ -159.445662237905253, 22.174945886782236 ], [ -159.446083284248289, 22.174488024814515 ], [ -159.446955099603969, 22.174122827344711 ], [ -159.446391590127604, 22.173132053938424 ], [ -159.445860281878794, 22.172708194825969 ], [ -159.447551303255807, 22.171793903368819 ], [ -159.448048496171225, 22.170239306673999 ], [ -159.449268645365407, 22.169600815318837 ], [ -159.450975188273645, 22.169117102476758 ], [ -159.451323686511643, 22.168531201896545 ], [ -159.451695353528322, 22.167749138311528 ], [ -159.452799647849105, 22.167436125975108 ], [ -159.452738720152951, 22.166755530785114 ], [ -159.453016425011782, 22.163410885096905 ], [ -159.452467581879546, 22.16227428041655 ], [ -159.452131289965678, 22.161716669613494 ], [ -159.452230335802682, 22.160523354546697 ], [ -159.452062745868091, 22.158650294736912 ], [ -159.452587126305076, 22.157541082245103 ], [ -159.452941569538154, 22.157447321861447 ], [ -159.45268565787805, 22.157210363829819 ], [ -159.452587126305076, 22.157541082245103 ], [ -159.451793774128134, 22.157326613607651 ], [ -159.451903352796108, 22.15629509203151 ], [ -159.450454807347427, 22.154431950556837 ], [ -159.449480099827326, 22.151009239610467 ], [ -159.447960525475423, 22.149029076609512 ], [ -159.448077233008149, 22.149838782406832 ], [ -159.44923841893123, 22.151714533327887 ], [ -159.449208692710783, 22.151994391974704 ], [ -159.44923924364889, 22.152265333829291 ], [ -159.449154339784002, 22.15306439454595 ], [ -159.449567499072145, 22.155111632618944 ], [ -159.449215888766275, 22.155873009008921 ], [ -159.448800447344524, 22.156196417803621 ], [ -159.448602226546541, 22.155848305165655 ], [ -159.447826856250913, 22.156081289441424 ], [ -159.448800447344524, 22.156196417803621 ], [ -159.448944379529053, 22.156605380880141 ], [ -159.450071957681132, 22.156580834461941 ], [ -159.450138744618613, 22.159242993720184 ], [ -159.449834184866802, 22.160126156528325 ], [ -159.449538104412426, 22.160392680448613 ], [ -159.449557868330544, 22.161180211687995 ], [ -159.449250972560634, 22.162023596012116 ], [ -159.449835549207137, 22.162543697134122 ], [ -159.449846278960763, 22.162969179749592 ], [ -159.449831034292572, 22.163782298624238 ], [ -159.449864064301067, 22.165099511857434 ], [ -159.44823077757772, 22.167434930961601 ], [ -159.447381281697119, 22.167453417739754 ], [ -159.446942025424477, 22.167446268818178 ], [ -159.445853615896539, 22.168137846593147 ], [ -159.44549170045002, 22.167448112837153 ], [ -159.444911767728343, 22.167728381141721 ], [ -159.443742881467415, 22.167997166791345 ], [ -159.442047246883789, 22.168542906657777 ], [ -159.441708198294407, 22.168550268822496 ], [ -159.440536890767419, 22.168274042338862 ], [ -159.440557015238369, 22.169078752580084 ], [ -159.44026110915874, 22.169367268645907 ], [ -159.439769203673507, 22.169359241861027 ], [ -159.439105132009274, 22.171284199238549 ], [ -159.43793637892702, 22.17126512744883 ], [ -159.436489940758719, 22.171296500090609 ], [ -159.435900752686024, 22.17072858197125 ], [ -159.434735750716243, 22.170379900602125 ], [ -159.435312832742113, 22.169440233211283 ], [ -159.437053638793458, 22.169040012332992 ], [ -159.436767833641113, 22.168829080812205 ], [ -159.435597285658758, 22.168566612822254 ], [ -159.435307609642734, 22.167743283794273 ], [ -159.434579293689637, 22.167759072661546 ], [ -159.434127888155928, 22.167751690011706 ], [ -159.434154855252871, 22.168830312349318 ], [ -159.432979012904127, 22.168855788038606 ], [ -159.432984455458978, 22.168568354484044 ], [ -159.432685727356727, 22.168032108114392 ], [ -159.432693247234965, 22.167633994039825 ], [ -159.431440854199394, 22.167037231634573 ], [ -159.430938353674378, 22.167489465589565 ], [ -159.430351606836382, 22.168061552984263 ], [ -159.430362373953216, 22.167491094627337 ], [ -159.430064625140091, 22.167226172664297 ], [ -159.429776990115784, 22.166408427326832 ], [ -159.429330585981688, 22.166011194883421 ], [ -159.428752776792322, 22.165454187341084 ], [ -159.428320507744047, 22.165875633992329 ], [ -159.427733544970522, 22.166142775264884 ], [ -159.427023131584264, 22.166486009022631 ], [ -159.426278706263133, 22.166152011492883 ], [ -159.425992727732307, 22.165876307025837 ], [ -159.425695132811001, 22.165611483997729 ], [ -159.425407731583078, 22.165334392633007 ], [ -159.424536723044298, 22.16561460378821 ], [ -159.423120862993784, 22.16559137040397 ], [ -159.422489818257162, 22.165896273744959 ], [ -159.421913527221392, 22.165886806968974 ], [ -159.42113975429217, 22.166260625013592 ], [ -159.420463376339427, 22.165608534786159 ], [ -159.420174065740611, 22.166167966339536 ], [ -159.419877536714438, 22.166163089424924 ], [ -159.419298691794097, 22.166442726843627 ], [ -159.418006019799265, 22.165631379255725 ], [ -159.417839582233313, 22.165897588391186 ], [ -159.417859814162426, 22.166710433575307 ], [ -159.416677453042325, 22.166447859239597 ], [ -159.415812269026219, 22.166035505666891 ], [ -159.415804457902937, 22.166447375194853 ], [ -159.415824594495518, 22.167255886930931 ], [ -159.414935580198716, 22.167802007890298 ], [ -159.414592375363384, 22.168136552497163 ], [ -159.405206273071201, 22.163422843568977 ], [ -159.395537346450169, 22.157356673420477 ], [ -159.391418928787687, 22.152169862350455 ], [ -159.389634711097671, 22.14575301848873 ], [ -159.389251190749434, 22.139408311857078 ], [ -159.390820216527345, 22.134416929456233 ], [ -159.391610116574043, 22.129606429630883 ], [ -159.39144296683628, 22.12282959301028 ], [ -159.392217186588425, 22.116486679161117 ], [ -159.394081364997447, 22.112882559890664 ], [ -159.399774126871364, 22.107851636641396 ], [ -159.40429616957627, 22.104197841506998 ], [ -159.412995090432275, 22.097735392914725 ], [ -159.418242032061414, 22.09055925920967 ], [ -159.423637503380434, 22.083894209566015 ], [ -159.426269644580117, 22.0786626014966 ], [ -159.4287873881606, 22.071743372533192 ], [ -159.431777830454166, 22.060973358188615 ], [ -159.433878860140709, 22.053409643998538 ], [ -159.437683903562146, 22.036050924836367 ], [ -159.438974771449722, 22.035753876480772 ], [ -159.44067167813796, 22.035207259853578 ], [ -159.441173256550371, 22.035601057074803 ], [ -159.44042989900035, 22.036270773440606 ], [ -159.440719044410343, 22.037646402685176 ], [ -159.441016394150665, 22.037911206380802 ], [ -159.441558769035964, 22.038434435470645 ], [ -159.443555877017815, 22.03846703679713 ], [ -159.442735688188975, 22.037346013628976 ], [ -159.442760709680186, 22.036012003453646 ], [ -159.442747171606982, 22.035469980050713 ], [ -159.442757338338765, 22.034927892536853 ], [ -159.442730023114933, 22.033835260706677 ], [ -159.443614309375874, 22.033849691902741 ], [ -159.443145878266989, 22.033388700049038 ], [ -159.441296484298135, 22.032973648907422 ], [ -159.44126424390268, 22.031684870272947 ], [ -159.442152821548831, 22.031279982051508 ], [ -159.441866576859013, 22.030862033920311 ], [ -159.44113704794708, 22.030877879017631 ], [ -159.440126446003546, 22.030861358400522 ], [ -159.439828486933834, 22.031680708265409 ], [ -159.439478313731001, 22.033036799024082 ], [ -159.438447835956168, 22.032701335045566 ], [ -159.440678495597552, 22.021882092888568 ], [ -159.441983393013459, 22.020706318923377 ], [ -159.442409385474264, 22.020290484887948 ], [ -159.444437727826966, 22.019042647020797 ], [ -159.444444912883426, 22.01866150742606 ], [ -159.444417917415592, 22.017582768601546 ], [ -159.445596652578558, 22.017045579898813 ], [ -159.444896534238012, 22.01634399993808 ], [ -159.444285269852656, 22.016894815788184 ], [ -159.443859292921616, 22.017310654611279 ], [ -159.44268779814314, 22.017668624150541 ], [ -159.442704729190183, 22.018344451010734 ], [ -159.441391174578399, 22.01907630577502 ], [ -159.441561241393231, 22.01723266088031 ], [ -159.444517877589561, 22.004875879526509 ], [ -159.448020951573966, 21.99711729762987 ], [ -159.451736962042133, 21.991073205589935 ], [ -159.459515506218764, 21.981752954531469 ], [ -159.460283253592422, 21.981765410049213 ], [ -159.460909586978858, 21.981200762709431 ], [ -159.46088093122205, 21.980059911174884 ], [ -159.46256493109928, 21.977927634025953 ], [ -159.464369760373415, 21.978498115407739 ], [ -159.464652427120825, 21.977677124844934 ], [ -159.465522892768661, 21.977280187426238 ], [ -159.465209567367424, 21.97652824589408 ], [ -159.464433664631485, 21.975133847355131 ], [ -159.475055752238035, 21.960301341576347 ], [ -159.477582191804458, 21.956801207742934 ], [ -159.480101649411154, 21.951216143111743 ], [ -159.484128680974379, 21.946777794848206 ], [ -159.491156592836575, 21.943049377083188 ], [ -159.497666543111933, 21.942465430427305 ], [ -159.50704594119577, 21.945018571061663 ], [ -159.518058395000708, 21.951630728509315 ], [ -159.526518258011976, 21.961655275398265 ], [ -159.530694131700812, 21.969152769795357 ], [ -159.532343647207171, 21.973597531125264 ], [ -159.532070315972192, 21.976664767998397 ], [ -159.531490382363302, 21.978558426182342 ], [ -159.531147266902394, 21.980228375157246 ], [ -159.529482953974735, 21.980988132074447 ], [ -159.529176769728224, 21.981547224200543 ], [ -159.528889695992291, 21.982382097235195 ], [ -159.52830520960444, 21.982909512601687 ], [ -159.52976422242341, 21.983236250873649 ], [ -159.529483248771328, 21.984261953687163 ], [ -159.529189831014918, 21.985070561779558 ], [ -159.528814169611621, 21.986163118386113 ], [ -159.526846585273233, 21.987261024877935 ], [ -159.526441582825896, 21.987656891900816 ] ], [ [ -159.447612649682839, 22.148610953353728 ], [ -159.447713277149091, 22.148941122669704 ], [ -159.447967661305029, 22.148702755378054 ], [ -159.447612649682839, 22.148610953353728 ] ], [ [ -159.573922867086935, 22.159598412841756 ], [ -159.574082382668109, 22.159941971797075 ], [ -159.574592443625676, 22.159705909418527 ], [ -159.573922867086935, 22.159598412841756 ] ], [ [ -159.475859622517845, 22.156390735681274 ], [ -159.475960321422519, 22.156720886023571 ], [ -159.476214670851931, 22.156482475483831 ], [ -159.475859622517845, 22.156390735681274 ] ], [ [ -159.46904482409434, 22.119279925999024 ], [ -159.469145479067919, 22.119610082784469 ], [ -159.469399774815457, 22.119371682756345 ], [ -159.46904482409434, 22.119279925999024 ] ], [ [ -159.4936256812355, 22.078011445771192 ], [ -159.493744321296504, 22.078627002851082 ], [ -159.494004172216762, 22.078161035351936 ], [ -159.4936256812355, 22.078011445771192 ] ], [ [ -159.49769860288032, 22.07854115608934 ], [ -159.497578320433632, 22.078110168230818 ], [ -159.497012384016216, 22.077305871291145 ], [ -159.496415247581524, 22.077079220732166 ], [ -159.496124768378507, 22.078224970077876 ], [ -159.496950382253317, 22.078049829255981 ], [ -159.49723541043096, 22.07843186476153 ], [ -159.49769860288032, 22.07854115608934 ], [ -159.497699552350326, 22.078812180245137 ], [ -159.49799034124365, 22.078811295044702 ], [ -159.498109000891333, 22.079426848535071 ], [ -159.498368838754061, 22.078960874384524 ], [ -159.49799034124365, 22.078811295044702 ], [ -159.497989391218965, 22.078540270900888 ], [ -159.49769860288032, 22.07854115608934 ] ], [ [ -159.499729354398937, 22.07717982841935 ], [ -159.499830048455692, 22.07750996724474 ], [ -159.50008421774541, 22.077271528825815 ], [ -159.499729354398937, 22.07717982841935 ] ], [ [ -159.500890585208339, 22.076634222164387 ], [ -159.501009255355967, 22.077249773512822 ], [ -159.501269079778552, 22.07678379488291 ], [ -159.500890585208339, 22.076634222164387 ] ], [ [ -159.501447287968347, 22.069585811274216 ], [ -159.501312179832837, 22.069440637531812 ], [ -159.500416453051514, 22.068921473697682 ], [ -159.499271898526331, 22.06805359392952 ], [ -159.500433262569942, 22.067566285746768 ], [ -159.501050511607019, 22.066641011251271 ], [ -159.500985783640317, 22.065919589204054 ], [ -159.501298869445975, 22.065666444461129 ], [ -159.501567023997353, 22.065374446908244 ], [ -159.502484537873954, 22.065113871271432 ], [ -159.502419805433959, 22.064392995667664 ], [ -159.501562314204648, 22.064039472798296 ], [ -159.500635160227318, 22.062669689706059 ], [ -159.501331677520596, 22.06210659459855 ], [ -159.501239169150125, 22.061075669952437 ], [ -159.501662000854793, 22.060363671465012 ], [ -159.502793214814744, 22.061106104436035 ], [ -159.503873774088731, 22.061572976452769 ], [ -159.502380650697262, 22.059097493370498 ], [ -159.501480250029232, 22.059167713984738 ], [ -159.500561968535834, 22.060167888193035 ], [ -159.500114777725088, 22.059687314622121 ], [ -159.499510818034679, 22.059438279953849 ], [ -159.498440294412092, 22.057856567934699 ], [ -159.497722846825098, 22.05728419039778 ], [ -159.498070108041475, 22.057003421587645 ], [ -159.499073596219773, 22.055910530222203 ], [ -159.49604366756202, 22.055596075640064 ], [ -159.495606371155532, 22.056072393848044 ], [ -159.494144502810258, 22.056487491204354 ], [ -159.495455227142088, 22.057533265316778 ], [ -159.49601804540282, 22.058364792336789 ], [ -159.496915583395378, 22.059426032124634 ], [ -159.497225116152919, 22.060066946543067 ], [ -159.497187182189094, 22.060525860149891 ], [ -159.497503719470842, 22.061321438855597 ], [ -159.498042954097457, 22.062971372924128 ], [ -159.498480182701172, 22.06516492763771 ], [ -159.498371562581411, 22.066478395101861 ], [ -159.498436350751916, 22.067200430216015 ], [ -159.498087384455005, 22.068095350711577 ], [ -159.497534142246906, 22.070014374053272 ], [ -159.4970374406453, 22.070850553477666 ], [ -159.495167761067449, 22.072110552128279 ], [ -159.49417049582101, 22.073196502740117 ], [ -159.493768565070042, 22.074183614790684 ], [ -159.494355074819339, 22.075155913680124 ], [ -159.494311814625945, 22.075679058867571 ], [ -159.494648059772686, 22.076236605879803 ], [ -159.49478505545531, 22.076923833698789 ], [ -159.493986913780077, 22.07699519414459 ], [ -159.493560308772913, 22.077381617315691 ], [ -159.49469162697477, 22.077535118510166 ], [ -159.49478505545531, 22.076923833698789 ], [ -159.495559086402807, 22.077186115590887 ], [ -159.495451168361058, 22.075982601477826 ], [ -159.496101857550855, 22.075709601937284 ], [ -159.496057020445591, 22.075209882649219 ], [ -159.49615624029957, 22.07489705014417 ], [ -159.496736794886118, 22.075520979741899 ], [ -159.49665539249861, 22.074614433865801 ], [ -159.4966822296727, 22.074290092398694 ], [ -159.49759264566228, 22.074355495710549 ], [ -159.498113102546029, 22.075433156824822 ], [ -159.49858303908789, 22.075808026572098 ], [ -159.49968382283825, 22.076991088949374 ], [ -159.499542697626566, 22.075418722692991 ], [ -159.500170904748956, 22.075155155184614 ], [ -159.500139427066472, 22.074804292526046 ], [ -159.499550599954176, 22.074334590097632 ], [ -159.499910428370839, 22.074043704796811 ], [ -159.499254970317537, 22.073520823190243 ], [ -159.500170498214743, 22.072982423426694 ], [ -159.499837595819571, 22.072430468810186 ], [ -159.500466001782968, 22.072166767342932 ], [ -159.500012446457191, 22.07180497061443 ], [ -159.500295272290344, 22.07136108955358 ], [ -159.501315438337627, 22.072457492354822 ], [ -159.501590681691169, 22.071877457107103 ], [ -159.501897510087076, 22.071899493092332 ], [ -159.502752383798367, 22.0716799668748 ], [ -159.50158813534452, 22.071357130481282 ], [ -159.501316959619828, 22.070795758978601 ], [ -159.501002084790485, 22.070544537946716 ], [ -159.50102598261347, 22.070255290758066 ], [ -159.500236210590032, 22.069929725629379 ], [ -159.501447287968347, 22.069585811274216 ], [ -159.501606523364302, 22.069929450271122 ], [ -159.502116389896116, 22.069693615681231 ], [ -159.501447287968347, 22.069585811274216 ] ], [ [ -159.500307107903041, 22.076093953946703 ], [ -159.500407802470761, 22.076424092449312 ], [ -159.500661968868144, 22.076185653155441 ], [ -159.500307107903041, 22.076093953946703 ] ], [ [ -159.502320555320523, 22.069854159451989 ], [ -159.502421249804883, 22.070184296961017 ], [ -159.502675401821818, 22.069945854630138 ], [ -159.502320555320523, 22.069854159451989 ] ], [ [ -159.501712231250451, 22.062267260664747 ], [ -159.501812918575098, 22.062597398980397 ], [ -159.502067058343641, 22.062358957610034 ], [ -159.501712231250451, 22.062267260664747 ] ], [ [ -159.491804998422083, 22.056063695175347 ], [ -159.49152195764097, 22.056711627959093 ], [ -159.49250846160291, 22.056234446266206 ], [ -159.491804998422083, 22.056063695175347 ] ], [ [ -159.527607996565848, 21.988737261751464 ], [ -159.52770868779379, 21.989067386946971 ], [ -159.527962654904599, 21.988828906663731 ], [ -159.527607996565848, 21.988737261751464 ] ] ] } }
]
}
