{
"type": "FeatureCollection",
"name": "dublati",
"crs": { "type": "name", "properties": { "name": "urn:ogc:def:crs:OGC:1.3:CRS84" } },
"features": [
{ "type": "Feature", "properties": { "ID": 1, "GRIDCODE": 2 }, "geometry": { "type": "Polygon", "coordinates": [ [ [ -159.60432183790482, 22.19228205262711 ], [ -159.605012779447065, 22.192426485720279 ], [ -159.604619418481519, 22.193465898885602 ], [ -159.604029410115544, 22.1928836106581 ], [ -159.60432183790482, 22.19228205262711 ] ] ] } },
{ "type": "Feature", "properties": { "ID": 2, "GRIDCODE": 2 }, "geometry": { "type": "Polygon", "coordinates": [ [ [ -159.606063286632718, 22.191191503025568 ], [ -159.606479657228221, 22.191477551979723 ], [ -159.605679707733572, 22.192090459520529 ], [ -159.606063286632718, 22.191191503025568 ] ] ] } },
{ "type": "Feature", "properties": { "ID": 3, "GRIDCODE": 2 }, "geometry": { "type": "Polygon", "coordinates": [ [ [ -159.625761021969907, 22.170519545744391 ], [ -159.626069463712184, 22.170774137893925 ], [ -159.626483314722549, 22.171201942191196 ], [ -159.626791759250153, 22.171456532887802 ], [ -159.628110171800188, 22.173133899934946 ], [ -159.629833945369114, 22.174915928515137 ], [ -159.630976453485118, 22.175398964559996 ], [ -159.632326605294992, 22.176513171052441 ], [ -159.63133427741522, 22.176669057258923 ], [ -159.62869074761133, 22.176304983248134 ], [ -159.626843633906617, 22.176844017978834 ], [ -159.626510867839102, 22.177420043708224 ], [ -159.626151505145572, 22.178519923050231 ], [ -159.625161463557532, 22.180948479120939 ], [ -159.624779400277959, 22.180694168267742 ], [ -159.624014958141316, 22.179903938782996 ], [ -159.622445487225377, 22.178780708410589 ], [ -159.622110493811022, 22.180147097447851 ], [ -159.621017055353633, 22.179629087454256 ], [ -159.623207819975278, 22.177210507822963 ], [ -159.625258872800458, 22.174091802464616 ], [ -159.625635130997864, 22.173102337796209 ], [ -159.625761021969907, 22.170519545744391 ] ] ] } },
{ "type": "Feature", "properties": { "ID": 4, "GRIDCODE": 2 }, "geometry": { "type": "Polygon", "coordinates": [ [ [ -159.624585169671946, 22.167813857176643 ], [ -159.624940335491232, 22.167905270378352 ], [ -159.624686222223147, 22.168143907777225 ], [ -159.624585169671946, 22.167813857176643 ] ] ] } },
{ "type": "Feature", "properties": { "ID": 5, "GRIDCODE": 2 }, "geometry": { "type": "Polygon", "coordinates": [ [ [ -159.622817898162964, 22.162942258199088 ], [ -159.623173050626093, 22.163033675615345 ], [ -159.62291894283527, 22.16327231026732 ], [ -159.622817898162964, 22.162942258199088 ] ] ] } },
{ "type": "Feature", "properties": { "ID": 6, "GRIDCODE": 2 }, "geometry": { "type": "Polygon", "coordinates": [ [ [ -159.659179583449344, 22.161173195860023 ], [ -159.659534752751341, 22.161264533634004 ], [ -159.659280710959365, 22.161503223463523 ], [ -159.659179583449344, 22.161173195860023 ] ] ] } },
{ "type": "Feature", "properties": { "ID": 7, "GRIDCODE": 2 }, "geometry": { "type": "Polygon", "coordinates": [ [ [ -159.671649232729749, 22.152449719642217 ], [ -159.671270400035439, 22.152300543268524 ], [ -159.6715297892205, 22.151834315761818 ], [ -159.671649232729749, 22.152449719642217 ] ] ] } },
{ "type": "Feature", "properties": { "ID": 8, "GRIDCODE": 2 }, "geometry": { "type": "Polygon", "coordinates": [ [ [ -159.649788310960076, 22.143594627818558 ], [ -159.650143430345906, 22.143685987459257 ], [ -159.649889403025611, 22.143924662789185 ], [ -159.649788310960076, 22.143594627818558 ] ] ] } },
{ "type": "Feature", "properties": { "ID": 9, "GRIDCODE": 2 }, "geometry": { "type": "Polygon", "coordinates": [ [ [ -159.690743547550539, 22.130417504895149 ], [ -159.690903606172554, 22.130064589471104 ], [ -159.691404076915518, 22.130306153881481 ], [ -159.690743547550539, 22.130417504895149 ] ] ] } },
{ "type": "Feature", "properties": { "ID": 10, "GRIDCODE": 2 }, "geometry": { "type": "Polygon", "coordinates": [ [ [ -159.579803220746726, 22.103475917603156 ], [ -159.579448244111916, 22.10338440120395 ], [ -159.579702322052412, 22.103145833253979 ], [ -159.579803220746726, 22.103475917603156 ] ] ] } },
{ "type": "Feature", "properties": { "ID": 11, "GRIDCODE": 2 }, "geometry": { "type": "Polygon", "coordinates": [ [ [ -159.578344624498271, 22.102396992195139 ], [ -159.578699597994699, 22.10248851107179 ], [ -159.578445519479033, 22.10272707749256 ], [ -159.578344624498271, 22.102396992195139 ] ] ] } },
{ "type": "Feature", "properties": { "ID": 12, "GRIDCODE": 2 }, "geometry": { "type": "Polygon", "coordinates": [ [ [ -159.627992942908065, 22.083242170511173 ], [ -159.627788529469086, 22.083607472809696 ], [ -159.627035320013732, 22.083361887018398 ], [ -159.627992942908065, 22.083242170511173 ] ] ] } },
{ "type": "Feature", "properties": { "ID": 13, "GRIDCODE": 2 }, "geometry": { "type": "Polygon", "coordinates": [ [ [ -159.627992942908065, 22.083242170511173 ], [ -159.628091015270712, 22.082911352788088 ], [ -159.628347076486818, 22.083148026515094 ], [ -159.627992942908065, 22.083242170511173 ] ] ] } },
{ "type": "Feature", "properties": { "ID": 14, "GRIDCODE": 2 }, "geometry": { "type": "Polygon", "coordinates": [ [ [ -159.691913798290216, 22.072143373965488 ], [ -159.693000439835146, 22.072262489872685 ], [ -159.691889523233357, 22.073616636979587 ], [ -159.691117788073001, 22.072783481483597 ], [ -159.691787865619631, 22.07229686835106 ], [ -159.691913798290216, 22.072143373965488 ] ] ] } },
{ "type": "Feature", "properties": { "ID": 15, "GRIDCODE": 2 }, "geometry": { "type": "Polygon", "coordinates": [ [ [ -159.619762119412854, 22.062946837730088 ], [ -159.620172775528829, 22.063208828358547 ], [ -159.619507279252559, 22.065226689250622 ], [ -159.616744693509304, 22.064994901823827 ], [ -159.617562416417599, 22.064691994433698 ], [ -159.618931622379961, 22.064437384697339 ], [ -159.619762119412854, 22.062946837730088 ] ] ] } },
{ "type": "Feature", "properties": { "ID": 16, "GRIDCODE": 2 }, "geometry": { "type": "Polygon", "coordinates": [ [ [ -159.602273447865542, 22.052713218379537 ], [ -159.601919370818109, 22.052807304938863 ], [ -159.602175333983212, 22.053044022738266 ], [ -159.602273447865542, 22.052713218379537 ], [ -159.60532843358007, 22.05254599164688 ], [ -159.605617763810869, 22.054216772988291 ], [ -159.604126572188306, 22.054879563796089 ], [ -159.604183566138403, 22.056098433458668 ], [ -159.603883590708392, 22.056631978177183 ], [ -159.603607419994262, 22.057456391950527 ], [ -159.603306712781716, 22.057718202752 ], [ -159.603028363288047, 22.058030052921549 ], [ -159.603694476060753, 22.05860086044343 ], [ -159.606577476215904, 22.058239609294159 ], [ -159.607379839092886, 22.058266276789965 ], [ -159.607808210043771, 22.057831881627603 ], [ -159.609332909634816, 22.056504423947857 ], [ -159.610315463173293, 22.057485061328475 ], [ -159.610285210337253, 22.058275699422119 ], [ -159.609707648943072, 22.05877857822216 ], [ -159.609430438997549, 22.059353468980689 ], [ -159.61029699562323, 22.059318214438768 ], [ -159.611051657173533, 22.059343288226213 ], [ -159.611457974169554, 22.060137489783738 ], [ -159.611808934320266, 22.060438201637851 ], [ -159.613507726040581, 22.060932567507344 ], [ -159.614050438701582, 22.061993436703975 ], [ -159.611758003041473, 22.062294237036053 ], [ -159.610248887744206, 22.062878642816752 ], [ -159.609738523112611, 22.06339619205524 ], [ -159.609228195890978, 22.06384050824251 ], [ -159.6097555193505, 22.064760527885362 ], [ -159.609725006782583, 22.065557650693396 ], [ -159.610654034472788, 22.066092693504213 ], [ -159.611480336422829, 22.06525465128631 ], [ -159.612720787868682, 22.065295832030174 ], [ -159.613755899053899, 22.066328819640496 ], [ -159.612943202038224, 22.067439251805443 ], [ -159.612665366489324, 22.067869639235465 ], [ -159.613593428603679, 22.068273639419136 ], [ -159.614112187282672, 22.068811060216653 ], [ -159.612809084508456, 22.068767809453199 ], [ -159.611506041580554, 22.068820838865683 ], [ -159.611214377539568, 22.068529814169178 ], [ -159.61087976074856, 22.068270362509796 ], [ -159.610343298778844, 22.068814412054515 ], [ -159.609997883261371, 22.069115159643484 ], [ -159.610059939933336, 22.070441246799572 ], [ -159.609166257773779, 22.071219254049105 ], [ -159.609219937864509, 22.072364717703181 ], [ -159.607228244636502, 22.072298544628641 ], [ -159.606874974060673, 22.073705741121078 ], [ -159.606195773112887, 22.0742969883587 ], [ -159.608019284104273, 22.074222844649537 ], [ -159.608838885509783, 22.074623188241084 ], [ -159.609197055312706, 22.075323250311644 ], [ -159.60979122783462, 22.075581919410737 ], [ -159.60978069889299, 22.07585796123492 ], [ -159.609794140574223, 22.076144814830641 ], [ -159.610396826864161, 22.076120284678844 ], [ -159.610976048722534, 22.074964519067933 ], [ -159.611820447665309, 22.074229364618752 ], [ -159.612662197467586, 22.07337575888581 ], [ -159.612970130485394, 22.073683013442512 ], [ -159.613877892214248, 22.073947158683239 ], [ -159.613846702606111, 22.074763108252125 ], [ -159.614266944162267, 22.075496108907622 ], [ -159.61330259932609, 22.076335675205389 ], [ -159.614770355764591, 22.076647191164437 ], [ -159.615306829181407, 22.076103127328341 ], [ -159.615898753840497, 22.075840016407266 ], [ -159.615860501152696, 22.075023798918345 ], [ -159.616765953828491, 22.074752837712357 ], [ -159.61704732180803, 22.073631804112569 ], [ -159.617631209890476, 22.073123433452309 ], [ -159.618468535543201, 22.072274231922428 ], [ -159.620493955071908, 22.072341380738482 ], [ -159.620813837869605, 22.072016970595637 ], [ -159.62288362843563, 22.071745291491037 ], [ -159.623696531204047, 22.070920754673569 ], [ -159.624017519592485, 22.070931391111664 ], [ -159.62487977606645, 22.070645993526156 ], [ -159.625192030983584, 22.070656346733507 ], [ -159.625150280884753, 22.071751797263936 ], [ -159.625761248721204, 22.071726881485262 ], [ -159.626052064075509, 22.07173652100207 ], [ -159.626498010796382, 22.071718337925077 ], [ -159.627912900667837, 22.072617838913558 ], [ -159.628659602405378, 22.073362781498144 ], [ -159.631026990626168, 22.074051370579603 ], [ -159.630992213365431, 22.074964436354772 ], [ -159.631619567804847, 22.075237421197766 ], [ -159.631538587954083, 22.0763122797477 ], [ -159.630437107953128, 22.075774483889578 ], [ -159.628444444471512, 22.075340185602489 ], [ -159.627496028834685, 22.075812608358159 ], [ -159.627545942130922, 22.076874854545064 ], [ -159.626824020212723, 22.077195790197305 ], [ -159.625101917575023, 22.076782249598303 ], [ -159.624007980904366, 22.077327099777303 ], [ -159.624076745915033, 22.07879174031601 ], [ -159.623752686594059, 22.078781000270109 ], [ -159.622347417335561, 22.079129929768111 ], [ -159.623140480377117, 22.079809214427211 ], [ -159.624051762421004, 22.08099096781131 ], [ -159.62245771276082, 22.080938154014792 ], [ -159.621632553315607, 22.080971779612785 ], [ -159.619538444181501, 22.082014721888171 ], [ -159.61795729906575, 22.081242572488605 ], [ -159.616870468713358, 22.08098597512355 ], [ -159.616481912350025, 22.082146202698393 ], [ -159.613598684804145, 22.082050550222231 ], [ -159.613310374663087, 22.082625918251289 ], [ -159.612975372061129, 22.082614801041593 ], [ -159.612187345543248, 22.081828421461115 ], [ -159.611099330048347, 22.081278666831739 ], [ -159.610691135748709, 22.082093261389037 ], [ -159.609518019114859, 22.08235833940498 ], [ -159.608948283833172, 22.082540306139261 ], [ -159.610695752388153, 22.083167014699381 ], [ -159.611056245280196, 22.083871611746236 ], [ -159.610690080954726, 22.084522862891255 ], [ -159.610710324716905, 22.084954432609369 ], [ -159.611577465245148, 22.085331904062585 ], [ -159.612170255233707, 22.085621402656127 ], [ -159.612741464237814, 22.085598172001216 ], [ -159.613022757182165, 22.085878859738774 ], [ -159.613955264424163, 22.086150171787136 ], [ -159.610990626764135, 22.086689213369553 ], [ -159.610711757701438, 22.086889072790957 ], [ -159.61273082563298, 22.087476514921853 ], [ -159.613052694971515, 22.087797726990942 ], [ -159.613021252610338, 22.088622228309241 ], [ -159.614639296793683, 22.088556370516976 ], [ -159.615511845572684, 22.088585311368604 ], [ -159.615947980271017, 22.088567556914086 ], [ -159.616765852874039, 22.088594678943551 ], [ -159.617687216550081, 22.088289806659891 ], [ -159.617999510131312, 22.08830017269149 ], [ -159.617959613881141, 22.089345292724026 ], [ -159.615947146073978, 22.089651866208808 ], [ -159.615088198735918, 22.090207468013261 ], [ -159.614495292137065, 22.090470993962029 ], [ -159.614896038143968, 22.093247833911001 ], [ -159.611170652271824, 22.094089579988502 ], [ -159.610450398542014, 22.093737827831866 ], [ -159.609072670757087, 22.093482266733286 ], [ -159.608489269020623, 22.095223673991168 ], [ -159.607539302203378, 22.095645834340356 ], [ -159.60697007140746, 22.095958772026655 ], [ -159.607587779656825, 22.09648788610442 ], [ -159.607538160457949, 22.097784345051725 ], [ -159.605513981662597, 22.098092556357702 ], [ -159.604593661374992, 22.098396977039723 ], [ -159.603440764425727, 22.09835865919985 ], [ -159.601748217027961, 22.099201260032576 ], [ -159.601307152538624, 22.099186606264748 ], [ -159.600578427420828, 22.099216199703292 ], [ -159.600270898374902, 22.098323387000384 ], [ -159.599664747991596, 22.097853422740414 ], [ -159.599128133293902, 22.098397437024229 ], [ -159.598827332890039, 22.098659240418478 ], [ -159.598390644101045, 22.099530383397784 ], [ -159.597385429895724, 22.099206183339408 ], [ -159.596678497813997, 22.099234885722783 ], [ -159.596204035913104, 22.100650655441061 ], [ -159.595623224729025, 22.101683369307693 ], [ -159.594773818389939, 22.101655083160306 ], [ -159.593883002229745, 22.101691241619442 ], [ -159.593904830636291, 22.101121573615508 ], [ -159.593878782428391, 22.100564171734039 ], [ -159.593029574173443, 22.100598635803646 ], [ -159.592483976658201, 22.100054168213092 ], [ -159.591579448726691, 22.099660372221955 ], [ -159.591286427527876, 22.10141833654593 ], [ -159.590410179654327, 22.101389148814089 ], [ -159.59012722994612, 22.1019534986971 ], [ -159.588951909421581, 22.102763365124002 ], [ -159.589265039520171, 22.103309658884527 ], [ -159.588668697266371, 22.103574560718318 ], [ -159.588099269703378, 22.103857973229402 ], [ -159.587507600653595, 22.104120786325513 ], [ -159.587220338448532, 22.104693765161805 ], [ -159.586057896348336, 22.105210085921513 ], [ -159.584420220072218, 22.10602511816586 ], [ -159.583457516172217, 22.106700741246534 ], [ -159.583955713512495, 22.107927846304804 ], [ -159.584397913931895, 22.106608789748922 ], [ -159.586271455556755, 22.106268509030674 ], [ -159.587236504451226, 22.106300674557371 ], [ -159.587536386941792, 22.105996729930663 ], [ -159.588398743807687, 22.106025469774789 ], [ -159.588816990649946, 22.105601539630538 ], [ -159.589435991110378, 22.105062926870023 ], [ -159.590927498015589, 22.10554403774719 ], [ -159.591330590450781, 22.103939532993589 ], [ -159.592201506605107, 22.103572133518608 ], [ -159.593250590984354, 22.10461903042367 ], [ -159.594032516736462, 22.104959442868871 ], [ -159.595758387942595, 22.104889398082417 ], [ -159.596539113010607, 22.106006429702699 ], [ -159.59728626188101, 22.105976099796106 ], [ -159.597691430795209, 22.105167942847476 ], [ -159.598283084356638, 22.104905093226275 ], [ -159.598946497774023, 22.104232590638876 ], [ -159.600635940530708, 22.105188045154872 ], [ -159.601768653207671, 22.105142034396305 ], [ -159.60323855163125, 22.105190896283148 ], [ -159.604086400950195, 22.104331355834912 ], [ -159.60507791755316, 22.10379598033661 ], [ -159.605927007812113, 22.1050106574213 ], [ -159.606503140996438, 22.1054064932455 ], [ -159.608250050658029, 22.104828633579618 ], [ -159.60988434941126, 22.104882902735167 ], [ -159.610778667905294, 22.104304516019969 ], [ -159.612263733487111, 22.104661200571716 ], [ -159.613549394702773, 22.105520865271444 ], [ -159.613650373438759, 22.105850926823251 ], [ -159.613904396807101, 22.105612306944153 ], [ -159.613549394702773, 22.105520865271444 ], [ -159.613695978120035, 22.105116494123749 ], [ -159.613972759774157, 22.103212872035666 ], [ -159.614282618443667, 22.102358005101909 ], [ -159.614241627833934, 22.100794875544256 ], [ -159.614640472885668, 22.10040487284806 ], [ -159.615957330192344, 22.101030789270901 ], [ -159.616874623525121, 22.101044780747898 ], [ -159.617431493741435, 22.099964047034469 ], [ -159.618029289421486, 22.099674189979346 ], [ -159.618904536950254, 22.099687518682131 ], [ -159.619922341998233, 22.099664306818678 ], [ -159.621200632051114, 22.099683752681262 ], [ -159.621808621285595, 22.09938893027245 ], [ -159.622394928362752, 22.09912110186211 ], [ -159.622678859130247, 22.098843473061102 ], [ -159.623170872152087, 22.098850943797864 ], [ -159.62358685977739, 22.096406335889942 ], [ -159.624710761807421, 22.096667640294648 ], [ -159.625794669953507, 22.098018604312962 ], [ -159.627042127410846, 22.097748226456279 ], [ -159.627616937806636, 22.097469472968481 ], [ -159.62793043410079, 22.097474223833114 ], [ -159.628772803900091, 22.095838996975413 ], [ -159.629649899281873, 22.095570024017892 ], [ -159.629936589114664, 22.094734993828965 ], [ -159.630516329877821, 22.094211573614778 ], [ -159.630800093258415, 22.093934030937792 ], [ -159.631243274407041, 22.0935339255042 ], [ -159.632564795038462, 22.092241395732987 ], [ -159.634742292896249, 22.093767940712329 ], [ -159.635247548654377, 22.092296100737528 ], [ -159.636844273166105, 22.092599766408298 ], [ -159.636327742056181, 22.093104964973094 ], [ -159.635748451908768, 22.093628006602799 ], [ -159.63604540155174, 22.095567062743182 ], [ -159.636921639971348, 22.097136086121086 ], [ -159.636347181294013, 22.097441238311067 ], [ -159.635751768136174, 22.097713287073802 ], [ -159.635188607142283, 22.099353997197568 ], [ -159.634028904439361, 22.099336450393029 ], [ -159.633739481513885, 22.099619545512336 ], [ -159.632755604347579, 22.100069078417018 ], [ -159.633248333509471, 22.100506620734524 ], [ -159.632347680694039, 22.102600750811192 ], [ -159.633169924534911, 22.102331970748569 ], [ -159.635317263206588, 22.101510570965551 ], [ -159.636075772077362, 22.101773216050507 ], [ -159.636363233907161, 22.102319565723072 ], [ -159.638018824652789, 22.102614055401467 ], [ -159.636667065624266, 22.103269662213187 ], [ -159.635249224084447, 22.103917508717256 ], [ -159.634917548186621, 22.104216915013737 ], [ -159.634633773038075, 22.104494464789411 ], [ -159.634077627600703, 22.104996576466437 ], [ -159.633760123922656, 22.105576723280045 ], [ -159.633780721723156, 22.106356897315496 ], [ -159.63341698291174, 22.107063048326012 ], [ -159.63084788012975, 22.107766654586861 ], [ -159.630006811207267, 22.107753904209194 ], [ -159.629699373656564, 22.108031412808113 ], [ -159.629273683655782, 22.10844771586369 ], [ -159.62852880873055, 22.109120114729905 ], [ -159.628571742764223, 22.110748684637205 ], [ -159.628552699195694, 22.111835292438233 ], [ -159.629382712060703, 22.113719528653835 ], [ -159.628333212910803, 22.113743527060606 ], [ -159.624756386866636, 22.113189150834923 ], [ -159.623905627770739, 22.113208580630022 ], [ -159.622655553190327, 22.112915142483139 ], [ -159.621506234319895, 22.114563267323572 ], [ -159.621005515144788, 22.114574691730756 ], [ -159.619554593722285, 22.114552618338443 ], [ -159.619549365018059, 22.114851160817111 ], [ -159.622439532059843, 22.11559887234991 ], [ -159.623341641566697, 22.11646664132552 ], [ -159.62390330752342, 22.115376663503937 ], [ -159.624795499805941, 22.115909870337884 ], [ -159.625664668142122, 22.116454011784349 ], [ -159.626535716833786, 22.116843648728999 ], [ -159.626553813000129, 22.117531976140462 ], [ -159.626534993141178, 22.118608318068677 ], [ -159.627387871333156, 22.119365504831123 ], [ -159.627722225118305, 22.119964175568608 ], [ -159.627717400144746, 22.120237721528124 ], [ -159.627728147756898, 22.120644212184438 ], [ -159.627716294641658, 22.121319205652338 ], [ -159.628020152461318, 22.121588951041115 ], [ -159.628599698808614, 22.122405210455671 ], [ -159.629475069704654, 22.123182380478287 ], [ -159.629496512588304, 22.123997073321856 ], [ -159.62891554618858, 22.125600287087675 ], [ -159.630644216296474, 22.12428904889817 ], [ -159.631528645107323, 22.124017859816124 ], [ -159.630638112883418, 22.123619550799511 ], [ -159.630649261053719, 22.12298080341882 ], [ -159.630348317229704, 22.121851001374445 ], [ -159.629952958555094, 22.121143155935435 ], [ -159.630479581763325, 22.120628194677135 ], [ -159.631275643325722, 22.119909602712909 ], [ -159.630717046102347, 22.117913153116497 ], [ -159.631776456256404, 22.117238014241142 ], [ -159.63289312723137, 22.117254922060535 ], [ -159.633650913332531, 22.116908724321373 ], [ -159.634393846496977, 22.115878295294316 ], [ -159.635156933343325, 22.114783833913922 ], [ -159.635563498431679, 22.114789985652898 ], [ -159.636267747930361, 22.114101237842263 ], [ -159.638858882738475, 22.113619383964618 ], [ -159.63834925367965, 22.112707019212294 ], [ -159.641350765207363, 22.111905472646281 ], [ -159.641057823460869, 22.110155406646861 ], [ -159.640752717517159, 22.109609176991111 ], [ -159.644236698622564, 22.108803220867348 ], [ -159.644539517605892, 22.10824977796678 ], [ -159.644532156452101, 22.107973674507541 ], [ -159.644827754366617, 22.107706805144421 ], [ -159.645122260798814, 22.107418766048255 ], [ -159.647037412599019, 22.10683126123428 ], [ -159.647432050655254, 22.106064953377228 ], [ -159.648251032876431, 22.105690697930498 ], [ -159.648679106263529, 22.104443210352535 ], [ -159.649172543347959, 22.104431871384708 ], [ -159.651382318736069, 22.104465092830011 ], [ -159.653906072589905, 22.103525834181657 ], [ -159.654909325391401, 22.101192176348235 ], [ -159.653993162123669, 22.099944292492157 ], [ -159.654422616147457, 22.098271585900481 ], [ -159.655147795386654, 22.100323950209674 ], [ -159.656986842100451, 22.100351552760667 ], [ -159.657827407815489, 22.099943724211968 ], [ -159.658599130591057, 22.101409924273003 ], [ -159.659483333824056, 22.101423181167888 ], [ -159.660510225179166, 22.101399497719719 ], [ -159.659927339720639, 22.102465233461999 ], [ -159.660698819850353, 22.104001221467513 ], [ -159.662428499624809, 22.104516533039035 ], [ -159.663133450555137, 22.105194342708131 ], [ -159.663721191969358, 22.105715974746651 ], [ -159.664069870909572, 22.107658373066887 ], [ -159.664750593705747, 22.108312850358114 ], [ -159.665185400711351, 22.107887429375463 ], [ -159.665955628782513, 22.108971722081424 ], [ -159.667227522994466, 22.108700937712925 ], [ -159.667781112933284, 22.107625653232272 ], [ -159.668378655389034, 22.107335705635091 ], [ -159.668965008550146, 22.107067653371843 ], [ -159.668950511220885, 22.106523017444339 ], [ -159.669548727919732, 22.106249546776056 ], [ -159.669534229227395, 22.105705059773044 ], [ -159.669845565521172, 22.105135772709243 ], [ -159.669816784308665, 22.104055333275877 ], [ -159.671398891539468, 22.104078921003619 ], [ -159.670559629807997, 22.102174970044736 ], [ -159.672376330584541, 22.102202052143447 ], [ -159.673009261184603, 22.101894904461624 ], [ -159.673591635828274, 22.102171448442601 ], [ -159.674460491635898, 22.101890310355138 ], [ -159.67581287010529, 22.101577161930578 ], [ -159.674166474054374, 22.099994382612262 ], [ -159.670965696712017, 22.099643273249157 ], [ -159.671248574488175, 22.099193333399093 ], [ -159.672925511404287, 22.098158862316215 ], [ -159.673567530176769, 22.09757892640901 ], [ -159.672969049819699, 22.097278346757101 ], [ -159.671827004753936, 22.097304764783061 ], [ -159.671253935134132, 22.096753813802717 ], [ -159.670658368380316, 22.096767589939439 ], [ -159.670076682746952, 22.096758909431809 ], [ -159.669225253991272, 22.096778592462083 ], [ -159.668909146422067, 22.096498047722211 ], [ -159.668916164283814, 22.096088874628464 ], [ -159.668905338044368, 22.095682388147246 ], [ -159.668914537719559, 22.09514859684435 ], [ -159.668325761005633, 22.094868984570738 ], [ -159.667160286395614, 22.094347932254404 ], [ -159.667733213826295, 22.093787323922321 ], [ -159.66818229695312, 22.09338167061177 ], [ -159.667554415868977, 22.092824362729822 ], [ -159.669213336320638, 22.09166777626367 ], [ -159.668882209278138, 22.091075132437759 ], [ -159.669330957224673, 22.09025447702999 ], [ -159.668880096084962, 22.090264891093845 ], [ -159.668302796224594, 22.089990706522233 ], [ -159.66719221445311, 22.089659858042278 ], [ -159.668027718272867, 22.088905150697467 ], [ -159.667124874679047, 22.088103797749692 ], [ -159.66683859899257, 22.08782851911387 ], [ -159.666242509804391, 22.087299444715285 ], [ -159.666256795901234, 22.086470526293862 ], [ -159.665067244413734, 22.085938637449118 ], [ -159.665090430297255, 22.08459061715001 ], [ -159.664197868624655, 22.08405040014685 ], [ -159.663648702128057, 22.083522315914845 ], [ -159.662744269230586, 22.083508780767907 ], [ -159.662177612588977, 22.083521845280963 ], [ -159.66186472113688, 22.08324408465074 ], [ -159.662169001593753, 22.082969217888696 ], [ -159.66215466647904, 22.082429847096019 ], [ -159.662163914035347, 22.081893143255236 ], [ -159.661434900524455, 22.080900077205868 ], [ -159.663012615175575, 22.079474945269297 ], [ -159.66301783723506, 22.079171596606567 ], [ -159.662641592817891, 22.078498066041934 ], [ -159.663078513887058, 22.077699045095336 ], [ -159.66153014695908, 22.077006637968875 ], [ -159.661548763882337, 22.075927786781865 ], [ -159.661534349435044, 22.075385802123755 ], [ -159.66155271309006, 22.074321144654469 ], [ -159.661226507583649, 22.07400742430805 ], [ -159.659504503451529, 22.074047129358451 ], [ -159.659788143937362, 22.073764013162666 ], [ -159.660367264197419, 22.073240889215956 ], [ -159.659392061097918, 22.07291638496233 ], [ -159.657458413170502, 22.073293647210278 ], [ -159.657466479015284, 22.072827498446671 ], [ -159.65745547307904, 22.072412656436757 ], [ -159.658600826220749, 22.072429834589759 ], [ -159.65920984894646, 22.071879730317264 ], [ -159.659188389538542, 22.071071780389918 ], [ -159.659531937706106, 22.07012287829377 ], [ -159.658320710029983, 22.069581164403679 ], [ -159.658604966976327, 22.069432433816154 ], [ -159.659191185159784, 22.069164427066209 ], [ -159.659180343141429, 22.068755274825627 ], [ -159.65918976591712, 22.068207883307618 ], [ -159.658306699303495, 22.067812929029806 ], [ -159.658020482271326, 22.067537632845131 ], [ -159.657722674919427, 22.067273234185731 ], [ -159.657419489824179, 22.066981628651401 ], [ -159.655982940779239, 22.067014721915104 ], [ -159.655975464297342, 22.066732878439598 ], [ -159.656550188315606, 22.066213755539994 ], [ -159.656945301192252, 22.06544626446939 ], [ -159.657723398847054, 22.066194668570947 ], [ -159.658302053668052, 22.066181341022617 ], [ -159.658595638188672, 22.066185734123707 ], [ -159.658879396909214, 22.065908044777284 ], [ -159.660203709394892, 22.065501566255822 ], [ -159.65948513973899, 22.064863599237235 ], [ -159.659006879497554, 22.06400733414398 ], [ -159.660015650555323, 22.064022456756611 ], [ -159.660334845275912, 22.063734101393379 ], [ -159.660320474043914, 22.063192231329051 ], [ -159.660735860804664, 22.062432556616212 ], [ -159.659454310273219, 22.06185937290067 ], [ -159.659432249479266, 22.06102851395687 ], [ -159.661231408594091, 22.060693576146654 ], [ -159.661948980838645, 22.060045310694687 ], [ -159.660307171412455, 22.059051358608947 ], [ -159.6605911822179, 22.058854571707734 ], [ -159.6614712113537, 22.058584444873489 ], [ -159.660865194012388, 22.057758806890728 ], [ -159.660879233096949, 22.056945932016475 ], [ -159.660289142854936, 22.056422017269817 ], [ -159.660000430341711, 22.055604689470286 ], [ -159.659421111260798, 22.055090305645127 ], [ -159.659112752152424, 22.054504277628588 ], [ -159.658430842896053, 22.053898776867364 ], [ -159.658827703087724, 22.053172926475813 ], [ -159.658527167367907, 22.052634803998519 ], [ -159.658239727240954, 22.052088489617791 ], [ -159.657941952662071, 22.051824090075264 ], [ -159.657041008969202, 22.050701255096051 ], [ -159.656061965894338, 22.049831884997687 ], [ -159.656998341849715, 22.04853212141419 ], [ -159.656476612194069, 22.048030232065098 ], [ -159.655892775917863, 22.047511783186195 ], [ -159.656766078996498, 22.047758048545308 ], [ -159.6576336882693, 22.048031014136164 ], [ -159.66043236399122, 22.048383752864478 ], [ -159.660929173731262, 22.050248417842631 ], [ -159.661706529100712, 22.050996163521351 ], [ -159.662868361976365, 22.050969363165247 ], [ -159.66333206908277, 22.051799624252812 ], [ -159.662731838174722, 22.052897491900961 ], [ -159.663619024397491, 22.052877024858706 ], [ -159.664336998492189, 22.052887759605042 ], [ -159.664636985808727, 22.052339088425654 ], [ -159.665178641515269, 22.051286644506337 ], [ -159.665647439296578, 22.05082778610711 ], [ -159.666085505115319, 22.052067786331104 ], [ -159.667245996520478, 22.052040976738319 ], [ -159.667260648556521, 22.052592191409449 ], [ -159.666370235843999, 22.053696068074153 ], [ -159.666405475379236, 22.055021259160362 ], [ -159.666023182411379, 22.055720501556181 ], [ -159.667150241632783, 22.057472855792451 ], [ -159.667276003524051, 22.056931937030161 ], [ -159.666794324665233, 22.056069554665608 ], [ -159.667846529657396, 22.054765074182345 ], [ -159.667832265355116, 22.054228993985394 ], [ -159.669000545188197, 22.054201990942477 ], [ -159.669008130775808, 22.054486744648358 ], [ -159.668993580716176, 22.055332043623963 ], [ -159.673237266467453, 22.054910129050501 ], [ -159.674229099778273, 22.055790621809393 ], [ -159.67425867858762, 22.056901781171948 ], [ -159.6739574803251, 22.057173944078958 ], [ -159.673505710670412, 22.058491525586284 ], [ -159.67251733863543, 22.058811423525786 ], [ -159.671305217037514, 22.059092152645491 ], [ -159.67033962250656, 22.060037242591076 ], [ -159.66943519805497, 22.060257543779894 ], [ -159.669659779076824, 22.060963788963491 ], [ -159.67033962250656, 22.060037242591076 ], [ -159.671954700567312, 22.060164459002191 ], [ -159.672522415741838, 22.060710422826187 ], [ -159.673111927720925, 22.06042425689655 ], [ -159.673830471894945, 22.060434963363814 ], [ -159.67429926545816, 22.060424116341956 ], [ -159.675426932901331, 22.059876711790714 ], [ -159.676010738079611, 22.060154007107869 ], [ -159.676580210261449, 22.059596575944859 ], [ -159.677783988075475, 22.059614488668405 ], [ -159.677755056598727, 22.061303529244473 ], [ -159.675259067605765, 22.061881662816781 ], [ -159.674571796007911, 22.062868289867577 ], [ -159.673985383386452, 22.063682430569376 ], [ -159.674671844936029, 22.063989380432954 ], [ -159.676853248243134, 22.063563517418405 ], [ -159.677765670343547, 22.063120588287862 ], [ -159.678349915457545, 22.063129283383429 ], [ -159.679355443479494, 22.063105972880141 ], [ -159.680965721343114, 22.063534064559093 ], [ -159.680099214998052, 22.064737131989997 ], [ -159.679487331224152, 22.065615596379061 ], [ -159.678653224885494, 22.066369262675664 ], [ -159.678369663704302, 22.066657951923048 ], [ -159.679820393913502, 22.066624322107131 ], [ -159.68069273652651, 22.066637286528429 ], [ -159.680998015009266, 22.066630209971589 ], [ -159.681562562097383, 22.065533039575698 ], [ -159.682434542974704, 22.065545996356224 ], [ -159.683612664440631, 22.065259305140739 ], [ -159.684175265914917, 22.065267656117456 ], [ -159.684611353051764, 22.065257544579108 ], [ -159.685198588228957, 22.065266252131533 ], [ -159.68473470351563, 22.06611498548159 ], [ -159.684162736236715, 22.06663182823792 ], [ -159.683598134860091, 22.067729106604649 ], [ -159.682733787618446, 22.068510130937725 ], [ -159.68274512761522, 22.068934959754277 ], [ -159.681865818143564, 22.069337135596193 ], [ -159.681435850263568, 22.070019192201233 ], [ -159.681081787601727, 22.070113449632995 ], [ -159.681337911072177, 22.070350039152583 ], [ -159.681435850263568, 22.070019192201233 ], [ -159.682290458712004, 22.069823480557716 ], [ -159.682993278909493, 22.069949888111321 ], [ -159.68417864353637, 22.069029677374239 ], [ -159.684574671081947, 22.069100903808707 ], [ -159.685286676997038, 22.068166107025462 ], [ -159.68600140836287, 22.068584861173971 ], [ -159.686567844004713, 22.067841164617175 ], [ -159.688695293878993, 22.068223733850004 ], [ -159.688449295600094, 22.069412386739739 ], [ -159.689382497892183, 22.069236422356852 ], [ -159.690421552802889, 22.069969109121537 ], [ -159.690050958048545, 22.071759649496432 ], [ -159.689637583278937, 22.072372644490883 ], [ -159.688302463740655, 22.072000734870379 ], [ -159.687551010239389, 22.071890749307094 ], [ -159.6873913631552, 22.071547301546168 ], [ -159.686881812656964, 22.07178370670265 ], [ -159.687551010239389, 22.071890749307094 ], [ -159.687725389450151, 22.072058395061859 ], [ -159.690043988877932, 22.073094815156288 ], [ -159.688980730446985, 22.07375097693793 ], [ -159.688294628872001, 22.07473604995004 ], [ -159.687993421453655, 22.075008238387618 ], [ -159.688007853042336, 22.07554760493699 ], [ -159.688003202245113, 22.075818644914797 ], [ -159.688010525283232, 22.076092132322817 ], [ -159.687707239745635, 22.07664701135338 ], [ -159.689605900593136, 22.076602889544336 ], [ -159.689129854684921, 22.075751076097436 ], [ -159.689209358654921, 22.075274238850426 ], [ -159.690911012715645, 22.075809100134364 ], [ -159.692512014536277, 22.076285844860113 ], [ -159.693527938199679, 22.075792598809326 ], [ -159.694399164327763, 22.075565704294171 ], [ -159.693139216134512, 22.077871031296873 ], [ -159.69354566590448, 22.078231704920078 ], [ -159.693832153218239, 22.078544022130025 ], [ -159.692480841593152, 22.079765171601679 ], [ -159.693179382637197, 22.080130398446101 ], [ -159.694790798364181, 22.078979962741315 ], [ -159.695403614161052, 22.078380035491019 ], [ -159.696451681677331, 22.079048510342318 ], [ -159.695094540184385, 22.079669323080267 ], [ -159.694719431374011, 22.080405833809785 ], [ -159.69558644226376, 22.080385656075308 ], [ -159.696170433610519, 22.080994520701076 ], [ -159.694143507286128, 22.082826186511944 ], [ -159.694158480635394, 22.08338412556596 ], [ -159.693317488990999, 22.08337171435317 ], [ -159.692074923951651, 22.083674101187462 ], [ -159.691240533393312, 22.083661767175922 ], [ -159.689766376175299, 22.083949665511536 ], [ -159.688627074188474, 22.083932798031302 ], [ -159.687569794514502, 22.083957362194539 ], [ -159.687180727618141, 22.084908097702563 ], [ -159.688437265142909, 22.084298111437491 ], [ -159.688918976839204, 22.084761170438565 ], [ -159.689849794206992, 22.085038356316531 ], [ -159.691526233259793, 22.084999381983099 ], [ -159.691829526046831, 22.085290920904466 ], [ -159.694044833489301, 22.085784301732652 ], [ -159.693517326684571, 22.08674941819001 ], [ -159.694912508498334, 22.087372940041433 ], [ -159.695334529400697, 22.08844210694096 ], [ -159.694121873334467, 22.088814552830112 ], [ -159.692159827427105, 22.088785553585186 ], [ -159.69181747816333, 22.089120666086416 ], [ -159.688482509548294, 22.088680856253294 ], [ -159.688982281466366, 22.089124319181199 ], [ -159.691298859372466, 22.09015967953874 ], [ -159.689274342027545, 22.091291296752427 ], [ -159.693558513236752, 22.091191674718388 ], [ -159.694095299466738, 22.091707632094934 ], [ -159.693609888811039, 22.092595700473534 ], [ -159.693617574647874, 22.092882732959222 ], [ -159.694783021988144, 22.093403561901923 ], [ -159.695360300476068, 22.093704019028802 ], [ -159.694473740685424, 22.09450509918322 ], [ -159.69244937997999, 22.094475178893983 ], [ -159.692468178740029, 22.095177725518383 ], [ -159.692461229016004, 22.095586947561436 ], [ -159.693923845443464, 22.096117407187553 ], [ -159.695084656144843, 22.096802098535711 ], [ -159.694214139554305, 22.097200252287916 ], [ -159.693930970674216, 22.097574784845559 ], [ -159.695387209435552, 22.09800832334205 ], [ -159.695673612423235, 22.098294218876411 ], [ -159.694317525637672, 22.098914460884714 ], [ -159.693941098086071, 22.099646012400665 ], [ -159.693012922222238, 22.099931061092303 ], [ -159.691609590887737, 22.099910308017218 ], [ -159.691641447170099, 22.101099969106361 ], [ -159.690156638574706, 22.101555925272422 ], [ -159.690934081491747, 22.101903357245789 ], [ -159.693841222088338, 22.101335642751273 ], [ -159.694818432528791, 22.101826269415923 ], [ -159.693949422523872, 22.102611450339563 ], [ -159.693957059927868, 22.102895463780943 ], [ -159.69394781787048, 22.103437541576174 ], [ -159.694542717846389, 22.103703378197785 ], [ -159.6945377600575, 22.103996046771094 ], [ -159.693802415824393, 22.104660425422345 ], [ -159.695570719371375, 22.105186848110208 ], [ -159.696441056789013, 22.106023284812505 ], [ -159.69569076006502, 22.106701208784276 ], [ -159.694002712920678, 22.106676280746846 ], [ -159.69310437792268, 22.106967084517393 ], [ -159.691931682929322, 22.107238748982073 ], [ -159.69245339063508, 22.107701591873248 ], [ -159.694482384282594, 22.108153392431941 ], [ -159.69486999505537, 22.10888932165512 ], [ -159.694852166442161, 22.109939050356509 ], [ -159.695737827168443, 22.110202693591415 ], [ -159.696607697134453, 22.110843334589891 ], [ -159.69507005379748, 22.111315533048426 ], [ -159.693668704967592, 22.111294841322781 ], [ -159.691961512288657, 22.112123525966343 ], [ -159.691520045466916, 22.111285325664014 ], [ -159.689042586664414, 22.111342914000144 ], [ -159.689066402515749, 22.112232905802408 ], [ -159.690514530476747, 22.112664028735214 ], [ -159.691144782354343, 22.113860660531934 ], [ -159.692609751235466, 22.114296779610125 ], [ -159.69372796169489, 22.114270769638626 ], [ -159.69371856082995, 22.114823996480048 ], [ -159.69490704378839, 22.115088623158435 ], [ -159.694886016653726, 22.116325930754247 ], [ -159.693438391286548, 22.116987944660437 ], [ -159.692548278530637, 22.117420002284707 ], [ -159.689806264233113, 22.11714154868071 ], [ -159.68970510081158, 22.116811539208967 ], [ -159.689451188782556, 22.117050274009873 ], [ -159.689806264233113, 22.11714154868071 ], [ -159.689938956840336, 22.117289036246696 ], [ -159.690516342774004, 22.117731823667814 ], [ -159.690850571319629, 22.118440991147256 ], [ -159.691862910033421, 22.11921730718835 ], [ -159.69124251116969, 22.120237305514724 ], [ -159.693092265711783, 22.120536354269209 ], [ -159.694208263732094, 22.120425573306338 ], [ -159.694900800888632, 22.12079124217999 ], [ -159.696192294231082, 22.121306588375148 ], [ -159.697525688869632, 22.122224799143314 ], [ -159.692582652585372, 22.121738217741502 ], [ -159.690662558736733, 22.123038139439579 ], [ -159.689983512667823, 22.122679566493947 ], [ -159.687760028247368, 22.122176568620883 ], [ -159.688431317812416, 22.123257261046081 ], [ -159.686962358913661, 22.12411003466412 ], [ -159.686642274072256, 22.124472394976745 ], [ -159.685981767453171, 22.124583726200168 ], [ -159.686482210618948, 22.124825306572554 ], [ -159.686642274072256, 22.124472394976745 ], [ -159.688305149108061, 22.124600356771825 ], [ -159.69082175930069, 22.125410285733061 ], [ -159.692046781771211, 22.125359848015407 ], [ -159.692009630780689, 22.126346864573208 ], [ -159.692041970440016, 22.127028723654348 ], [ -159.691741764728704, 22.127563133682365 ], [ -159.691775724461451, 22.128278805295086 ], [ -159.689441331598374, 22.128704290023258 ], [ -159.690320425813553, 22.129456330378776 ], [ -159.690298575232447, 22.130036861349982 ], [ -159.690743547550539, 22.130417504895149 ], [ -159.690528329807364, 22.13064396923 ], [ -159.687768141458889, 22.131136033487749 ], [ -159.686792103488301, 22.131085960807194 ], [ -159.687400411893492, 22.132117758732317 ], [ -159.688579921320297, 22.132451659604701 ], [ -159.689732109395578, 22.13346713381204 ], [ -159.687753573128475, 22.134045500009126 ], [ -159.686845173307546, 22.134642368569704 ], [ -159.685880803124348, 22.134902191237281 ], [ -159.68448823691682, 22.134204727227601 ], [ -159.684549955950303, 22.135101795773874 ], [ -159.683341965221871, 22.135454878095626 ], [ -159.682777888864507, 22.135743508969018 ], [ -159.682180994234727, 22.136001772277595 ], [ -159.681907220278958, 22.136166612748497 ], [ -159.683654426705885, 22.136537644019125 ], [ -159.684221269772564, 22.136821538499053 ], [ -159.684820636875088, 22.137074791656705 ], [ -159.685126956949432, 22.137391312570912 ], [ -159.686260845777383, 22.13732356600968 ], [ -159.686805434186084, 22.137886271735109 ], [ -159.688278991175764, 22.138199143679458 ], [ -159.688589933483655, 22.137871986303175 ], [ -159.689144388861308, 22.137613878908468 ], [ -159.690048782824647, 22.138758742107736 ], [ -159.688346662306316, 22.138671436576608 ], [ -159.687204442224498, 22.139058701787555 ], [ -159.688020636751759, 22.139731940010059 ], [ -159.688312356808382, 22.140614744856389 ], [ -159.687593066505059, 22.140577845842444 ], [ -159.687156825774991, 22.140603916990781 ], [ -159.686865841781554, 22.140588980906593 ], [ -159.686284187144281, 22.140623742349547 ], [ -159.685556727340838, 22.14058641381062 ], [ -159.684560877058942, 22.140645909918639 ], [ -159.683955292734225, 22.140020155951696 ], [ -159.68367694411927, 22.14120260329334 ], [ -159.684261098128871, 22.141684452922217 ], [ -159.684776643917843, 22.14221711475885 ], [ -159.685428665188653, 22.142492607578994 ], [ -159.686288784403104, 22.143257781554066 ], [ -159.684835753378024, 22.143579170573933 ], [ -159.684562560816715, 22.143866586752271 ], [ -159.683218892692452, 22.1441279858158 ], [ -159.682713813235154, 22.143114806598145 ], [ -159.682821466739256, 22.144679312011469 ], [ -159.682805050666786, 22.144957247323624 ], [ -159.68311446201119, 22.14521249652233 ], [ -159.683390929303954, 22.145602424573923 ], [ -159.681609658862811, 22.14765795548335 ], [ -159.681087180141503, 22.147118100940798 ], [ -159.680389133196684, 22.146823156484825 ], [ -159.679378218222752, 22.146883520066901 ], [ -159.677730231508292, 22.146462160680162 ], [ -159.677629073056892, 22.146132144716841 ], [ -159.677375089022007, 22.146370861734002 ], [ -159.677730231508292, 22.146462160680162 ], [ -159.679328003168308, 22.148238076889058 ], [ -159.678293130638224, 22.148229505405837 ], [ -159.677831510935221, 22.147277235311595 ], [ -159.675357950356386, 22.147102401130251 ], [ -159.674350644242338, 22.147451734655156 ], [ -159.673233713251108, 22.146877224038121 ], [ -159.672785906859701, 22.146753644178798 ], [ -159.672666463952737, 22.146138240707636 ], [ -159.672407088460687, 22.146604469990439 ], [ -159.672785906859701, 22.146753644178798 ], [ -159.673493816721503, 22.147721644654965 ], [ -159.674071024589381, 22.14810343254922 ], [ -159.67348918821915, 22.148495549006597 ], [ -159.673578074062334, 22.14890501826812 ], [ -159.675146837695735, 22.148296896428882 ], [ -159.67553543643487, 22.148797277419568 ], [ -159.675896473205711, 22.149036074318122 ], [ -159.675539102892941, 22.149565605689205 ], [ -159.675230046429022, 22.150322119423215 ], [ -159.675321879969459, 22.150745156011155 ], [ -159.6760214498903, 22.150613365680421 ], [ -159.677121852640141, 22.152030167566522 ], [ -159.675842967187663, 22.152274531521758 ], [ -159.675476053977263, 22.153172600604528 ], [ -159.673812178213069, 22.152873470516322 ], [ -159.673386696794239, 22.152325606345119 ], [ -159.672527570022055, 22.1520210129096 ], [ -159.671990073553189, 22.151328916769057 ], [ -159.670476662039363, 22.151613987442992 ], [ -159.670966263537537, 22.152325391327153 ], [ -159.670574119296504, 22.152589652506304 ], [ -159.67121796156502, 22.153015515977728 ], [ -159.671649232729749, 22.152449719642217 ], [ -159.672092891916691, 22.152765814556652 ], [ -159.672437972406613, 22.154608613238615 ], [ -159.673295054917844, 22.155219260527566 ], [ -159.673221814497538, 22.155695457889625 ], [ -159.673328591152455, 22.156348428778728 ], [ -159.674803133507368, 22.156631912243512 ], [ -159.673741671961238, 22.157041720077324 ], [ -159.672623446169808, 22.156419680395384 ], [ -159.672120350019696, 22.155818066976124 ], [ -159.670753266551117, 22.155469505305028 ], [ -159.670307115470195, 22.154935944018984 ], [ -159.66923463201752, 22.155088081909298 ], [ -159.668559200866383, 22.154712312643134 ], [ -159.668012205245589, 22.154789901245874 ], [ -159.667458952061111, 22.154482117622159 ], [ -159.666693839592085, 22.154194055711159 ], [ -159.666271242482736, 22.154253992739115 ], [ -159.663969277269643, 22.153766997613591 ], [ -159.663078122394694, 22.154272704271811 ], [ -159.66163644100908, 22.15369278504086 ], [ -159.658979502302316, 22.153467408898479 ], [ -159.658724577002801, 22.15316253319093 ], [ -159.656554232400254, 22.152935151323014 ], [ -159.655654105585597, 22.154031202348992 ], [ -159.656008077301919, 22.156197708477386 ], [ -159.657048864595737, 22.156939383346728 ], [ -159.65693812824037, 22.157658995813073 ], [ -159.657004511781452, 22.158065256835414 ], [ -159.6569210095617, 22.158607631140459 ], [ -159.65703228431812, 22.1592887994276 ], [ -159.658810267832934, 22.159958263258908 ], [ -159.659179583449344, 22.161173195860023 ], [ -159.65622340146146, 22.160997677679383 ], [ -159.655534996210775, 22.161331536711057 ], [ -159.654400432435466, 22.161314523662192 ], [ -159.653802546681732, 22.161854237357641 ], [ -159.653454333367705, 22.162868588086731 ], [ -159.652930190247446, 22.161873174594305 ], [ -159.652632188986416, 22.161608774292631 ], [ -159.652345788181236, 22.161333475657415 ], [ -159.651749650108172, 22.161067015713421 ], [ -159.653391192928666, 22.160563566959169 ], [ -159.652912379330814, 22.159706888436858 ], [ -159.653293517886539, 22.159362808331558 ], [ -159.650883614133733, 22.158644982690792 ], [ -159.650390956212618, 22.158171424082031 ], [ -159.649124493167932, 22.158785543920406 ], [ -159.649141058547002, 22.157828772055797 ], [ -159.648835314187806, 22.157824182664125 ], [ -159.648256603367713, 22.157837484378323 ], [ -159.648245611321698, 22.157422761329713 ], [ -159.648254324816918, 22.156921463340879 ], [ -159.647062378849796, 22.15620026396461 ], [ -159.645749235909818, 22.154351704637989 ], [ -159.644741932626886, 22.154051619787598 ], [ -159.644146617618759, 22.153768891949788 ], [ -159.644175368916223, 22.154857769612899 ], [ -159.642996849852437, 22.155238736080765 ], [ -159.63981710574933, 22.155733771812688 ], [ -159.637903101834439, 22.157185404006018 ], [ -159.637343359736434, 22.156647256792109 ], [ -159.636744442156584, 22.156115711771861 ], [ -159.63726579987096, 22.154677058683198 ], [ -159.636308094688019, 22.154077727397755 ], [ -159.635726058755324, 22.154359899898822 ], [ -159.635437778901576, 22.154082708478462 ], [ -159.635139826255795, 22.153818274785827 ], [ -159.634849321950014, 22.153266357337429 ], [ -159.633961535226035, 22.15328669128969 ], [ -159.633976000967351, 22.152456636264546 ], [ -159.633379624636802, 22.152470292547815 ], [ -159.632574841705576, 22.15094117774882 ], [ -159.631643321708083, 22.15139277968985 ], [ -159.631058710983098, 22.15138392640544 ], [ -159.629898139055115, 22.151410478981031 ], [ -159.62872887307563, 22.150855076188211 ], [ -159.628150945304327, 22.151135245766177 ], [ -159.626203193253247, 22.151105706013372 ], [ -159.624375711999988, 22.152754887647884 ], [ -159.624088880989575, 22.153589913954029 ], [ -159.623794344538879, 22.154127862486625 ], [ -159.623808677661629, 22.154672354437494 ], [ -159.623799204817686, 22.155214431325884 ], [ -159.623838284017836, 22.156699575289956 ], [ -159.622653505891179, 22.15724061869863 ], [ -159.622636809829288, 22.158192280569395 ], [ -159.623232333086492, 22.158720888782923 ], [ -159.623246746910468, 22.15926785319801 ], [ -159.622127799803167, 22.159293398633636 ], [ -159.621689905213685, 22.154723726054435 ], [ -159.622077296724086, 22.151666594272456 ], [ -159.623324797226275, 22.149878131975257 ], [ -159.625550045242449, 22.148799451894089 ], [ -159.632089923253545, 22.148649889969118 ], [ -159.634252173998533, 22.149208962467771 ], [ -159.635416080398187, 22.150024581328793 ], [ -159.63599972951917, 22.149741626374134 ], [ -159.636318540188824, 22.151519117242884 ], [ -159.638530842543275, 22.152012373174934 ], [ -159.639072486800302, 22.152981723372097 ], [ -159.639784998898193, 22.154335236494134 ], [ -159.641543777179663, 22.153251171783964 ], [ -159.642024055092406, 22.151381563356839 ], [ -159.644660951156368, 22.151321033496618 ], [ -159.64565571647961, 22.151617380914022 ], [ -159.646943573433759, 22.152228953446926 ], [ -159.647346693997576, 22.151054661873527 ], [ -159.647652403550694, 22.150495967526339 ], [ -159.64761083481784, 22.148924147757377 ], [ -159.648207213824179, 22.148340941256109 ], [ -159.648988074171626, 22.148352682846138 ], [ -159.649366636357314, 22.147249969049831 ], [ -159.650478077769804, 22.147777779391589 ], [ -159.652497310532169, 22.147808100604909 ], [ -159.654307240923799, 22.147134675260066 ], [ -159.654323717806307, 22.146181525248267 ], [ -159.653457185890403, 22.145348549827268 ], [ -159.652846879530728, 22.14507573888617 ], [ -159.652265681417845, 22.144799749018151 ], [ -159.651707233367773, 22.145345889061439 ], [ -159.651610253439173, 22.144274579478012 ], [ -159.652409632106242, 22.144256183142822 ], [ -159.65284604310034, 22.144262733171143 ], [ -159.653699253009904, 22.144243097799269 ], [ -159.654301877207274, 22.144529260780295 ], [ -159.654879511484552, 22.144249108589069 ], [ -159.656332048188261, 22.143803543533206 ], [ -159.656041461806296, 22.142618323739594 ], [ -159.654992311747151, 22.141687311110083 ], [ -159.6557368000488, 22.141015117341922 ], [ -159.655751200408162, 22.140183027368444 ], [ -159.655722460029068, 22.139099064400504 ], [ -159.655731811209023, 22.138556987542255 ], [ -159.655724508124848, 22.138283491160767 ], [ -159.656019735449291, 22.137743937582417 ], [ -159.655704725423647, 22.136342043074016 ], [ -159.655730889824156, 22.134829246125467 ], [ -159.655230893976068, 22.1334144378833 ], [ -159.652863702426828, 22.133378913496369 ], [ -159.650763114233655, 22.134779885660929 ], [ -159.648723745482698, 22.136158728138064 ], [ -159.646408331599133, 22.136694331782262 ], [ -159.645856184514798, 22.137234323279202 ], [ -159.644712550480023, 22.137756808906154 ], [ -159.642479174640528, 22.139180102465371 ], [ -159.639207531937785, 22.139974937453879 ], [ -159.638075900228927, 22.139656520653151 ], [ -159.636952382366161, 22.137034969911159 ], [ -159.634993098753142, 22.134484559250097 ], [ -159.630378923967015, 22.130536681974498 ], [ -159.628039107673487, 22.129072115272166 ], [ -159.623375041517505, 22.1268560603779 ], [ -159.619019742218995, 22.125417620546795 ], [ -159.609123470030056, 22.122297297891585 ], [ -159.599050814539936, 22.118357171881573 ], [ -159.59089315067564, 22.114105744424197 ], [ -159.584873956527701, 22.11124377711587 ], [ -159.580390826328852, 22.109905825115842 ], [ -159.57766779978337, 22.108255987458985 ], [ -159.576474284473761, 22.106628594756835 ], [ -159.577160892498682, 22.104962214046552 ], [ -159.578041627702959, 22.103699967154562 ], [ -159.578785719076876, 22.103339431043096 ], [ -159.57934823619081, 22.103880915616951 ], [ -159.57966231553371, 22.103885773330198 ], [ -159.579803220746726, 22.103475917603156 ], [ -159.580828763948205, 22.103338789911124 ], [ -159.579363998317973, 22.102037273785434 ], [ -159.579649359084783, 22.101983021435842 ], [ -159.580225033342913, 22.101991929108177 ], [ -159.581375303357561, 22.101434528362017 ], [ -159.582212857456227, 22.101447476273087 ], [ -159.584006589876765, 22.100897969743386 ], [ -159.584011663729257, 22.100612569648341 ], [ -159.583713777187768, 22.100347936931009 ], [ -159.583096225638371, 22.099753539053701 ], [ -159.580868832161428, 22.100186964099542 ], [ -159.580511189838489, 22.099546059026505 ], [ -159.580516166358905, 22.099269856549931 ], [ -159.57986294471965, 22.098977414196604 ], [ -159.58104063890292, 22.094856693839017 ], [ -159.581368307842723, 22.095480104239442 ], [ -159.581947879905016, 22.095199259695939 ], [ -159.582529491033711, 22.095208237866679 ], [ -159.583085473380834, 22.094664770264448 ], [ -159.583975676456163, 22.094644653138541 ], [ -159.58456415195036, 22.094924524043897 ], [ -159.585145670785181, 22.094911393175455 ], [ -159.585437651761708, 22.095192421321443 ], [ -159.58587661367244, 22.095182511274803 ], [ -159.586588804850294, 22.095193488167368 ], [ -159.586896301695077, 22.094916067245411 ], [ -159.587180295299191, 22.094638498606152 ], [ -159.587473904357637, 22.094643018207211 ], [ -159.587910095486706, 22.094633162316377 ], [ -159.588361266436351, 22.094640107604764 ], [ -159.588332987031293, 22.093555784142008 ], [ -159.589509134598131, 22.093817144328593 ], [ -159.58985415853374, 22.094149203653302 ], [ -159.591252884768323, 22.09380973770158 ], [ -159.591808779954931, 22.094344793768592 ], [ -159.59299833792295, 22.094363111755989 ], [ -159.593281643214311, 22.093261447956273 ], [ -159.594460554100181, 22.092723124173105 ], [ -159.591823922844242, 22.090994313128249 ], [ -159.592108214665672, 22.090826490984703 ], [ -159.592985353939895, 22.090557713742605 ], [ -159.593269185285834, 22.090280234597031 ], [ -159.594984576906057, 22.089496924971979 ], [ -159.595878008426013, 22.088258201316723 ], [ -159.595589669763257, 22.088102119893449 ], [ -159.595011925922023, 22.088382161730365 ], [ -159.592868522203645, 22.08878022341327 ], [ -159.592102563596882, 22.089471393446853 ], [ -159.591545999744255, 22.090015455590041 ], [ -159.5903588758203, 22.089754149068828 ], [ -159.59005577647028, 22.08946241735125 ], [ -159.588618755803253, 22.08949492514034 ], [ -159.589171607484246, 22.088943706921579 ], [ -159.590935761867769, 22.08861611097668 ], [ -159.590581998597685, 22.088006626533453 ], [ -159.588612421577182, 22.087418797279906 ], [ -159.588602635789016, 22.087044834858133 ], [ -159.591145823820199, 22.086649569404717 ], [ -159.591564589246047, 22.085837133955323 ], [ -159.594119755747556, 22.085054118245811 ], [ -159.593831401660196, 22.084315011643657 ], [ -159.591465673253879, 22.08460556100944 ], [ -159.590919180180379, 22.08459714860447 ], [ -159.590635213637512, 22.084874723475469 ], [ -159.58859491466356, 22.085147679110065 ], [ -159.587730467854527, 22.085698361582224 ], [ -159.58656718177599, 22.085680422439399 ], [ -159.585157184371354, 22.087058741212541 ], [ -159.582497057050773, 22.087337709543473 ], [ -159.581892128189594, 22.08909794678069 ], [ -159.582169595759808, 22.078395077722316 ], [ -159.58275993468871, 22.078125557051109 ], [ -159.582178727718116, 22.077609084533908 ], [ -159.582156901958655, 22.07676988655049 ], [ -159.584186059153836, 22.07645458940658 ], [ -159.584202028236547, 22.0755557386296 ], [ -159.583302794107453, 22.075127995426833 ], [ -159.58158062649909, 22.07516689776482 ], [ -159.582000581561772, 22.074327302529259 ], [ -159.582734676954459, 22.074338650306441 ], [ -159.583292487926371, 22.073793322909737 ], [ -159.583900094998143, 22.073515895864638 ], [ -159.584183911280633, 22.07323843227287 ], [ -159.584633175752543, 22.072833003414129 ], [ -159.58372195288041, 22.072023184231448 ], [ -159.584712490354718, 22.071129305406252 ], [ -159.585623900480414, 22.069865609336173 ], [ -159.585149921146694, 22.069161986559266 ], [ -159.58394926071594, 22.069189121176322 ], [ -159.582542326757817, 22.068874743555369 ], [ -159.582133226484814, 22.068096276016341 ], [ -159.581549569927489, 22.067577558847717 ], [ -159.582422878893254, 22.067824220453961 ], [ -159.582999929841407, 22.068098714863542 ], [ -159.583293367339991, 22.068092094274803 ], [ -159.583870110932935, 22.068101004370547 ], [ -159.585031829037291, 22.06727276354923 ], [ -159.586170756092145, 22.067290340518497 ], [ -159.586684496804736, 22.066826728452117 ], [ -159.585906226925488, 22.066456560791678 ], [ -159.584598053889152, 22.066486119401009 ], [ -159.584019242215049, 22.065384733608262 ], [ -159.583571206187798, 22.065651931121945 ], [ -159.583008831632782, 22.066201725472414 ], [ -159.582701295976619, 22.066196981686669 ], [ -159.581547146007097, 22.067019786548091 ], [ -159.581108202314766, 22.067013008984738 ], [ -159.580353674187108, 22.06703002911576 ], [ -159.581763109000661, 22.065758168133321 ], [ -159.582415706381624, 22.064566192651412 ], [ -159.579792932298005, 22.064625398114689 ], [ -159.580656985119617, 22.064036150242401 ], [ -159.581249181031154, 22.063765735729028 ], [ -159.580654793486019, 22.063499534078026 ], [ -159.580367306796745, 22.063222713778742 ], [ -159.579497599736612, 22.063503636366338 ], [ -159.578443142249881, 22.063826711599177 ], [ -159.577911110173062, 22.064858946165934 ], [ -159.577628530651026, 22.063448113044135 ], [ -159.5786119698721, 22.061651992871671 ], [ -159.578031377370849, 22.06187724667107 ], [ -159.577285619438584, 22.062946328968998 ], [ -159.574111157665527, 22.056567181168859 ], [ -159.569446473692608, 22.049260955354956 ], [ -159.5701279609479, 22.048645980060357 ], [ -159.569841886740164, 22.048354693693231 ], [ -159.569355160385157, 22.047922008060166 ], [ -159.569945511750944, 22.046776795627583 ], [ -159.571282065328234, 22.046452494618805 ], [ -159.5732029302049, 22.046154094400173 ], [ -159.574029097613987, 22.044551132732952 ], [ -159.574769946778446, 22.044814133759818 ], [ -159.575342115870029, 22.045365126496012 ], [ -159.575961450824735, 22.045064910228522 ], [ -159.577654278918402, 22.045091154313063 ], [ -159.577678675309869, 22.043722508049907 ], [ -159.577660999057997, 22.043039745929541 ], [ -159.579979931951442, 22.041424402356903 ], [ -159.579989874670588, 22.040868569404712 ], [ -159.579972539865651, 22.040202480714452 ], [ -159.581451389209036, 22.039080844115475 ], [ -159.581429273619847, 22.040321414074718 ], [ -159.581440214031289, 22.040740948798899 ], [ -159.580287996328451, 22.041780868294751 ], [ -159.580277434395526, 22.042376023922735 ], [ -159.580972400222919, 22.043622040637068 ], [ -159.58028730712789, 22.044240348280976 ], [ -159.580008372007256, 22.046156215059824 ], [ -159.578859469861499, 22.046680860278691 ], [ -159.578553205501208, 22.047240254623595 ], [ -159.578573654877061, 22.048027668160906 ], [ -159.57820114883117, 22.049054957057848 ], [ -159.578854012566751, 22.049683631022106 ], [ -159.579157623193339, 22.049953483354745 ], [ -159.579138378891543, 22.051032326300231 ], [ -159.579751511808126, 22.050199049217639 ], [ -159.5797100945517, 22.048604903706501 ], [ -159.580324404348033, 22.048307120440573 ], [ -159.581469355255308, 22.048324843940811 ], [ -159.581751270655815, 22.047228707473042 ], [ -159.582918786254567, 22.046415399347598 ], [ -159.58245152070532, 22.045577601478243 ], [ -159.583193764340592, 22.04451332201992 ], [ -159.584075472724408, 22.043969898533849 ], [ -159.584047577173095, 22.042897128448466 ], [ -159.585512084735257, 22.041258037442304 ], [ -159.585504845988709, 22.040982141428774 ], [ -159.585802597104845, 22.039881607206031 ], [ -159.585774516660081, 22.03880117878569 ], [ -159.586828498097958, 22.039461752159671 ], [ -159.587394958722001, 22.038950423883495 ], [ -159.588092719009325, 22.038268089971325 ], [ -159.588632844942623, 22.038255860440142 ], [ -159.587837386351509, 22.041196689711008 ], [ -159.588298173794414, 22.043004572291554 ], [ -159.589279560731399, 22.043949483010319 ], [ -159.589301581635539, 22.043679668824566 ], [ -159.588903327010485, 22.042253752628529 ], [ -159.589569044800356, 22.04096173739417 ], [ -159.590159896098925, 22.040428410204694 ], [ -159.590839624825719, 22.039763714019319 ], [ -159.592769589720973, 22.040217419858415 ], [ -159.592482136234622, 22.039601523661318 ], [ -159.592180733913466, 22.039061175311659 ], [ -159.593588839240283, 22.038735724111426 ], [ -159.595642016197331, 22.037427285997751 ], [ -159.595384665124755, 22.038512322493844 ], [ -159.594877107862686, 22.039439711874742 ], [ -159.595386780524962, 22.040409490818117 ], [ -159.595684417454464, 22.040674007765926 ], [ -159.595971596101862, 22.04122043886494 ], [ -159.596269235825559, 22.041484954661637 ], [ -159.596829643091979, 22.042024516595497 ], [ -159.597143514462743, 22.042029344036866 ], [ -159.598291711211004, 22.04090651337232 ], [ -159.598594119584135, 22.041764023451666 ], [ -159.599747562309091, 22.041737851852144 ], [ -159.600338548183998, 22.042018952366629 ], [ -159.601466370143868, 22.041472052829388 ], [ -159.602498667457326, 22.041448606151111 ], [ -159.603035908144761, 22.042411476270036 ], [ -159.602140384175613, 22.044048000319517 ], [ -159.603544919924644, 22.044716024013152 ], [ -159.60470927057537, 22.045063510930085 ], [ -159.604242516117523, 22.045377845358196 ], [ -159.60151448096201, 22.045802168734415 ], [ -159.601230752653265, 22.046079661339125 ], [ -159.600360266096345, 22.046477316901736 ], [ -159.601228367987744, 22.046892744214787 ], [ -159.601822721939101, 22.047158872372826 ], [ -159.601803944338855, 22.048223536923945 ], [ -159.602107404747755, 22.048515661739341 ], [ -159.603680570913298, 22.049220001145216 ], [ -159.602415422332996, 22.051224774183304 ], [ -159.60038189343652, 22.05160260426775 ], [ -159.600667526345575, 22.051773246129958 ], [ -159.601837384355747, 22.052034548072893 ], [ -159.602273447865542, 22.052713218379537 ] ], [ [ -159.589722035045355, 22.110758044668923 ], [ -159.589588008551203, 22.110904122275542 ], [ -159.588982061854693, 22.111394402722773 ], [ -159.589035053295191, 22.111980126853538 ], [ -159.588969625689941, 22.112777195818669 ], [ -159.590877932493385, 22.111373470429729 ], [ -159.589722035045355, 22.110758044668923 ] ], [ [ -159.583893877464277, 22.108068748332833 ], [ -159.58399478963446, 22.10839882960768 ], [ -159.584248868522309, 22.108160254703538 ], [ -159.583893877464277, 22.108068748332833 ] ], [ [ -159.594015569311665, 22.094210077278792 ], [ -159.594687742260703, 22.095109831198339 ], [ -159.595007409577136, 22.09435205542875 ], [ -159.594015569311665, 22.094210077278792 ] ], [ [ -159.584922133340484, 22.075271189829671 ], [ -159.585276278150445, 22.075177138820933 ], [ -159.585020301656527, 22.074940395480649 ], [ -159.584922133340484, 22.075271189829671 ], [ -159.584567988043915, 22.07536524008075 ], [ -159.584823964585212, 22.075601984116474 ], [ -159.584922133340484, 22.075271189829671 ] ], [ [ -159.585499221222904, 22.074185027699095 ], [ -159.585618254175785, 22.074800510344286 ], [ -159.585877793638929, 22.074334402965185 ], [ -159.585499221222904, 22.074185027699095 ] ], [ [ -159.586941903022222, 22.071469613682947 ], [ -159.587041446359649, 22.071920258003349 ], [ -159.587913767586542, 22.071919507240686 ], [ -159.586941903022222, 22.071469613682947 ] ] ] } },
{ "type": "Feature", "properties": { "ID": 17, "GRIDCODE": 2 }, "geometry": { "type": "Polygon", "coordinates": [ [ [ -159.570209383804354, 22.031959054176891 ], [ -159.570635999726221, 22.032299130551639 ], [ -159.570254526743582, 22.033183328901337 ], [ -159.569233732922015, 22.034296409535774 ], [ -159.56802973547687, 22.034802328482741 ], [ -159.567761776032825, 22.035094432066845 ], [ -159.566847982205786, 22.035478396788331 ], [ -159.566000253003324, 22.036164485276849 ], [ -159.565368602802096, 22.037112479687469 ], [ -159.562350697776964, 22.037633359606925 ], [ -159.562213310472288, 22.036109936503269 ], [ -159.564550425915485, 22.03562624519898 ], [ -159.565127521189936, 22.035667479710664 ], [ -159.56541562699536, 22.035353425555961 ], [ -159.566017598476662, 22.035100468498218 ], [ -159.566576257271322, 22.034807362446308 ], [ -159.567617932483444, 22.034511009943067 ], [ -159.567142622892106, 22.033723563524305 ], [ -159.569988874707917, 22.033110293618932 ], [ -159.570209383804354, 22.031959054176891 ] ] ] } },
{ "type": "Feature", "properties": { "ID": 18, "GRIDCODE": 2 }, "geometry": { "type": "Polygon", "coordinates": [ [ [ -159.551509741144173, 22.007359592379338 ], [ -159.551625118607234, 22.006735926547904 ], [ -159.551878219213421, 22.007211093718517 ], [ -159.551509741144173, 22.007359592379338 ] ] ] } },
{ "type": "Feature", "properties": { "ID": 19, "GRIDCODE": 2 }, "geometry": { "type": "Polygon", "coordinates": [ [ [ -159.551509741144173, 22.007359592379338 ], [ -159.551724327841242, 22.00917733967588 ], [ -159.553702779274261, 22.009097520260333 ], [ -159.553691690655654, 22.009384945519386 ], [ -159.553748144388578, 22.010601252301051 ], [ -159.553341779159211, 22.012069008250801 ], [ -159.554688694974971, 22.011198008845547 ], [ -159.555699003708554, 22.010173784559193 ], [ -159.556321186470484, 22.010194668129021 ], [ -159.556891088868355, 22.009911003032208 ], [ -159.557482429598707, 22.009648288225549 ], [ -159.557759843820719, 22.009094967500037 ], [ -159.558355004702918, 22.008830565848967 ], [ -159.557663107974719, 22.007276034612385 ], [ -159.558626505408483, 22.007747202041987 ], [ -159.559538743510728, 22.008144875855056 ], [ -159.560371088836376, 22.00773054599415 ], [ -159.561102551183353, 22.00775507436904 ], [ -159.561857567879429, 22.007724582127842 ], [ -159.561807483074148, 22.006647062676251 ], [ -159.562422317771706, 22.006373927513682 ], [ -159.562384247473062, 22.005554954585961 ], [ -159.5628377940875, 22.005570155656422 ], [ -159.563302204999047, 22.005551406643249 ], [ -159.563264514952522, 22.004740075114015 ], [ -159.563672389542972, 22.004385050968747 ], [ -159.563117656995928, 22.00341606202409 ], [ -159.564716069359889, 22.003932339382636 ], [ -159.565028084889519, 22.003919718123772 ], [ -159.564986816889473, 22.003031445015303 ], [ -159.564404216278859, 22.002013905721419 ], [ -159.565294255658557, 22.002043726018464 ], [ -159.565972976061545, 22.002016290510028 ], [ -159.565859791913823, 21.999581437397122 ], [ -159.567028398675234, 21.999062177873899 ], [ -159.567305673334715, 21.997649590078098 ], [ -159.566719519115594, 21.99714683096575 ], [ -159.56702089371305, 21.996335237773224 ], [ -159.567297050926925, 21.995481399709977 ], [ -159.566713824870106, 21.994981161117831 ], [ -159.566433044649841, 21.994671302753112 ], [ -159.567292345042659, 21.993923222420324 ], [ -159.567588948108778, 21.993038230204537 ], [ -159.568184682462203, 21.994204196923878 ], [ -159.568125908020306, 21.995729757558433 ], [ -159.568765636040098, 21.996589902280448 ], [ -159.569188694747538, 21.997417811165391 ], [ -159.569635200544667, 21.997399751964807 ], [ -159.570201055039348, 21.997418695146177 ], [ -159.57081201973287, 21.997114476420517 ], [ -159.571507592207922, 21.997137744325684 ], [ -159.57195634203336, 21.9978212420719 ], [ -159.57108601829799, 21.998208004046809 ], [ -159.570490667784895, 21.999649693598091 ], [ -159.570531040535172, 22.000518828886438 ], [ -159.57051445674, 22.000949430215414 ], [ -159.571110109295233, 22.0014602476089 ], [ -159.571412906609737, 22.002052776197559 ], [ -159.571379746671425, 22.00291460733941 ], [ -159.569628927365983, 22.002349198741634 ], [ -159.569663932970968, 22.00310139940671 ], [ -159.569340293255578, 22.003383161607132 ], [ -159.569378558760633, 22.00420570486822 ], [ -159.568775465986619, 22.004730646788342 ], [ -159.568825602109257, 22.005808097089382 ], [ -159.567914249773878, 22.006080645614709 ], [ -159.568529769012031, 22.006908218952699 ], [ -159.567914357966856, 22.007443903300235 ], [ -159.567952228787505, 22.0082580776415 ], [ -159.567605196121065, 22.008246459217869 ], [ -159.567045024811506, 22.007686856518294 ], [ -159.566188698126297, 22.007721477580588 ], [ -159.565742028358272, 22.00770651031652 ], [ -159.565309483251838, 22.008569420151414 ], [ -159.564152066788523, 22.008530628689932 ], [ -159.563782027950026, 22.009268823013134 ], [ -159.56298180909755, 22.009624335008667 ], [ -159.563007243349318, 22.010171182079553 ], [ -159.561368131439735, 22.011300943930493 ], [ -159.560720171597296, 22.012593501884758 ], [ -159.56039012783026, 22.012880744159474 ], [ -159.560404160568623, 22.013183120479649 ], [ -159.561436548078234, 22.013141425076412 ], [ -159.561986075856936, 22.012045309543225 ], [ -159.562718128270859, 22.012069861362086 ], [ -159.563154038825814, 22.01205225239331 ], [ -159.563595044525272, 22.012067030888879 ], [ -159.564454301903282, 22.011511300985788 ], [ -159.565200466938819, 22.011248025370936 ], [ -159.565645948980773, 22.012963666410396 ], [ -159.56679045956426, 22.012585165264984 ], [ -159.567371764358853, 22.012869433254028 ], [ -159.567947178299107, 22.012582964932111 ], [ -159.568398831337873, 22.012598090587485 ], [ -159.567792123811927, 22.014790343601 ], [ -159.568832537015624, 22.014748275892082 ], [ -159.569126996022959, 22.014758138535207 ], [ -159.571250462102398, 22.014336155827685 ], [ -159.571744162979314, 22.013351184916385 ], [ -159.573742618906437, 22.013418046701187 ], [ -159.574052234243254, 22.013104133966152 ], [ -159.575154697634787, 22.012774389068838 ], [ -159.575501560071586, 22.011739237165511 ], [ -159.576087997139325, 22.012025953870022 ], [ -159.576662610431697, 22.011739838582361 ], [ -159.578647954460422, 22.011291465143664 ], [ -159.57770906316523, 22.012108848975725 ], [ -159.57887650840641, 22.012617587014486 ], [ -159.579592256323878, 22.012261188311506 ], [ -159.580303516647831, 22.012284941003227 ], [ -159.581000940837214, 22.012256698047036 ], [ -159.581315513191413, 22.01234507586782 ], [ -159.580106588644156, 22.013397551548692 ], [ -159.577278667675813, 22.013014542765514 ], [ -159.575751988945001, 22.013393301460535 ], [ -159.575218559415589, 22.013934216855287 ], [ -159.574206304367095, 22.013900347453124 ], [ -159.572149262546759, 22.013983584481931 ], [ -159.570877038650679, 22.015835812781631 ], [ -159.570113260422772, 22.016879138519649 ], [ -159.56938640902888, 22.017185809309662 ], [ -159.568814225472948, 22.016614262671968 ], [ -159.567168585445557, 22.016680790898238 ], [ -159.565735972818032, 22.016336056978318 ], [ -159.56506634500488, 22.016669408797146 ], [ -159.564765707635672, 22.016659345166275 ], [ -159.56447620752229, 22.016952857665657 ], [ -159.563894803752277, 22.01693337065813 ], [ -159.56361609050694, 22.017245553756858 ], [ -159.564520177561235, 22.018020883853278 ], [ -159.563021089716813, 22.018293097175096 ], [ -159.563854732015074, 22.019413874752733 ], [ -159.562461454102845, 22.019367166527239 ], [ -159.562067759190711, 22.019766257171582 ], [ -159.562469060762311, 22.020467178223612 ], [ -159.562155468655334, 22.021024749331701 ], [ -159.562182224887806, 22.021600903984496 ], [ -159.560680263992907, 22.021550550588984 ], [ -159.56073113003626, 22.022646394553558 ], [ -159.55972063132694, 22.022948484934865 ], [ -159.558691492476044, 22.022913966416819 ], [ -159.558255547886688, 22.022931564203486 ], [ -159.557378083017653, 22.022902128447889 ], [ -159.556563287143831, 22.024527205467798 ], [ -159.55549639928779, 22.024005479318845 ], [ -159.55521428729611, 22.02429145714094 ], [ -159.554420700890944, 22.024554848854866 ], [ -159.55382982266778, 22.022836294814077 ], [ -159.550625935584009, 22.015326413641244 ], [ -159.547864403298377, 22.009776308263415 ], [ -159.547915652182922, 22.008451204296268 ], [ -159.550620555634339, 22.009102441730498 ], [ -159.551079267528138, 22.007734248763025 ], [ -159.551509741144173, 22.007359592379338 ] ], [ [ -159.559961727504401, 22.013293546160842 ], [ -159.560062511836946, 22.0136236486142 ], [ -159.560316466426173, 22.01338511914944 ], [ -159.559961727504401, 22.013293546160842 ] ] ] } }
]
}
