{
"type": "FeatureCollection",
"name": "dubplat",
"crs": { "type": "name", "properties": { "name": "urn:ogc:def:crs:OGC:1.3:CRS84" } },
"features": [
{ "type": "Feature", "properties": { "ID": 1, "GRIDCODE": 2 }, "geometry": { "type": "Polygon", "coordinates": [ [ [ -156.214749197444235, 20.738583519189085 ], [ -156.215098278976171, 20.738681879346139 ], [ -156.214841808601363, 20.738915233926516 ], [ -156.214749197444235, 20.738583519189085 ] ] ] } },
{ "type": "Feature", "properties": { "ID": 2, "GRIDCODE": 2 }, "geometry": { "type": "Polygon", "coordinates": [ [ [ -156.215051888923199, 20.737775915578279 ], [ -156.215400968941083, 20.737874274939571 ], [ -156.215144500495938, 20.738107630198932 ], [ -156.215051888923199, 20.737775915578279 ] ] ] } },
{ "type": "Feature", "properties": { "ID": 3, "GRIDCODE": 2 }, "geometry": { "type": "Polygon", "coordinates": [ [ [ -156.199529840408161, 20.736440362703188 ], [ -156.19987890335878, 20.736538752152008 ], [ -156.199622416568928, 20.736772081794346 ], [ -156.199529840408161, 20.736440362703188 ] ] ] } },
{ "type": "Feature", "properties": { "ID": 4, "GRIDCODE": 2 }, "geometry": { "type": "Polygon", "coordinates": [ [ [ -156.171667981920478, 20.733005021135092 ], [ -156.172327819532541, 20.733125636371081 ], [ -156.171817856774624, 20.733351312730349 ], [ -156.171667981920478, 20.733005021135092 ] ] ] } },
{ "type": "Feature", "properties": { "ID": 5, "GRIDCODE": 2 }, "geometry": { "type": "Polygon", "coordinates": [ [ [ -156.221745874559787, 20.733821691588446 ], [ -156.221396797758445, 20.73372334567874 ], [ -156.221653249531528, 20.733489979046858 ], [ -156.221745874559787, 20.733821691588446 ] ] ] } },
{ "type": "Feature", "properties": { "ID": 6, "GRIDCODE": 2 }, "geometry": { "type": "Polygon", "coordinates": [ [ [ -156.171688115385365, 20.731922037072554 ], [ -156.172037142964541, 20.732020479920521 ], [ -156.171780627333817, 20.732253764041126 ], [ -156.171688115385365, 20.731922037072554 ] ] ] } },
{ "type": "Feature", "properties": { "ID": 7, "GRIDCODE": 2 }, "geometry": { "type": "Polygon", "coordinates": [ [ [ -156.16564443913029, 20.731822495334814 ], [ -156.165295417825462, 20.731724040018289 ], [ -156.165551941150056, 20.731490766620954 ], [ -156.16564443913029, 20.731822495334814 ] ] ] } },
{ "type": "Feature", "properties": { "ID": 8, "GRIDCODE": 2 }, "geometry": { "type": "Polygon", "coordinates": [ [ [ -156.172566595272428, 20.731124001271677 ], [ -156.172765937901687, 20.731244048361798 ], [ -156.173100187406476, 20.732319372968199 ], [ -156.172657997369214, 20.732105540634901 ], [ -156.172566595272428, 20.731124001271677 ] ] ] } },
{ "type": "Feature", "properties": { "ID": 9, "GRIDCODE": 2 }, "geometry": { "type": "Polygon", "coordinates": [ [ [ -156.171420454685034, 20.730834317845819 ], [ -156.171769479613062, 20.730932760940959 ], [ -156.171512965677238, 20.731166044851729 ], [ -156.171420454685034, 20.730834317845819 ] ] ] } },
{ "type": "Feature", "properties": { "ID": 10, "GRIDCODE": 2 }, "geometry": { "type": "Polygon", "coordinates": [ [ [ -156.198185536230909, 20.731272618610756 ], [ -156.198290265284214, 20.730944114850409 ], [ -156.198537999301777, 20.731185660386771 ], [ -156.198185536230909, 20.731272618610756 ] ] ] } },
{ "type": "Feature", "properties": { "ID": 11, "GRIDCODE": 2 }, "geometry": { "type": "Polygon", "coordinates": [ [ [ -156.17200107284367, 20.730573041238035 ], [ -156.172384510222315, 20.730771229688884 ], [ -156.172107590866119, 20.731467153640512 ], [ -156.17200107284367, 20.730573041238035 ] ] ] } },
{ "type": "Feature", "properties": { "ID": 12, "GRIDCODE": 2 }, "geometry": { "type": "Polygon", "coordinates": [ [ [ -156.199346705687418, 20.730749872016446 ], [ -156.19969575587254, 20.730848260389784 ], [ -156.199439279569845, 20.731081590958002 ], [ -156.199346705687418, 20.730749872016446 ] ] ] } },
{ "type": "Feature", "properties": { "ID": 13, "GRIDCODE": 2 }, "geometry": { "type": "Polygon", "coordinates": [ [ [ -156.171728378439894, 20.729756068482711 ], [ -156.172077401263152, 20.729854510700246 ], [ -156.171820889776001, 20.730087795360951 ], [ -156.171728378439894, 20.729756068482711 ] ] ] } },
{ "type": "Feature", "properties": { "ID": 14, "GRIDCODE": 2 }, "geometry": { "type": "Polygon", "coordinates": [ [ [ -156.1691181146048, 20.730796420478434 ], [ -156.16830161358871, 20.731103391574951 ], [ -156.167381281699392, 20.731309467382594 ], [ -156.168707619277569, 20.72971084306926 ], [ -156.170419100621729, 20.729501648697976 ], [ -156.170161236634925, 20.729883150073523 ], [ -156.169831961122838, 20.730113646823384 ], [ -156.169575582392952, 20.730415166007973 ], [ -156.169246304880744, 20.730645661386703 ], [ -156.1691181146048, 20.730796420478434 ] ] ] } },
{ "type": "Feature", "properties": { "ID": 15, "GRIDCODE": 2 }, "geometry": { "type": "Polygon", "coordinates": [ [ [ -156.22728337842392, 20.730119362075644 ], [ -156.227632452582782, 20.730217695547523 ], [ -156.227376015016659, 20.730451072851643 ], [ -156.22728337842392, 20.730119362075644 ] ] ] } },
{ "type": "Feature", "properties": { "ID": 16, "GRIDCODE": 2 }, "geometry": { "type": "Polygon", "coordinates": [ [ [ -156.197932638997855, 20.729372662319733 ], [ -156.198281684848155, 20.729471053116093 ], [ -156.198025209243781, 20.729704381622241 ], [ -156.197932638997855, 20.729372662319733 ] ] ] } },
{ "type": "Feature", "properties": { "ID": 17, "GRIDCODE": 2 }, "geometry": { "type": "Polygon", "coordinates": [ [ [ -156.23046402571353, 20.729358111917268 ], [ -156.230813101069629, 20.729456438965443 ], [ -156.230556669215872, 20.729689821734635 ], [ -156.23046402571353, 20.729358111917268 ] ] ] } },
{ "type": "Feature", "properties": { "ID": 18, "GRIDCODE": 2 }, "geometry": { "type": "Polygon", "coordinates": [ [ [ -156.229605541730479, 20.729073441680132 ], [ -156.230265437313562, 20.729193837578173 ], [ -156.229755552414019, 20.729419697431283 ], [ -156.229605541730479, 20.729073441680132 ] ] ] } },
{ "type": "Feature", "properties": { "ID": 19, "GRIDCODE": 2 }, "geometry": { "type": "Polygon", "coordinates": [ [ [ -156.175504846083442, 20.727922347235548 ], [ -156.178018515642634, 20.728205360379548 ], [ -156.177916249415887, 20.72918715974928 ], [ -156.178285664645642, 20.730187280613421 ], [ -156.176797116958653, 20.730275247197469 ], [ -156.176185817314575, 20.729433146622757 ], [ -156.175929808311338, 20.728867181529971 ], [ -156.175324964280577, 20.728359357864019 ], [ -156.175504846083442, 20.727922347235548 ] ] ] } },
{ "type": "Feature", "properties": { "ID": 20, "GRIDCODE": 2 }, "geometry": { "type": "Polygon", "coordinates": [ [ [ -156.174646508251897, 20.727637414863672 ], [ -156.174995529050079, 20.72773585082772 ], [ -156.174739025474963, 20.72796914082635 ], [ -156.174646508251897, 20.727637414863672 ] ] ] } },
{ "type": "Feature", "properties": { "ID": 21, "GRIDCODE": 2 }, "geometry": { "type": "Polygon", "coordinates": [ [ [ -156.184436342483281, 20.727527179455109 ], [ -156.184431333066783, 20.727797928607995 ], [ -156.184143542774024, 20.727793215540569 ], [ -156.184148552700918, 20.727522466454769 ], [ -156.184436342483281, 20.727527179455109 ] ] ] } },
{ "type": "Feature", "properties": { "ID": 22, "GRIDCODE": 2 }, "geometry": { "type": "Polygon", "coordinates": [ [ [ -156.175514896640152, 20.727380853104979 ], [ -156.175863917662753, 20.727479287303353 ], [ -156.175607415736238, 20.72771257880866 ], [ -156.175514896640152, 20.727380853104979 ] ] ] } },
{ "type": "Feature", "properties": { "ID": 23, "GRIDCODE": 2 }, "geometry": { "type": "Polygon", "coordinates": [ [ [ -156.174646508251897, 20.727637414863672 ], [ -156.173686123123446, 20.727503935986032 ], [ -156.174457932701415, 20.727285861065909 ], [ -156.174646508251897, 20.727637414863672 ] ] ] } },
{ "type": "Feature", "properties": { "ID": 24, "GRIDCODE": 2 }, "geometry": { "type": "Polygon", "coordinates": [ [ [ -156.184436342483281, 20.727527179455109 ], [ -156.184564495959449, 20.726906419102018 ], [ -156.184804422737983, 20.727386021483206 ], [ -156.184436342483281, 20.727527179455109 ] ] ] } },
{ "type": "Feature", "properties": { "ID": 25, "GRIDCODE": 2 }, "geometry": { "type": "Polygon", "coordinates": [ [ [ -156.184143542774024, 20.727793215540569 ], [ -156.183967348322852, 20.728715889773028 ], [ -156.183148662437958, 20.72838337925392 ], [ -156.18360077721303, 20.726587934618287 ], [ -156.184049835620584, 20.726825786993924 ], [ -156.183871555875413, 20.727602961191671 ], [ -156.184143542774024, 20.727793215540569 ] ] ] } },
{ "type": "Feature", "properties": { "ID": 26, "GRIDCODE": 2 }, "geometry": { "type": "Polygon", "coordinates": [ [ [ -156.232810777445707, 20.726958342867292 ], [ -156.23315984961414, 20.727056664718436 ], [ -156.232903425436234, 20.727290051912888 ], [ -156.232810777445707, 20.726958342867292 ] ] ] } },
{ "type": "Feature", "properties": { "ID": 27, "GRIDCODE": 2 }, "geometry": { "type": "Polygon", "coordinates": [ [ [ -156.183310239920246, 20.72615458000427 ], [ -156.183659265336189, 20.726252998626492 ], [ -156.183402776178013, 20.726486303418913 ], [ -156.183310239920246, 20.72615458000427 ] ] ] } },
{ "type": "Feature", "properties": { "ID": 28, "GRIDCODE": 2 }, "geometry": { "type": "Polygon", "coordinates": [ [ [ -156.152810341645363, 20.725381419507507 ], [ -156.152805276578277, 20.72565216129842 ], [ -156.151941941799464, 20.725637863383621 ], [ -156.151947008397315, 20.725367121796232 ], [ -156.152810341645363, 20.725381419507507 ] ] ] } },
{ "type": "Feature", "properties": { "ID": 29, "GRIDCODE": 2 }, "geometry": { "type": "Polygon", "coordinates": [ [ [ -156.183330283340467, 20.725071584176074 ], [ -156.184259605439451, 20.725197358628606 ], [ -156.18342632284228, 20.725563377427154 ], [ -156.183330283340467, 20.725071584176074 ] ] ] } },
{ "type": "Feature", "properties": { "ID": 30, "GRIDCODE": 2 }, "geometry": { "type": "Polygon", "coordinates": [ [ [ -156.236864573793753, 20.725669333400834 ], [ -156.237554615019803, 20.72584784420102 ], [ -156.23686960400704, 20.726863333405916 ], [ -156.236373854128686, 20.726342647524877 ], [ -156.236864573793753, 20.725669333400834 ] ] ] } },
{ "type": "Feature", "properties": { "ID": 31, "GRIDCODE": 2 }, "geometry": { "type": "Polygon", "coordinates": [ [ [ -156.232552517842123, 20.725329148844725 ], [ -156.233637023789043, 20.725474481348169 ], [ -156.234116992751581, 20.726058398258484 ], [ -156.235079623241234, 20.725546614588715 ], [ -156.234803408680818, 20.727380128976922 ], [ -156.23295985489878, 20.726320274995338 ], [ -156.232552517842123, 20.725329148844725 ] ] ] } },
{ "type": "Feature", "properties": { "ID": 32, "GRIDCODE": 2 }, "geometry": { "type": "Polygon", "coordinates": [ [ [ -156.172131885117182, 20.723533638045279 ], [ -156.17241966437274, 20.723538370274806 ], [ -156.173663270912186, 20.725283103697702 ], [ -156.174964452231109, 20.726017662022794 ], [ -156.174959426375494, 20.726288409006706 ], [ -156.175247211540523, 20.726293137107341 ], [ -156.175242186114616, 20.726563884148877 ], [ -156.175529971870588, 20.726568611836544 ], [ -156.175328354974113, 20.727222537625618 ], [ -156.172943104602069, 20.72679256324378 ], [ -156.171694772606543, 20.725302045612374 ], [ -156.17154023347149, 20.724359933315384 ], [ -156.172131885117182, 20.723533638045279 ] ] ] } },
{ "type": "Feature", "properties": { "ID": 33, "GRIDCODE": 2 }, "geometry": { "type": "Polygon", "coordinates": [ [ [ -156.159757453586025, 20.72332969792696 ], [ -156.16101336406544, 20.723471965289054 ], [ -156.159975078472542, 20.723689149371044 ], [ -156.159757453586025, 20.72332969792696 ] ] ] } },
{ "type": "Feature", "properties": { "ID": 34, "GRIDCODE": 2 }, "geometry": { "type": "Polygon", "coordinates": [ [ [ -156.172131885117182, 20.723533638045279 ], [ -156.171782876226786, 20.723435197544177 ], [ -156.172039375207021, 20.723201911494733 ], [ -156.172131885117182, 20.723533638045279 ] ] ] } },
{ "type": "Feature", "properties": { "ID": 35, "GRIDCODE": 2 }, "geometry": { "type": "Polygon", "coordinates": [ [ [ -156.231425953961974, 20.723956817083277 ], [ -156.231775018230394, 20.724055140900788 ], [ -156.231518597840704, 20.724288526430605 ], [ -156.231425953961974, 20.723956817083277 ] ] ] } },
{ "type": "Feature", "properties": { "ID": 36, "GRIDCODE": 2 }, "geometry": { "type": "Polygon", "coordinates": [ [ [ -156.236611186081063, 20.72376937926294 ], [ -156.237376240815308, 20.72387265698821 ], [ -156.237589144048144, 20.724286173043222 ], [ -156.23814519587097, 20.723885008524519 ], [ -156.239008642229976, 20.723895699838916 ], [ -156.238186272420847, 20.724270637470422 ], [ -156.237911819150924, 20.725110886885229 ], [ -156.237361497520823, 20.724684941514223 ], [ -156.236694771993342, 20.72449225803107 ], [ -156.236611186081063, 20.72376937926294 ] ] ] } },
{ "type": "Feature", "properties": { "ID": 37, "GRIDCODE": 2 }, "geometry": { "type": "Polygon", "coordinates": [ [ [ -156.230855290719575, 20.723676789279921 ], [ -156.231430878834146, 20.723686056923334 ], [ -156.231425953961974, 20.723956817083277 ], [ -156.230850364826722, 20.723947549307919 ], [ -156.230855290719575, 20.723676789279921 ] ] ] } },
{ "type": "Feature", "properties": { "ID": 38, "GRIDCODE": 2 }, "geometry": { "type": "Polygon", "coordinates": [ [ [ -156.195735039660406, 20.723649334207327 ], [ -156.195863142763415, 20.723028559518738 ], [ -156.196103102697492, 20.72350814968437 ], [ -156.195735039660406, 20.723649334207327 ] ] ] } },
{ "type": "Feature", "properties": { "ID": 39, "GRIDCODE": 2 }, "geometry": { "type": "Polygon", "coordinates": [ [ [ -156.180497577197968, 20.722587684252844 ], [ -156.180846592160208, 20.722686107477372 ], [ -156.180590105959425, 20.722919408349135 ], [ -156.180497577197968, 20.722587684252844 ] ] ] } },
{ "type": "Feature", "properties": { "ID": 40, "GRIDCODE": 2 }, "geometry": { "type": "Polygon", "coordinates": [ [ [ -156.239211171239219, 20.723269458171821 ], [ -156.239848130088916, 20.723367229887465 ], [ -156.239291335076274, 20.723856200301324 ], [ -156.239211171239219, 20.723269458171821 ] ] ] } },
{ "type": "Feature", "properties": { "ID": 41, "GRIDCODE": 2 }, "geometry": { "type": "Polygon", "coordinates": [ [ [ -156.230855290719575, 20.723676789279921 ], [ -156.229859906255115, 20.724026549461627 ], [ -156.230560488778906, 20.723037526735883 ], [ -156.231679351987367, 20.722900284810628 ], [ -156.232378238873792, 20.723426102603089 ], [ -156.231221285405809, 20.723246139023733 ], [ -156.230855290719575, 20.723676789279921 ] ] ] } },
{ "type": "Feature", "properties": { "ID": 42, "GRIDCODE": 2 }, "geometry": { "type": "Polygon", "coordinates": [ [ [ -156.225119170579433, 20.722500972260043 ], [ -156.225519637814642, 20.722770866253377 ], [ -156.225246465861289, 20.724092482562575 ], [ -156.224631583837066, 20.723170067612244 ], [ -156.225119170579433, 20.722500972260043 ] ] ] } },
{ "type": "Feature", "properties": { "ID": 43, "GRIDCODE": 2 }, "geometry": { "type": "Polygon", "coordinates": [ [ [ -156.185985423300309, 20.721594246065496 ], [ -156.186683573141664, 20.72218039231597 ], [ -156.185226030992283, 20.72333217260222 ], [ -156.183816772349843, 20.722693646232976 ], [ -156.184746899834835, 20.722030342582137 ], [ -156.185849524707038, 20.721737488503109 ], [ -156.185985423300309, 20.721594246065496 ] ] ] } },
{ "type": "Feature", "properties": { "ID": 44, "GRIDCODE": 2 }, "geometry": { "type": "Polygon", "coordinates": [ [ [ -156.179078750499826, 20.721481094572404 ], [ -156.179486310095626, 20.721787835108621 ], [ -156.178801983808086, 20.722110916425081 ], [ -156.179078750499826, 20.721481094572404 ] ] ] } },
{ "type": "Feature", "properties": { "ID": 45, "GRIDCODE": 2 }, "geometry": { "type": "Polygon", "coordinates": [ [ [ -156.175529971870588, 20.726568611836544 ], [ -156.175534996786155, 20.726297864727712 ], [ -156.175247211540523, 20.726293137107341 ], [ -156.175252236885797, 20.726022390056123 ], [ -156.174964452231109, 20.726017662022794 ], [ -156.174633874853697, 20.724819945712252 ], [ -156.174093516564398, 20.724413285463839 ], [ -156.173560920790266, 20.723740153715799 ], [ -156.17241966437274, 20.723538370274806 ], [ -156.17258832149227, 20.722404136798371 ], [ -156.173990114083693, 20.721639683605339 ], [ -156.175173771948124, 20.721495019112023 ], [ -156.174884225612971, 20.722721691377103 ], [ -156.174025484387357, 20.723323163260005 ], [ -156.174557349832298, 20.72359651714067 ], [ -156.177159285958624, 20.724042584799889 ], [ -156.178847314487086, 20.723836219722795 ], [ -156.180829561186357, 20.724637713231385 ], [ -156.18094038797804, 20.725438665697439 ], [ -156.180792706858256, 20.72627822606934 ], [ -156.181488386019538, 20.726193094766778 ], [ -156.182563241867712, 20.726627668363225 ], [ -156.182240170398046, 20.729226872496469 ], [ -156.181413725007332, 20.729677625350021 ], [ -156.180325914938976, 20.728302726107451 ], [ -156.176895237444256, 20.727562609323098 ], [ -156.175529971870588, 20.726568611836544 ] ] ] } },
{ "type": "Feature", "properties": { "ID": 46, "GRIDCODE": 2 }, "geometry": { "type": "Polygon", "coordinates": [ [ [ -156.236928471074151, 20.722149435044958 ], [ -156.237216263687827, 20.722154058625826 ], [ -156.237066073121298, 20.722498527861219 ], [ -156.236928471074151, 20.722149435044958 ] ] ] } },
{ "type": "Feature", "properties": { "ID": 47, "GRIDCODE": 2 }, "geometry": { "type": "Polygon", "coordinates": [ [ [ -156.229158100341664, 20.722024416828557 ], [ -156.230443323017056, 20.722276813697015 ], [ -156.229399193985472, 20.724038567403412 ], [ -156.227543011941918, 20.724077815799486 ], [ -156.228106828262241, 20.722417833840108 ], [ -156.229017267826379, 20.722162724839563 ], [ -156.229158100341664, 20.722024416828557 ] ] ] } },
{ "type": "Feature", "properties": { "ID": 48, "GRIDCODE": 2 }, "geometry": { "type": "Polygon", "coordinates": [ [ [ -156.222538941109605, 20.721917643693377 ], [ -156.223248911780928, 20.722141890825171 ], [ -156.222476170138748, 20.723401080979833 ], [ -156.221988538890088, 20.72273171464915 ], [ -156.222538941109605, 20.721917643693377 ] ] ] } },
{ "type": "Feature", "properties": { "ID": 49, "GRIDCODE": 2 }, "geometry": { "type": "Polygon", "coordinates": [ [ [ -156.191746014121605, 20.721417576656894 ], [ -156.192095036739943, 20.7215159775612 ], [ -156.191838567832804, 20.721749297465792 ], [ -156.191746014121605, 20.721417576656894 ] ] ] } },
{ "type": "Feature", "properties": { "ID": 50, "GRIDCODE": 2 }, "geometry": { "type": "Polygon", "coordinates": [ [ [ -156.179952113448394, 20.720953757021675 ], [ -156.18021530958282, 20.721617693214167 ], [ -156.17954255496619, 20.721240484541031 ], [ -156.179952113448394, 20.720953757021675 ] ] ] } },
{ "type": "Feature", "properties": { "ID": 51, "GRIDCODE": 2 }, "geometry": { "type": "Polygon", "coordinates": [ [ [ -156.187444328676833, 20.72053478424121 ], [ -156.186891155477639, 20.721185360434983 ], [ -156.186478386463733, 20.720672914575633 ], [ -156.187444328676833, 20.72053478424121 ] ] ] } },
{ "type": "Feature", "properties": { "ID": 52, "GRIDCODE": 2 }, "geometry": { "type": "Polygon", "coordinates": [ [ [ -156.179952113448394, 20.720953757021675 ], [ -156.180165593218874, 20.72029512421728 ], [ -156.180644354648166, 20.7207797040586 ], [ -156.179952113448394, 20.720953757021675 ] ] ] } },
{ "type": "Feature", "properties": { "ID": 53, "GRIDCODE": 2 }, "geometry": { "type": "Polygon", "coordinates": [ [ [ -156.187444328676833, 20.72053478424121 ], [ -156.187549069698974, 20.720206288481663 ], [ -156.187796769348466, 20.720447845822211 ], [ -156.187444328676833, 20.72053478424121 ] ] ] } },
{ "type": "Feature", "properties": { "ID": 54, "GRIDCODE": 2 }, "geometry": { "type": "Polygon", "coordinates": [ [ [ -156.18687878037116, 20.719983870940876 ], [ -156.187227795387315, 20.720082281012051 ], [ -156.186971322654898, 20.720315593103923 ], [ -156.18687878037116, 20.719983870940876 ] ] ] } },
{ "type": "Feature", "properties": { "ID": 55, "GRIDCODE": 2 }, "geometry": { "type": "Polygon", "coordinates": [ [ [ -156.166446874593106, 20.719648460915575 ], [ -156.166795870240378, 20.719746910895967 ], [ -156.166539370755572, 20.719980188940397 ], [ -156.166446874593106, 20.719648460915575 ] ] ] } },
{ "type": "Feature", "properties": { "ID": 56, "GRIDCODE": 2 }, "geometry": { "type": "Polygon", "coordinates": [ [ [ -156.186020456734894, 20.719698997888468 ], [ -156.1863694703394, 20.719797409567864 ], [ -156.186112996993074, 20.720030720288875 ], [ -156.186020456734894, 20.719698997888468 ] ] ] } },
{ "type": "Feature", "properties": { "ID": 57, "GRIDCODE": 2 }, "geometry": { "type": "Polygon", "coordinates": [ [ [ -156.166446874593106, 20.719648460915575 ], [ -156.166097879482066, 20.719550010277281 ], [ -156.16635437874632, 20.719316732876376 ], [ -156.166446874593106, 20.719648460915575 ] ] ] } },
{ "type": "Feature", "properties": { "ID": 58, "GRIDCODE": 2 }, "geometry": { "type": "Polygon", "coordinates": [ [ [ -156.225451374863098, 20.720068785923498 ], [ -156.225346712897505, 20.720397314131453 ], [ -156.225098946697102, 20.720155804162683 ], [ -156.225451374863098, 20.720068785923498 ] ] ] } },
{ "type": "Feature", "properties": { "ID": 59, "GRIDCODE": 2 }, "geometry": { "type": "Polygon", "coordinates": [ [ [ -156.186020456734894, 20.719698997888468 ], [ -156.185671443665854, 20.719600585550744 ], [ -156.185927916793133, 20.719367275473331 ], [ -156.186020456734894, 20.719698997888468 ] ] ] } },
{ "type": "Feature", "properties": { "ID": 60, "GRIDCODE": 2 }, "geometry": { "type": "Polygon", "coordinates": [ [ [ -156.242445589943003, 20.719529573235587 ], [ -156.243105461504797, 20.719649916393884 ], [ -156.242595624649738, 20.719875820343155 ], [ -156.242445589943003, 20.719529573235587 ] ] ] } },
{ "type": "Feature", "properties": { "ID": 61, "GRIDCODE": 2 }, "geometry": { "type": "Polygon", "coordinates": [ [ [ -156.225451374863098, 20.720068785923498 ], [ -156.225585141177277, 20.718914457919798 ], [ -156.22610254347245, 20.719956036626357 ], [ -156.225451374863098, 20.720068785923498 ] ] ] } },
{ "type": "Feature", "properties": { "ID": 62, "GRIDCODE": 2 }, "geometry": { "type": "Polygon", "coordinates": [ [ [ -156.181158363650724, 20.717994393497271 ], [ -156.183441299006688, 20.718251313953473 ], [ -156.184370880134111, 20.71953129520606 ], [ -156.182323622625148, 20.720847161810518 ], [ -156.180428661720498, 20.71990350610616 ], [ -156.180352311533994, 20.718759026304944 ], [ -156.180708694001453, 20.718383219216072 ], [ -156.181022464662959, 20.718137632015427 ], [ -156.181158363650724, 20.717994393497271 ] ] ] } },
{ "type": "Feature", "properties": { "ID": 63, "GRIDCODE": 2 }, "geometry": { "type": "Polygon", "coordinates": [ [ [ -156.241021365923899, 20.718694209518976 ], [ -156.240893448822277, 20.719315039466341 ], [ -156.240653344508814, 20.71883549641629 ], [ -156.241021365923899, 20.718694209518976 ] ] ] } },
{ "type": "Feature", "properties": { "ID": 64, "GRIDCODE": 2 }, "geometry": { "type": "Polygon", "coordinates": [ [ [ -156.298872945160781, 20.719341598327212 ], [ -156.299222060063983, 20.719439788794361 ], [ -156.298965739227725, 20.719673287518393 ], [ -156.298872945160781, 20.719341598327212 ] ] ] } },
{ "type": "Feature", "properties": { "ID": 65, "GRIDCODE": 2 }, "geometry": { "type": "Polygon", "coordinates": [ [ [ -156.237216263687827, 20.722154058625826 ], [ -156.237083789316557, 20.721522437896958 ], [ -156.236928471074151, 20.722149435044958 ], [ -156.236188299623649, 20.722255505133266 ], [ -156.234714206040479, 20.722773488923242 ], [ -156.234271041325911, 20.722361424861599 ], [ -156.234955307334559, 20.72188179476295 ], [ -156.235339674451126, 20.721429344373195 ], [ -156.236574923708673, 20.720563543535722 ], [ -156.236476760175748, 20.719853919614362 ], [ -156.236849495043089, 20.719592638365452 ], [ -156.237723047754258, 20.718564568366119 ], [ -156.23883089003499, 20.718428553619304 ], [ -156.238905732423035, 20.718967601622911 ], [ -156.238577115328127, 20.719354172348467 ], [ -156.238093258957122, 20.719278957606218 ], [ -156.237151034807738, 20.719939339264922 ], [ -156.238809051826536, 20.720609212252949 ], [ -156.238381426966498, 20.721215308649686 ], [ -156.237637090331503, 20.721737101255737 ], [ -156.237380849373579, 20.722038738848564 ], [ -156.237216263687827, 20.722154058625826 ] ] ] } },
{ "type": "Feature", "properties": { "ID": 66, "GRIDCODE": 2 }, "geometry": { "type": "Polygon", "coordinates": [ [ [ -156.224042067648043, 20.718421015472352 ], [ -156.225315090189042, 20.718245304168811 ], [ -156.225604622633028, 20.718539591983202 ], [ -156.22435395925686, 20.718814850014898 ], [ -156.224042067648043, 20.718421015472352 ] ] ] } },
{ "type": "Feature", "properties": { "ID": 67, "GRIDCODE": 2 }, "geometry": { "type": "Polygon", "coordinates": [ [ [ -156.224042067648043, 20.718421015472352 ], [ -156.223693022857788, 20.718322677910596 ], [ -156.223949442536764, 20.718089304141433 ], [ -156.224042067648043, 20.718421015472352 ] ] ] } },
{ "type": "Feature", "properties": { "ID": 68, "GRIDCODE": 2 }, "geometry": { "type": "Polygon", "coordinates": [ [ [ -156.241899441948647, 20.717895767890184 ], [ -156.241711519828669, 20.718539308864916 ], [ -156.241021365923899, 20.718694209518976 ], [ -156.241321174821195, 20.718159451722286 ], [ -156.241899441948647, 20.717895767890184 ] ] ] } },
{ "type": "Feature", "properties": { "ID": 69, "GRIDCODE": 2 }, "geometry": { "type": "Polygon", "coordinates": [ [ [ -156.241899441948647, 20.717895767890184 ], [ -156.242004067024368, 20.71756722528561 ], [ -156.242251859487652, 20.717808713486708 ], [ -156.241899441948647, 20.717895767890184 ] ] ] } },
{ "type": "Feature", "properties": { "ID": 70, "GRIDCODE": 2 }, "geometry": { "type": "Polygon", "coordinates": [ [ [ -156.239324100995049, 20.717041930488765 ], [ -156.240289113613812, 20.717495813209641 ], [ -156.241435629811463, 20.717769440284993 ], [ -156.24033219577754, 20.718515597031605 ], [ -156.239433399866698, 20.718207983431476 ], [ -156.239324100995049, 20.717041930488765 ] ] ] } },
{ "type": "Feature", "properties": { "ID": 71, "GRIDCODE": 2 }, "geometry": { "type": "Polygon", "coordinates": [ [ [ -156.236748793262393, 20.716188057662286 ], [ -156.237734613809863, 20.716361925334883 ], [ -156.237003625605468, 20.717109940903619 ], [ -156.236748793262393, 20.716188057662286 ] ] ] } },
{ "type": "Feature", "properties": { "ID": 72, "GRIDCODE": 2 }, "geometry": { "type": "Polygon", "coordinates": [ [ [ -156.221784273995269, 20.715947020231404 ], [ -156.222509150466323, 20.716092293619432 ], [ -156.222205768838933, 20.716357439330707 ], [ -156.221434612242263, 20.717423443023723 ], [ -156.221784273995269, 20.715947020231404 ] ] ] } },
{ "type": "Feature", "properties": { "ID": 73, "GRIDCODE": 2 }, "geometry": { "type": "Polygon", "coordinates": [ [ [ -156.162791634016543, 20.714984130994399 ], [ -156.16376967298504, 20.715145723807467 ], [ -156.163436356437188, 20.715896376791292 ], [ -156.162791634016543, 20.714984130994399 ] ] ] } },
{ "type": "Feature", "properties": { "ID": 74, "GRIDCODE": 2 }, "geometry": { "type": "Polygon", "coordinates": [ [ [ -156.235607499610381, 20.715628039676577 ], [ -156.235956549231418, 20.715726353228828 ], [ -156.235700150139763, 20.715959747508155 ], [ -156.235607499610381, 20.715628039676577 ] ] ] } },
{ "type": "Feature", "properties": { "ID": 75, "GRIDCODE": 2 }, "geometry": { "type": "Polygon", "coordinates": [ [ [ -156.225559915147642, 20.714112087719528 ], [ -156.227642894303131, 20.714270111690702 ], [ -156.228814013011601, 20.715088803016631 ], [ -156.229262981322563, 20.716570442694607 ], [ -156.228830936369945, 20.717572649766346 ], [ -156.228254849807144, 20.717947276671481 ], [ -156.229005452121072, 20.718471822535051 ], [ -156.227401162606611, 20.719394302239177 ], [ -156.226949986496805, 20.718235302469061 ], [ -156.22589234867479, 20.718624505778493 ], [ -156.225656286797971, 20.718018452720536 ], [ -156.224924860109866, 20.717506898432578 ], [ -156.22454987591567, 20.715546658985687 ], [ -156.225039050508684, 20.714526607416513 ], [ -156.225436760779615, 20.714267870292289 ], [ -156.225559915147642, 20.714112087719528 ] ] ] } },
{ "type": "Feature", "properties": { "ID": 76, "GRIDCODE": 2 }, "geometry": { "type": "Polygon", "coordinates": [ [ [ -156.165709558180538, 20.712865607677152 ], [ -156.165814336992071, 20.712537129714033 ], [ -156.166061987130007, 20.712778713166994 ], [ -156.165709558180538, 20.712865607677152 ] ] ] } },
{ "type": "Feature", "properties": { "ID": 77, "GRIDCODE": 2 }, "geometry": { "type": "Polygon", "coordinates": [ [ [ -156.166295148615404, 20.712333597731117 ], [ -156.166954891687851, 20.7124542230172 ], [ -156.166444996378829, 20.712679890979217 ], [ -156.166295148615404, 20.712333597731117 ] ] ] } },
{ "type": "Feature", "properties": { "ID": 78, "GRIDCODE": 2 }, "geometry": { "type": "Polygon", "coordinates": [ [ [ -156.234500633557388, 20.71317268686418 ], [ -156.235076183772549, 20.71318193784192 ], [ -156.235061436524603, 20.713994221792351 ], [ -156.234485883249192, 20.713984970419332 ], [ -156.234500633557388, 20.71317268686418 ] ] ] } },
{ "type": "Feature", "properties": { "ID": 79, "GRIDCODE": 2 }, "geometry": { "type": "Polygon", "coordinates": [ [ [ -156.206631520133868, 20.710284916331606 ], [ -156.207302648986087, 20.710645331771175 ], [ -156.206758701471358, 20.710891335710127 ], [ -156.206631520133868, 20.710284916331606 ] ] ] } },
{ "type": "Feature", "properties": { "ID": 80, "GRIDCODE": 2 }, "geometry": { "type": "Polygon", "coordinates": [ [ [ -156.22910188329891, 20.709294066618465 ], [ -156.229523672591512, 20.709688603340421 ], [ -156.228500856460755, 20.710191592484062 ], [ -156.22910188329891, 20.709294066618465 ] ] ] } },
{ "type": "Feature", "properties": { "ID": 81, "GRIDCODE": 2 }, "geometry": { "type": "Polygon", "coordinates": [ [ [ -156.205798032419665, 20.70864637022866 ], [ -156.206758351993784, 20.708779659409945 ], [ -156.205986667340198, 20.708997895936598 ], [ -156.205798032419665, 20.70864637022866 ] ] ] } },
{ "type": "Feature", "properties": { "ID": 82, "GRIDCODE": 2 }, "geometry": { "type": "Polygon", "coordinates": [ [ [ -156.22855590678347, 20.707660237460175 ], [ -156.229818855783606, 20.707986987645388 ], [ -156.228644781948304, 20.708584744370821 ], [ -156.22805801571451, 20.708343333846752 ], [ -156.22855590678347, 20.707660237460175 ] ] ] } },
{ "type": "Feature", "properties": { "ID": 83, "GRIDCODE": 2 }, "geometry": { "type": "Polygon", "coordinates": [ [ [ -156.214743365821363, 20.707437217681832 ], [ -156.214738415529382, 20.707707974506945 ], [ -156.214372198736214, 20.707566627901816 ], [ -156.214743365821363, 20.707437217681832 ] ] ] } },
{ "type": "Feature", "properties": { "ID": 84, "GRIDCODE": 2 }, "geometry": { "type": "Polygon", "coordinates": [ [ [ -156.227146660468748, 20.706012499584588 ], [ -156.226997720992586, 20.707446419653085 ], [ -156.226170624264768, 20.707698902613945 ], [ -156.226733953010864, 20.706988434097923 ], [ -156.226964133982534, 20.706110329591457 ], [ -156.227146660468748, 20.706012499584588 ] ] ] } },
{ "type": "Feature", "properties": { "ID": 85, "GRIDCODE": 2 }, "geometry": { "type": "Polygon", "coordinates": [ [ [ -156.218816489547663, 20.705065559109151 ], [ -156.220340832882329, 20.70523684722782 ], [ -156.22126110664459, 20.706009209720094 ], [ -156.221227974297022, 20.706330823950736 ], [ -156.221787150469254, 20.70731330953631 ], [ -156.219672263651916, 20.707045870979144 ], [ -156.218937149992371, 20.705754654019859 ], [ -156.218816489547663, 20.705065559109151 ] ] ] } },
{ "type": "Feature", "properties": { "ID": 86, "GRIDCODE": 2 }, "geometry": { "type": "Polygon", "coordinates": [ [ [ -156.217094901058175, 20.704766890334675 ], [ -156.217382656001433, 20.704771543354926 ], [ -156.217232444928243, 20.705115992725176 ], [ -156.217094901058175, 20.704766890334675 ] ] ] } },
{ "type": "Feature", "properties": { "ID": 87, "GRIDCODE": 2 }, "geometry": { "type": "Polygon", "coordinates": [ [ [ -156.215090516415501, 20.704192791754497 ], [ -156.215439522154156, 20.704291142623632 ], [ -156.215183117018597, 20.704524505180423 ], [ -156.215090516415501, 20.704192791754497 ] ] ] } },
{ "type": "Feature", "properties": { "ID": 88, "GRIDCODE": 2 }, "geometry": { "type": "Polygon", "coordinates": [ [ [ -156.298872945160781, 20.719341598327212 ], [ -156.298718627410437, 20.719466929770885 ], [ -156.298397780049299, 20.720389898920502 ], [ -156.297544333162193, 20.721810492792208 ], [ -156.297221411157864, 20.723023717426166 ], [ -156.295760435995703, 20.72485279611173 ], [ -156.295451783491131, 20.725103451297311 ], [ -156.293213583269647, 20.727712063873664 ], [ -156.292808495691531, 20.728041206934169 ], [ -156.292531890466734, 20.728323042494377 ], [ -156.292223225601788, 20.72857369042335 ], [ -156.29194661831707, 20.728855524798686 ], [ -156.291637951427276, 20.729106171436044 ], [ -156.291356522290954, 20.729658778224792 ], [ -156.290457747585862, 20.7307126727674 ], [ -156.289331923812853, 20.73212177725993 ], [ -156.288111741507151, 20.733113323806077 ], [ -156.28721423911918, 20.734392968361256 ], [ -156.28589789319193, 20.73475267363327 ], [ -156.284620705034712, 20.736052888361492 ], [ -156.283494782123682, 20.736517546061808 ], [ -156.283145308915408, 20.737099212461533 ], [ -156.283168296379358, 20.737606754482179 ], [ -156.282671434430796, 20.738112690923959 ], [ -156.28198498868403, 20.738449653960267 ], [ -156.281683121411987, 20.738427951904008 ], [ -156.281287428513309, 20.739565521712588 ], [ -156.280806306878617, 20.740055301485107 ], [ -156.280209761664878, 20.740301368247877 ], [ -156.279814337840605, 20.741077102154613 ], [ -156.278460002053833, 20.742455785480129 ], [ -156.277079599724118, 20.743577214203071 ], [ -156.276674244767037, 20.744372221585074 ], [ -156.275369135717938, 20.745432669632027 ], [ -156.274921948799516, 20.746176224360035 ], [ -156.274640422892645, 20.746728792538672 ], [ -156.274034132569767, 20.747516371959779 ], [ -156.273752600518264, 20.748068937971418 ], [ -156.272579138649604, 20.749593658603469 ], [ -156.272255694096344, 20.75052259743093 ], [ -156.271273804159563, 20.751320333991732 ], [ -156.270492427457214, 20.752335360844846 ], [ -156.26921725884705, 20.75439919998464 ], [ -156.267253109629308, 20.755994352842503 ], [ -156.267280716330873, 20.756601415677626 ], [ -156.26668352117585, 20.756894496771061 ], [ -156.265665541734251, 20.757006044470774 ], [ -156.265572810027862, 20.75667434408513 ], [ -156.265316373765387, 20.756907778977077 ], [ -156.265665541734251, 20.757006044470774 ], [ -156.265511443714757, 20.757427975737301 ], [ -156.264041550063979, 20.758711970749371 ], [ -156.264046828653278, 20.760089683640235 ], [ -156.263442828793501, 20.760353548440175 ], [ -156.263035425354474, 20.761817256881596 ], [ -156.261988888819957, 20.762731201238335 ], [ -156.261661913411956, 20.763304439242273 ], [ -156.261369800569639, 20.763846757440561 ], [ -156.261071513503197, 20.764107553043939 ], [ -156.260774513542998, 20.764920635363033 ], [ -156.260476223239436, 20.765181429552925 ], [ -156.259881565892698, 20.766531446389184 ], [ -156.259582989597789, 20.766792233970921 ], [ -156.259587572083177, 20.768018771979577 ], [ -156.259252047888509, 20.769500672322597 ], [ -156.258377969469933, 20.769752267403845 ], [ -156.257803719272914, 20.771324774676081 ], [ -156.25701572774156, 20.772414466113499 ], [ -156.254293294403027, 20.774289578703673 ], [ -156.253346249030727, 20.774561930193041 ], [ -156.251952222496641, 20.775880863129014 ], [ -156.250434482871754, 20.776203171939564 ], [ -156.250444927431005, 20.779073094482232 ], [ -156.250134222202973, 20.779923355203856 ], [ -156.249532756522683, 20.779902077345792 ], [ -156.24868204248213, 20.78070691294575 ], [ -156.248095792921077, 20.780963062514658 ], [ -156.247761572947525, 20.7812790608195 ], [ -156.245480062794798, 20.782275292356548 ], [ -156.244353754971598, 20.782798093195069 ], [ -156.243889394491191, 20.782799626949714 ], [ -156.243313778300774, 20.782779270450732 ], [ -156.242389842836531, 20.782782143484347 ], [ -156.240868518384275, 20.782477323100881 ], [ -156.240281332329118, 20.782180905584475 ], [ -156.23916248962658, 20.782184461470472 ], [ -156.238228362278818, 20.781866849248232 ], [ -156.23682995638552, 20.781871179634688 ], [ -156.236894690814665, 20.780246659134271 ], [ -156.236584522691516, 20.780507213210104 ], [ -156.236011332643557, 20.781049180161332 ], [ -156.235133124242935, 20.780750438476012 ], [ -156.234559926181646, 20.781292532079409 ], [ -156.234266500377601, 20.781282248147477 ], [ -156.233812427714298, 20.782524911086078 ], [ -156.231972346862591, 20.782936932611804 ], [ -156.231090364709956, 20.782043535042639 ], [ -156.230796735786015, 20.782044350349466 ], [ -156.230519495032496, 20.78176361545642 ], [ -156.229942910411722, 20.781488759449513 ], [ -156.229660148158985, 20.781202512211681 ], [ -156.229084142842225, 20.781204187202185 ], [ -156.228806909366767, 20.780923317837946 ], [ -156.228516094639929, 20.780924174889183 ], [ -156.228228294351169, 20.780913971572168 ], [ -156.22767816412636, 20.780915663193891 ], [ -156.227078444032315, 20.780629977163343 ], [ -156.227089673353532, 20.780354031514303 ], [ -156.226224920690754, 20.7800745068376 ], [ -156.225945758259002, 20.779791883153344 ], [ -156.225355500181109, 20.780065871900938 ], [ -156.224788334437136, 20.780045855416674 ], [ -156.224255085071718, 20.780047412623944 ], [ -156.222502804504899, 20.779212630320323 ], [ -156.222501199684729, 20.778670269960628 ], [ -156.222945009498488, 20.777516082173118 ], [ -156.221688489012791, 20.778099174120655 ], [ -156.219978512534283, 20.778104408365678 ], [ -156.21935999985746, 20.777525869106036 ], [ -156.218854730684058, 20.777013963005896 ], [ -156.217658215658588, 20.776409651827716 ], [ -156.216504861063214, 20.775859988757567 ], [ -156.215374961976636, 20.775289275776924 ], [ -156.214268740269603, 20.774762051933113 ], [ -156.213944711768022, 20.774458846798876 ], [ -156.213667515358622, 20.774178221718984 ], [ -156.210591502584265, 20.772311625694964 ], [ -156.209693986872622, 20.771019168714943 ], [ -156.210448516477356, 20.770619626715373 ], [ -156.212941114079541, 20.770333475645515 ], [ -156.214573415874355, 20.769621125116188 ], [ -156.215725425620093, 20.768615585403989 ], [ -156.216832476508216, 20.767085620908087 ], [ -156.218133963006096, 20.765854760097252 ], [ -156.218434317563521, 20.765592361130174 ], [ -156.218146841713093, 20.765044179498513 ], [ -156.218470626578181, 20.764761397585445 ], [ -156.218208791912986, 20.762060827458864 ], [ -156.217074035863163, 20.76275774820795 ], [ -156.215607096607101, 20.762016674066746 ], [ -156.214267109483899, 20.762020594752475 ], [ -156.213016928125995, 20.761712412516736 ], [ -156.21247659805573, 20.760617126598735 ], [ -156.211566704311053, 20.760322922454691 ], [ -156.209933771556507, 20.759497779107289 ], [ -156.207880165300963, 20.759729945400888 ], [ -156.207314982565237, 20.760264407207142 ], [ -156.206138089600529, 20.760514113458836 ], [ -156.205242257654248, 20.760786238784465 ], [ -156.204406246517237, 20.760756628578992 ], [ -156.203830505591412, 20.761023642156928 ], [ -156.202820828552746, 20.760987889940022 ], [ -156.201381032191591, 20.760992068291511 ], [ -156.20065883384126, 20.760966410559178 ], [ -156.198489341922027, 20.762556157586875 ], [ -156.196603759003324, 20.76225983865017 ], [ -156.195474046408378, 20.76168901373293 ], [ -156.194320896485124, 20.761139222444967 ], [ -156.193755627762954, 20.760853731220685 ], [ -156.192917910093797, 20.760856039778979 ], [ -156.192033066087873, 20.760289329474503 ], [ -156.191162852994665, 20.758992481993157 ], [ -156.189651224616028, 20.758503580993072 ], [ -156.188617204331138, 20.757535969590499 ], [ -156.18778421023049, 20.756691720555541 ], [ -156.186848825111014, 20.757125890463517 ], [ -156.186159386355229, 20.755727513393623 ], [ -156.185463655231104, 20.756688485311084 ], [ -156.183609628261308, 20.756622385346251 ], [ -156.182359982057164, 20.756625955382727 ], [ -156.181442090844143, 20.756313483003851 ], [ -156.180324894890163, 20.756316567291368 ], [ -156.179585571346593, 20.755624840557193 ], [ -156.178890362918992, 20.754919950574092 ], [ -156.178096432914742, 20.755670466965196 ], [ -156.175905162500328, 20.754370888282363 ], [ -156.174555517800997, 20.754037661091651 ], [ -156.173736702419347, 20.753207603740687 ], [ -156.171762751854317, 20.753212932438327 ], [ -156.171438856693356, 20.752909793476853 ], [ -156.171161782018743, 20.75262911254848 ], [ -156.169865509926638, 20.752209583540733 ], [ -156.169393062326407, 20.751730626665129 ], [ -156.167445986709652, 20.752165998254245 ], [ -156.16656587134554, 20.751746166773316 ], [ -156.164861923248822, 20.750618344290096 ], [ -156.163736348003823, 20.750621318344812 ], [ -156.16284900735829, 20.750198044306934 ], [ -156.162001413045118, 20.749769604249604 ], [ -156.161431460871995, 20.749771030838218 ], [ -156.160833441537761, 20.749468766455156 ], [ -156.159989056279528, 20.749471074260683 ], [ -156.159557474180417, 20.749455607541424 ], [ -156.158618896216836, 20.749458070210625 ], [ -156.15552770575465, 20.74869480556946 ], [ -156.155113499825376, 20.748306966044975 ], [ -156.154834535659148, 20.748024247518035 ], [ -156.15375250317814, 20.748526155159229 ], [ -156.152230773430603, 20.748530160920286 ], [ -156.150801343005213, 20.748230080459315 ], [ -156.15007928300642, 20.748231988499743 ], [ -156.149359992601092, 20.748206169358571 ], [ -156.149072068350108, 20.74820694544395 ], [ -156.148065060661907, 20.748170924141945 ], [ -156.147057329737606, 20.748173498546045 ], [ -156.14676961447941, 20.748163166216674 ], [ -156.14593930397541, 20.74816537470554 ], [ -156.142975094704866, 20.746560984543585 ], [ -156.137022524375311, 20.741957750136901 ], [ -156.132565677385713, 20.738309857834043 ], [ -156.128571075977987, 20.735087064467152 ], [ -156.126394797211304, 20.731948155910111 ], [ -156.124769501860271, 20.727207669165754 ], [ -156.124198745305648, 20.724326208898901 ], [ -156.124192274714972, 20.722064986549778 ], [ -156.124520904411185, 20.72206426681214 ], [ -156.12593589627815, 20.722546518496372 ], [ -156.125406021261625, 20.720446734176818 ], [ -156.126255451681999, 20.719705990105481 ], [ -156.128120651769308, 20.717571368563888 ], [ -156.129655406244723, 20.717246427125417 ], [ -156.130303058970355, 20.716113117402056 ], [ -156.129523286493082, 20.715382719544291 ], [ -156.12956701934371, 20.7143004267073 ], [ -156.128983017985064, 20.714279440528859 ], [ -156.128173705739471, 20.71428153514513 ], [ -156.127857946364799, 20.71260214212365 ], [ -156.126524953918846, 20.711353648647073 ], [ -156.127926105313236, 20.70912187398833 ], [ -156.129083694687722, 20.708789574730506 ], [ -156.128810257957042, 20.708324165345356 ], [ -156.128426056760446, 20.707964151504076 ], [ -156.130905497628646, 20.70375513834562 ], [ -156.132936492524294, 20.700725966629179 ], [ -156.133549448717588, 20.698143920205712 ], [ -156.13300640956183, 20.695993286663107 ], [ -156.134823357974312, 20.694608989004642 ], [ -156.135396069406426, 20.696049466360822 ], [ -156.135949863149477, 20.697106137887058 ], [ -156.136468977957747, 20.698707448604399 ], [ -156.137034885835448, 20.699524043157247 ], [ -156.137574481373406, 20.700619485578578 ], [ -156.138912920160664, 20.700950119417808 ], [ -156.139567876361241, 20.702279685333153 ], [ -156.139856867179873, 20.702831293364991 ], [ -156.139834998232658, 20.703367420398557 ], [ -156.140160664585324, 20.703672352196318 ], [ -156.139954053436526, 20.70485628560666 ], [ -156.13960163555322, 20.70494312703795 ], [ -156.139849228322589, 20.705184742180528 ], [ -156.139954053436526, 20.70485628560666 ], [ -156.140676569441553, 20.704998546988381 ], [ -156.140947791922798, 20.705284191991616 ], [ -156.141843382102337, 20.705700148398407 ], [ -156.141777262097435, 20.706782346792007 ], [ -156.141786979993668, 20.707193240527722 ], [ -156.141399334067529, 20.707853943244338 ], [ -156.144068233785873, 20.708499154283093 ], [ -156.145581005723585, 20.70755627019674 ], [ -156.146076904985904, 20.70807797887214 ], [ -156.147089773838502, 20.708056955484931 ], [ -156.148903485840719, 20.708154724580709 ], [ -156.149534537463012, 20.707853757100828 ], [ -156.150989368949183, 20.707617340824797 ], [ -156.152151031431998, 20.706809150211011 ], [ -156.152487622148669, 20.707163038803206 ], [ -156.155083338099757, 20.707109175178275 ], [ -156.15560245461711, 20.706600039306352 ], [ -156.157011069879047, 20.706308852034176 ], [ -156.159858959867591, 20.704533481730149 ], [ -156.160838301028036, 20.704259375022652 ], [ -156.161120037956039, 20.70398288052867 ], [ -156.162110674437855, 20.703403874263561 ], [ -156.162871683226911, 20.702657627262429 ], [ -156.163234905652672, 20.702352056599601 ], [ -156.164925312654276, 20.702442989660778 ], [ -156.164899417696773, 20.701342058392427 ], [ -156.164948809590925, 20.700530386815217 ], [ -156.16493337758908, 20.699879245211889 ], [ -156.16350744158774, 20.699428483776952 ], [ -156.163221192809686, 20.698830668612889 ], [ -156.163267393377453, 20.698069990317368 ], [ -156.162934022623205, 20.697769071293372 ], [ -156.162418354743494, 20.696691938028152 ], [ -156.162127657023575, 20.696152366443421 ], [ -156.162456208271607, 20.69505106353262 ], [ -156.16183950057254, 20.693906408526363 ], [ -156.161316522295124, 20.693434152073237 ], [ -156.161050317333604, 20.69287779212296 ], [ -156.160761252112195, 20.692341684411847 ], [ -156.160183287654917, 20.690868518728418 ], [ -156.160263538792606, 20.689547573084766 ], [ -156.161746679238433, 20.689939522047986 ], [ -156.163614741212854, 20.689900613218445 ], [ -156.164254988834955, 20.690233031869379 ], [ -156.164691639405078, 20.690223956929035 ], [ -156.16526667038849, 20.690254847663589 ], [ -156.165981393778196, 20.690240032395252 ], [ -156.166263124249411, 20.690536524295496 ], [ -156.166964679383398, 20.691169996810611 ], [ -156.167701402139102, 20.690818455017205 ], [ -156.168555911420725, 20.691116297873005 ], [ -156.169369895304641, 20.691099266139805 ], [ -156.17027607424231, 20.691415009432021 ], [ -156.17114563586, 20.691689813162341 ], [ -156.171611261674116, 20.692179613766818 ], [ -156.172152044146856, 20.691148155447454 ], [ -156.17293907236396, 20.691190437081371 ], [ -156.174019751708357, 20.691751424806753 ], [ -156.174810705504854, 20.690641675673213 ], [ -156.176600401753632, 20.690737813440542 ], [ -156.17692473122392, 20.690419800675333 ], [ -156.178138548048622, 20.690484924087563 ], [ -156.180106737089403, 20.68939483166362 ], [ -156.180776034872537, 20.69040805242501 ], [ -156.181392933354573, 20.690774543886647 ], [ -156.181815080750937, 20.689968958933115 ], [ -156.182495583174614, 20.689448746534481 ], [ -156.184544819761385, 20.690512431768859 ], [ -156.185706278098678, 20.689958148513316 ], [ -156.186420915266211, 20.690329129677959 ], [ -156.186712025063599, 20.690043481843794 ], [ -156.187071002855532, 20.690420947823466 ], [ -156.18919397080731, 20.689759491156529 ], [ -156.189891917222866, 20.69012159038434 ], [ -156.191012943213508, 20.690098092927183 ], [ -156.191308234882115, 20.690408919713711 ], [ -156.19194679935211, 20.690104199873026 ], [ -156.19304157951737, 20.690162912957021 ], [ -156.193329500529842, 20.690156762335434 ], [ -156.193620953794294, 20.690172488894603 ], [ -156.194806980152379, 20.689900615489112 ], [ -156.195492097166124, 20.689937298341917 ], [ -156.19626138113037, 20.689921129244691 ], [ -156.196802346254259, 20.689390384099045 ], [ -156.197377394580002, 20.689421167844134 ], [ -156.197659611196144, 20.689144214785273 ], [ -156.19949058109475, 20.688846038274953 ], [ -156.199976293731424, 20.688369396351764 ], [ -156.201195454163269, 20.68812869554278 ], [ -156.201980208820515, 20.688953953748538 ], [ -156.202274390949896, 20.689219253795105 ], [ -156.202744255961733, 20.689713412072742 ], [ -156.203251926722743, 20.687426169534717 ], [ -156.205462874627301, 20.687065990961944 ], [ -156.206043600274626, 20.687676463018644 ], [ -156.206758329544044, 20.687661476421283 ], [ -156.207207025279899, 20.687685416497921 ], [ -156.207181466621705, 20.686610121115859 ], [ -156.207507747967895, 20.686335318804087 ], [ -156.207789372655583, 20.686058733779728 ], [ -156.208698347459602, 20.685672900536378 ], [ -156.209523843645513, 20.68610126080603 ], [ -156.21010597229872, 20.685283767403231 ], [ -156.210550708945732, 20.684909181257627 ], [ -156.212433602303889, 20.68451926101385 ], [ -156.213580054096724, 20.684256263484553 ], [ -156.214015263812826, 20.684279569978482 ], [ -156.214447131724114, 20.684270421345079 ], [ -156.214988477052913, 20.684299409258877 ], [ -156.216174437175511, 20.684027378761268 ], [ -156.216748353762597, 20.684058077726178 ], [ -156.217072593155166, 20.683739977809847 ], [ -156.218197119552599, 20.683800197763233 ], [ -156.218628987198713, 20.683791038446707 ], [ -156.219065602870955, 20.683814354786843 ], [ -156.219368909407251, 20.682963757005197 ], [ -156.220518422542142, 20.683025290382673 ], [ -156.221088583917236, 20.682752939672998 ], [ -156.222136078062903, 20.682459323875104 ], [ -156.223126698824728, 20.682804059691364 ], [ -156.223688441371621, 20.682252790233782 ], [ -156.224006564763727, 20.682269819624338 ], [ -156.22484874444018, 20.681443100853787 ], [ -156.225293303927515, 20.681910213443679 ], [ -156.226009281571521, 20.681207220978024 ], [ -156.227516078340784, 20.680970955270219 ], [ -156.228600278117028, 20.681533256052539 ], [ -156.229759386262174, 20.680725891565768 ], [ -156.231109965177353, 20.680347296598136 ], [ -156.231915001383584, 20.681193386864123 ], [ -156.23234880346439, 20.680767514892889 ], [ -156.233227906230098, 20.680521111520822 ], [ -156.234090661940115, 20.679982572728495 ], [ -156.234387725938802, 20.679998450922163 ], [ -156.234957856381357, 20.679726050068663 ], [ -156.236124662246738, 20.679484248504259 ], [ -156.23701217627837, 20.679207278104872 ], [ -156.237567275002505, 20.679236943074848 ], [ -156.238770168279444, 20.678662439063071 ], [ -156.240187256900185, 20.678738045471189 ], [ -156.240741493705855, 20.678193733674615 ], [ -156.241995591691591, 20.677459741473207 ], [ -156.242476882243807, 20.677965356705212 ], [ -156.24334556750884, 20.677422894203453 ], [ -156.245974261292218, 20.677202027212488 ], [ -156.246525037510708, 20.676661209502729 ], [ -156.246828684521518, 20.676405534160498 ], [ -156.247393472492121, 20.67585105094582 ], [ -156.247987031309862, 20.67588275042495 ], [ -156.249781782720618, 20.675618082499316 ], [ -156.251471604975933, 20.674562861570401 ], [ -156.252312804580953, 20.674607753210545 ], [ -156.253207591262282, 20.674048856128774 ], [ -156.254292782357822, 20.674106752376982 ], [ -156.255701690681235, 20.673667121625432 ], [ -156.256182328983073, 20.673195110613893 ], [ -156.259177597140564, 20.672573733417302 ], [ -156.261578330736143, 20.671755061121079 ], [ -156.263032758006773, 20.671517636974055 ], [ -156.263894522371118, 20.670979313924871 ], [ -156.265809313450063, 20.670442090912189 ], [ -156.266789488463417, 20.670494140274005 ], [ -156.270252594412767, 20.670172119337177 ], [ -156.27246607744641, 20.668944312120274 ], [ -156.272861682573762, 20.66896538459503 ], [ -156.274881825352196, 20.668443343674667 ], [ -156.275739287781647, 20.668741502016029 ], [ -156.276601820128462, 20.668472118435147 ], [ -156.278056208041193, 20.66823456114717 ], [ -156.279803017506282, 20.667689098652733 ], [ -156.280887073411492, 20.667746673374314 ], [ -156.28266283514148, 20.667484389174625 ], [ -156.284404910888753, 20.667251311741364 ], [ -156.286709898731374, 20.666464746834261 ], [ -156.290178160253845, 20.666258773728796 ], [ -156.292183806112433, 20.665519928662835 ], [ -156.294633389013882, 20.666165428654551 ], [ -156.295053590903052, 20.666606602921664 ], [ -156.295351042114362, 20.666600161565768 ], [ -156.296867459542597, 20.667127301093327 ], [ -156.300320891397263, 20.666616975173561 ], [ -156.303617196005661, 20.66679156821727 ], [ -156.306417148207629, 20.666443350454415 ], [ -156.308476646078788, 20.6665523616516 ], [ -156.310979868398846, 20.664988260199078 ], [ -156.315484078586422, 20.66425132379835 ], [ -156.317571235738797, 20.664800927051271 ], [ -156.319992738095323, 20.66474826301096 ], [ -156.320692065223056, 20.665110665280793 ], [ -156.322846868458527, 20.666003796850905 ], [ -156.32384864558793, 20.665690701580967 ], [ -156.325003214215826, 20.665751738019082 ], [ -156.326852885145826, 20.66571152852757 ], [ -156.328148731408817, 20.666580693888726 ], [ -156.329018542600295, 20.666854716334797 ], [ -156.33066097751842, 20.66770569407991 ], [ -156.331017479819565, 20.667697857239222 ], [ -156.332177807985659, 20.668476021977096 ], [ -156.337904548382369, 20.668888199458127 ], [ -156.338753436874271, 20.669074695994563 ], [ -156.337865670720561, 20.670247315328709 ], [ -156.338761502527774, 20.671384924375442 ], [ -156.338331687921681, 20.673823421796921 ], [ -156.337185741781411, 20.674310931864866 ], [ -156.336649558988313, 20.674838013840358 ], [ -156.336346046336587, 20.675093864720985 ], [ -156.336064082488747, 20.675371076675251 ], [ -156.335334841780508, 20.67533255611206 ], [ -156.334899553032301, 20.676165246073488 ], [ -156.333845494698664, 20.677054487824133 ], [ -156.33254320527368, 20.677608316173746 ], [ -156.332563478024525, 20.678426228803215 ], [ -156.332533701206984, 20.678923706802742 ], [ -156.331472996365505, 20.680737419809699 ], [ -156.329310457805093, 20.681491614689453 ], [ -156.32860068169137, 20.683486114217271 ], [ -156.325966878054572, 20.685241918786179 ], [ -156.325488366691275, 20.685216634769816 ], [ -156.324606858467803, 20.686902143616265 ], [ -156.324632060459749, 20.687933058083406 ], [ -156.323415519270981, 20.688959225148974 ], [ -156.323440391136955, 20.689976379343065 ], [ -156.322081298611351, 20.692779924636838 ], [ -156.320468234300165, 20.694692873459491 ], [ -156.319291556091457, 20.695685237485744 ], [ -156.318696023484847, 20.696270442647979 ], [ -156.318709842877553, 20.696827180111935 ], [ -156.317526863263396, 20.697824588952813 ], [ -156.317235858945679, 20.698642933904221 ], [ -156.316305198920276, 20.699038544691838 ], [ -156.316722070776621, 20.700220112766722 ], [ -156.316040351962783, 20.700509963650493 ], [ -156.315697095127348, 20.701166008768407 ], [ -156.315140394493568, 20.703214786489699 ], [ -156.31446727019275, 20.704930053557039 ], [ -156.311889817994825, 20.707810880377295 ], [ -156.311004908105502, 20.708556978338734 ], [ -156.310441954867599, 20.709632651268521 ], [ -156.309792188046998, 20.709908952655624 ], [ -156.309255780426184, 20.710435923194378 ], [ -156.308678187383634, 20.710922968512957 ], [ -156.308099212866296, 20.7120287985746 ], [ -156.307191625885622, 20.712560401315191 ], [ -156.307211661691923, 20.713382927119024 ], [ -156.306592386180853, 20.713905019280332 ], [ -156.305888013449447, 20.71459691040959 ], [ -156.304977918146079, 20.71536426523862 ], [ -156.304555343027999, 20.71577939627031 ], [ -156.30414352915156, 20.716126452661801 ], [ -156.302510521427223, 20.716820435627209 ], [ -156.302224187935337, 20.717367964276441 ], [ -156.301393403062008, 20.718068166316218 ], [ -156.299679799056491, 20.718549252060445 ], [ -156.298872945160781, 20.719341598327212 ] ], [ [ -156.22205840541298, 20.732472554512828 ], [ -156.222151031017574, 20.732804266900292 ], [ -156.222407480044467, 20.732570898813098 ], [ -156.22205840541298, 20.732472554512828 ] ], [ [ -156.160499543400448, 20.72984180117972 ], [ -156.160603289657161, 20.730458958313413 ], [ -156.160870802327537, 20.729998553798367 ], [ -156.160499543400448, 20.72984180117972 ] ], [ [ -156.150129077782395, 20.730211853167354 ], [ -156.151146871694635, 20.730100979682536 ], [ -156.152329677281898, 20.729269618282796 ], [ -156.15229933795365, 20.728592448733309 ], [ -156.151453837045494, 20.728210288882767 ], [ -156.150950227920873, 20.7276608226048 ], [ -156.149413043668488, 20.728741256063486 ], [ -156.149438451607836, 20.729305807890036 ], [ -156.150001085339227, 20.729795823910681 ], [ -156.150129077782395, 20.730211853167354 ], [ -156.149776602284618, 20.730298709086842 ], [ -156.150024249147009, 20.730540315629174 ], [ -156.150129077782395, 20.730211853167354 ] ], [ [ -156.159080823018172, 20.728735056072185 ], [ -156.159173305523808, 20.729066786537842 ], [ -156.159429832032998, 20.728833522792989 ], [ -156.159080823018172, 20.728735056072185 ] ], [ [ -156.148195759568523, 20.725846596506443 ], [ -156.147693155173641, 20.726459516850049 ], [ -156.146337312045091, 20.727373796984324 ], [ -156.147058085186416, 20.728109896951079 ], [ -156.148070634110695, 20.727543126861249 ], [ -156.149274580849806, 20.72775880656814 ], [ -156.149726725571469, 20.727513462261559 ], [ -156.149158709625596, 20.727101113320032 ], [ -156.14887177167202, 20.726031040092721 ], [ -156.148195759568523, 20.725846596506443 ] ], [ [ -156.156819007622431, 20.726531055917086 ], [ -156.156662382314039, 20.726096836441858 ], [ -156.157347109170558, 20.726146639803108 ], [ -156.157814627760672, 20.72673304859072 ], [ -156.157230028574929, 20.727207248189096 ], [ -156.156946812147652, 20.72783083477789 ], [ -156.15752062358834, 20.728867426337036 ], [ -156.158177821159256, 20.728841528192657 ], [ -156.159239754525061, 20.727495158758735 ], [ -156.158373531210799, 20.727529376343195 ], [ -156.158417208973759, 20.726996908327926 ], [ -156.158060130315732, 20.726006086480385 ], [ -156.156639562478091, 20.725587866268061 ], [ -156.15611429319776, 20.726121625331494 ], [ -156.154974486852126, 20.726038765596225 ], [ -156.154809167470546, 20.727708856594834 ], [ -156.155515624832816, 20.726325685662339 ], [ -156.156005624805601, 20.727378482126248 ], [ -156.15637679986358, 20.726651486275227 ], [ -156.156819007622431, 20.726531055917086 ], [ -156.156911484319636, 20.726862786948185 ], [ -156.157168009695283, 20.726629526501533 ], [ -156.156819007622431, 20.726531055917086 ] ], [ [ -156.152810341645363, 20.725381419507507 ], [ -156.152293268755614, 20.724109312564828 ], [ -156.151299777100064, 20.724230649764667 ], [ -156.150863015525999, 20.725186641949922 ], [ -156.151243905465094, 20.725473431617168 ], [ -156.151366385686657, 20.725628329039374 ], [ -156.15101392153781, 20.725715188856014 ], [ -156.151261564088145, 20.725956793087313 ], [ -156.151366385686657, 20.725628329039374 ], [ -156.151941941799464, 20.725637863383621 ], [ -156.151731146850238, 20.72640149009629 ], [ -156.15317617738981, 20.726157637470457 ], [ -156.152867363747248, 20.727502552983577 ], [ -156.153595523754291, 20.727379725559437 ], [ -156.153946264458654, 20.726212702557167 ], [ -156.154103921194576, 20.726335782001236 ], [ -156.154343802000596, 20.728105277889728 ], [ -156.154692888550102, 20.725808638013259 ], [ -156.154128676423994, 20.725011948339418 ], [ -156.153946264458654, 20.726212702557167 ], [ -156.153770019319268, 20.726106506383452 ], [ -156.153436604190063, 20.72512982260907 ], [ -156.152810341645363, 20.725381419507507 ] ], [ [ -156.153153824319531, 20.722408023364878 ], [ -156.153258170280907, 20.723111676218654 ], [ -156.153872292908773, 20.723884597339882 ], [ -156.154096180247137, 20.724479676628864 ], [ -156.154492401562351, 20.725074433990635 ], [ -156.15506232709393, 20.724964055686527 ], [ -156.154916005989918, 20.724294752003189 ], [ -156.154394080595779, 20.723942954813847 ], [ -156.154041636034151, 20.723006686892518 ], [ -156.153153824319531, 20.722408023364878 ] ], [ [ -156.175118672147107, 20.702187166961838 ], [ -156.174416294361293, 20.703518678832687 ], [ -156.174875937214068, 20.705167206431579 ], [ -156.175286699151115, 20.704586004691951 ], [ -156.17514647938242, 20.704083434344536 ], [ -156.175275400183551, 20.703679305267698 ], [ -156.175199492056805, 20.703407229186279 ], [ -156.175510172146915, 20.702432288005561 ], [ -156.175118672147107, 20.702187166961838 ] ], [ [ -156.208169576014569, 20.704893164131761 ], [ -156.208262161280743, 20.705224879593924 ], [ -156.208518577021266, 20.704991528721457 ], [ -156.208169576014569, 20.704893164131761 ] ], [ [ -156.198961522496489, 20.70474353610475 ], [ -156.198868958309475, 20.704411817964246 ], [ -156.198612530718663, 20.704645152875823 ], [ -156.198961522496489, 20.70474353610475 ], [ -156.199202672218291, 20.705111923574613 ], [ -156.200510406902339, 20.704892387065598 ], [ -156.198961522496489, 20.70474353610475 ] ], [ [ -156.177415576790878, 20.702495682568657 ], [ -156.177509102052539, 20.704760661493616 ], [ -156.177820792708701, 20.702789688600223 ], [ -156.177415576790878, 20.702495682568657 ] ], [ [ -156.205004298404901, 20.704841784910101 ], [ -156.205184351395019, 20.704741426687423 ], [ -156.205419613926949, 20.703868470497973 ], [ -156.206086686785511, 20.703666653111959 ], [ -156.205937508104284, 20.70318709522212 ], [ -156.204908588028474, 20.70347031678023 ], [ -156.204639830221168, 20.703043300491437 ], [ -156.203753959937416, 20.702822344939335 ], [ -156.203469071154785, 20.704101537834593 ], [ -156.204828124626573, 20.704562137254054 ], [ -156.205004298404901, 20.704841784910101 ], [ -156.204561047670467, 20.705023958439071 ], [ -156.20401350648072, 20.70463962335182 ], [ -156.203566317940783, 20.704775973960317 ], [ -156.202626897410738, 20.704455223389861 ], [ -156.203197090725411, 20.705228462501907 ], [ -156.204836556401517, 20.705481500822266 ], [ -156.205004298404901, 20.704841784910101 ] ], [ [ -156.202141697214614, 20.70398276413605 ], [ -156.202234268623414, 20.704314481313808 ], [ -156.202490690735146, 20.704081140292473 ], [ -156.202141697214614, 20.70398276413605 ] ], [ [ -156.210516213574607, 20.702493690699544 ], [ -156.21038773084959, 20.701604513463234 ], [ -156.209150950087178, 20.70115943049635 ], [ -156.207605490253627, 20.701591796425351 ], [ -156.207229688369466, 20.70278753272169 ], [ -156.20803006518193, 20.703103225349167 ], [ -156.208359019492889, 20.701948119349012 ], [ -156.208940409369006, 20.702096008138618 ], [ -156.209426399433653, 20.70198910060763 ], [ -156.210516213574607, 20.702493690699544 ], [ -156.210608803331866, 20.702825405395284 ], [ -156.210865211407622, 20.702592050094324 ], [ -156.210516213574607, 20.702493690699544 ] ], [ [ -156.221745874559787, 20.733821691588446 ], [ -156.222470636186785, 20.733700629991962 ], [ -156.222761236753286, 20.733244451533331 ], [ -156.22161641699779, 20.73287431276006 ], [ -156.22134186660162, 20.732451584591402 ], [ -156.222255277581354, 20.732052948681666 ], [ -156.223085211282722, 20.731267729243601 ], [ -156.223383483541369, 20.731006998876705 ], [ -156.224205474971939, 20.729870533694353 ], [ -156.224687993044967, 20.730359431495934 ], [ -156.225202650850918, 20.729872348241468 ], [ -156.224855332425676, 20.728860885239676 ], [ -156.22515969681325, 20.728327295126391 ], [ -156.225718687084367, 20.727289329738561 ], [ -156.226380602858455, 20.726403517197578 ], [ -156.227546976566146, 20.725928258524561 ], [ -156.228066134477842, 20.726504755131401 ], [ -156.227186518751779, 20.72727306891041 ], [ -156.227555219156926, 20.727975815656681 ], [ -156.226871113295374, 20.728891294402143 ], [ -156.226414168083295, 20.730531303667881 ], [ -156.226838029832152, 20.731339019202043 ], [ -156.227693038393454, 20.731336410887469 ], [ -156.228839089560694, 20.731376973444679 ], [ -156.229705068817879, 20.731358662477941 ], [ -156.228988545165919, 20.730688531856508 ], [ -156.229445357486924, 20.730289635811967 ], [ -156.229129115858655, 20.729993863471904 ], [ -156.230307751933566, 20.730035469416642 ], [ -156.23071233990396, 20.730034184387204 ], [ -156.231181044456577, 20.729352204248912 ], [ -156.229753978704679, 20.728672219818801 ], [ -156.228906451504258, 20.728094931433695 ], [ -156.23116395386819, 20.728174677398467 ], [ -156.23178375858825, 20.727886972251113 ], [ -156.232353263706955, 20.72790698456399 ], [ -156.232962008204737, 20.727624386628584 ], [ -156.233838035430153, 20.727655409860219 ], [ -156.233739478424496, 20.73012312079824 ], [ -156.232860147865864, 20.730891336545337 ], [ -156.23229044307854, 20.731979012503828 ], [ -156.232983492145706, 20.732627065068645 ], [ -156.231962629449185, 20.733848582645528 ], [ -156.231965470675334, 20.734650434360994 ], [ -156.231341584855727, 20.735485172014251 ], [ -156.230031974877306, 20.735438813563896 ], [ -156.229323391260522, 20.73681689669289 ], [ -156.230144278610339, 20.73838097114772 ], [ -156.228661694454757, 20.74004941546028 ], [ -156.227947556954348, 20.741375294824817 ], [ -156.227337920084295, 20.742443390844503 ], [ -156.227772139067753, 20.74327071408435 ], [ -156.227729204795253, 20.744345572253778 ], [ -156.22773568448298, 20.746241544858439 ], [ -156.227670487492304, 20.747873986007651 ], [ -156.228587451825717, 20.747871191785958 ], [ -156.230236155945704, 20.747105629614449 ], [ -156.231156198416841, 20.746841024659609 ], [ -156.232089450505214, 20.746267701500969 ], [ -156.232609577565938, 20.745775794618091 ], [ -156.23348353894184, 20.745524319541786 ], [ -156.235835264310708, 20.744611850160226 ], [ -156.237224710974857, 20.745313676996943 ], [ -156.237840535478085, 20.74558912820337 ], [ -156.240029956869222, 20.743517627882785 ], [ -156.240456605571922, 20.74234933903552 ], [ -156.240454613468444, 20.74183936505138 ], [ -156.24103542531887, 20.741332268718363 ], [ -156.241338034057463, 20.740770186204106 ], [ -156.242258024962354, 20.740505515063322 ], [ -156.244032489660526, 20.739681254212538 ], [ -156.244826322507066, 20.738930257375166 ], [ -156.245705134021563, 20.738407950241122 ], [ -156.247460680631576, 20.736746884046298 ], [ -156.249404908722539, 20.735346565100865 ], [ -156.251388643130269, 20.733469439125621 ], [ -156.252731244072748, 20.732296441853176 ], [ -156.253305321079722, 20.731753217077827 ], [ -156.253603549213352, 20.731492428500324 ], [ -156.253895611306945, 20.730950117866957 ], [ -156.254219913604658, 20.730381607394225 ], [ -156.258559820442571, 20.728050563430632 ], [ -156.259720157665868, 20.727251237661257 ], [ -156.261403948752786, 20.72651552027633 ], [ -156.262665890332642, 20.725645979152659 ], [ -156.263807887936792, 20.724066195716777 ], [ -156.265281616130636, 20.722469856514401 ], [ -156.266118826937657, 20.721311972532266 ], [ -156.266479461558816, 20.720015715420878 ], [ -156.267804223111426, 20.717693049394228 ], [ -156.269810715852373, 20.715006792427431 ], [ -156.271499439554958, 20.712542008419735 ], [ -156.273122896697316, 20.710783305569784 ], [ -156.273850847450717, 20.710146950604695 ], [ -156.274612067520337, 20.709426214648925 ], [ -156.277923305223368, 20.70777379650653 ], [ -156.279272835779295, 20.70694397806729 ], [ -156.281471217858694, 20.704527331390555 ], [ -156.282023927444584, 20.703499747968927 ], [ -156.283014037873016, 20.702313622036044 ], [ -156.285318071957619, 20.701075478687713 ], [ -156.2865466720597, 20.699911868786373 ], [ -156.286993832960661, 20.69952071013158 ], [ -156.287285707409183, 20.698978320883306 ], [ -156.288436469520633, 20.698475118747769 ], [ -156.289743079559884, 20.697237459335177 ], [ -156.291383725748062, 20.695803096070545 ], [ -156.291380593916898, 20.69498269288097 ], [ -156.29140369739747, 20.694394274165859 ], [ -156.292487893422333, 20.692492625913228 ], [ -156.294912387498755, 20.691248951429596 ], [ -156.295845075257972, 20.690675213837139 ], [ -156.296437993673095, 20.690113725885833 ], [ -156.297257032431247, 20.688561251646782 ], [ -156.296115376297138, 20.688017630094464 ], [ -156.29583814893013, 20.687737135857891 ], [ -156.295348761990056, 20.687279398656266 ], [ -156.294672678239465, 20.688536674957973 ], [ -156.29205098515564, 20.688763146513441 ], [ -156.290872530111329, 20.689311175675172 ], [ -156.290317042474925, 20.689837523983304 ], [ -156.289166353852863, 20.690340747068682 ], [ -156.287471807628606, 20.691584332095811 ], [ -156.284691978516264, 20.692275038731687 ], [ -156.284194788097579, 20.692745944614892 ], [ -156.281430618519835, 20.692257168679955 ], [ -156.278198480636888, 20.692649673971808 ], [ -156.275886904767532, 20.692568681713517 ], [ -156.275163858954329, 20.692904793390355 ], [ -156.274409777198144, 20.692524013337817 ], [ -156.271962539530563, 20.692532205531251 ], [ -156.270325474892417, 20.692189655027317 ], [ -156.268000808153261, 20.692197353836562 ], [ -156.265523622430635, 20.692951525374841 ], [ -156.264603954372006, 20.693216359135231 ], [ -156.263483496114389, 20.693737071968933 ], [ -156.260982887272007, 20.693649302847589 ], [ -156.258900748989191, 20.693111770834655 ], [ -156.257433090221156, 20.692822844325509 ], [ -156.256314162993391, 20.693882312120511 ], [ -156.255533714847957, 20.694141511077927 ], [ -156.252565540387877, 20.693281639858856 ], [ -156.249025270037492, 20.692928214537719 ], [ -156.246456637002439, 20.692936483074639 ], [ -156.245025178610064, 20.693601667291542 ], [ -156.240152129549017, 20.693897088500268 ], [ -156.238459002940658, 20.69468378621729 ], [ -156.236124399317248, 20.694914386699175 ], [ -156.23583727285947, 20.695185907719562 ], [ -156.234963613762773, 20.69543742913336 ], [ -156.234388742301093, 20.695704325660316 ], [ -156.232939594229009, 20.695946590239242 ], [ -156.232044187706578, 20.696218905723168 ], [ -156.230779575279854, 20.696174234754324 ], [ -156.22741794864433, 20.696184795662319 ], [ -156.224824371824553, 20.697191448619581 ], [ -156.222877454435917, 20.697122625703457 ], [ -156.222269108475786, 20.697405072810209 ], [ -156.218503177794531, 20.698422325714798 ], [ -156.217341738322006, 20.698961628088114 ], [ -156.216481899460604, 20.698931195376744 ], [ -156.216050131798028, 20.69893254425023 ], [ -156.215616139595653, 20.698917193210182 ], [ -156.214752917917451, 20.699179619196773 ], [ -156.213645887466782, 20.699140411424921 ], [ -156.212734045090571, 20.699417644590522 ], [ -156.211541599091106, 20.699760681066863 ], [ -156.210124022943063, 20.700486345443085 ], [ -156.211992213293314, 20.700480778080198 ], [ -156.212423679377821, 20.700496097774177 ], [ -156.212711526671001, 20.700495205057059 ], [ -156.214029804567531, 20.700541938766676 ], [ -156.216962946036574, 20.701156852508145 ], [ -156.218280233590207, 20.702028350133904 ], [ -156.220948132282047, 20.702563268624846 ], [ -156.222171577974166, 20.70337278821906 ], [ -156.224565772479792, 20.703365525832801 ], [ -156.226471060671457, 20.703702918647679 ], [ -156.227187534795377, 20.703025066743283 ], [ -156.228545246653056, 20.702652181778969 ], [ -156.23051141625433, 20.703320992827599 ], [ -156.231913411009828, 20.704904713066995 ], [ -156.23098517928608, 20.705665403000751 ], [ -156.228234918884368, 20.704954741114324 ], [ -156.227876211826356, 20.705620639461674 ], [ -156.227146660468748, 20.706012499584588 ], [ -156.227372192967465, 20.705096100172618 ], [ -156.226728488081392, 20.70504949273197 ], [ -156.222392771145792, 20.705702552870591 ], [ -156.219406878874082, 20.703166010014073 ], [ -156.218681901105725, 20.704107781775804 ], [ -156.218400279784561, 20.704660245932661 ], [ -156.217382656001433, 20.704771543354926 ], [ -156.217245111981299, 20.704422441068569 ], [ -156.217094901058175, 20.704766890334675 ], [ -156.216519391409776, 20.704757582854839 ], [ -156.216396852860584, 20.704602725875436 ], [ -156.215586085195213, 20.70399265725489 ], [ -156.21525819034747, 20.703200628168176 ], [ -156.214725595853167, 20.703827180707403 ], [ -156.213816821713664, 20.70347392450525 ], [ -156.213375644653325, 20.703528010871736 ], [ -156.212387333007854, 20.70337420679876 ], [ -156.212070489685942, 20.704068515222993 ], [ -156.211479913024334, 20.703976558795592 ], [ -156.211047109477562, 20.704939822139156 ], [ -156.210078372815417, 20.704699172392171 ], [ -156.209776962733201, 20.705010481677618 ], [ -156.21076024397496, 20.705316565445386 ], [ -156.211047109477562, 20.704939822139156 ], [ -156.212339217986738, 20.705112970831291 ], [ -156.21290300481877, 20.705056244836126 ], [ -156.213202171352151, 20.705420530285163 ], [ -156.213759946255834, 20.704232352028487 ], [ -156.21405966359842, 20.704597306191104 ], [ -156.214700185337108, 20.704863567437386 ], [ -156.214616998164161, 20.705416193768858 ], [ -156.214944420946807, 20.70566508768071 ], [ -156.216519391409776, 20.704757582854839 ], [ -156.216414492292415, 20.705206576360368 ], [ -156.216216795620596, 20.705565200125804 ], [ -156.215864399265001, 20.705652202764238 ], [ -156.216112128421969, 20.705893722065806 ], [ -156.216216795620596, 20.705565200125804 ], [ -156.21667185581947, 20.705705466837831 ], [ -156.216627352386155, 20.706248934321664 ], [ -156.216639828603576, 20.706519973429316 ], [ -156.216596057972595, 20.707054063305971 ], [ -156.216913154587559, 20.707330029478754 ], [ -156.216881292948074, 20.707720033015828 ], [ -156.21805413538695, 20.707345305598192 ], [ -156.221586360020382, 20.708335232263082 ], [ -156.222838618171949, 20.707721067348253 ], [ -156.225080637099722, 20.708324967339635 ], [ -156.225515674201631, 20.709735371748135 ], [ -156.225464337638613, 20.710362313245202 ], [ -156.224530775077994, 20.710702335196494 ], [ -156.223451679761069, 20.710127907231161 ], [ -156.222872462557262, 20.710151091569305 ], [ -156.222896655804675, 20.710689720281906 ], [ -156.222380059574277, 20.711548777502269 ], [ -156.220718116566587, 20.712505973761424 ], [ -156.219674786094089, 20.712790634358321 ], [ -156.219110320441871, 20.713067689083275 ], [ -156.21765643410464, 20.713667186801167 ], [ -156.215780536047106, 20.713531570335714 ], [ -156.213575908578093, 20.712357648223517 ], [ -156.213031690382707, 20.711189843044057 ], [ -156.211680612231248, 20.710350153261231 ], [ -156.210803235301739, 20.709954010883646 ], [ -156.210535920990623, 20.709723010684993 ], [ -156.212330360001943, 20.709360649886161 ], [ -156.212847584476719, 20.708346779519399 ], [ -156.214344289895422, 20.708109040051728 ], [ -156.214738415529382, 20.707707974506945 ], [ -156.215472685566937, 20.707890321583424 ], [ -156.215721450748276, 20.70759851564528 ], [ -156.214743365821363, 20.707437217681832 ], [ -156.214623926748573, 20.70700522492363 ], [ -156.212501170061017, 20.707353698946473 ], [ -156.211634764448917, 20.70721892250798 ], [ -156.209729280187332, 20.708258551619853 ], [ -156.207496700480505, 20.707911031239227 ], [ -156.206830864877077, 20.708274342316653 ], [ -156.205926168348526, 20.708495577113901 ], [ -156.205798032419665, 20.70864637022866 ], [ -156.204494737139783, 20.708499833831766 ], [ -156.203945915202951, 20.708199980344666 ], [ -156.202490371585242, 20.707925588328944 ], [ -156.201644619007027, 20.707340411919901 ], [ -156.200478738666789, 20.708910219913612 ], [ -156.20217958370074, 20.710337946837118 ], [ -156.202659299620819, 20.710880407623865 ], [ -156.20344315249568, 20.711224949598162 ], [ -156.20416834409545, 20.711181986830805 ], [ -156.20458451841688, 20.711220223272019 ], [ -156.205814106351227, 20.711892159002897 ], [ -156.206434564639096, 20.71259387015046 ], [ -156.207043620728456, 20.713105227746421 ], [ -156.207691632039143, 20.713837930983431 ], [ -156.208121459478008, 20.714787938888943 ], [ -156.208737729948979, 20.715305227604439 ], [ -156.207795939022816, 20.716397353823709 ], [ -156.208201552053879, 20.71693582260006 ], [ -156.20924314206917, 20.716411053386466 ], [ -156.209972361799856, 20.716118985813168 ], [ -156.212701833192142, 20.716725670332075 ], [ -156.212973943770436, 20.717033315720595 ], [ -156.213887811059664, 20.717434935381664 ], [ -156.213806201216158, 20.718223112578524 ], [ -156.210758020021188, 20.718822763363015 ], [ -156.210352912715905, 20.719851532372108 ], [ -156.212201897509004, 20.720278377596543 ], [ -156.210546812624415, 20.721573850534934 ], [ -156.207992738793394, 20.721807472291719 ], [ -156.20496487651215, 20.722199189062845 ], [ -156.20331922443728, 20.72159995293282 ], [ -156.201966526108862, 20.719761190787043 ], [ -156.202016078949271, 20.719282879149141 ], [ -156.201992463965752, 20.718931124296127 ], [ -156.200286938011203, 20.718181454599556 ], [ -156.200025869057896, 20.717886269774407 ], [ -156.19945613072133, 20.717408059886804 ], [ -156.199185925458409, 20.716601076450228 ], [ -156.200182003541357, 20.715326862625567 ], [ -156.198188130777368, 20.71486632757437 ], [ -156.197335160250788, 20.714916835105747 ], [ -156.19661673779413, 20.71485077687948 ], [ -156.196184483303625, 20.714876396069197 ], [ -156.195466064591983, 20.714810200906527 ], [ -156.194787009078084, 20.714850438961069 ], [ -156.194314204638772, 20.715413884743352 ], [ -156.196113082674628, 20.716204538210985 ], [ -156.197017417994999, 20.717227629673772 ], [ -156.19650322576399, 20.719275362828085 ], [ -156.195940755927438, 20.719715554862283 ], [ -156.195663991550703, 20.720272809948298 ], [ -156.19484438695784, 20.720601026888591 ], [ -156.193634255863742, 20.720489640491298 ], [ -156.192203768949668, 20.720574334601643 ], [ -156.191938225328329, 20.719379419720152 ], [ -156.19105816311253, 20.719114317219713 ], [ -156.19079173845833, 20.718226718597919 ], [ -156.190124869631575, 20.717666755144684 ], [ -156.189069824698237, 20.717729258587038 ], [ -156.188388378705923, 20.716665207984228 ], [ -156.189115079591119, 20.716374249950267 ], [ -156.189386860137944, 20.716087757807049 ], [ -156.190133302287904, 20.71550367161586 ], [ -156.190432022710098, 20.714625303561579 ], [ -156.190683095733561, 20.71450099657233 ], [ -156.191129833942938, 20.713537631527604 ], [ -156.190574244632728, 20.713742527469797 ], [ -156.190432022710098, 20.714625303561579 ], [ -156.189403482480145, 20.7152785739538 ], [ -156.189416207114732, 20.715563896385024 ], [ -156.188599044345438, 20.715806431664639 ], [ -156.187552406189241, 20.714196861715383 ], [ -156.185524297214783, 20.71328057993578 ], [ -156.183034477713846, 20.714075464210875 ], [ -156.182486421519627, 20.713477616154147 ], [ -156.181097031450065, 20.713532745486514 ], [ -156.180557194226196, 20.713493615479127 ], [ -156.179661362327664, 20.713779648431096 ], [ -156.178093693667108, 20.714095783988217 ], [ -156.175901198307997, 20.713195343556702 ], [ -156.17536530265744, 20.712610502787445 ], [ -156.1745504764163, 20.712242319400595 ], [ -156.172772056054015, 20.712312812218624 ], [ -156.172340868045126, 20.712281525536998 ], [ -156.171146723123371, 20.71232880795808 ], [ -156.169625225839923, 20.711703674558152 ], [ -156.16759938529583, 20.711414845382624 ], [ -156.167323148201604, 20.710821033656764 ], [ -156.166322554080324, 20.710860626367701 ], [ -156.165625816689328, 20.710810006270108 ], [ -156.165030929934318, 20.711101712753585 ], [ -156.164071022602542, 20.711341380784589 ], [ -156.162637049417413, 20.710577325084525 ], [ -156.161541664993649, 20.712988373566024 ], [ -156.162829766103016, 20.712937418816452 ], [ -156.164614017936657, 20.713067073702323 ], [ -156.165709558180538, 20.712865607677152 ], [ -156.165143517004651, 20.713736472502539 ], [ -156.164299171507167, 20.71409441585222 ], [ -156.162098129847635, 20.713748545285167 ], [ -156.161807078473231, 20.713754587283702 ], [ -156.160939349916646, 20.71370787003567 ], [ -156.159442669731874, 20.715175224534846 ], [ -156.159503739112466, 20.717778315053017 ], [ -156.158049786064225, 20.719001713871144 ], [ -156.156198824992885, 20.718512512419437 ], [ -156.155313859632372, 20.717581723302931 ], [ -156.150737378707078, 20.719763953397006 ], [ -156.150892187227015, 20.720203964613344 ], [ -156.150547447572137, 20.720419488969547 ], [ -156.150095268631787, 20.721013286792775 ], [ -156.150257375301464, 20.721754130716459 ], [ -156.151154621144315, 20.721562439371716 ], [ -156.151247083477472, 20.721894171835764 ], [ -156.151503607052035, 20.721660919768667 ], [ -156.151154621144315, 20.721562439371716 ], [ -156.151040151153495, 20.721400269407319 ], [ -156.150633176560859, 20.721125875238322 ], [ -156.150892187227015, 20.720203964613344 ], [ -156.151046980762459, 20.720329378937254 ], [ -156.152293290372768, 20.721914408723318 ], [ -156.152857780130574, 20.721297470772356 ], [ -156.152709199084853, 20.719637393209542 ], [ -156.15305697721007, 20.719033660052361 ], [ -156.153352435552819, 20.721979418024933 ], [ -156.155589969590579, 20.722392794998331 ], [ -156.15572354189743, 20.723533849778331 ], [ -156.155371084080315, 20.723620719409286 ], [ -156.155618731404331, 20.723862317815936 ], [ -156.15572354189743, 20.723533849778331 ], [ -156.156027991981205, 20.723789611114512 ], [ -156.156419467556987, 20.724232475285131 ], [ -156.157708145307254, 20.725314738736444 ], [ -156.159293704388062, 20.725614015559405 ], [ -156.16026260223282, 20.727127502593095 ], [ -156.161845006647496, 20.727823425578439 ], [ -156.161815227861382, 20.728108704302443 ], [ -156.162166112213157, 20.729403041528883 ], [ -156.162666965847166, 20.730283827045085 ], [ -156.162340551381988, 20.730812556273936 ], [ -156.16239608074244, 20.731648832027954 ], [ -156.162049757073703, 20.731616931504199 ], [ -156.161728069258857, 20.731635820411132 ], [ -156.161766689485688, 20.732217916420819 ], [ -156.162624531910382, 20.732167280432325 ], [ -156.163111305541548, 20.73271815912759 ], [ -156.16347802335676, 20.731641297949285 ], [ -156.163866313438092, 20.731126150001096 ], [ -156.163754690722584, 20.732197568000448 ], [ -156.163779706285339, 20.732574864624695 ], [ -156.165448002506849, 20.732029650396406 ], [ -156.16564443913029, 20.731822495334814 ], [ -156.165932232429213, 20.731827240221463 ], [ -156.165942319096217, 20.7312857508302 ], [ -156.167381281699392, 20.731309467382594 ], [ -156.167250606444952, 20.731457671318012 ], [ -156.166638495549165, 20.731688525310553 ], [ -156.165953240300439, 20.732465248570417 ], [ -156.167947764169412, 20.733650461976264 ], [ -156.168509402549006, 20.733594123249581 ], [ -156.168945882163513, 20.731455712015219 ], [ -156.1691181146048, 20.730796420478434 ], [ -156.169374144187003, 20.730982202495092 ], [ -156.169219647643331, 20.731745991890627 ], [ -156.169286288323917, 20.732153331888227 ], [ -156.169177283281925, 20.732693193653908 ], [ -156.169243923931361, 20.733100533663471 ], [ -156.169001791141284, 20.734297950085335 ], [ -156.170110653193035, 20.734733692683857 ], [ -156.169738814356407, 20.734984645813963 ], [ -156.169485290680825, 20.735404169368994 ], [ -156.170602441719922, 20.734986698148752 ], [ -156.170295670228171, 20.733115073371792 ], [ -156.171076830375057, 20.732879715254761 ], [ -156.171567808990488, 20.733523871981866 ], [ -156.171381740945463, 20.734443717339229 ], [ -156.17200644223675, 20.734897002591943 ], [ -156.172930796941671, 20.734762908644552 ], [ -156.17336119847667, 20.734839942461804 ], [ -156.174622425634652, 20.734656895494265 ], [ -156.175243750208011, 20.733702938796579 ], [ -156.175830642175185, 20.734058128022141 ], [ -156.176100460634586, 20.733729049135228 ], [ -156.17718291085518, 20.73392270918249 ], [ -156.177796172860639, 20.733175037332334 ], [ -156.1784136501077, 20.733548837311929 ], [ -156.179145710832898, 20.733398724503111 ], [ -156.178501918352453, 20.73415568644327 ], [ -156.176690006014724, 20.734865427080269 ], [ -156.175209519161967, 20.735077020640109 ], [ -156.173796901435139, 20.735630369227184 ], [ -156.171201826681028, 20.735848854100141 ], [ -156.171735118188707, 20.736138112612714 ], [ -156.172631243060266, 20.736388773632598 ], [ -156.173164070351248, 20.736703278478828 ], [ -156.174348006864193, 20.736958664604497 ], [ -156.175178695586453, 20.73728176328089 ], [ -156.175487252310461, 20.737243988372587 ], [ -156.177709415749632, 20.738638873852597 ], [ -156.179825229629614, 20.738341945798325 ], [ -156.179750379628672, 20.737799586258568 ], [ -156.18035367917301, 20.735891060102752 ], [ -156.181135141253691, 20.734972105104642 ], [ -156.182708711070347, 20.73412140697538 ], [ -156.183371480441963, 20.733310254542243 ], [ -156.183054271452789, 20.732160769899988 ], [ -156.181910575471733, 20.732784453934983 ], [ -156.180142311575992, 20.73299137484241 ], [ -156.179598146157872, 20.73328818926883 ], [ -156.179145710832898, 20.733398724503111 ], [ -156.179322242759298, 20.732854142423381 ], [ -156.182186043421467, 20.732134374052823 ], [ -156.183163266117532, 20.731026600284022 ], [ -156.183936972243743, 20.730615441328407 ], [ -156.184665279962559, 20.73071279809384 ], [ -156.185634750088184, 20.73061547278509 ], [ -156.186481798148691, 20.731102763582125 ], [ -156.187102053741427, 20.730399600371161 ], [ -156.187264197986394, 20.730281780839984 ], [ -156.187368055123983, 20.730898934316354 ], [ -156.187635493065386, 20.730438478874618 ], [ -156.187264197986394, 20.730281780839984 ], [ -156.186980230850139, 20.728975080032708 ], [ -156.18782986639431, 20.726949013233529 ], [ -156.190622719383526, 20.726227266977045 ], [ -156.189779524895499, 20.725866748881675 ], [ -156.188382473347474, 20.725006288687354 ], [ -156.187782231332022, 20.724749709255185 ], [ -156.187818707883906, 20.724464398350918 ], [ -156.187528175940059, 20.722828308174361 ], [ -156.188432022350838, 20.722323905055411 ], [ -156.188772301808569, 20.721951916416984 ], [ -156.190232316791764, 20.720999167047783 ], [ -156.19147624188119, 20.722234793690671 ], [ -156.1918240166967, 20.72427515563961 ], [ -156.192382148564036, 20.725229935486436 ], [ -156.192021954799799, 20.726117483962824 ], [ -156.190658442667768, 20.726469854127664 ], [ -156.191504410586703, 20.726710866579399 ], [ -156.192787957209589, 20.726395799003861 ], [ -156.193665629441597, 20.726594736580783 ], [ -156.193758189167511, 20.726926457019953 ], [ -156.194014665261392, 20.726693135034168 ], [ -156.193665629441597, 20.726594736580783 ], [ -156.193384157317695, 20.725774866891591 ], [ -156.194038472077324, 20.725203678065736 ], [ -156.193288645307149, 20.723773932299977 ], [ -156.193576386590792, 20.723476057379369 ], [ -156.194122406837124, 20.722999107911569 ], [ -156.192160381487696, 20.722515078717649 ], [ -156.192543230012802, 20.721297821165923 ], [ -156.193329168956438, 20.721576192587278 ], [ -156.194419879458366, 20.722127324447552 ], [ -156.196570535879971, 20.720551017212046 ], [ -156.19679386734586, 20.721093944137941 ], [ -156.196489141686698, 20.721627734517071 ], [ -156.196186297698944, 20.722456059639313 ], [ -156.19506713211257, 20.723433332584722 ], [ -156.195735039660406, 20.723649334207327 ], [ -156.1962082145333, 20.724349076575518 ], [ -156.195231482684704, 20.72467486337656 ], [ -156.194204608752756, 20.725280444934025 ], [ -156.194718702627625, 20.726490125406741 ], [ -156.194356649740172, 20.726716568421288 ], [ -156.194114405034327, 20.727108153144471 ], [ -156.195833474142631, 20.727553159575177 ], [ -156.19634034193561, 20.72842364857603 ], [ -156.196954721645938, 20.729196442861319 ], [ -156.197635439187735, 20.731130219180887 ], [ -156.198185536230909, 20.731272618610756 ], [ -156.198333812794885, 20.731434255652303 ], [ -156.199046742231587, 20.731405935580291 ], [ -156.199537240060863, 20.731441433152018 ], [ -156.199449498537064, 20.732511965731909 ], [ -156.199461940103134, 20.732783002116861 ], [ -156.199439115476792, 20.733060737316276 ], [ -156.200616876144011, 20.733592627707807 ], [ -156.200508000645783, 20.734925716299674 ], [ -156.198775324240103, 20.735275305815485 ], [ -156.199111842636427, 20.736894550431401 ], [ -156.199071551465266, 20.737387821172828 ], [ -156.201536627191274, 20.739132854662035 ], [ -156.203905223898289, 20.739889356402951 ], [ -156.20432231037168, 20.736976076338543 ], [ -156.203411997918067, 20.735703897494925 ], [ -156.20346852374044, 20.735014903762529 ], [ -156.203432766721278, 20.734222448947865 ], [ -156.203769460484011, 20.733662982740665 ], [ -156.203399209669357, 20.733340897886031 ], [ -156.203560197893381, 20.731373619729631 ], [ -156.205327448539379, 20.730210314866216 ], [ -156.206422121396457, 20.72909689396668 ], [ -156.207706689968518, 20.728251300516764 ], [ -156.212439699542074, 20.72970449952448 ], [ -156.214831791373939, 20.730555909690459 ], [ -156.214711444487421, 20.732031261318944 ], [ -156.213274235996408, 20.733197902562974 ], [ -156.212963287837681, 20.734364280062795 ], [ -156.212041981412654, 20.73571343706687 ], [ -156.212074572519782, 20.73643562145417 ], [ -156.213541203106047, 20.73596732396755 ], [ -156.214098506749309, 20.734367342295307 ], [ -156.214306112565026, 20.734115210991032 ], [ -156.214941828332286, 20.735479693834417 ], [ -156.215601030202066, 20.736053205611181 ], [ -156.213873816075704, 20.737455569928031 ], [ -156.213082527506003, 20.738260141725323 ], [ -156.212445308823106, 20.73950929988802 ], [ -156.211913462295996, 20.740393187078709 ], [ -156.215142115653862, 20.741155160620792 ], [ -156.21769148623747, 20.741842073053316 ], [ -156.218152329671938, 20.740519286571182 ], [ -156.21861552714924, 20.740143407043124 ], [ -156.219179209247471, 20.739038632794454 ], [ -156.219796513942981, 20.738537494436759 ], [ -156.220526333504552, 20.736202351479516 ], [ -156.221895324161693, 20.735090748593461 ], [ -156.221868705637689, 20.734500770657551 ], [ -156.221891456397714, 20.734224878767062 ], [ -156.221745874559787, 20.733821691588446 ] ] ] } }
]
}
