{
"type": "FeatureCollection",
"name": "gerarbo",
"crs": { "type": "name", "properties": { "name": "urn:ogc:def:crs:OGC:1.3:CRS84" } },
"features": [
{ "type": "Feature", "properties": { "ID": 1, "GRIDCODE": 2 }, "geometry": { "type": "Polygon", "coordinates": [ [ [ -156.136931746878048, 20.727825988188755 ], [ -156.137280733615512, 20.727924498030273 ], [ -156.137024179172272, 20.728157724928874 ], [ -156.136931746878048, 20.727825988188755 ] ] ] } },
{ "type": "Feature", "properties": { "ID": 2, "GRIDCODE": 2 }, "geometry": { "type": "Polygon", "coordinates": [ [ [ -156.350237284795156, 20.662718175175169 ], [ -156.350761117141104, 20.663545818769723 ], [ -156.35015744025722, 20.664161319316708 ], [ -156.348393780094113, 20.66423312719386 ], [ -156.347506677566258, 20.662995052244419 ], [ -156.348484200993198, 20.662214172320923 ], [ -156.349512085027811, 20.662579267382579 ], [ -156.350237284795156, 20.662718175175169 ] ] ] } },
{ "type": "Feature", "properties": { "ID": 3, "GRIDCODE": 2 }, "geometry": { "type": "Polygon", "coordinates": [ [ [ -156.350237284795156, 20.662718175175169 ], [ -156.350112054618933, 20.66256587482065 ], [ -156.349339528906427, 20.661963870958687 ], [ -156.3499568022049, 20.660645374662206 ], [ -156.350416082047843, 20.660706261934454 ], [ -156.350704368432787, 20.660677099021729 ], [ -156.351003264903142, 20.660716739726741 ], [ -156.352725822244395, 20.659398280776788 ], [ -156.354753059248054, 20.658611254830976 ], [ -156.354326221756565, 20.661398893379072 ], [ -156.352398429924165, 20.662802033783976 ], [ -156.35115207107637, 20.662928634265494 ], [ -156.350237284795156, 20.662718175175169 ] ] ] } },
{ "type": "Feature", "properties": { "ID": 4, "GRIDCODE": 2 }, "geometry": { "type": "Polygon", "coordinates": [ [ [ -156.353203525302519, 20.657617372782404 ], [ -156.353618484782601, 20.657965096475824 ], [ -156.352722177924164, 20.659089670196476 ], [ -156.352444564913839, 20.658827507225183 ], [ -156.353203525302519, 20.657617372782404 ] ] ] } },
{ "type": "Feature", "properties": { "ID": 5, "GRIDCODE": 2 }, "geometry": { "type": "Polygon", "coordinates": [ [ [ -156.136931746878048, 20.727825988188755 ], [ -156.136483277548763, 20.727680860005798 ], [ -156.135825921657812, 20.72701374741672 ], [ -156.134480322970433, 20.727917914423905 ], [ -156.134192967210112, 20.728189236614934 ], [ -156.133894568257119, 20.728449795123403 ], [ -156.133049652773877, 20.72924817386944 ], [ -156.132445370895255, 20.728972563214491 ], [ -156.131752543521401, 20.728622081762591 ], [ -156.130143368162749, 20.729205105222885 ], [ -156.129016826805554, 20.729164741422075 ], [ -156.128694125958646, 20.729446306315616 ], [ -156.128406757895021, 20.729717617234211 ], [ -156.126378851165782, 20.729949527852302 ], [ -156.12693727610818, 20.731015433238088 ], [ -156.126203225648283, 20.731389162462477 ], [ -156.124769501860271, 20.727207669165754 ], [ -156.124246469746936, 20.724567677709757 ], [ -156.123756770145121, 20.718423443842227 ], [ -156.124537957531885, 20.714984862789947 ], [ -156.124951596105745, 20.714217794878124 ], [ -156.125255088066893, 20.713686514439388 ], [ -156.130905497628646, 20.70375513834562 ], [ -156.132936492524294, 20.700725966629179 ], [ -156.133605927278268, 20.697905642651378 ], [ -156.132532185405751, 20.694951289375734 ], [ -156.13031767471, 20.692101697052951 ], [ -156.127906894242983, 20.68806779836563 ], [ -156.128620525773329, 20.687736543456335 ], [ -156.12917897525594, 20.688303235436543 ], [ -156.129829371735298, 20.687688197264148 ], [ -156.131960228407451, 20.687211940361756 ], [ -156.133143715244728, 20.687615401290842 ], [ -156.133523458324021, 20.68728385521559 ], [ -156.133957631600367, 20.686478612191404 ], [ -156.134679449788678, 20.687026980923019 ], [ -156.135233875086669, 20.687853964901201 ], [ -156.135911937769862, 20.688832168639991 ], [ -156.136627267254596, 20.690580086976901 ], [ -156.136873667121819, 20.692485239348457 ], [ -156.137151845212429, 20.693297046578277 ], [ -156.1374554396441, 20.694910771434113 ], [ -156.138906203434175, 20.696696566267388 ], [ -156.141494474492703, 20.695785200836298 ], [ -156.142577553866261, 20.695282823321339 ], [ -156.144111407612627, 20.695337765264419 ], [ -156.146040487568484, 20.6950748643415 ], [ -156.147728870389614, 20.694562121002352 ], [ -156.148349766965367, 20.694560505365409 ], [ -156.149997937405828, 20.694619535775466 ], [ -156.151532686309679, 20.693949886426076 ], [ -156.152428604942457, 20.693534268130939 ], [ -156.153548728637389, 20.693574346327832 ], [ -156.154412191510602, 20.693572090246786 ], [ -156.155424181729529, 20.69360825312733 ], [ -156.156726071608915, 20.692808946312226 ], [ -156.15804484263117, 20.692430165344916 ], [ -156.157074941140934, 20.68983560786209 ], [ -156.155971957869554, 20.688244930196987 ], [ -156.155676784467886, 20.687645901585029 ], [ -156.154856111667954, 20.686079453413583 ], [ -156.154849156093974, 20.683845941571491 ], [ -156.15676064967812, 20.68430715544423 ], [ -156.157170838047165, 20.68469147168366 ], [ -156.157451912102943, 20.684976459753774 ], [ -156.157843704160655, 20.683904905389038 ], [ -156.161039060988031, 20.683896246567368 ], [ -156.162071862211093, 20.684230644623128 ], [ -156.1623301963225, 20.685602399027765 ], [ -156.162900754784573, 20.684543164340077 ], [ -156.164365644371259, 20.684539122246299 ], [ -156.164653244886921, 20.684549411352162 ], [ -156.164943580567353, 20.684548636792659 ], [ -156.165812698393864, 20.684844614069249 ], [ -156.166662350052235, 20.68484219635307 ], [ -156.167237553639268, 20.684862766575264 ], [ -156.16777044663516, 20.684861348311909 ], [ -156.16922129952161, 20.685553415210954 ], [ -156.169224777970243, 20.686653056021882 ], [ -156.169197219462575, 20.68733523082247 ], [ -156.170364780772218, 20.68707406863507 ], [ -156.170690567569295, 20.68843489246499 ], [ -156.17092026798025, 20.688173126277515 ], [ -156.171510643239742, 20.686558241964043 ], [ -156.171846798875947, 20.686557282974032 ], [ -156.172943638804384, 20.687669721069625 ], [ -156.173263852263091, 20.68575417266392 ], [ -156.173922348144828, 20.686421822638906 ], [ -156.174863251592143, 20.685984994805455 ], [ -156.175835849345646, 20.686628962111147 ], [ -156.176270379062856, 20.686627756324739 ], [ -156.176986310666678, 20.686653246928717 ], [ -156.177002970946774, 20.686239074759655 ], [ -156.176999951899575, 20.685293762032469 ], [ -156.177597798776276, 20.685032729699092 ], [ -156.178160184350673, 20.684500811918419 ], [ -156.179187753285362, 20.684497940914572 ], [ -156.180196901208717, 20.684533773525775 ], [ -156.180940190117354, 20.684188755847064 ], [ -156.182088284492721, 20.68494889321541 ], [ -156.183043970611976, 20.684044915277699 ], [ -156.183659780773752, 20.68404321662285 ], [ -156.184050670461886, 20.685674733124273 ], [ -156.184497814004317, 20.685416501232698 ], [ -156.184891208754436, 20.684339602910082 ], [ -156.185663741670311, 20.684617771074528 ], [ -156.186628462264139, 20.686209201732755 ], [ -156.18710665560161, 20.684099678072471 ], [ -156.187980294970686, 20.683848401082628 ], [ -156.188543215466012, 20.68331592497471 ], [ -156.189156838938686, 20.683600608313654 ], [ -156.189699520086094, 20.684151130243968 ], [ -156.19013544118053, 20.683341907906225 ], [ -156.190569770057323, 20.683885369909962 ], [ -156.19106530647079, 20.684890166745213 ], [ -156.191427278043847, 20.683899355297402 ], [ -156.19172549417263, 20.683638674211764 ], [ -156.192288402295645, 20.68310618424325 ], [ -156.193169118782691, 20.683386082894298 ], [ -156.194033277891464, 20.683680122094021 ], [ -156.194030740567115, 20.682886093020009 ], [ -156.195751978044427, 20.68288106437635 ], [ -156.196624238068665, 20.683177999756683 ], [ -156.197234829264033, 20.682894488642383 ], [ -156.198498728425449, 20.682939383520473 ], [ -156.200049083925961, 20.682934838422273 ], [ -156.200366830366136, 20.683232394198622 ], [ -156.200652128958382, 20.683521619752518 ], [ -156.202336189604154, 20.681927937471421 ], [ -156.203268759240729, 20.681925228944419 ], [ -156.204403978383937, 20.682765289549078 ], [ -156.204822008814062, 20.680918805632832 ], [ -156.206165302458885, 20.680618054491642 ], [ -156.206455436171495, 20.680628314193154 ], [ -156.207022619423839, 20.680626667441327 ], [ -156.207743859876246, 20.680991188022642 ], [ -156.20846667503892, 20.680655497406537 ], [ -156.20934027271062, 20.680404105549993 ], [ -156.209627409488547, 20.680132630553953 ], [ -156.21021329657944, 20.679876573059417 ], [ -156.21061476965366, 20.67913113175187 ], [ -156.21333578937751, 20.67830354395268 ], [ -156.213695264122009, 20.678302481657823 ], [ -156.214271431344741, 20.678593481141107 ], [ -156.214982513436127, 20.678591357069866 ], [ -156.215416728675393, 20.678606707685141 ], [ -156.215983123173544, 20.677554463108102 ], [ -156.217167070195188, 20.67700454066205 ], [ -156.218328339841065, 20.676757745951353 ], [ -156.219204323089144, 20.676219366151365 ], [ -156.220889486055285, 20.676278957274892 ], [ -156.222394322546336, 20.675453017571225 ], [ -156.223537703645832, 20.675493399442676 ], [ -156.223534818063598, 20.674678851487272 ], [ -156.224408908226508, 20.674412970196432 ], [ -156.225857851451963, 20.67417075529065 ], [ -156.227884094960189, 20.673384234328996 ], [ -156.228462504021167, 20.673676413432943 ], [ -156.229032480027229, 20.673674736346022 ], [ -156.229884749813635, 20.674238716916332 ], [ -156.230187483958133, 20.673151758199754 ], [ -156.230773317139807, 20.672895623538498 ], [ -156.231359438746694, 20.672623489499063 ], [ -156.231928737814144, 20.67264347995766 ], [ -156.23307915592224, 20.672109033719298 ], [ -156.233947003293935, 20.672139629753296 ], [ -156.234245523448351, 20.67185718160421 ], [ -156.235108596547917, 20.671887562777762 ], [ -156.235106683484986, 20.671357090377366 ], [ -156.236841894583989, 20.671351596664188 ], [ -156.237707495600262, 20.671382005086105 ], [ -156.237994571244371, 20.671110342631099 ], [ -156.238292690236591, 20.670849568580845 ], [ -156.238825664200391, 20.670345122819889 ], [ -156.240745238046713, 20.670338971742922 ], [ -156.24146731734632, 20.670364417736039 ], [ -156.241465163186547, 20.669783817603772 ], [ -156.243484791844878, 20.669854882311157 ], [ -156.243495729323087, 20.669576015085031 ], [ -156.243494766457644, 20.669302511898227 ], [ -156.244368542584112, 20.669050932482655 ], [ -156.244655602854948, 20.668779257017544 ], [ -156.245089802825703, 20.668794529946812 ], [ -156.24580647644126, 20.668792230887853 ], [ -156.246092673558735, 20.669082327173136 ], [ -156.246627714547117, 20.668087644629967 ], [ -156.248806925213813, 20.667599008220645 ], [ -156.24942323389385, 20.668175660075448 ], [ -156.249843574530018, 20.668601462038833 ], [ -156.250152907776084, 20.667233134137987 ], [ -156.25131710325627, 20.666724299054856 ], [ -156.252478191401934, 20.666184724177409 ], [ -156.253340404955566, 20.666214997300191 ], [ -156.253915700098617, 20.665947764903859 ], [ -156.255019445813161, 20.66598650615682 ], [ -156.255651953226817, 20.66570999556571 ], [ -156.256238011947403, 20.665437768485685 ], [ -156.257073543888538, 20.665467068815364 ], [ -156.258245656245435, 20.66520415960893 ], [ -156.25938478879533, 20.665244096529019 ], [ -156.259688685220766, 20.664956393653913 ], [ -156.261137518392673, 20.66471386505842 ], [ -156.262276460494007, 20.664184447088189 ], [ -156.262864840143692, 20.664205164420011 ], [ -156.263868773719338, 20.663587629099545 ], [ -156.264780322097408, 20.664048172505808 ], [ -156.265184586286608, 20.663694736316216 ], [ -156.265471600208684, 20.663423152904674 ], [ -156.267208104135676, 20.663185133957914 ], [ -156.268070490503732, 20.662922666171781 ], [ -156.269717350208339, 20.662448324668528 ], [ -156.271254421508274, 20.661889704655152 ], [ -156.274049932532193, 20.661612960653891 ], [ -156.275584230479012, 20.661145640614961 ], [ -156.27818859170506, 20.660650370321495 ], [ -156.279050951224178, 20.660387843760173 ], [ -156.280499729833309, 20.660145143826774 ], [ -156.281942274583997, 20.659620903253643 ], [ -156.283391044211811, 20.659378177651355 ], [ -156.283965705476135, 20.659111091465721 ], [ -156.286565209530494, 20.658886462145347 ], [ -156.28825287945466, 20.658372238763658 ], [ -156.288585908542842, 20.65837112822329 ], [ -156.289017287964271, 20.658386243377667 ], [ -156.290743987458853, 20.658380189293169 ], [ -156.294382929148327, 20.658507292380339 ], [ -156.296571787100874, 20.65819102674708 ], [ -156.299476321979512, 20.658292486535949 ], [ -156.301213121961268, 20.657763030293165 ], [ -156.302409505148461, 20.657758872530842 ], [ -156.303788756549693, 20.657806896320498 ], [ -156.30561908631023, 20.657279385099255 ], [ -156.307462470598182, 20.655532288097746 ], [ -156.310107484943558, 20.654938092045008 ], [ -156.311675132507219, 20.654675284201929 ], [ -156.313131691008408, 20.654145562578123 ], [ -156.313695628260348, 20.654165193020408 ], [ -156.315134529032235, 20.654159960509105 ], [ -156.317107753103841, 20.654228627474783 ], [ -156.318537028555198, 20.653907394522079 ], [ -156.318871122359525, 20.654245736686576 ], [ -156.319423639304972, 20.654243745745308 ], [ -156.320043725181478, 20.654539052059743 ], [ -156.320825962102418, 20.655331109085981 ], [ -156.323147467472268, 20.655411731950824 ], [ -156.324040914210855, 20.654861666563505 ], [ -156.326337564045474, 20.655174231289472 ], [ -156.32689149194664, 20.655172238529961 ], [ -156.32839816289075, 20.655487076886253 ], [ -156.329982388664689, 20.65548119532097 ], [ -156.331794327102898, 20.656065902407114 ], [ -156.332359547396322, 20.656350928105699 ], [ -156.33265239283034, 20.656349903601324 ], [ -156.333814541201889, 20.656649447773233 ], [ -156.334612143709677, 20.656646437016274 ], [ -156.335807836620148, 20.656940535310142 ], [ -156.336085094213217, 20.657221100197159 ], [ -156.336637628531861, 20.657219055187426 ], [ -156.337236863618273, 20.657504326956634 ], [ -156.338655473267664, 20.658344096303082 ], [ -156.340461827035654, 20.658705119998515 ], [ -156.340964722146111, 20.659214125232392 ], [ -156.342384304864794, 20.659208767842546 ], [ -156.342674435984662, 20.659218794418379 ], [ -156.34492445980672, 20.658712795419358 ], [ -156.345543893388566, 20.658710429879537 ], [ -156.345844212063781, 20.658991335989889 ], [ -156.346248809254405, 20.659400812537932 ], [ -156.346999622063237, 20.658743547906145 ], [ -156.347552806584872, 20.658219066397454 ], [ -156.349011311581933, 20.659581782232721 ], [ -156.347849116857986, 20.660090552881702 ], [ -156.347546805991954, 20.660377130300056 ], [ -156.34666876292647, 20.660900050303862 ], [ -156.345756885186972, 20.66146132759356 ], [ -156.344064245622633, 20.662202343781036 ], [ -156.342822189879342, 20.663923160701987 ], [ -156.341424931899752, 20.664887450611658 ], [ -156.339685508255513, 20.66564885722164 ], [ -156.339653468761867, 20.66647152066572 ], [ -156.340778160754041, 20.667039058841439 ], [ -156.341684355193991, 20.666516608574899 ], [ -156.342223439009388, 20.665513298214677 ], [ -156.345548703321924, 20.66480433049782 ], [ -156.346865989751194, 20.663993248822013 ], [ -156.347758347883371, 20.664443293654983 ], [ -156.350630347042568, 20.664781860856799 ], [ -156.350289782628323, 20.665685359409476 ], [ -156.348988301537702, 20.666460207916305 ], [ -156.348287657872646, 20.667430903373678 ], [ -156.347703754028345, 20.667942082371386 ], [ -156.347692219763928, 20.668233926296868 ], [ -156.347967380567042, 20.669317105629364 ], [ -156.347956416777407, 20.669592294085579 ], [ -156.348421758438036, 20.671425249677263 ], [ -156.34790585396965, 20.672842237656397 ], [ -156.347597106541315, 20.673384364287831 ], [ -156.347599587972724, 20.673920832832682 ], [ -156.346419041221623, 20.675251931692806 ], [ -156.346420834499725, 20.675666052490286 ], [ -156.345542004019904, 20.676050870255455 ], [ -156.345250378821561, 20.676593387166758 ], [ -156.3449476958248, 20.677125152502267 ], [ -156.344634861237381, 20.677707150051663 ], [ -156.342948916041109, 20.679182390651178 ], [ -156.342308446547179, 20.680306999262164 ], [ -156.342286118945424, 20.680878792056966 ], [ -156.342288442663801, 20.681423059222581 ], [ -156.341985455009791, 20.681954944801756 ], [ -156.34139299085777, 20.683581668888337 ], [ -156.340496328308745, 20.685920913115613 ], [ -156.340095631274039, 20.6873643750654 ], [ -156.338317655437635, 20.68932033533989 ], [ -156.337527534999765, 20.690011850243103 ], [ -156.337084862501428, 20.691973223575769 ], [ -156.335629993929217, 20.693642786129239 ], [ -156.333247526022461, 20.695727133985283 ], [ -156.332517258024353, 20.696705746016502 ], [ -156.332225540574228, 20.697248230339778 ], [ -156.33192750471153, 20.697509178560747 ], [ -156.331102878786851, 20.699043375750634 ], [ -156.33044597876389, 20.699923922695248 ], [ -156.330013367733471, 20.701110807750361 ], [ -156.329559720166287, 20.701540606032943 ], [ -156.329261670993475, 20.701801548102932 ], [ -156.328168031740375, 20.703316077615462 ], [ -156.32589942050933, 20.705465415092895 ], [ -156.32516704099632, 20.705806093328793 ], [ -156.32458119272215, 20.706062552242383 ], [ -156.324216482401994, 20.706740765954969 ], [ -156.323118489718524, 20.707394083646793 ], [ -156.321442886592138, 20.709448886615874 ], [ -156.321066666655639, 20.709805139624933 ], [ -156.320619548820616, 20.710196392813085 ], [ -156.320174715992209, 20.711416379556088 ], [ -156.319567590222505, 20.711682141488321 ], [ -156.319009248993552, 20.712210787130065 ], [ -156.318711160829054, 20.712471706357711 ], [ -156.318414592339224, 20.713284937854709 ], [ -156.317373565360612, 20.714195405968713 ], [ -156.316356326747183, 20.715414387022836 ], [ -156.316043859143633, 20.717048787368022 ], [ -156.314732661099839, 20.717622139340584 ], [ -156.313467583255147, 20.71937324958601 ], [ -156.31297609176778, 20.719838772186698 ], [ -156.312306484240253, 20.720424372497916 ], [ -156.311353501577514, 20.721566026118623 ], [ -156.311356789903158, 20.722350863730082 ], [ -156.310759774734123, 20.722916298463161 ], [ -156.310178445200052, 20.722896098020112 ], [ -156.310181604218627, 20.723719682911522 ], [ -156.309306935867227, 20.724484569304582 ], [ -156.308702008609401, 20.725321649775871 ], [ -156.308094809286416, 20.725587362503287 ], [ -156.30701281634407, 20.726611906456437 ], [ -156.305228975250316, 20.72767265801409 ], [ -156.304193670680945, 20.72905935668788 ], [ -156.303132026612275, 20.730646127573291 ], [ -156.302840130469122, 20.73118854150113 ], [ -156.302537176360119, 20.731720201074669 ], [ -156.301943043044417, 20.733070424157727 ], [ -156.30134744856872, 20.733868338764939 ], [ -156.300646161677662, 20.734838766136527 ], [ -156.299591629984803, 20.735465870631639 ], [ -156.299299710555431, 20.736008275862883 ], [ -156.298738222179708, 20.736499098227316 ], [ -156.298411445657138, 20.737072429404677 ], [ -156.297863630489985, 20.738091013097677 ], [ -156.295847445490267, 20.739999954990228 ], [ -156.294611794230605, 20.740262863895538 ], [ -156.294255021705851, 20.74124066460811 ], [ -156.293436337117498, 20.741598604051269 ], [ -156.292606661036956, 20.74238419705102 ], [ -156.291977835758956, 20.742659024505475 ], [ -156.291690696378851, 20.742930638621242 ], [ -156.291392500412059, 20.74319149782697 ], [ -156.290984854883447, 20.744308540266008 ], [ -156.289929562288961, 20.744798948070578 ], [ -156.289342541260908, 20.744778447333392 ], [ -156.289345748031195, 20.74560797239505 ], [ -156.288565391441381, 20.745580715564429 ], [ -156.288015206019054, 20.747089075420849 ], [ -156.287278833599146, 20.747732353548102 ], [ -156.287648016829081, 20.748804780265463 ], [ -156.287180590828626, 20.750086177904127 ], [ -156.28537957207925, 20.751298365426877 ], [ -156.285842698806164, 20.752179988290024 ], [ -156.285461552561657, 20.752848440562548 ], [ -156.285016281379399, 20.754068286061646 ], [ -156.284568656867748, 20.754459414604593 ], [ -156.284572858413668, 20.755561916060575 ], [ -156.284167391967031, 20.759163412630155 ], [ -156.283038310098675, 20.759857453266221 ], [ -156.281631938958157, 20.760693364170162 ], [ -156.280688749221923, 20.761998148349051 ], [ -156.279247324666642, 20.761947542808876 ], [ -156.279674659888798, 20.763633616067725 ], [ -156.277461934918733, 20.765727756469104 ], [ -156.277163386764272, 20.765988578216195 ], [ -156.277170350602887, 20.76782748057683 ], [ -156.276524392365019, 20.768720891873176 ], [ -156.275671575769564, 20.769465939986254 ], [ -156.275112993495327, 20.770504221120248 ], [ -156.27448589787835, 20.771097452311754 ], [ -156.274187614675753, 20.771358271459722 ], [ -156.273610694080958, 20.772430110342132 ], [ -156.272718678175551, 20.772960010100277 ], [ -156.272722846741289, 20.774027323223276 ], [ -156.271288358878422, 20.775744119945969 ], [ -156.270830149372983, 20.77699980695245 ], [ -156.269749785488273, 20.778445553780525 ], [ -156.269727273233798, 20.779009102663682 ], [ -156.26973167215553, 20.780202846390537 ], [ -156.269421239546261, 20.780496523297227 ], [ -156.269122928215722, 20.780757330362754 ], [ -156.268733608733527, 20.781480482803303 ], [ -156.267951785072853, 20.781822064034071 ], [ -156.267659649381955, 20.782364390452138 ], [ -156.267345045320837, 20.78263934931249 ], [ -156.266761040104768, 20.783724267296186 ], [ -156.265916949549847, 20.784461325094988 ], [ -156.265589930859505, 20.785034565750276 ], [ -156.265029764151564, 20.786075155702761 ], [ -156.2644200112004, 20.786652084809994 ], [ -156.263539120083834, 20.786621107403647 ], [ -156.263543033660056, 20.787682722611571 ], [ -156.262945576109018, 20.788247806830544 ], [ -156.262183266917958, 20.788580807711629 ], [ -156.26176880227689, 20.789307108053332 ], [ -156.261073271287046, 20.790598773544257 ], [ -156.260011902932035, 20.790904108397662 ], [ -156.259449328004536, 20.791436276454483 ], [ -156.259141046311726, 20.79143730131673 ], [ -156.258844222181921, 20.791426870978221 ], [ -156.258849729575587, 20.792942909929522 ], [ -156.256774826714008, 20.793674518689972 ], [ -156.255629293321107, 20.794354984304427 ], [ -156.254548152431369, 20.79537766918558 ], [ -156.253882703415059, 20.795686522490826 ], [ -156.252427684644118, 20.796199608332262 ], [ -156.25126674193416, 20.796998815921643 ], [ -156.25010455301927, 20.797245732945836 ], [ -156.249192140313568, 20.797523098224477 ], [ -156.247287465400944, 20.797455899499106 ], [ -156.243030628060325, 20.797971110049261 ], [ -156.229948479465577, 20.785851479510132 ], [ -156.219940673957382, 20.777943912082822 ], [ -156.211709479745963, 20.773268853077493 ], [ -156.208775867446633, 20.772270867763865 ], [ -156.206292990421588, 20.771568462787194 ], [ -156.202626343631152, 20.769394576856172 ], [ -156.193568825404242, 20.765698278914932 ], [ -156.177065472775524, 20.760309458623489 ], [ -156.170681304886614, 20.758244055775879 ], [ -156.163889979192078, 20.755346135746233 ], [ -156.152698449001463, 20.751271421220093 ], [ -156.143218139791429, 20.746748836987308 ], [ -156.135921834627084, 20.741106708401382 ], [ -156.131997146947839, 20.737776579657218 ], [ -156.133219647286921, 20.73763670478672 ], [ -156.134296527301274, 20.737675293587053 ], [ -156.134593354582194, 20.737394742284589 ], [ -156.135118139801335, 20.738459803460444 ], [ -156.137735534513382, 20.738805050088246 ], [ -156.138202392257284, 20.739752638149024 ], [ -156.139712320207963, 20.739294447326888 ], [ -156.140082480096169, 20.740436266286643 ], [ -156.141756285630578, 20.740772625720986 ], [ -156.143406956332058, 20.741607651509632 ], [ -156.144041963084646, 20.74134394474196 ], [ -156.145158254104217, 20.74028858711484 ], [ -156.145477932061567, 20.740287814629589 ], [ -156.146053332230338, 20.740308479671217 ], [ -156.146629149528167, 20.740306933672166 ], [ -156.147204550432519, 20.740327594880384 ], [ -156.148617382491267, 20.740323934570114 ], [ -156.148929320534023, 20.740616067922581 ], [ -156.149670397096742, 20.741367575622533 ], [ -156.150645745496405, 20.740915229439356 ], [ -156.152208728281494, 20.740971156853821 ], [ -156.153849284619923, 20.740698021926427 ], [ -156.155279528847245, 20.740034589842267 ], [ -156.156921373503678, 20.740864849762776 ], [ -156.158783700627765, 20.741346852237459 ], [ -156.161251204888117, 20.741340290827281 ], [ -156.162319341057753, 20.741880412032707 ], [ -156.166399816119849, 20.742417993812712 ], [ -156.166873375369761, 20.743378592327826 ], [ -156.169019225504059, 20.743933796935501 ], [ -156.169597909993058, 20.743386730910899 ], [ -156.170160289461109, 20.743957221923029 ], [ -156.170747376254496, 20.743955649528836 ], [ -156.171727514224273, 20.744604424377606 ], [ -156.173056207918506, 20.743987965145855 ], [ -156.173023779848762, 20.744794496100976 ], [ -156.17357734844137, 20.745355972507955 ], [ -156.173885296133136, 20.74536698896188 ], [ -156.174452707359563, 20.745365477479737 ], [ -156.175571345666583, 20.745930950594602 ], [ -156.177049117143099, 20.745689697899589 ], [ -156.1773435083295, 20.745143750975299 ], [ -156.177899031448021, 20.745706966335867 ], [ -156.179068176057285, 20.745445550542431 ], [ -156.179802231905086, 20.74653999517751 ], [ -156.180341149793378, 20.746559155481574 ], [ -156.180773041519586, 20.746557911888203 ], [ -156.181060763496305, 20.746568187110569 ], [ -156.181351502260242, 20.746567403076927 ], [ -156.181724074845619, 20.746944981003502 ], [ -156.183574305489543, 20.746086394979091 ], [ -156.183985667622835, 20.748756746555468 ], [ -156.185583062620651, 20.748813603746783 ], [ -156.186911349090678, 20.748234056331508 ], [ -156.186443879323207, 20.746283373251011 ], [ -156.185844140793563, 20.745722102944349 ], [ -156.185415438397001, 20.744472802331142 ], [ -156.1851583977882, 20.743109147264324 ], [ -156.18458659395813, 20.742573722087933 ], [ -156.18459774939123, 20.742290114321627 ], [ -156.18459638671041, 20.741801855872996 ], [ -156.184958855614809, 20.740203967085268 ], [ -156.192073470091486, 20.737401510888184 ], [ -156.195869737744147, 20.736247916227789 ], [ -156.197418375511461, 20.736716981641383 ], [ -156.199372362852159, 20.737648481031549 ], [ -156.201881180800001, 20.739308661792162 ], [ -156.204115306432897, 20.73988616219555 ], [ -156.211859951638132, 20.740352116751851 ], [ -156.216100931405862, 20.741397759569765 ], [ -156.22007863760939, 20.742683564373021 ], [ -156.22113048593809, 20.743667551128475 ], [ -156.22114277302785, 20.747210320945822 ], [ -156.219051528303453, 20.747495854045368 ], [ -156.219612366246452, 20.748008783016321 ], [ -156.220188808205961, 20.748283658233536 ], [ -156.22046102599748, 20.748835026383098 ], [ -156.220745768399212, 20.749378133233673 ], [ -156.220430462519488, 20.750198899368804 ], [ -156.220432962466163, 20.750984737129496 ], [ -156.220134240784347, 20.75126740292222 ], [ -156.219840876925105, 20.751257100930641 ], [ -156.219542824786373, 20.751810480842991 ], [ -156.218097927765541, 20.751759315376521 ], [ -156.218099800650464, 20.7523175491879 ], [ -156.217796233804137, 20.752849147804191 ], [ -156.217272267992115, 20.754729240596216 ], [ -156.216610319499978, 20.754731210026694 ], [ -156.215426788702842, 20.754425320846785 ], [ -156.214600058657737, 20.754427784914292 ], [ -156.214056780430496, 20.75387716994797 ], [ -156.2137254977456, 20.754953287423405 ], [ -156.214174881074854, 20.755809583464199 ], [ -156.213395723758737, 20.756851456378662 ], [ -156.21484083444264, 20.75684725927708 ], [ -156.215121985244792, 20.757417029654402 ], [ -156.215994036774276, 20.757151869051391 ], [ -156.216272589780118, 20.757433964860674 ], [ -156.216572818211318, 20.757714824691345 ], [ -156.216529836280557, 20.75878702493959 ], [ -156.216954918884312, 20.758423101723665 ], [ -156.217414189443332, 20.757988716038543 ], [ -156.217848631477125, 20.758004086152763 ], [ -156.218280567628682, 20.75800275179898 ], [ -156.218568321836187, 20.758012966856676 ], [ -156.219141423554561, 20.758011271747844 ], [ -156.219424123663885, 20.758297662102546 ], [ -156.220002851435964, 20.75829592306231 ], [ -156.22027778892442, 20.758853023227847 ], [ -156.22056641251325, 20.759123241844993 ], [ -156.220843599160474, 20.759403854535474 ], [ -156.221626932028784, 20.759777161111082 ], [ -156.222296805012405, 20.761726836458106 ], [ -156.221728747471388, 20.763204603843839 ], [ -156.223318251269802, 20.762919806026595 ], [ -156.224485186686621, 20.761306904969555 ], [ -156.225438186865858, 20.761937377432879 ], [ -156.226991068067321, 20.761932575637569 ], [ -156.228513074153938, 20.76198637496891 ], [ -156.229722874791577, 20.761458270377044 ], [ -156.23002847058828, 20.761169086945827 ], [ -156.230580396393464, 20.761728262170084 ], [ -156.231167296794609, 20.761726486198043 ], [ -156.231716192121468, 20.762282567819895 ], [ -156.232595037461607, 20.761521511639426 ], [ -156.233202777688803, 20.760946780089544 ], [ -156.234331635399371, 20.760986653739007 ], [ -156.234932864813658, 20.760707379424186 ], [ -156.235252048419994, 20.761030701982058 ], [ -156.23716270897205, 20.760711664412398 ], [ -156.238687536270248, 20.759774895245766 ], [ -156.240146710628096, 20.759355328137129 ], [ -156.240144184260686, 20.758643009813539 ], [ -156.240451474109392, 20.758352113263296 ], [ -156.241285899964367, 20.759197612882012 ], [ -156.24187026504714, 20.759195758523113 ], [ -156.24267482268246, 20.759224151585183 ], [ -156.245879109473179, 20.75664796287418 ], [ -156.247691688490562, 20.754428163041823 ], [ -156.250146674274248, 20.752848384129152 ], [ -156.250645472572756, 20.751482188976489 ], [ -156.251536123399489, 20.751225996140917 ], [ -156.252411532328409, 20.750397320670125 ], [ -156.25501767632224, 20.74884897227026 ], [ -156.25531466356091, 20.748035898507023 ], [ -156.255876035898723, 20.747545499019136 ], [ -156.256812830508807, 20.74639773749977 ], [ -156.257970973013499, 20.745386014191936 ], [ -156.258832287008261, 20.744571092223882 ], [ -156.259130534809998, 20.744310296138977 ], [ -156.259417728505809, 20.744038743291423 ], [ -156.26090899344922, 20.743512634020689 ], [ -156.261744826459477, 20.742721622240083 ], [ -156.26259639732848, 20.74197740756156 ], [ -156.263670710473548, 20.740338900758061 ], [ -156.265556547583941, 20.740023748504104 ], [ -156.267541830145007, 20.738289011716535 ], [ -156.268790957537107, 20.736383588368639 ], [ -156.274901342934157, 20.731555211011354 ], [ -156.275661345071853, 20.731223011047614 ], [ -156.283333111210396, 20.723525652615301 ], [ -156.286928869645635, 20.719015544082055 ], [ -156.291937740974646, 20.712870218950798 ], [ -156.294385819895695, 20.709052289752332 ], [ -156.295879189109883, 20.707638060002544 ], [ -156.300069120367539, 20.704691023478819 ], [ -156.301740315924491, 20.70245228684637 ], [ -156.303813227332284, 20.699192354784969 ], [ -156.30443598830081, 20.697484416342991 ], [ -156.30489746343784, 20.696280872215244 ], [ -156.305217988853684, 20.694113777941514 ], [ -156.305516057394982, 20.69385288020959 ], [ -156.305890678983417, 20.692504742662223 ], [ -156.308591629333762, 20.688380892041707 ], [ -156.3161261913028, 20.681851692969587 ], [ -156.318516226611194, 20.680566378761434 ], [ -156.319276629301442, 20.67923200366317 ], [ -156.319336169115104, 20.677714790471043 ], [ -156.318166870983646, 20.678071267430084 ], [ -156.317108324735756, 20.677371697341901 ], [ -156.313014428125854, 20.676364536810549 ], [ -156.312129329783858, 20.676064006577949 ], [ -156.311016273762817, 20.676067931892661 ], [ -156.310439889888301, 20.675777236741219 ], [ -156.310005630193018, 20.675778789430908 ], [ -156.30929218580809, 20.675753895147054 ], [ -156.307322516027028, 20.676966035481993 ], [ -156.30609556129437, 20.677339910165699 ], [ -156.304934354506827, 20.677587312616279 ], [ -156.304359647542839, 20.677854464656221 ], [ -156.303198435370746, 20.678101854636523 ], [ -156.302335998283496, 20.678364495205972 ], [ -156.301462506477293, 20.678616377824245 ], [ -156.300899953240304, 20.679149269977515 ], [ -156.299448332914181, 20.678590106684574 ], [ -156.297779264096363, 20.67748687587564 ], [ -156.297024811143388, 20.677460493358321 ], [ -156.296031493583712, 20.677463950788507 ], [ -156.29476972176505, 20.676629737516823 ], [ -156.293874271672451, 20.676598482672091 ], [ -156.293154724737775, 20.676601065960714 ], [ -156.292291860083878, 20.676570843856698 ], [ -156.291860247378821, 20.677373571101015 ], [ -156.290118996785935, 20.677379651562362 ], [ -156.288822166169354, 20.677334385755675 ], [ -156.287671713690827, 20.677592550401798 ], [ -156.286510490548039, 20.67783982499671 ], [ -156.28593575796836, 20.678106911817249 ], [ -156.285328727529361, 20.678372561834131 ], [ -156.284373903893197, 20.679276788820598 ], [ -156.282222252168964, 20.679932147941685 ], [ -156.280432077163169, 20.679938281254934 ], [ -156.278993953719265, 20.679887931567254 ], [ -156.278562220721824, 20.679889443514611 ], [ -156.277851586049849, 20.679864593923991 ], [ -156.276713411039481, 20.680393723761952 ], [ -156.276108986715883, 20.68011860938968 ], [ -156.275500359502104, 20.679811422114664 ], [ -156.27410257462185, 20.679816156657658 ], [ -156.273814952187024, 20.679806050721879 ], [ -156.273524602582029, 20.679807010133931 ], [ -156.272814038501735, 20.679448210166118 ], [ -156.272091336793068, 20.679784187799697 ], [ -156.269711494202653, 20.680058595015662 ], [ -156.268618620996705, 20.680536412318936 ], [ -156.268010409486891, 20.680819038692324 ], [ -156.26688772455924, 20.680779673096239 ], [ -156.265777571997887, 20.681295681297538 ], [ -156.263815485284795, 20.681578617672837 ], [ -156.261981605887627, 20.68151429956426 ], [ -156.261694545970869, 20.681786004353022 ], [ -156.260500826759795, 20.682039852962053 ], [ -156.259028991600815, 20.682724101006023 ], [ -156.255491688447677, 20.683092424991337 ], [ -156.254477923883769, 20.682747764268139 ], [ -156.254189420872308, 20.683020754447732 ], [ -156.251589514814469, 20.683244842876395 ], [ -156.251294645842222, 20.683792801776793 ], [ -156.249895289865066, 20.683743485717535 ], [ -156.248408858610816, 20.68428338561716 ], [ -156.246428083514161, 20.683932881056048 ], [ -156.245551650273768, 20.684762606161659 ], [ -156.244655478527477, 20.685035248517813 ], [ -156.243781888658333, 20.685286823199313 ], [ -156.242888867540216, 20.685835770613473 ], [ -156.241758027011485, 20.685795974958502 ], [ -156.241470923880797, 20.686067773128215 ], [ -156.240898481191209, 20.686047626739398 ], [ -156.239588483341294, 20.686853046104712 ], [ -156.237468365641064, 20.686778186182949 ], [ -156.235916055522495, 20.687847884056954 ], [ -156.234384440278063, 20.687852784813035 ], [ -156.233950471744208, 20.687837483400145 ], [ -156.232824591676206, 20.688360415629791 ], [ -156.232501909113978, 20.688361445736962 ], [ -156.231479215760544, 20.687844719619584 ], [ -156.229070667392932, 20.688577505315681 ], [ -156.227722136645014, 20.688529880739786 ], [ -156.226449612744489, 20.688800330820435 ], [ -156.225887357647935, 20.68933242372449 ], [ -156.224859720977832, 20.689335570128062 ], [ -156.223608092354993, 20.689291458021216 ], [ -156.222401713778481, 20.689818441444579 ], [ -156.222015621612258, 20.690183558313773 ], [ -156.221111047027534, 20.689726337267714 ], [ -156.219815600352121, 20.690328169389179 ], [ -156.218840446383837, 20.689996355999931 ], [ -156.21750046750671, 20.690280987875095 ], [ -156.216925310136787, 20.690547952561751 ], [ -156.21663262577809, 20.690537667420873 ], [ -156.215769737960898, 20.690799976675347 ], [ -156.213164766548203, 20.691294219733429 ], [ -156.211716793413615, 20.692088578162991 ], [ -156.210267668915975, 20.692330651566163 ], [ -156.209400088779546, 20.692863687037654 ], [ -156.208797863674391, 20.692842419823826 ], [ -156.207083368912805, 20.69363849753865 ], [ -156.206497422011637, 20.693894537370703 ], [ -156.205629821509604, 20.69442755121155 ], [ -156.205052874183224, 20.694407077316086 ], [ -156.204269044974581, 20.695490784450147 ], [ -156.203048292858085, 20.695447416196238 ], [ -156.201932192645842, 20.695965659922045 ], [ -156.200405347584592, 20.696503929469131 ], [ -156.197611375231105, 20.697517605528468 ], [ -156.195787090270585, 20.697522941568963 ], [ -156.195244064671471, 20.696972294829123 ], [ -156.193579779941388, 20.696623291177875 ], [ -156.191195582730018, 20.696630162205174 ], [ -156.190764136569669, 20.696614790723267 ], [ -156.190063381923949, 20.69661684249477 ], [ -156.188859105455265, 20.696305321625438 ], [ -156.188035517527652, 20.696307739730642 ], [ -156.187747888233417, 20.696297487002269 ], [ -156.187028303100305, 20.696299615622809 ], [ -156.185246350297575, 20.69623623776889 ], [ -156.184287300055672, 20.696511883326565 ], [ -156.18341921171637, 20.69691477369469 ], [ -156.182421175788051, 20.696410071472741 ], [ -156.181239806217263, 20.696958578184823 ], [ -156.17910805304669, 20.696432380599067 ], [ -156.177403143059706, 20.695851929247979 ], [ -156.176816851630548, 20.696123989729941 ], [ -156.17565539929322, 20.696370479027951 ], [ -156.175078175789707, 20.696638317860089 ], [ -156.173787776641149, 20.696198858283108 ], [ -156.172711513404721, 20.697216633613202 ], [ -156.171542056585537, 20.696818419265629 ], [ -156.169893494238437, 20.696822929607983 ], [ -156.169605869148427, 20.696812646555959 ], [ -156.169174122342014, 20.696813878342269 ], [ -156.167894696023154, 20.696768237080239 ], [ -156.167576866104667, 20.697324634067691 ], [ -156.168427486942846, 20.698121096921344 ], [ -156.16812466406904, 20.699231169063967 ], [ -156.167811284096246, 20.700304039020047 ], [ -156.16740697352401, 20.70465021792316 ], [ -156.163597259872432, 20.708479562600065 ], [ -156.161354545094383, 20.713330300151622 ], [ -156.159049347544112, 20.715509907609093 ], [ -156.153954472822704, 20.718226117895608 ], [ -156.148886624442639, 20.720705898562638 ], [ -156.147600313793248, 20.721828301283868 ], [ -156.146966992593889, 20.722936798714581 ], [ -156.146648184174524, 20.723807854165866 ], [ -156.145959708902467, 20.724408692958232 ], [ -156.146488404287055, 20.725417851980502 ], [ -156.144349403426901, 20.725341214974161 ], [ -156.144028294129726, 20.725644658256655 ], [ -156.14358072807633, 20.726035393143707 ], [ -156.143149716454076, 20.726442666983782 ], [ -156.142856703670418, 20.726432244168898 ], [ -156.142205298426859, 20.726734293878696 ], [ -156.141479812379174, 20.724619383491973 ], [ -156.140926961910822, 20.721830150654153 ], [ -156.140949541376813, 20.721271555556932 ], [ -156.140509283825367, 20.720824676366433 ], [ -156.139762540427881, 20.722865517954261 ], [ -156.139177790692059, 20.723375882680628 ], [ -156.139165835787281, 20.723667929619989 ], [ -156.140286905833904, 20.725284541319191 ], [ -156.139413708101074, 20.726109595174599 ], [ -156.138827545205487, 20.726365375789097 ], [ -156.138538767046612, 20.72663813732261 ], [ -156.137521450933917, 20.726291402657047 ], [ -156.136698614096133, 20.726650083243154 ], [ -156.136931746878048, 20.727825988188755 ] ], [ [ -156.13939172275272, 20.719471412766723 ], [ -156.139484157912932, 20.719803148497636 ], [ -156.139740693274803, 20.719569915640911 ], [ -156.13939172275272, 20.719471412766723 ] ], [ [ -156.137418105739386, 20.717271989832248 ], [ -156.137658210371086, 20.718032254067758 ], [ -156.138882066453561, 20.719322366034554 ], [ -156.138349995580569, 20.717808514090681 ], [ -156.137418105739386, 20.717271989832248 ] ], [ [ -156.135910490206754, 20.705601503612701 ], [ -156.13551790979119, 20.706000410207793 ], [ -156.134307205748684, 20.706244198376396 ], [ -156.133742647036371, 20.706520957717821 ], [ -156.13314606831355, 20.706766502385911 ], [ -156.132631972518453, 20.707289002352383 ], [ -156.133279495799997, 20.709086189265548 ], [ -156.132807371622334, 20.709469084207011 ], [ -156.13193332097353, 20.710895243352365 ], [ -156.133081850537025, 20.711895853268352 ], [ -156.133725006919803, 20.713985741480169 ], [ -156.135185913554864, 20.713519739866094 ], [ -156.136540423379699, 20.714002743832715 ], [ -156.136475213045458, 20.712537521243881 ], [ -156.136851250907512, 20.71191300549058 ], [ -156.138813116463496, 20.710784330509824 ], [ -156.13786595730113, 20.709072888610432 ], [ -156.136793449105511, 20.708587979962683 ], [ -156.136893607708771, 20.70737173547683 ], [ -156.136315989760931, 20.706563803221673 ], [ -156.136060106515544, 20.705731735540709 ], [ -156.135910490206754, 20.705601503612701 ] ], [ [ -156.248428075615578, 20.754834850678112 ], [ -156.24858236561235, 20.755786855043084 ], [ -156.249538529505998, 20.756324809988197 ], [ -156.250566034988765, 20.75500278959667 ], [ -156.248428075615578, 20.754834850678112 ] ] ] } }
]
}
