{
"type": "FeatureCollection",
"name": "gerkaua",
"crs": { "type": "name", "properties": { "name": "urn:ogc:def:crs:OGC:1.3:CRS84" } },
"features": [
{ "type": "Feature", "properties": { "ID": 1, "GRIDCODE": 2 }, "geometry": { "type": "Polygon", "coordinates": [ [ [ -159.598675429931433, 22.164658816578267 ], [ -159.599030572502613, 22.164750286823118 ], [ -159.598776419991992, 22.164988884787597 ], [ -159.598675429931433, 22.164658816578267 ] ] ] } },
{ "type": "Feature", "properties": { "ID": 2, "GRIDCODE": 2 }, "geometry": { "type": "Polygon", "coordinates": [ [ [ -159.59663527943539, 22.163853232162662 ], [ -159.596519989865754, 22.164476916325729 ], [ -159.596266448114648, 22.164001844902167 ], [ -159.59663527943539, 22.163853232162662 ] ] ] } },
{ "type": "Feature", "properties": { "ID": 3, "GRIDCODE": 2 }, "geometry": { "type": "Polygon", "coordinates": [ [ [ -159.60332154255758, 22.162473523641808 ], [ -159.604043317771612, 22.163069424519843 ], [ -159.603121255065702, 22.163364023129727 ], [ -159.60332154255758, 22.162473523641808 ] ] ] } },
{ "type": "Feature", "properties": { "ID": 4, "GRIDCODE": 2 }, "geometry": { "type": "Polygon", "coordinates": [ [ [ -159.607385607799785, 22.160290269464674 ], [ -159.607158552812507, 22.162037762948927 ], [ -159.606679584642706, 22.16151237536949 ], [ -159.607164907042375, 22.160456244660867 ], [ -159.607385607799785, 22.160290269464674 ] ] ] } },
{ "type": "Feature", "properties": { "ID": 5, "GRIDCODE": 2 }, "geometry": { "type": "Polygon", "coordinates": [ [ [ -159.602724622470049, 22.158952459460334 ], [ -159.603394214826551, 22.159059837364023 ], [ -159.602884206507753, 22.159295988746958 ], [ -159.602724622470049, 22.158952459460334 ] ] ] } },
{ "type": "Feature", "properties": { "ID": 6, "GRIDCODE": 2 }, "geometry": { "type": "Polygon", "coordinates": [ [ [ -159.603013260650954, 22.158409350453191 ], [ -159.603368389990976, 22.158500811607301 ], [ -159.603114255926357, 22.158739416100623 ], [ -159.603013260650954, 22.158409350453191 ] ] ] } },
{ "type": "Feature", "properties": { "ID": 7, "GRIDCODE": 2 }, "geometry": { "type": "Polygon", "coordinates": [ [ [ -159.596612421702901, 22.158432893570986 ], [ -159.595857949916876, 22.158324954184266 ], [ -159.595618927024617, 22.158005180649326 ], [ -159.594744808492607, 22.157704141896318 ], [ -159.595802881459548, 22.157392866444386 ], [ -159.59679359223091, 22.157734041720019 ], [ -159.596612421702901, 22.158432893570986 ] ] ] } },
{ "type": "Feature", "properties": { "ID": 8, "GRIDCODE": 2 }, "geometry": { "type": "Polygon", "coordinates": [ [ [ -159.594280288910824, 22.157357323810395 ], [ -159.594635410435529, 22.157448804179094 ], [ -159.594381263139297, 22.157687395378549 ], [ -159.594280288910824, 22.157357323810395 ] ] ] } },
{ "type": "Feature", "properties": { "ID": 9, "GRIDCODE": 2 }, "geometry": { "type": "Polygon", "coordinates": [ [ [ -159.594859900981561, 22.156813168023159 ], [ -159.595215021474189, 22.156904647157642 ], [ -159.594960876132291, 22.157143239233001 ], [ -159.594859900981561, 22.156813168023159 ] ] ] } },
{ "type": "Feature", "properties": { "ID": 10, "GRIDCODE": 2 }, "geometry": { "type": "Polygon", "coordinates": [ [ [ -159.608230501929143, 22.153782620268533 ], [ -159.608585622657159, 22.153874070298635 ], [ -159.608331505707497, 22.154112682671133 ], [ -159.608230501929143, 22.153782620268533 ] ] ] } },
{ "type": "Feature", "properties": { "ID": 11, "GRIDCODE": 2 }, "geometry": { "type": "Polygon", "coordinates": [ [ [ -159.604442529315605, 22.152441596664932 ], [ -159.604540700620959, 22.152110793514648 ], [ -159.604796851592653, 22.152347508484148 ], [ -159.604442529315605, 22.152441596664932 ] ] ] } },
{ "type": "Feature", "properties": { "ID": 12, "GRIDCODE": 2 }, "geometry": { "type": "Polygon", "coordinates": [ [ [ -159.607342572394657, 22.150262655709227 ], [ -159.607343735190341, 22.150533672460256 ], [ -159.607052804574948, 22.150534755412892 ], [ -159.607051642336216, 22.150263738647244 ], [ -159.607342572394657, 22.150262655709227 ] ] ] } },
{ "type": "Feature", "properties": { "ID": 13, "GRIDCODE": 2 }, "geometry": { "type": "Polygon", "coordinates": [ [ [ -159.607342572394657, 22.150262655709227 ], [ -159.607547130729756, 22.149897370276559 ], [ -159.608300665436502, 22.150143044888559 ], [ -159.607342572394657, 22.150262655709227 ] ] ] } },
{ "type": "Feature", "properties": { "ID": 14, "GRIDCODE": 2 }, "geometry": { "type": "Polygon", "coordinates": [ [ [ -159.585781181756658, 22.142481871275066 ], [ -159.585879390639604, 22.14215107814309 ], [ -159.586135492710014, 22.142387823789822 ], [ -159.585781181756658, 22.142481871275066 ] ] ] } },
{ "type": "Feature", "properties": { "ID": 15, "GRIDCODE": 2 }, "geometry": { "type": "Polygon", "coordinates": [ [ [ -159.589551795775805, 22.139758070875107 ], [ -159.589453597045491, 22.140088866089837 ], [ -159.589197493813742, 22.139852125615196 ], [ -159.589551795775805, 22.139758070875107 ] ] ] } },
{ "type": "Feature", "properties": { "ID": 16, "GRIDCODE": 2 }, "geometry": { "type": "Polygon", "coordinates": [ [ [ -159.589548411450636, 22.138945016871453 ], [ -159.590251330742234, 22.139149547119459 ], [ -159.589551795775805, 22.139758070875107 ], [ -159.589548411450636, 22.138945016871453 ] ] ] } },
{ "type": "Feature", "properties": { "ID": 17, "GRIDCODE": 2 }, "geometry": { "type": "Polygon", "coordinates": [ [ [ -159.588965468963494, 22.138676099694369 ], [ -159.589547283377129, 22.138673998852138 ], [ -159.589548411450636, 22.138945016871453 ], [ -159.588966595923893, 22.138947117742063 ], [ -159.588965468963494, 22.138676099694369 ] ] ] } },
{ "type": "Feature", "properties": { "ID": 18, "GRIDCODE": 2 }, "geometry": { "type": "Polygon", "coordinates": [ [ [ -159.588965468963494, 22.138676099694369 ], [ -159.588381371182805, 22.138949212288491 ], [ -159.588046926129209, 22.138317343525099 ], [ -159.588866994078501, 22.138496479436306 ], [ -159.588965468963494, 22.138676099694369 ] ] ] } },
{ "type": "Feature", "properties": { "ID": 19, "GRIDCODE": 2 }, "geometry": { "type": "Polygon", "coordinates": [ [ [ -159.574986500647071, 22.134931634656663 ], [ -159.574554735834738, 22.135678558646745 ], [ -159.573414592340839, 22.135285678190098 ], [ -159.573660389223392, 22.135037793994094 ], [ -159.57412248512054, 22.135132583716217 ], [ -159.574986500647071, 22.134931634656663 ] ] ] } },
{ "type": "Feature", "properties": { "ID": 20, "GRIDCODE": 2 }, "geometry": { "type": "Polygon", "coordinates": [ [ [ -159.57410611190241, 22.13303757431143 ], [ -159.574775562459649, 22.133145073166034 ], [ -159.574265596413625, 22.133381134829609 ], [ -159.57410611190241, 22.13303757431143 ] ] ] } },
{ "type": "Feature", "properties": { "ID": 21, "GRIDCODE": 2 }, "geometry": { "type": "Polygon", "coordinates": [ [ [ -159.535998539082811, 22.133167161388482 ], [ -159.536155258085643, 22.133292076362022 ], [ -159.536905728472789, 22.133345777833714 ], [ -159.538137871613912, 22.133980919259724 ], [ -159.538528864733962, 22.134789616453457 ], [ -159.539413451714836, 22.134325951372936 ], [ -159.540512242470868, 22.13440454650619 ], [ -159.541093877897424, 22.134359072536274 ], [ -159.541460591599559, 22.13438529955096 ], [ -159.542088302254484, 22.135059162679273 ], [ -159.542815291129415, 22.136562670250299 ], [ -159.544028254605905, 22.138144452443083 ], [ -159.5443007740746, 22.13897677928993 ], [ -159.545073851467208, 22.14067007298155 ], [ -159.54640880565438, 22.142246349727682 ], [ -159.546962986454901, 22.144481651765485 ], [ -159.548855155196719, 22.145989274464142 ], [ -159.548651173938907, 22.148466057918739 ], [ -159.547531524533468, 22.148386026450318 ], [ -159.547561654537901, 22.148720171823122 ], [ -159.54722567334835, 22.149285859176452 ], [ -159.546399946106078, 22.14922683459363 ], [ -159.545517248099969, 22.147083255994637 ], [ -159.545202719547746, 22.146562425395974 ], [ -159.544848603792673, 22.145480772124948 ], [ -159.543449883833148, 22.144671109662944 ], [ -159.543177680959246, 22.14410824128943 ], [ -159.54279205184406, 22.144138406901131 ], [ -159.542011602182924, 22.14330061174303 ], [ -159.541007367662871, 22.143022574004149 ], [ -159.538047834792906, 22.141315236900056 ], [ -159.537381461626552, 22.140599841778105 ], [ -159.537020878232454, 22.137417797162247 ], [ -159.536140923758893, 22.135209456373982 ], [ -159.535998539082811, 22.133167161388482 ] ] ] } },
{ "type": "Feature", "properties": { "ID": 22, "GRIDCODE": 2 }, "geometry": { "type": "Polygon", "coordinates": [ [ [ -159.535998539082811, 22.133167161388482 ], [ -159.5355878274801, 22.13290495419789 ], [ -159.535942844938745, 22.132243572947328 ], [ -159.536178370614124, 22.132474445326558 ], [ -159.535998539082811, 22.133167161388482 ] ] ] } },
{ "type": "Feature", "properties": { "ID": 23, "GRIDCODE": 2 }, "geometry": { "type": "Polygon", "coordinates": [ [ [ -159.534822668662201, 22.129918728529589 ], [ -159.535492078435141, 22.130026389458397 ], [ -159.534982055134094, 22.130262329590256 ], [ -159.534822668662201, 22.129918728529589 ] ] ] } },
{ "type": "Feature", "properties": { "ID": 24, "GRIDCODE": 2 }, "geometry": { "type": "Polygon", "coordinates": [ [ [ -159.494378137916584, 22.127064943854592 ], [ -159.494820464277268, 22.127193947185592 ], [ -159.495354769458004, 22.128239879163708 ], [ -159.496561398133252, 22.129096178292397 ], [ -159.498612498976314, 22.130163689028194 ], [ -159.498893304723765, 22.130444195189199 ], [ -159.499196624202142, 22.130704326601137 ], [ -159.499177148254176, 22.131203650656548 ], [ -159.499911173803326, 22.131936881225577 ], [ -159.501221218998353, 22.13306034608004 ], [ -159.502064036468198, 22.136309196515832 ], [ -159.503040001282699, 22.13754025312252 ], [ -159.505028274737754, 22.139245155351261 ], [ -159.50509563425635, 22.140706973856361 ], [ -159.504759879325405, 22.142375442033476 ], [ -159.503978878788701, 22.143054111204105 ], [ -159.503608800092024, 22.14452301221819 ], [ -159.502728337726154, 22.145600000377488 ], [ -159.502753575717691, 22.146146628557574 ], [ -159.502732288032831, 22.146692548155045 ], [ -159.5033218579959, 22.148760758502789 ], [ -159.502877711361208, 22.148920303109211 ], [ -159.501864667819746, 22.148051707435826 ], [ -159.501567568470222, 22.147754939003523 ], [ -159.500747212220574, 22.148585214160505 ], [ -159.500399929231293, 22.148599108134455 ], [ -159.500430473136987, 22.147815831868179 ], [ -159.499820162885442, 22.146941669705392 ], [ -159.498658701604995, 22.146435389973046 ], [ -159.49829625002738, 22.146073333429545 ], [ -159.497264047375182, 22.146530975386156 ], [ -159.49832692277235, 22.147442391324962 ], [ -159.49881969644656, 22.148302981898208 ], [ -159.495599085899812, 22.148704157620191 ], [ -159.495166901619797, 22.145828378328012 ], [ -159.494578141234967, 22.144279611622586 ], [ -159.494295423759382, 22.143457054581223 ], [ -159.493610610591446, 22.143158500689864 ], [ -159.494273254091439, 22.14137870336134 ], [ -159.494494143172375, 22.135723038708466 ], [ -159.493518533767485, 22.13401878363057 ], [ -159.493365554094254, 22.130694627539064 ], [ -159.494026497083183, 22.129521614656937 ], [ -159.494378137916584, 22.127064943854592 ] ] ] } },
{ "type": "Feature", "properties": { "ID": 25, "GRIDCODE": 2 }, "geometry": { "type": "Polygon", "coordinates": [ [ [ -159.491162403573327, 22.122467212688647 ], [ -159.491818467694713, 22.122554275806085 ], [ -159.491653674837153, 22.123608727151883 ], [ -159.491238980258231, 22.123211120472416 ], [ -159.491162403573327, 22.122467212688647 ] ] ] } },
{ "type": "Feature", "properties": { "ID": 26, "GRIDCODE": 2 }, "geometry": { "type": "Polygon", "coordinates": [ [ [ -159.490577832473633, 22.121655892531884 ], [ -159.490932802144471, 22.12174760209906 ], [ -159.490678539122854, 22.121986035017862 ], [ -159.490577832473633, 22.121655892531884 ] ] ] } },
{ "type": "Feature", "properties": { "ID": 27, "GRIDCODE": 2 }, "geometry": { "type": "Polygon", "coordinates": [ [ [ -159.487946879641981, 22.117869411797926 ], [ -159.488103540089583, 22.117994374252895 ], [ -159.488831731376592, 22.11906996459145 ], [ -159.489987123764024, 22.119991421020742 ], [ -159.489415826036804, 22.120613306154002 ], [ -159.487733165805508, 22.118417081445191 ], [ -159.487946879641981, 22.117869411797926 ] ] ] } },
{ "type": "Feature", "properties": { "ID": 28, "GRIDCODE": 2 }, "geometry": { "type": "Polygon", "coordinates": [ [ [ -159.58430312524834, 22.13679570359718 ], [ -159.584202190488185, 22.13646562410996 ], [ -159.583948061972563, 22.13670419922553 ], [ -159.58430312524834, 22.13679570359718 ], [ -159.584129346238058, 22.13721218054755 ], [ -159.584470050374591, 22.137455218273324 ], [ -159.584725837437389, 22.138031233446632 ], [ -159.5850563379623, 22.138537206627952 ], [ -159.585153697126202, 22.139891968732417 ], [ -159.584476760377953, 22.139081327979888 ], [ -159.583856470475098, 22.138847412988792 ], [ -159.582331585000389, 22.137652648020349 ], [ -159.581379730982974, 22.138810699039553 ], [ -159.582232952474811, 22.139419434148262 ], [ -159.582033292135634, 22.140712589023121 ], [ -159.58298918106118, 22.140170738311141 ], [ -159.583570649790403, 22.140083121810093 ], [ -159.582992527939041, 22.140983793149921 ], [ -159.582904112076221, 22.141797175739125 ], [ -159.583885088848149, 22.141241095116115 ], [ -159.584732373368468, 22.141713119118624 ], [ -159.585034032260182, 22.142215613999507 ], [ -159.583887834228136, 22.142062009283325 ], [ -159.582453523057978, 22.142279078380483 ], [ -159.583327638606079, 22.14260872881977 ], [ -159.583938012221012, 22.142948772265242 ], [ -159.584473658370683, 22.14287306936659 ], [ -159.584776110181195, 22.142913596775525 ], [ -159.585326546533622, 22.142601570449131 ], [ -159.585781181756658, 22.142481871275066 ], [ -159.585642966644031, 22.142894069906038 ], [ -159.584760909132399, 22.143429203675076 ], [ -159.584773767667201, 22.143705084362399 ], [ -159.584757354706653, 22.144133619125594 ], [ -159.58609224033512, 22.143469437317989 ], [ -159.587673922594774, 22.144241877692696 ], [ -159.588267922905544, 22.144500420392639 ], [ -159.588553853209362, 22.145059157685715 ], [ -159.588881255262038, 22.144727387124604 ], [ -159.590556786921638, 22.144783197542505 ], [ -159.591749291440692, 22.144487475392737 ], [ -159.592061424114235, 22.14449786443258 ], [ -159.59204067330748, 22.145038784069445 ], [ -159.592344191638716, 22.14529873771858 ], [ -159.592628847548781, 22.145582728440289 ], [ -159.593213315858719, 22.145291915916481 ], [ -159.593497973459478, 22.145575905083771 ], [ -159.59415887695036, 22.145863536117226 ], [ -159.596614566670894, 22.14576388377106 ], [ -159.596990883496716, 22.146003687307452 ], [ -159.595168515251828, 22.146672449579995 ], [ -159.59437779996378, 22.146646135922143 ], [ -159.592932460804832, 22.146831552595962 ], [ -159.594691190762688, 22.14746218597357 ], [ -159.594262672401925, 22.147730956230756 ], [ -159.590321321458447, 22.146977690539995 ], [ -159.590898636787358, 22.14747215397221 ], [ -159.591179656675848, 22.147752496270169 ], [ -159.591488739553057, 22.148017228319951 ], [ -159.591130072586338, 22.148329275350509 ], [ -159.592351123464795, 22.148279753123159 ], [ -159.592647280942998, 22.148289603381937 ], [ -159.592928424332115, 22.148004657469425 ], [ -159.594492048713562, 22.148380248179766 ], [ -159.594094556518826, 22.149086676636639 ], [ -159.593819299241943, 22.150182103857826 ], [ -159.592873098195014, 22.150464962159099 ], [ -159.591822358768979, 22.150429987096299 ], [ -159.591493415293911, 22.150564251100789 ], [ -159.592949869776731, 22.150987992639642 ], [ -159.593243065656907, 22.151560928537229 ], [ -159.59381908335564, 22.150977237958802 ], [ -159.594105044113718, 22.151585556766346 ], [ -159.593302843254321, 22.15301120724245 ], [ -159.594192984589824, 22.152568268327268 ], [ -159.594705063437857, 22.152049370388305 ], [ -159.59527312930939, 22.152615998310726 ], [ -159.595564870141089, 22.152806322363588 ], [ -159.59497290636827, 22.151252491331483 ], [ -159.596083543062832, 22.15098691004027 ], [ -159.596455439828077, 22.152416510320219 ], [ -159.596437709889244, 22.15287817501201 ], [ -159.596484155921559, 22.153685321002865 ], [ -159.597024945548497, 22.153137263476388 ], [ -159.597755605206288, 22.153550324893867 ], [ -159.597874766538524, 22.154165790012179 ], [ -159.598134403909029, 22.15369967360807 ], [ -159.597755605206288, 22.153550324893867 ], [ -159.597627098164253, 22.153126820448566 ], [ -159.597142881850772, 22.152385716800833 ], [ -159.599330600638751, 22.152031265729935 ], [ -159.598584467856369, 22.151670449219871 ], [ -159.596939120921917, 22.151903110268602 ], [ -159.597042210055662, 22.15123538574948 ], [ -159.59654314789114, 22.150879444818667 ], [ -159.596157145863231, 22.150417353708963 ], [ -159.595356980930205, 22.150530486092201 ], [ -159.594765909783291, 22.149625710994091 ], [ -159.595244838322174, 22.148523302947233 ], [ -159.595570188784336, 22.148566869432436 ], [ -159.595824411369648, 22.14742222147742 ], [ -159.596567869429435, 22.147863222896824 ], [ -159.59666884161814, 22.148193293462516 ], [ -159.596922968327675, 22.147954698885734 ], [ -159.596567869429435, 22.147863222896824 ], [ -159.596384968994755, 22.146850670603303 ], [ -159.59722811400394, 22.146963594170469 ], [ -159.597598642178639, 22.14638627517424 ], [ -159.597952398351879, 22.145571914302895 ], [ -159.600626140496843, 22.145809393503107 ], [ -159.599300058441884, 22.146075176212484 ], [ -159.599388731217772, 22.146619416089255 ], [ -159.59883988195682, 22.147017269583287 ], [ -159.598214218134331, 22.148517304468207 ], [ -159.599060135477657, 22.148007044107754 ], [ -159.599876794672355, 22.147013336060585 ], [ -159.600348752735016, 22.147578331532976 ], [ -159.599994439107945, 22.147672409904992 ], [ -159.600250574437922, 22.147909132492 ], [ -159.600348752735016, 22.147578331532976 ], [ -159.600812089418298, 22.147382912650478 ], [ -159.601044460226376, 22.148262206285963 ], [ -159.599931624697177, 22.148906620410067 ], [ -159.599571894523137, 22.149902801881478 ], [ -159.600145557784629, 22.150229171751207 ], [ -159.601079479714116, 22.149835312854737 ], [ -159.601401489711407, 22.149927463269371 ], [ -159.601920521310944, 22.14903097512801 ], [ -159.602390992592262, 22.148925909968835 ], [ -159.602491979087517, 22.149255976567282 ], [ -159.602746097610549, 22.149017373126217 ], [ -159.602390992592262, 22.148925909968835 ], [ -159.602261011743195, 22.148775892342538 ], [ -159.60167731238576, 22.148343980349136 ], [ -159.602179026323, 22.147602576993151 ], [ -159.603427012317297, 22.149042604719998 ], [ -159.603717791740024, 22.148523736639024 ], [ -159.603643543023026, 22.147984979443851 ], [ -159.604038469161026, 22.147687948288748 ], [ -159.603930210906668, 22.146902546108922 ], [ -159.605686879148806, 22.147239425445214 ], [ -159.605757982735128, 22.147755224977686 ], [ -159.604974720224448, 22.148344324102503 ], [ -159.604588557321506, 22.148797256519387 ], [ -159.603718552298147, 22.149451573047561 ], [ -159.603985376715229, 22.149894013713176 ], [ -159.60572170997284, 22.149188121252305 ], [ -159.605465975344515, 22.149878087053622 ], [ -159.605144988415276, 22.150391346694342 ], [ -159.604888748962566, 22.150964313176889 ], [ -159.604271909718221, 22.151209135573687 ], [ -159.604323218810777, 22.151581194305596 ], [ -159.602271968601514, 22.151351215665645 ], [ -159.60253465520185, 22.151789579797722 ], [ -159.603040271665066, 22.151729095351573 ], [ -159.603603182762015, 22.15214557919591 ], [ -159.602007914516122, 22.152778724090286 ], [ -159.603120455520013, 22.153210623316468 ], [ -159.602493525488541, 22.153440745984842 ], [ -159.601455983986256, 22.153324407214971 ], [ -159.601333435600679, 22.154272473791785 ], [ -159.601977004605828, 22.154195496141821 ], [ -159.602413627458361, 22.154244452384948 ], [ -159.603124498673566, 22.154159413886681 ], [ -159.602868388137125, 22.154766088957164 ], [ -159.602066498469782, 22.155797166285506 ], [ -159.602579166632779, 22.155854641480204 ], [ -159.603032923191421, 22.15532244357145 ], [ -159.603449523871376, 22.155272608849131 ], [ -159.603712427360108, 22.155576030041605 ], [ -159.603874536156297, 22.155695953523775 ], [ -159.603975531326569, 22.156026018745319 ], [ -159.604229659149212, 22.155787412972892 ], [ -159.603874536156297, 22.155695953523775 ], [ -159.60404012193851, 22.154733243753309 ], [ -159.603661510334973, 22.154463277074104 ], [ -159.603743072653089, 22.153934803315156 ], [ -159.60364475130055, 22.153331821052245 ], [ -159.604278814376499, 22.152560270481739 ], [ -159.604442529315605, 22.152441596664932 ], [ -159.604574831170567, 22.153133645975174 ], [ -159.604899044750709, 22.153373491220311 ], [ -159.605456914561245, 22.15529854221478 ], [ -159.605890805755251, 22.155537978104128 ], [ -159.605213076624693, 22.152261866049127 ], [ -159.605669347678884, 22.151774479963805 ], [ -159.60634501335025, 22.153456290062131 ], [ -159.606644685445957, 22.151482763241404 ], [ -159.606189592676799, 22.150768136655913 ], [ -159.607052804574948, 22.150534755412892 ], [ -159.60755377669966, 22.152273229461002 ], [ -159.608063132585698, 22.151198462729596 ], [ -159.608421386533166, 22.150946270297069 ], [ -159.608239296875809, 22.153168075925407 ], [ -159.607205451368117, 22.154724930723809 ], [ -159.606939164804828, 22.155439336871893 ], [ -159.607803022281388, 22.154986133116953 ], [ -159.608094956837107, 22.155299231642726 ], [ -159.608369208139067, 22.154720593934588 ], [ -159.608995849013468, 22.154457316636428 ], [ -159.608836786438985, 22.152701452077736 ], [ -159.60930749305038, 22.151213983763853 ], [ -159.609852463218459, 22.151798503080919 ], [ -159.609801449399981, 22.152421649914366 ], [ -159.609838289225024, 22.152828043556799 ], [ -159.609816017300943, 22.153099147733663 ], [ -159.609841296454903, 22.153377617177643 ], [ -159.60948736306463, 22.153974130737943 ], [ -159.609561865991481, 22.154796773834395 ], [ -159.609981965414931, 22.155131183679345 ], [ -159.610101181198019, 22.155746638519492 ], [ -159.610360780558693, 22.155280503581658 ], [ -159.609981965414931, 22.155131183679345 ], [ -159.610182468410301, 22.154467868451128 ], [ -159.611184781766099, 22.154910595161493 ], [ -159.611658492178918, 22.156817634737873 ], [ -159.611284956989238, 22.157414994680504 ], [ -159.610965960471134, 22.158470340513901 ], [ -159.610166682621838, 22.158565983650973 ], [ -159.610121439457657, 22.158237649485034 ], [ -159.610702597247069, 22.157308124760732 ], [ -159.608181494096442, 22.156956901915827 ], [ -159.608083806134317, 22.157712969981475 ], [ -159.608340201468309, 22.159572337122967 ], [ -159.607385607799785, 22.160290269464674 ], [ -159.607564281225024, 22.159600828335861 ], [ -159.607095590942009, 22.158936245533443 ], [ -159.607549099138311, 22.158281817242269 ], [ -159.607783480095748, 22.157514578915755 ], [ -159.606998213794242, 22.157199785258459 ], [ -159.606630122160283, 22.158127338600988 ], [ -159.60604204060914, 22.158508820369949 ], [ -159.605565547856003, 22.160267536404287 ], [ -159.604701230276135, 22.160090421725776 ], [ -159.60498101165453, 22.15890590908624 ], [ -159.605513632796828, 22.15856040866354 ], [ -159.605748513038606, 22.15790711115373 ], [ -159.604757724394318, 22.158117875241118 ], [ -159.60402971011024, 22.157968678261948 ], [ -159.603739023262079, 22.158030512742695 ], [ -159.603148721271424, 22.157909526761852 ], [ -159.603013260650954, 22.158409350453191 ], [ -159.602722313612674, 22.158410426044604 ], [ -159.602724622470049, 22.158952459460334 ], [ -159.601576833035836, 22.158694336342339 ], [ -159.601773816707151, 22.159498012902066 ], [ -159.601672500196543, 22.159927034623273 ], [ -159.603140039207034, 22.160272067847988 ], [ -159.602784024592353, 22.161391022933433 ], [ -159.601688416052241, 22.161013756023479 ], [ -159.601421304098807, 22.160356749738099 ], [ -159.600549224335651, 22.1605422380436 ], [ -159.599966805921923, 22.160422865870736 ], [ -159.599668021477413, 22.16048641026082 ], [ -159.599238982272254, 22.160320410670295 ], [ -159.599137994752112, 22.15999034250947 ], [ -159.598883850772552, 22.160228940585409 ], [ -159.599238982272254, 22.160320410670295 ], [ -159.599067144943461, 22.161526915268013 ], [ -159.598384543281071, 22.160193207153029 ], [ -159.597607173313492, 22.160636781521511 ], [ -159.597662146071656, 22.161812016494945 ], [ -159.597332193188009, 22.162098993650591 ], [ -159.597950945444182, 22.162628817890166 ], [ -159.597365209093539, 22.163138360119643 ], [ -159.597727186384247, 22.163537163348572 ], [ -159.598370115326304, 22.164087698446529 ], [ -159.59663527943539, 22.163853232162662 ], [ -159.596851966727456, 22.160829091925095 ], [ -159.596167072678497, 22.159923377126805 ], [ -159.596480290019286, 22.159660598034847 ], [ -159.596753695073119, 22.159373325012577 ], [ -159.596906798995207, 22.159244879855599 ], [ -159.59700778076882, 22.159574949555811 ], [ -159.597261926840645, 22.159336354340692 ], [ -159.596906798995207, 22.159244879855599 ], [ -159.596712063727722, 22.158883525198444 ], [ -159.596612421702901, 22.158432893570986 ], [ -159.597642514443066, 22.158274339915614 ], [ -159.597909123238168, 22.158582041234247 ], [ -159.598213133872122, 22.158545683960675 ], [ -159.598653891002016, 22.158595106295035 ], [ -159.599392035135281, 22.158302176985753 ], [ -159.599649458078517, 22.158000235744517 ], [ -159.600229509585006, 22.15756403633041 ], [ -159.599817326715026, 22.156965465393501 ], [ -159.599361792591168, 22.15691438833781 ], [ -159.597915726548962, 22.157438266007333 ], [ -159.596469887973456, 22.156653704999069 ], [ -159.59541054815341, 22.156780390783759 ], [ -159.596150562962833, 22.156223891841954 ], [ -159.595884369100844, 22.156113968254328 ], [ -159.595584480742446, 22.156149826343906 ], [ -159.595293396142409, 22.156117176849875 ], [ -159.595002595146411, 22.156151950295815 ], [ -159.594645561851678, 22.156111906177664 ], [ -159.594119531148152, 22.156728749328014 ], [ -159.593223680176294, 22.155595603049086 ], [ -159.594108500087259, 22.154930229207405 ], [ -159.593255091823181, 22.154769033896077 ], [ -159.592785951459405, 22.154825129251048 ], [ -159.592391024299161, 22.153961442549459 ], [ -159.592030206570001, 22.153694444001591 ], [ -159.592100455265467, 22.153150921852365 ], [ -159.591477785353334, 22.152909155777898 ], [ -159.591516179411826, 22.15261222278523 ], [ -159.591184721976248, 22.15236695098848 ], [ -159.591253529538164, 22.151834864707904 ], [ -159.590339760049147, 22.150445598770826 ], [ -159.589760720320498, 22.150017117140578 ], [ -159.589462451814455, 22.149364684462622 ], [ -159.588551908678454, 22.148042836982306 ], [ -159.588284400430496, 22.1474576575709 ], [ -159.587688352768566, 22.14778691289597 ], [ -159.587418075467724, 22.147474906006991 ], [ -159.585756390661999, 22.146395742542595 ], [ -159.586292224013874, 22.145539041571741 ], [ -159.585591322803594, 22.145622812467078 ], [ -159.585707499181098, 22.144724254532591 ], [ -159.584919630940163, 22.145195182911657 ], [ -159.584818688274879, 22.144865104305158 ], [ -159.584564546103422, 22.145103680442062 ], [ -159.584919630940163, 22.145195182911657 ], [ -159.584779394715127, 22.145635145277122 ], [ -159.584193961203994, 22.145593431444105 ], [ -159.583462124008179, 22.145650845258736 ], [ -159.582425223378607, 22.145224262832603 ], [ -159.58105029442504, 22.144516003405812 ], [ -159.580662331281701, 22.144546432144757 ], [ -159.580782608182631, 22.143081617177316 ], [ -159.578524566484248, 22.142457010907918 ], [ -159.579512242821266, 22.141658171950517 ], [ -159.579217002066486, 22.140948580518224 ], [ -159.578634694364979, 22.140484785320577 ], [ -159.57815987657159, 22.139975315431279 ], [ -159.577175718898843, 22.139405862353371 ], [ -159.576650124090463, 22.138319709893018 ], [ -159.575989994459661, 22.138048057570501 ], [ -159.576815901096865, 22.137380048363838 ], [ -159.57691286679605, 22.136199035294318 ], [ -159.576601066784974, 22.135864435676122 ], [ -159.574986500647071, 22.134931634656663 ], [ -159.575102276200539, 22.134479318179679 ], [ -159.576144969532265, 22.13474835908103 ], [ -159.577133946598593, 22.134330680361849 ], [ -159.576542219867804, 22.132643337680658 ], [ -159.575380626927341, 22.132385255353576 ], [ -159.575142451616074, 22.131762009470489 ], [ -159.574247817854626, 22.132131273333702 ], [ -159.57410611190241, 22.13303757431143 ], [ -159.573369191036079, 22.132912105327428 ], [ -159.57341383194921, 22.132167413116413 ], [ -159.572293304765424, 22.130539542390981 ], [ -159.571338164007415, 22.129922896606907 ], [ -159.568993680982913, 22.129675313898908 ], [ -159.568692617345135, 22.129070134024637 ], [ -159.568116665403863, 22.128594275822074 ], [ -159.567502046224803, 22.127701238017327 ], [ -159.566653132966309, 22.126999855486442 ], [ -159.566671840245476, 22.126687561287365 ], [ -159.565156656024385, 22.125594882654866 ], [ -159.562976822135937, 22.123225185098015 ], [ -159.561688134815171, 22.121298886198659 ], [ -159.560878158630658, 22.119670383694199 ], [ -159.558780723034914, 22.117499276451472 ], [ -159.55779676088514, 22.117082556393353 ], [ -159.557014999409631, 22.116436464342037 ], [ -159.556739344862763, 22.116151128575584 ], [ -159.556431145948977, 22.115896406624675 ], [ -159.556292256439775, 22.115482717909025 ], [ -159.55747572524956, 22.115749293116373 ], [ -159.557957244934187, 22.114536642894432 ], [ -159.559461309970345, 22.11427709872061 ], [ -159.55999130898158, 22.115582256476348 ], [ -159.56065624544388, 22.115738819662415 ], [ -159.560757109776262, 22.116068916020172 ], [ -159.561011242066968, 22.115830376361828 ], [ -159.56065624544388, 22.115738819662415 ], [ -159.560218203606212, 22.114560515343229 ], [ -159.560894393688073, 22.113811125521156 ], [ -159.561578864208229, 22.11441937960678 ], [ -159.56323803845433, 22.118296936748603 ], [ -159.569100338811921, 22.125710732056948 ], [ -159.576264372900084, 22.131626858591051 ], [ -159.585026502745507, 22.136558341349822 ], [ -159.584741844332257, 22.136661333987607 ], [ -159.58430312524834, 22.13679570359718 ] ] ] } },
{ "type": "Feature", "properties": { "ID": 29, "GRIDCODE": 2 }, "geometry": { "type": "Polygon", "coordinates": [ [ [ -159.559470346584249, 22.110051382799817 ], [ -159.559867020094885, 22.110379209493672 ], [ -159.560301961014716, 22.111495783280798 ], [ -159.559049736147983, 22.111919297454214 ], [ -159.559470346584249, 22.110051382799817 ] ] ] } },
{ "type": "Feature", "properties": { "ID": 30, "GRIDCODE": 2 }, "geometry": { "type": "Polygon", "coordinates": [ [ [ -159.558881171853074, 22.108156230714023 ], [ -159.559236148325652, 22.108247791776073 ], [ -159.558982026263294, 22.108486328671493 ], [ -159.558881171853074, 22.108156230714023 ] ] ] } },
{ "type": "Feature", "properties": { "ID": 31, "GRIDCODE": 2 }, "geometry": { "type": "Polygon", "coordinates": [ [ [ -159.558587124174863, 22.107344163857206 ], [ -159.558877968651103, 22.107343169181842 ], [ -159.558881171853074, 22.108156230714023 ], [ -159.558590325710071, 22.108157225429736 ], [ -159.558587124174863, 22.107344163857206 ] ] ] } },
{ "type": "Feature", "properties": { "ID": 32, "GRIDCODE": 2 }, "geometry": { "type": "Polygon", "coordinates": [ [ [ -159.507384677377274, 22.103716842687749 ], [ -159.508053944687106, 22.103824619226117 ], [ -159.507543967087258, 22.104060473480374 ], [ -159.507384677377274, 22.103716842687749 ] ] ] } },
{ "type": "Feature", "properties": { "ID": 33, "GRIDCODE": 2 }, "geometry": { "type": "Polygon", "coordinates": [ [ [ -159.518313891057772, 22.070075296610085 ], [ -159.518668747668613, 22.070166956885622 ], [ -159.518414622644457, 22.070405423551758 ], [ -159.518313891057772, 22.070075296610085 ] ] ] } },
{ "type": "Feature", "properties": { "ID": 34, "GRIDCODE": 2 }, "geometry": { "type": "Polygon", "coordinates": [ [ [ -159.545043889204806, 22.064567905070462 ], [ -159.54539874788901, 22.064659507359728 ], [ -159.545144678297959, 22.064898014613451 ], [ -159.545043889204806, 22.064567905070462 ] ] ] } },
{ "type": "Feature", "properties": { "ID": 35, "GRIDCODE": 2 }, "geometry": { "type": "Polygon", "coordinates": [ [ [ -159.5002107967141, 22.048720470512954 ], [ -159.499856004944235, 22.048628768731131 ], [ -159.500110123605452, 22.048390330400608 ], [ -159.5002107967141, 22.048720470512954 ] ] ] } },
{ "type": "Feature", "properties": { "ID": 36, "GRIDCODE": 2 }, "geometry": { "type": "Polygon", "coordinates": [ [ [ -159.545043889204806, 22.064567905070462 ], [ -159.544560399178351, 22.064660562700233 ], [ -159.54407566606298, 22.06502213171024 ], [ -159.543399439829471, 22.06520647453425 ], [ -159.543207532786113, 22.066109120365319 ], [ -159.542240538986107, 22.066294423581734 ], [ -159.541852786164242, 22.066475686439141 ], [ -159.541752003463841, 22.066145574798988 ], [ -159.541497925024032, 22.066384076524926 ], [ -159.541852786164242, 22.066475686439141 ], [ -159.542348299244566, 22.067169227139672 ], [ -159.541309215027923, 22.067421445204339 ], [ -159.542057277929416, 22.067679539897064 ], [ -159.541678578892885, 22.068225823801363 ], [ -159.541865206661981, 22.068989037929981 ], [ -159.541426566391038, 22.069082216209992 ], [ -159.541135568158495, 22.069022436356811 ], [ -159.540836946268968, 22.06908587032105 ], [ -159.540408251207964, 22.068919698787251 ], [ -159.540289418809493, 22.068304178605178 ], [ -159.540029738615118, 22.068770216888183 ], [ -159.540408251207964, 22.068919698787251 ], [ -159.540564672946658, 22.069619078938192 ], [ -159.540550249399331, 22.070418342313108 ], [ -159.541143672002335, 22.070405098681057 ], [ -159.541534894033077, 22.071149919460026 ], [ -159.542497335710209, 22.070209520831821 ], [ -159.542884631370953, 22.070946907361172 ], [ -159.543334793787295, 22.071211012893155 ], [ -159.543766053200414, 22.070374848703231 ], [ -159.543752633485553, 22.069854594388897 ], [ -159.544048347902361, 22.06958791188837 ], [ -159.544332236003385, 22.069310515842858 ], [ -159.544781604664649, 22.068905194117679 ], [ -159.544028405544509, 22.06823544568557 ], [ -159.544335930304641, 22.067958086828831 ], [ -159.543829480292146, 22.067507757845153 ], [ -159.544620537545512, 22.067146774706682 ], [ -159.544903874800241, 22.066727216610033 ], [ -159.544030079155704, 22.066335661150049 ], [ -159.543744574304782, 22.066189021467864 ], [ -159.544615345842971, 22.065791662050778 ], [ -159.545316886981425, 22.065451816663792 ], [ -159.547526766593933, 22.07320516374498 ], [ -159.552427701603818, 22.08980062709993 ], [ -159.558441935384934, 22.106664386808045 ], [ -159.558587124174863, 22.107344163857206 ], [ -159.558289411852513, 22.107079574789864 ], [ -159.557304857515675, 22.106131646748931 ], [ -159.557565735155038, 22.107214853638705 ], [ -159.557863446416633, 22.107479435771783 ], [ -159.558156431396469, 22.108581836297482 ], [ -159.559315232705472, 22.109611665250096 ], [ -159.558015030223146, 22.109785336370376 ], [ -159.557914177052851, 22.109455237840454 ], [ -159.557660050603488, 22.109693772735667 ], [ -159.558015030223146, 22.109785336370376 ], [ -159.557896864108216, 22.109946065029973 ], [ -159.55683223446843, 22.110636380723431 ], [ -159.554716327191528, 22.111335606037226 ], [ -159.555869217431933, 22.112071544425721 ], [ -159.55610807198164, 22.112391381532543 ], [ -159.556582901265699, 22.112694492684852 ], [ -159.557018117124983, 22.112602019879141 ], [ -159.557855557262684, 22.112984358850333 ], [ -159.556987892742256, 22.114235926128242 ], [ -159.556752614746898, 22.114828402285532 ], [ -159.555771456744367, 22.11506659054935 ], [ -159.556172826137924, 22.115322799656802 ], [ -159.556292256439775, 22.115482717909025 ], [ -159.555211940103305, 22.115298633998851 ], [ -159.554695455475439, 22.114260029660141 ], [ -159.554128275983487, 22.114293467372274 ], [ -159.553501010144345, 22.11397856680534 ], [ -159.552898049913466, 22.114014106519473 ], [ -159.550952429203846, 22.112757533311001 ], [ -159.550324586778771, 22.112107505875571 ], [ -159.549672397621578, 22.111568430648319 ], [ -159.549737503650817, 22.110484850242344 ], [ -159.549426421810352, 22.10995607258296 ], [ -159.549443569500284, 22.109671657636326 ], [ -159.548843552831244, 22.109417496642255 ], [ -159.548521221343918, 22.108457049490067 ], [ -159.54768135495965, 22.108885973218904 ], [ -159.547281240286168, 22.108081270906759 ], [ -159.545344030091258, 22.107260614415868 ], [ -159.545361182948199, 22.106975463533086 ], [ -159.545052098215308, 22.106719944614785 ], [ -159.544776486605713, 22.106434587441324 ], [ -159.543593724849217, 22.105640704575475 ], [ -159.543261765996789, 22.104973055437746 ], [ -159.541842463948058, 22.104020372875276 ], [ -159.541117323324698, 22.103269500812807 ], [ -159.540686088438747, 22.101569727456884 ], [ -159.540276716935125, 22.100518328693202 ], [ -159.539599998148418, 22.099367517148835 ], [ -159.538922561737678, 22.096697101323141 ], [ -159.537761493944515, 22.096014314166265 ], [ -159.536098085006302, 22.095309429089717 ], [ -159.535715317973228, 22.094539442998478 ], [ -159.53511638487538, 22.094285631357248 ], [ -159.533419018328857, 22.093188964103259 ], [ -159.532266996392536, 22.093256720817948 ], [ -159.528924881513092, 22.091973944953168 ], [ -159.528426753491914, 22.090489033666284 ], [ -159.527559333427916, 22.091057889349212 ], [ -159.526528450887668, 22.091316986955977 ], [ -159.524647144279385, 22.089967906622284 ], [ -159.522983985444768, 22.088851151382382 ], [ -159.52096315146062, 22.088969874890584 ], [ -159.518656206689002, 22.087811023704113 ], [ -159.518227183864695, 22.087836221378232 ], [ -159.516561149319159, 22.087196582574631 ], [ -159.515956724286156, 22.085980213020271 ], [ -159.513777592211966, 22.08541023441358 ], [ -159.512695315940789, 22.085962780976352 ], [ -159.512268286248599, 22.084689167278857 ], [ -159.511061779456213, 22.085956216423877 ], [ -159.510676836731733, 22.086846426827666 ], [ -159.511400980935605, 22.088078471324572 ], [ -159.508947750589385, 22.088966201598833 ], [ -159.508349683651318, 22.088934845770293 ], [ -159.508033519946594, 22.088953396326289 ], [ -159.508086446210655, 22.089736138136004 ], [ -159.507456807408602, 22.09082453175343 ], [ -159.507574056508503, 22.092560148896528 ], [ -159.509792165402814, 22.093500547720151 ], [ -159.51023252270511, 22.093956761984316 ], [ -159.510983773604806, 22.095865261746511 ], [ -159.510005438464844, 22.095373790751793 ], [ -159.509542485652105, 22.094894156639004 ], [ -159.507800075456771, 22.093956032809974 ], [ -159.505008447313941, 22.094119780756689 ], [ -159.505536848857219, 22.095018816788681 ], [ -159.506054561363868, 22.095447045396327 ], [ -159.506482370214712, 22.095890273408138 ], [ -159.506041129628045, 22.096260165675563 ], [ -159.504765004173549, 22.097600103746327 ], [ -159.505193669250161, 22.098702023202154 ], [ -159.505307158153784, 22.099785776903566 ], [ -159.504879559911785, 22.098925088462543 ], [ -159.504230449725441, 22.098388216221206 ], [ -159.503738765521007, 22.098493220046077 ], [ -159.504322144358525, 22.098975741185232 ], [ -159.504597914981701, 22.099332514119272 ], [ -159.504016267693743, 22.100337886619101 ], [ -159.504421789200904, 22.10138022819147 ], [ -159.506433008334852, 22.10273091584245 ], [ -159.507384677377274, 22.103716842687749 ], [ -159.506058220520202, 22.103462527112665 ], [ -159.501422156885241, 22.103648080244668 ], [ -159.499531453289421, 22.103584038801873 ], [ -159.498804448757397, 22.103613115895239 ], [ -159.49851357138084, 22.103603267761518 ], [ -159.497960934061751, 22.103625365871302 ], [ -159.497611880931402, 22.103325958035228 ], [ -159.497653643918113, 22.102256125755172 ], [ -159.497628666367092, 22.101714149261266 ], [ -159.497731930201979, 22.099068267743718 ], [ -159.497335805116109, 22.097915510652989 ], [ -159.496765852052448, 22.096919637120187 ], [ -159.496715360956244, 22.095821756124582 ], [ -159.497033974897562, 22.094673076889105 ], [ -159.497015142878467, 22.094262789640972 ], [ -159.497037228955151, 22.093696269688863 ], [ -159.496733283790576, 22.091954759213802 ], [ -159.495935891522919, 22.090882304167931 ], [ -159.495550107006636, 22.08952807577176 ], [ -159.495570111682923, 22.089014579549023 ], [ -159.494683408520501, 22.087895573988419 ], [ -159.494380617567856, 22.087635785355861 ], [ -159.494099907173648, 22.087355284783079 ], [ -159.493020986931469, 22.087040502143275 ], [ -159.491923100359401, 22.084630851854577 ], [ -159.491166740985761, 22.083309040001801 ], [ -159.49088510888609, 22.082757509193652 ], [ -159.48990822282704, 22.082331400795841 ], [ -159.488008730403351, 22.081196198897231 ], [ -159.486818076400624, 22.07939678092108 ], [ -159.489988060497524, 22.078822894331434 ], [ -159.488833672440563, 22.078156191531772 ], [ -159.487959990593026, 22.077775071256163 ], [ -159.488403897420739, 22.077088684209116 ], [ -159.48882440425902, 22.077071894820129 ], [ -159.489132764391883, 22.077082370479939 ], [ -159.489095010595264, 22.07626169262781 ], [ -159.490268806099806, 22.075911470451135 ], [ -159.489665176684611, 22.075485232785791 ], [ -159.487961866869369, 22.075427396678386 ], [ -159.487478807636847, 22.075916418509927 ], [ -159.486096296010942, 22.076809213409987 ], [ -159.485647473633719, 22.07618518524966 ], [ -159.486210365383528, 22.075186100676312 ], [ -159.485903630054395, 22.074922915865262 ], [ -159.485404126718834, 22.074423682880308 ], [ -159.484727721091929, 22.074092627919509 ], [ -159.484161708761746, 22.074115213628676 ], [ -159.483291034467271, 22.074085630413624 ], [ -159.482925574116592, 22.075173582798925 ], [ -159.480394182947805, 22.075274566876836 ], [ -159.480354409231694, 22.074408252009089 ], [ -159.481678492022098, 22.073971316072765 ], [ -159.483002283285941, 22.073576371060245 ], [ -159.484292737691391, 22.073150514020909 ], [ -159.485616513649717, 22.072755548081162 ], [ -159.486954151632489, 22.071891740553674 ], [ -159.489002829325557, 22.071961309821976 ], [ -159.489683655209745, 22.07165931336581 ], [ -159.490054025533965, 22.070921695592304 ], [ -159.492358873715659, 22.069899331638979 ], [ -159.493519437773671, 22.069149797803647 ], [ -159.49514953164504, 22.068426709099743 ], [ -159.495341263243176, 22.063514118605838 ], [ -159.494864170809507, 22.062680213402395 ], [ -159.494892848512364, 22.061945817708111 ], [ -159.494495851710894, 22.060789955825442 ], [ -159.493702008029942, 22.059722021253307 ], [ -159.492957577255055, 22.058263834879064 ], [ -159.491675956834371, 22.059186065058029 ], [ -159.490788449117815, 22.059579770741802 ], [ -159.489712106773652, 22.060114827760216 ], [ -159.489328611484297, 22.059444525723514 ], [ -159.489396982948335, 22.057695128987998 ], [ -159.489039753707544, 22.056754711931934 ], [ -159.488757253213919, 22.055932149294335 ], [ -159.487880972606234, 22.054753151239286 ], [ -159.491653468141578, 22.053481444054423 ], [ -159.492107260635947, 22.053935008533902 ], [ -159.493307206596569, 22.053402673711474 ], [ -159.493675983180196, 22.051569873025823 ], [ -159.495080286435382, 22.051617508514092 ], [ -159.495708619510367, 22.051071235138838 ], [ -159.49608249423045, 22.049957819094974 ], [ -159.496296695536103, 22.050217875548245 ], [ -159.496849292163745, 22.05130031134053 ], [ -159.497183301496705, 22.051029278377673 ], [ -159.497146354581503, 22.050226463566325 ], [ -159.497994587200651, 22.050192537968773 ], [ -159.498332757892058, 22.050482718413242 ], [ -159.498851278952458, 22.051498337559945 ], [ -159.499204225159133, 22.05185109993544 ], [ -159.499768218294662, 22.051279896306767 ], [ -159.500941237931954, 22.051319651655685 ], [ -159.50065765113834, 22.050204596996274 ], [ -159.500353024966586, 22.049402766925859 ], [ -159.5002107967141, 22.048720470512954 ], [ -159.500362155057729, 22.048850360795296 ], [ -159.500783122820138, 22.049271115637438 ], [ -159.502355964260801, 22.050620741465945 ], [ -159.502682935605435, 22.049646955637002 ], [ -159.50384752650163, 22.051018216368835 ], [ -159.504681607942587, 22.051276352530898 ], [ -159.506167840544151, 22.049374172816908 ], [ -159.506804531304937, 22.04939572612162 ], [ -159.507619085053051, 22.050209809102675 ], [ -159.508091096681625, 22.049731713961599 ], [ -159.508792420015851, 22.050736824410119 ], [ -159.509662962726225, 22.050174410731742 ], [ -159.510862706206183, 22.05056220887986 ], [ -159.510806675331736, 22.049348549318385 ], [ -159.511551622880603, 22.049373733015983 ], [ -159.512278346352076, 22.049344612642912 ], [ -159.514351053361395, 22.049414687725186 ], [ -159.51488922212954, 22.049297978096316 ], [ -159.513490859558601, 22.048098295695457 ], [ -159.514528676778326, 22.047637728088429 ], [ -159.514008923428065, 22.047191844233073 ], [ -159.514068547718125, 22.045836916013123 ], [ -159.515169371908996, 22.046375511315919 ], [ -159.516578709004079, 22.046786611157476 ], [ -159.517202981500873, 22.045542585266226 ], [ -159.518099131629128, 22.045832218325824 ], [ -159.518844764279095, 22.045076822989845 ], [ -159.521006609018798, 22.043357807280657 ], [ -159.520957888998396, 22.042302453700366 ], [ -159.521105337119991, 22.042020287301199 ], [ -159.522170298729066, 22.043695961787115 ], [ -159.523886538423568, 22.04362704061176 ], [ -159.524383718720486, 22.043643827594526 ], [ -159.523796101652323, 22.045224098685242 ], [ -159.524492299840915, 22.045527669107631 ], [ -159.524471035026608, 22.046074589075683 ], [ -159.524778203967145, 22.046338064903786 ], [ -159.524452701896536, 22.046916264939846 ], [ -159.524488952745457, 22.047700629144781 ], [ -159.523975544393295, 22.048234435308977 ], [ -159.522997346229715, 22.046832866119168 ], [ -159.521277610565562, 22.045357525764057 ], [ -159.519079396088443, 22.04703695910251 ], [ -159.518295071967231, 22.047831484475015 ], [ -159.517805816279889, 22.048806441880657 ], [ -159.517282602217733, 22.049735865190218 ], [ -159.518402396739134, 22.051241963982449 ], [ -159.517513838011865, 22.051507316570554 ], [ -159.517233080131604, 22.051791737133726 ], [ -159.516071249824051, 22.051511870680219 ], [ -159.514731854998303, 22.051218906989455 ], [ -159.513640620896382, 22.051262647848997 ], [ -159.511718293978419, 22.052218604288104 ], [ -159.510830887156658, 22.0526124171232 ], [ -159.509971349528882, 22.053059652425137 ], [ -159.510847799957219, 22.054238529218829 ], [ -159.511129072293642, 22.054684952297006 ], [ -159.509279434024279, 22.053637144540325 ], [ -159.507560458888463, 22.053174967705193 ], [ -159.505808568762319, 22.053753445767139 ], [ -159.504771634934258, 22.054803669557618 ], [ -159.503571149557217, 22.055074160092847 ], [ -159.502420921862864, 22.055547543327783 ], [ -159.503585101406884, 22.05588720006357 ], [ -159.505314823224808, 22.057190572829537 ], [ -159.505951446461893, 22.058699703372334 ], [ -159.505913066494259, 22.0596836860317 ], [ -159.506218606294141, 22.060487585404211 ], [ -159.506207678175542, 22.060767744800589 ], [ -159.506801610641674, 22.061026793520362 ], [ -159.50766766848767, 22.062389567959521 ], [ -159.508554847380424, 22.063460599818317 ], [ -159.508842083638569, 22.064023034517248 ], [ -159.51002341581264, 22.063975701802438 ], [ -159.50999085015988, 22.064811630242989 ], [ -159.510305226013259, 22.065081313271239 ], [ -159.510609646851321, 22.065385517181756 ], [ -159.513230426879488, 22.064520085407302 ], [ -159.513791646676708, 22.06453905146661 ], [ -159.514362631804119, 22.06425514728555 ], [ -159.514803584335567, 22.064270038059234 ], [ -159.51602764342951, 22.064220956052839 ], [ -159.51698083727095, 22.064529006204367 ], [ -159.517421317356764, 22.064511336406358 ], [ -159.51786227082053, 22.064526218914931 ], [ -159.518433247451895, 22.064242300686207 ], [ -159.51901959883233, 22.064262095552529 ], [ -159.519802680216713, 22.064230677527661 ], [ -159.520181021071096, 22.06533156380819 ], [ -159.520495416992674, 22.065601226844205 ], [ -159.520474526324676, 22.066138549620625 ], [ -159.52048778652474, 22.06642541467312 ], [ -159.521067955193814, 22.066402129385036 ], [ -159.521511194892469, 22.066845039553765 ], [ -159.522390939644168, 22.065953952279841 ], [ -159.523385370477058, 22.066947505277078 ], [ -159.523978932330749, 22.067206309747615 ], [ -159.524260659490523, 22.06775778275227 ], [ -159.524586961179978, 22.068037639070536 ], [ -159.526083673994293, 22.067977532737235 ], [ -159.526585737322932, 22.067468966939686 ], [ -159.527177373219132, 22.067206357428997 ], [ -159.52791407585056, 22.066839972096531 ], [ -159.528907922887981, 22.065833133864516 ], [ -159.530216544008937, 22.066148211391585 ], [ -159.530740860894895, 22.06510319852509 ], [ -159.531726937242553, 22.064665501122111 ], [ -159.532097069860754, 22.063927792088233 ], [ -159.532669909357168, 22.06342958131242 ], [ -159.53296527651878, 22.062840860655729 ], [ -159.533265110494312, 22.0623081531506 ], [ -159.533541700657338, 22.061483849786107 ], [ -159.533841529704063, 22.060951141237101 ], [ -159.534493961917235, 22.059650684747147 ], [ -159.536224818952263, 22.058458537283009 ], [ -159.536726671055106, 22.057950090515149 ], [ -159.537245133691755, 22.057499088212886 ], [ -159.537590708607752, 22.055779042440239 ], [ -159.538650740358406, 22.054480985415569 ], [ -159.539044639896844, 22.053306850291118 ], [ -159.539625689860003, 22.05280137623701 ], [ -159.540746772526489, 22.051665432726065 ], [ -159.541632995554551, 22.052550783176208 ], [ -159.542177514661773, 22.05199900382588 ], [ -159.542599518469189, 22.053624624786835 ], [ -159.543708829686381, 22.059050949504694 ], [ -159.543041030880943, 22.059631827006566 ], [ -159.541505955045722, 22.059135984633429 ], [ -159.541108775366041, 22.060528640657811 ], [ -159.542099829102568, 22.060035614390227 ], [ -159.542714746398985, 22.061239133582756 ], [ -159.544083168496854, 22.060786959683401 ], [ -159.544779623179124, 22.062812475310405 ], [ -159.545043889204806, 22.064567905070462 ] ], [ [ -159.518313891057772, 22.070075296610085 ], [ -159.517585059211171, 22.070216839497416 ], [ -159.517297616679315, 22.069669260297442 ], [ -159.516999917858271, 22.069404501179196 ], [ -159.517012412628389, 22.068721617801668 ], [ -159.516111871682853, 22.068317904435588 ], [ -159.516913616337632, 22.067595011630704 ], [ -159.516119880927846, 22.067239164529944 ], [ -159.515688040864092, 22.066823068074473 ], [ -159.514380760706786, 22.067244740724071 ], [ -159.51407861747137, 22.067239950233468 ], [ -159.514088451647297, 22.066700793427025 ], [ -159.514081508597826, 22.066429788293821 ], [ -159.514095196521765, 22.065680351756786 ], [ -159.510864526424427, 22.066995301208465 ], [ -159.509612650192764, 22.066975384568977 ], [ -159.508281435333544, 22.065096446063343 ], [ -159.506635877809742, 22.06435859022206 ], [ -159.5074030617169, 22.06400871123229 ], [ -159.506504361710626, 22.063209232337705 ], [ -159.505932522682315, 22.062658095070205 ], [ -159.505344246903888, 22.062394311335051 ], [ -159.504763727779306, 22.06103554025049 ], [ -159.503878804113469, 22.059146252792868 ], [ -159.503888809214317, 22.058604315846321 ], [ -159.503304047351634, 22.05808405963894 ], [ -159.503003821353929, 22.057512010090147 ], [ -159.502389649427556, 22.057525591834601 ], [ -159.501263997587131, 22.058070519513013 ], [ -159.500679768441358, 22.058061191456471 ], [ -159.500095617507782, 22.058074093811015 ], [ -159.499309932793295, 22.05769980986117 ], [ -159.500097412659784, 22.056989878397921 ], [ -159.500396430293591, 22.055830033234937 ], [ -159.50249105775373, 22.053941608076354 ], [ -159.504160332884112, 22.053180313954424 ], [ -159.503566127885279, 22.052913828190039 ], [ -159.502984806811156, 22.0526369286648 ], [ -159.502700698982608, 22.053187515922382 ], [ -159.50239312249542, 22.053464781449541 ], [ -159.501823748300325, 22.053455709342714 ], [ -159.500379575335018, 22.054549766540053 ], [ -159.49946360119813, 22.055089193786504 ], [ -159.49805353469273, 22.053729997451772 ], [ -159.497613249455583, 22.054160011793208 ], [ -159.496889637504609, 22.053462506774441 ], [ -159.496582836757511, 22.053762124300501 ], [ -159.495722060908548, 22.052932344768642 ], [ -159.495274172062693, 22.05266809840036 ], [ -159.49464440436725, 22.055110842202527 ], [ -159.491252041718298, 22.055056527471635 ], [ -159.490023353761728, 22.055452691629057 ], [ -159.490501894092318, 22.056742462531986 ], [ -159.491077465055014, 22.058377888265436 ], [ -159.491708804750658, 22.058072293883175 ], [ -159.493069713279255, 22.056743398588488 ], [ -159.494298202064186, 22.058658392838918 ], [ -159.494871683666304, 22.059168658108241 ], [ -159.494861644713211, 22.059710743986745 ], [ -159.495165121377966, 22.059980754532997 ], [ -159.495771950752811, 22.060565669811833 ], [ -159.496329889596808, 22.06215087331061 ], [ -159.496915644319415, 22.063729306887229 ], [ -159.497224172198855, 22.065460272577521 ], [ -159.497212004950882, 22.066121931574411 ], [ -159.496353527095124, 22.068921063696159 ], [ -159.496073328028672, 22.070282476362394 ], [ -159.495451947208863, 22.0705657753244 ], [ -159.494592351966133, 22.070552032747003 ], [ -159.493750921673751, 22.071373611959046 ], [ -159.49280363562039, 22.071663293631428 ], [ -159.493200877061184, 22.073088844550774 ], [ -159.490644338853969, 22.073870575511496 ], [ -159.491747203077523, 22.074365183831144 ], [ -159.492303436833453, 22.074901330515178 ], [ -159.492891741680836, 22.075165160229322 ], [ -159.493178657173843, 22.075727606659399 ], [ -159.492598897101374, 22.07625015161393 ], [ -159.492314892459916, 22.076527459844854 ], [ -159.491728279531202, 22.076794875614841 ], [ -159.491741922469714, 22.077331727980798 ], [ -159.491439410893719, 22.077883426056129 ], [ -159.491738932919247, 22.078149930261848 ], [ -159.492026825664141, 22.078994039381875 ], [ -159.49055762780938, 22.080318172267368 ], [ -159.491187193256366, 22.080600493827198 ], [ -159.491743592183326, 22.08113674042411 ], [ -159.492039620216417, 22.081130225635153 ], [ -159.493233673952432, 22.081411617197752 ], [ -159.493198670063691, 22.083312270235105 ], [ -159.494105770447703, 22.084918473148171 ], [ -159.494665596798995, 22.08437191438632 ], [ -159.494965999901382, 22.084661436203159 ], [ -159.494956205901644, 22.085192138679542 ], [ -159.495254986516585, 22.085728292003353 ], [ -159.495249843978769, 22.086004512160255 ], [ -159.496419951074017, 22.086266597756516 ], [ -159.496723282498635, 22.086558919437074 ], [ -159.49670383367382, 22.087615758063485 ], [ -159.497157453688061, 22.088429858159699 ], [ -159.497872003543392, 22.089791220568426 ], [ -159.498473394811981, 22.089777957297482 ], [ -159.499326363798133, 22.090599914328632 ], [ -159.499633628033223, 22.090593136127101 ], [ -159.500797646482908, 22.090867366615822 ], [ -159.501081340451464, 22.090317777678077 ], [ -159.50153233718666, 22.089495242411694 ], [ -159.502244643845131, 22.08950660362396 ], [ -159.50253820365046, 22.089500126777555 ], [ -159.503685500346364, 22.090605630930849 ], [ -159.503991090188066, 22.090307261346393 ], [ -159.505659183681701, 22.090931852834736 ], [ -159.506179365903336, 22.090423937714764 ], [ -159.504877227535047, 22.089265696976415 ], [ -159.504571036311376, 22.088654417515805 ], [ -159.505148910661973, 22.087600420179434 ], [ -159.50543392143183, 22.087048321904462 ], [ -159.506026875556387, 22.087619722706393 ], [ -159.507475129929844, 22.087587691069672 ], [ -159.508052336718094, 22.087862549166829 ], [ -159.508537999553312, 22.087851808704979 ], [ -159.509213696960359, 22.087397542704188 ], [ -159.507136836599074, 22.086776587693183 ], [ -159.506014550868741, 22.085695131692638 ], [ -159.504904318410212, 22.085363171816702 ], [ -159.50543155744208, 22.084887941054937 ], [ -159.5051287645407, 22.084072256850177 ], [ -159.506192981058348, 22.083746757711058 ], [ -159.506878268398538, 22.08407311229853 ], [ -159.50745596336742, 22.083793478502528 ], [ -159.508842800643862, 22.083473809124257 ], [ -159.509483266495124, 22.081476798566726 ], [ -159.508605419371577, 22.08108324741697 ], [ -159.508905116206137, 22.080813108031634 ], [ -159.509189096227857, 22.080535771581289 ], [ -159.509779588547502, 22.080266511465389 ], [ -159.509468989556979, 22.079990249441789 ], [ -159.510066463383026, 22.079451643765069 ], [ -159.509449257646963, 22.078902697307271 ], [ -159.510631802739908, 22.07892149006782 ], [ -159.511045593505344, 22.078517379570862 ], [ -159.510180837435712, 22.077336901738914 ], [ -159.508981182497365, 22.076799049207619 ], [ -159.510081114098341, 22.076473017320716 ], [ -159.511211980337066, 22.07701153998763 ], [ -159.512097153675882, 22.077276191303902 ], [ -159.512070882076159, 22.078712926465656 ], [ -159.511223522686038, 22.080258612807881 ], [ -159.511230541528334, 22.080532115312359 ], [ -159.511225553394695, 22.080803157478947 ], [ -159.511239763994553, 22.081358714190657 ], [ -159.512980105047887, 22.081879056100785 ], [ -159.513557085275522, 22.082153796611369 ], [ -159.513850557933637, 22.082147299969215 ], [ -159.514452777874396, 22.082156853615221 ], [ -159.51443286833657, 22.083246100319261 ], [ -159.513274498382003, 22.083227706397075 ], [ -159.51298625628371, 22.083582248808383 ], [ -159.515897893220483, 22.084580140337735 ], [ -159.517351755698229, 22.085395556558034 ], [ -159.51840980417586, 22.084883319848693 ], [ -159.518797170311871, 22.083757788963812 ], [ -159.519247881832058, 22.083764927138908 ], [ -159.519672488646108, 22.084573613059593 ], [ -159.520260882622097, 22.084837342274341 ], [ -159.520849338988427, 22.085117495456128 ], [ -159.520834501417227, 22.085930803037066 ], [ -159.521427921260141, 22.08591762987944 ], [ -159.521714059836, 22.086193268229071 ], [ -159.522011660774638, 22.086457918572382 ], [ -159.522398897435295, 22.087195353390666 ], [ -159.52287924720676, 22.08672617226992 ], [ -159.523174894439421, 22.086459626289681 ], [ -159.523461120816421, 22.086180041675657 ], [ -159.524333286840942, 22.086726941415918 ], [ -159.525246619261736, 22.086999915648587 ], [ -159.526108180117774, 22.0869807522663 ], [ -159.526774354523184, 22.086330057342707 ], [ -159.52899568924758, 22.08685299357899 ], [ -159.528971352128508, 22.085904035262352 ], [ -159.529280430381675, 22.085625375781913 ], [ -159.528671584360524, 22.084240273306662 ], [ -159.530442911861655, 22.084268216263666 ], [ -159.530422044514893, 22.083452278390059 ], [ -159.531591059762036, 22.082918985807986 ], [ -159.531877330116572, 22.082202476470204 ], [ -159.529838336603035, 22.081288676220964 ], [ -159.529239330666485, 22.080711625391778 ], [ -159.529285921660517, 22.079935335074214 ], [ -159.530420797215328, 22.080475579325757 ], [ -159.530706643577929, 22.080196330874905 ], [ -159.531692849074744, 22.079746440779935 ], [ -159.532172157629503, 22.080208160094912 ], [ -159.532157677299494, 22.081004792503879 ], [ -159.532794923486478, 22.081571418624875 ], [ -159.534521382722687, 22.081532948330597 ], [ -159.534478445036882, 22.079857456159392 ], [ -159.53331424919088, 22.077769159608245 ], [ -159.533321956208226, 22.077344763097745 ], [ -159.533311485189699, 22.076938258241281 ], [ -159.533321193597772, 22.076403998972637 ], [ -159.533014714639165, 22.075854211724113 ], [ -159.533392888635603, 22.075513170705566 ], [ -159.534557264461739, 22.075880409022833 ], [ -159.535347121997603, 22.074748892523338 ], [ -159.536505771047104, 22.074220264549993 ], [ -159.537080460347141, 22.073941926763293 ], [ -159.537957607375745, 22.073673444163482 ], [ -159.538882202938822, 22.073225632991864 ], [ -159.540465426575963, 22.0737249107327 ], [ -159.540858958264494, 22.073508231741759 ], [ -159.539847486245492, 22.072127941358982 ], [ -159.538798462235036, 22.071491848749115 ], [ -159.538234493100362, 22.071504424612655 ], [ -159.537436852803154, 22.07073611822376 ], [ -159.537074807230482, 22.07178870777182 ], [ -159.535852894353241, 22.072346230849501 ], [ -159.533715808584958, 22.072312573541232 ], [ -159.533296952551126, 22.071514971530117 ], [ -159.532720986068426, 22.071527799094326 ], [ -159.532009745328054, 22.071189197014046 ], [ -159.532426588356856, 22.070428391713047 ], [ -159.53300199361081, 22.070437452321993 ], [ -159.533576785427385, 22.070131832014614 ], [ -159.532371974546606, 22.06962632575414 ], [ -159.53067063648794, 22.070175295574053 ], [ -159.530367628515506, 22.069883366636741 ], [ -159.529212335335643, 22.069365550937462 ], [ -159.528923481682085, 22.068545597965013 ], [ -159.528332570087741, 22.068831767456139 ], [ -159.527485196785761, 22.068818389729607 ], [ -159.525438169372308, 22.069377716256987 ], [ -159.522663855324964, 22.069652203976624 ], [ -159.52223770523284, 22.068840485081807 ], [ -159.520193109567998, 22.068382792970244 ], [ -159.52019949967351, 22.06803394818003 ], [ -159.519022712495257, 22.067506434179204 ], [ -159.519039851293769, 22.068175807950396 ], [ -159.519032034664775, 22.068601346709805 ], [ -159.518452895511444, 22.069123549727486 ], [ -159.518313891057772, 22.070075296610085 ] ], [ [ -159.532557544923748, 22.068945443150923 ], [ -159.532716854109623, 22.069289050444752 ], [ -159.533226664575324, 22.069053119922593 ], [ -159.532557544923748, 22.068945443150923 ] ], [ [ -159.534008325625791, 22.068127635283719 ], [ -159.534127130763295, 22.068743160590465 ], [ -159.534386830480855, 22.068277131287868 ], [ -159.534008325625791, 22.068127635283719 ] ], [ [ -159.532551452366448, 22.067319305059701 ], [ -159.533056401590954, 22.068249727174926 ], [ -159.533765771732931, 22.068490500970732 ], [ -159.533200165470845, 22.0674391738956 ], [ -159.532551452366448, 22.067319305059701 ] ], [ [ -159.536331380261259, 22.067306957650853 ], [ -159.535953934252547, 22.068191213321732 ], [ -159.537620964359434, 22.067967768200891 ], [ -159.536331380261259, 22.067306957650853 ] ], [ [ -159.534878581977239, 22.067582739922987 ], [ -159.53508000181759, 22.068230880157738 ], [ -159.535590092123158, 22.067769852711947 ], [ -159.534878581977239, 22.067582739922987 ] ], [ [ -159.538072883803721, 22.066488160962617 ], [ -159.538183146872598, 22.067280745084961 ], [ -159.538753299013081, 22.066806193961515 ], [ -159.538072883803721, 22.066488160962617 ] ], [ [ -159.502143809636863, 22.102106876093917 ], [ -159.502303084873006, 22.102450512336137 ], [ -159.502813065810926, 22.102214674338235 ], [ -159.502143809636863, 22.102106876093917 ] ], [ [ -159.501268428173603, 22.101296485238734 ], [ -159.500911804878825, 22.101970661376221 ], [ -159.501695735047264, 22.102199300255176 ], [ -159.501948252096327, 22.10142220289411 ], [ -159.501268428173603, 22.101296485238734 ] ], [ [ -159.499233537745312, 22.101573740926927 ], [ -159.499461296263974, 22.101929147340574 ], [ -159.500505519422916, 22.101691418014518 ], [ -159.499233537745312, 22.101573740926927 ] ], [ [ -159.499223050255949, 22.098592483710526 ], [ -159.499323291009404, 22.09931420855462 ], [ -159.499852199247897, 22.099494687457735 ], [ -159.499425531816911, 22.098687147756134 ], [ -159.499223050255949, 22.098592483710526 ] ], [ [ -159.498636630643944, 22.097239142086043 ], [ -159.49905966977667, 22.098208758518599 ], [ -159.4997113747676, 22.098116976407365 ], [ -159.499609472772107, 22.097488389023312 ], [ -159.498636630643944, 22.097239142086043 ] ], [ [ -159.498337240350281, 22.094800817144424 ], [ -159.498103244118852, 22.095718990798879 ], [ -159.498649443379094, 22.097025974071379 ], [ -159.49991888609236, 22.096535293986381 ], [ -159.501629270253574, 22.096272244204854 ], [ -159.500207003533234, 22.095766063204657 ], [ -159.499920839635166, 22.095396527139833 ], [ -159.49901289065167, 22.095566625478309 ], [ -159.498507046967632, 22.094913447600018 ], [ -159.498337240350281, 22.094800817144424 ] ], [ [ -159.536656939732808, 22.076520776333194 ], [ -159.536757352145202, 22.077242476764177 ], [ -159.537467891561676, 22.077422238803841 ], [ -159.537918161863161, 22.076624371889118 ], [ -159.536656939732808, 22.076520776333194 ] ], [ [ -159.541008355032687, 22.073796182394471 ], [ -159.541271846019328, 22.074739153546403 ], [ -159.542543611402635, 22.074985900280673 ], [ -159.542284710212982, 22.073927187587039 ], [ -159.541008355032687, 22.073796182394471 ] ] ] } },
{ "type": "Feature", "properties": { "ID": 37, "GRIDCODE": 2 }, "geometry": { "type": "Polygon", "coordinates": [ [ [ -159.521408026724316, 22.041607621342724 ], [ -159.521309730709618, 22.04193838143523 ], [ -159.521053919480465, 22.041701533674594 ], [ -159.521408026724316, 22.041607621342724 ] ] ] } },
{ "type": "Feature", "properties": { "ID": 38, "GRIDCODE": 2 }, "geometry": { "type": "Polygon", "coordinates": [ [ [ -159.521408026724316, 22.041607621342724 ], [ -159.52150632229808, 22.041276861186844 ], [ -159.521762133485026, 22.041513708253174 ], [ -159.521408026724316, 22.041607621342724 ] ] ] } },
{ "type": "Feature", "properties": { "ID": 39, "GRIDCODE": 2 }, "geometry": { "type": "Polygon", "coordinates": [ [ [ -159.526912486082978, 22.036440481199488 ], [ -159.527581448540786, 22.036548184588906 ], [ -159.527071743566864, 22.036784096336788 ], [ -159.526912486082978, 22.036440481199488 ] ] ] } },
{ "type": "Feature", "properties": { "ID": 40, "GRIDCODE": 2 }, "geometry": { "type": "Polygon", "coordinates": [ [ [ -159.53155965165783, 22.035341355788994 ], [ -159.531914429006491, 22.035432989275012 ], [ -159.531660387380299, 22.035671475852478 ], [ -159.53155965165783, 22.035341355788994 ] ] ] } },
{ "type": "Feature", "properties": { "ID": 41, "GRIDCODE": 2 }, "geometry": { "type": "Polygon", "coordinates": [ [ [ -159.534436120861329, 22.027201171642133 ], [ -159.535449094218507, 22.027496550500921 ], [ -159.533796039075696, 22.030338949972215 ], [ -159.532041519061693, 22.030279828397465 ], [ -159.531404788215781, 22.030833743161107 ], [ -159.531387633324726, 22.031276501438899 ], [ -159.53140662673556, 22.03168777840833 ], [ -159.53080709705273, 22.032209312910524 ], [ -159.531278855911665, 22.033450334941186 ], [ -159.530799226377127, 22.033867578918333 ], [ -159.530845698917574, 22.034872797356233 ], [ -159.530549276789316, 22.03575633391555 ], [ -159.529770533479336, 22.036433759851676 ], [ -159.529328938696324, 22.038189206844866 ], [ -159.529070145047314, 22.037609874968748 ], [ -159.529110368432612, 22.03657370687942 ], [ -159.528784416551929, 22.036294137556872 ], [ -159.528805273977667, 22.035756812473917 ], [ -159.528791616255404, 22.035461826318841 ], [ -159.529490278195198, 22.034854124578413 ], [ -159.529027660736773, 22.034045861724938 ], [ -159.529365292706984, 22.033039567067632 ], [ -159.529665503244019, 22.032506152523599 ], [ -159.529642352055646, 22.032006090161424 ], [ -159.530001636243242, 22.031289924132732 ], [ -159.533352592441673, 22.028815384504462 ], [ -159.534436120861329, 22.027201171642133 ] ] ] } }
]
}
