{
"type": "FeatureCollection",
"name": "hessand",
"crs": { "type": "name", "properties": { "name": "urn:ogc:def:crs:OGC:1.3:CRS84" } },
"features": [
{ "type": "Feature", "properties": { "ID": 1, "GRIDCODE": 2 }, "geometry": { "type": "Polygon", "coordinates": [ [ [ -155.455961053681449, 19.743878644912794 ], [ -155.456612836259694, 19.74402505815145 ], [ -155.456901062319787, 19.744728944719515 ], [ -155.456061314998578, 19.74437022772284 ], [ -155.455961053681449, 19.743878644912794 ] ] ] } },
{ "type": "Feature", "properties": { "ID": 2, "GRIDCODE": 2 }, "geometry": { "type": "Polygon", "coordinates": [ [ [ -155.713117390333878, 19.387045511743331 ], [ -155.713463151353608, 19.387144579052553 ], [ -155.713208532754862, 19.387377160481815 ], [ -155.713117390333878, 19.387045511743331 ] ] ] } },
{ "type": "Feature", "properties": { "ID": 3, "GRIDCODE": 2 }, "geometry": { "type": "Polygon", "coordinates": [ [ [ -155.704766506391962, 19.305663793775764 ], [ -155.704761079588934, 19.305934464668052 ], [ -155.704475992456764, 19.305929312022425 ], [ -155.704481419727244, 19.305658641207948 ], [ -155.704766506391962, 19.305663793775764 ] ] ] } },
{ "type": "Feature", "properties": { "ID": 4, "GRIDCODE": 2 }, "geometry": { "type": "Polygon", "coordinates": [ [ [ -155.752102610773022, 19.204699860866324 ], [ -155.752488727573535, 19.205065545787296 ], [ -155.753636655914676, 19.206495335699923 ], [ -155.75887608785203, 19.215247623137255 ], [ -155.766611185235263, 19.228105960123251 ], [ -155.767433923252725, 19.229479706182012 ], [ -155.774311851130705, 19.24093018416141 ], [ -155.778259254288912, 19.249406034008263 ], [ -155.780443648560379, 19.256227924067407 ], [ -155.782334672306462, 19.263079546380702 ], [ -155.783129048966174, 19.270809888980118 ], [ -155.782640463258048, 19.282716395473731 ], [ -155.781300214049509, 19.302281076342158 ], [ -155.779720151985913, 19.315530097188713 ], [ -155.779043894054581, 19.321209909150561 ], [ -155.777591265280421, 19.333385898274734 ], [ -155.776702307638232, 19.338493371078414 ], [ -155.773166144209796, 19.359015501610266 ], [ -155.772836375354757, 19.360410632862614 ], [ -155.768551632260625, 19.375716738501186 ], [ -155.766227220893455, 19.384080705596542 ], [ -155.762921689264459, 19.400577218058007 ], [ -155.760267202737964, 19.419711529934315 ], [ -155.758932479200809, 19.429159635805735 ], [ -155.757934406551044, 19.436242571474395 ], [ -155.757212755567963, 19.444164976822023 ], [ -155.757991418991168, 19.450959976964185 ], [ -155.76073972543125, 19.465871498272314 ], [ -155.765917268146211, 19.486654007600023 ], [ -155.771116342850974, 19.504462019767708 ], [ -155.772752680812289, 19.509827759751929 ], [ -155.772752375999204, 19.509562263740676 ], [ -155.776264655453929, 19.519643800398974 ], [ -155.778161294852282, 19.525087948190201 ], [ -155.780634379995973, 19.532185296209416 ], [ -155.781954252248568, 19.535445234998335 ], [ -155.792922017210259, 19.562797993749154 ], [ -155.797797547663123, 19.572011938101149 ], [ -155.800546034139245, 19.577210921925531 ], [ -155.804206302722832, 19.584127450403617 ], [ -155.815592055312408, 19.603669918532617 ], [ -155.818243947157526, 19.607305527199209 ], [ -155.825972895027746, 19.617826874546722 ], [ -155.842878177891777, 19.638918932254477 ], [ -155.848931354013615, 19.645485553107385 ], [ -155.851724774154661, 19.64851852317231 ], [ -155.859847916182218, 19.657320798268945 ], [ -155.867741675015282, 19.665890319609936 ], [ -155.883048836651795, 19.679876193986725 ], [ -155.888890819901889, 19.685021215865287 ], [ -155.891110108382662, 19.688998977815768 ], [ -155.891860068153278, 19.692163724286381 ], [ -155.892231872621664, 19.697155368485635 ], [ -155.892799948778446, 19.700414281806989 ], [ -155.895080684454541, 19.707122777216188 ], [ -155.895456048639574, 19.709591603312127 ], [ -155.894758506076982, 19.711412442191172 ], [ -155.894154640210161, 19.712474333519975 ], [ -155.892442860679097, 19.713975835754134 ], [ -155.891138038884037, 19.714547425234976 ], [ -155.886711397162117, 19.715151261482749 ], [ -155.875242705215584, 19.715376845765856 ], [ -155.867481251721927, 19.714662702206027 ], [ -155.86169459094711, 19.713082917687235 ], [ -155.855756329063325, 19.710052989241117 ], [ -155.850199593331411, 19.707643105679267 ], [ -155.844062529437707, 19.70571709582066 ], [ -155.839834166033853, 19.705152053476606 ], [ -155.836319468366497, 19.705158013052586 ], [ -155.833910185841205, 19.706484219050658 ], [ -155.831062964266209, 19.70857904196237 ], [ -155.829117330848447, 19.710969808114232 ], [ -155.826951605518076, 19.716909394093726 ], [ -155.825353399887263, 19.728767882835115 ], [ -155.824100970031367, 19.728440246556353 ], [ -155.822856824467181, 19.728442239465494 ], [ -155.821583210181984, 19.727591151636123 ], [ -155.821078597117236, 19.728070346974224 ], [ -155.819300974391666, 19.727005885806172 ], [ -155.818449773323493, 19.727007159721452 ], [ -155.817306774479619, 19.726964900156325 ], [ -155.815847617263586, 19.726966990480271 ], [ -155.813538933183196, 19.72578858153247 ], [ -155.811322150366692, 19.725791962121104 ], [ -155.810481033629742, 19.72522986498576 ], [ -155.808612832071816, 19.724134079351625 ], [ -155.807072022680103, 19.723820496592747 ], [ -155.805387339105437, 19.722429406128871 ], [ -155.803934435834236, 19.723228522112226 ], [ -155.802806555972126, 19.723186443099326 ], [ -155.80250741922481, 19.723470129742335 ], [ -155.801940997881644, 19.723181037911623 ], [ -155.800645823678707, 19.723574918716704 ], [ -155.798183008449683, 19.722727292090266 ], [ -155.797369560882487, 19.723105696359656 ], [ -155.795929455415489, 19.723345429615918 ], [ -155.795066586918267, 19.723877102628194 ], [ -155.794763828569103, 19.723865866852318 ], [ -155.794230771312584, 19.722773473172079 ], [ -155.793652857335474, 19.72195607910308 ], [ -155.792251868185474, 19.723285681007585 ], [ -155.791378203057263, 19.72325310721736 ], [ -155.79066367224371, 19.723585652958043 ], [ -155.789091005189363, 19.722410358651747 ], [ -155.788519098943567, 19.722411210872323 ], [ -155.788236701035146, 19.72212214732761 ], [ -155.787242916574911, 19.722734463982128 ], [ -155.786496035236837, 19.722352976162192 ], [ -155.785833754098576, 19.720995401565546 ], [ -155.785396731695784, 19.720996020500085 ], [ -155.784835613710896, 19.720709354153954 ], [ -155.783832277372539, 19.720710909057946 ], [ -155.782543441081458, 19.720662641305008 ], [ -155.782543711460448, 19.720941884866587 ], [ -155.782532263224851, 19.721220653484114 ], [ -155.78180957442072, 19.721193655151396 ], [ -155.781411262015467, 19.720377341085371 ], [ -155.780912859312309, 19.719832119898658 ], [ -155.780537370833571, 19.721179253979685 ], [ -155.780218455829271, 19.721709785561011 ], [ -155.779420299045285, 19.720892626083678 ], [ -155.778734141895853, 19.720561913661228 ], [ -155.77678280072152, 19.719923381532485 ], [ -155.77478089694722, 19.720274206300243 ], [ -155.773682730977015, 19.720785137751648 ], [ -155.773079020308984, 19.72104926807739 ], [ -155.772304163498234, 19.721784432309281 ], [ -155.771907131988371, 19.722101730551763 ], [ -155.771096710381954, 19.72127188960598 ], [ -155.77080805990829, 19.721545657465033 ], [ -155.769908190598528, 19.72208155680223 ], [ -155.768972885695092, 19.722046705186028 ], [ -155.767918614387469, 19.72045830499766 ], [ -155.766795473751927, 19.722014815288269 ], [ -155.765815375217898, 19.722443472742203 ], [ -155.76510239015613, 19.721713205657561 ], [ -155.764228284144338, 19.721426907204133 ], [ -155.763676176329966, 19.720861635683612 ], [ -155.762531764094547, 19.721947578931392 ], [ -155.761482147605989, 19.721585906465048 ], [ -155.76050712909452, 19.722039216810678 ], [ -155.759633223440119, 19.722421633429523 ], [ -155.759160079283419, 19.722870264645739 ], [ -155.757549814245209, 19.723211314391694 ], [ -155.756725568735618, 19.723180524121553 ], [ -155.755455841935031, 19.724384722215429 ], [ -155.754565221163631, 19.725164767412288 ], [ -155.753850912132265, 19.725842233379659 ], [ -155.753346891712738, 19.726283675473464 ], [ -155.752421828451475, 19.725811033356102 ], [ -155.751827257598535, 19.725524454977457 ], [ -155.750713902247725, 19.725525675084974 ], [ -155.750150544101189, 19.724676699373582 ], [ -155.749288454730419, 19.725494516339037 ], [ -155.748705846710692, 19.725472569178372 ], [ -155.74811629740924, 19.726289774317561 ], [ -155.747562597509329, 19.725722842581469 ], [ -155.746704882900275, 19.725441781202015 ], [ -155.746170344970324, 19.72489423265997 ], [ -155.74556124993822, 19.724608693374904 ], [ -155.744382826151025, 19.725726407251727 ], [ -155.743806885575452, 19.727303528876014 ], [ -155.740932278250028, 19.728560120243447 ], [ -155.740345174469411, 19.729116882164362 ], [ -155.739531210434023, 19.729472780751003 ], [ -155.739174325036686, 19.730449400866988 ], [ -155.737717636606391, 19.731500645059114 ], [ -155.737137535672446, 19.732178890491006 ], [ -155.73799093193017, 19.732590545602552 ], [ -155.737363181318898, 19.733139943237891 ], [ -155.735695097369984, 19.733077274481076 ], [ -155.735397829934271, 19.733359014587148 ], [ -155.734091397125439, 19.73373445980279 ], [ -155.734519750792458, 19.734998007574937 ], [ -155.730739768504037, 19.73571169259835 ], [ -155.729031587672239, 19.736505738269944 ], [ -155.729033142626008, 19.737840555774344 ], [ -155.728101109101715, 19.738108299190227 ], [ -155.726313109204341, 19.738939195330492 ], [ -155.72518335629556, 19.738549927017178 ], [ -155.724145578691065, 19.738019285352475 ], [ -155.723616506547955, 19.739914469864441 ], [ -155.722957401768269, 19.739889709892456 ], [ -155.722242619038894, 19.740567279471822 ], [ -155.721590041870314, 19.741138631396957 ], [ -155.720370964418322, 19.740515272679836 ], [ -155.718893882129862, 19.741201859204796 ], [ -155.718212968196724, 19.741847242965015 ], [ -155.717702832301427, 19.742294005896341 ], [ -155.716191475985767, 19.745103732048985 ], [ -155.715414305563399, 19.745443255907098 ], [ -155.714842512692883, 19.74570880869495 ], [ -155.713213227631798, 19.746283075925696 ], [ -155.712813741143435, 19.747025355554683 ], [ -155.711637061807181, 19.748352251330111 ], [ -155.711345569666321, 19.748893704398238 ], [ -155.710191074267016, 19.749137950077301 ], [ -155.709507319866731, 19.749455629002412 ], [ -155.707621840470637, 19.751242754818861 ], [ -155.70646390495898, 19.751748680467333 ], [ -155.704742180604228, 19.752807942708923 ], [ -155.704367960815205, 19.754451255654008 ], [ -155.703934823967529, 19.755210602886724 ], [ -155.7007111145642, 19.758031149806683 ], [ -155.70002151182527, 19.758684481602121 ], [ -155.699116427875254, 19.759222778948775 ], [ -155.697528452404583, 19.760318004136007 ], [ -155.695355601567371, 19.760235817481878 ], [ -155.693563564169864, 19.761933791227371 ], [ -155.692645799155912, 19.763639456689972 ], [ -155.690813708264699, 19.764284826042278 ], [ -155.690377780182928, 19.767189241982322 ], [ -155.690063758735533, 19.768261430225415 ], [ -155.690064239430995, 19.768792375907299 ], [ -155.689748425708331, 19.769613075081541 ], [ -155.690333858207737, 19.770166752006418 ], [ -155.690283551083468, 19.77135778408012 ], [ -155.688755312657491, 19.773188810114064 ], [ -155.688236749545467, 19.773642447723365 ], [ -155.687933928950315, 19.774725147889875 ], [ -155.686345017641685, 19.776515623634388 ], [ -155.685596388735433, 19.77684256273464 ], [ -155.684728992268447, 19.77756338002273 ], [ -155.686140181518596, 19.778477182547356 ], [ -155.686383770831043, 19.780729712261337 ], [ -155.686364434758133, 19.781191541831483 ], [ -155.686364416535781, 19.781462297056549 ], [ -155.686330953560571, 19.782255698719538 ], [ -155.686717462537104, 19.783001628826348 ], [ -155.686273207544474, 19.784518767547681 ], [ -155.684289402961895, 19.785948367043837 ], [ -155.683964873155844, 19.786835516229047 ], [ -155.683568338777604, 19.787530688334236 ], [ -155.681131374926792, 19.788045171873847 ], [ -155.680783055375088, 19.788542925472385 ], [ -155.681632670311672, 19.788952947373282 ], [ -155.681923975908347, 19.78925132475208 ], [ -155.68188958487147, 19.790061098244788 ], [ -155.68250922878218, 19.79125663294883 ], [ -155.68130661227255, 19.790841904317386 ], [ -155.680734920087588, 19.790863272162653 ], [ -155.681286339973838, 19.791926924371985 ], [ -155.680948699278645, 19.792730796129931 ], [ -155.679629954298292, 19.792056363203752 ], [ -155.678396884416827, 19.79325658083361 ], [ -155.679061369046252, 19.794538363523831 ], [ -155.678627318483962, 19.795665921361895 ], [ -155.67831874873221, 19.797019236570854 ], [ -155.677444198761975, 19.797539180937882 ], [ -155.677056653321614, 19.797906368703082 ], [ -155.677978165150392, 19.79968473865188 ], [ -155.67796447990375, 19.800007325675345 ], [ -155.677030390371215, 19.800823880345799 ], [ -155.675935719988274, 19.801301641295094 ], [ -155.6751238985143, 19.801678372139836 ], [ -155.675699469411825, 19.802789026381028 ], [ -155.675306914633069, 19.803476840477757 ], [ -155.675307794133687, 19.804549556022206 ], [ -155.674713114614121, 19.805069405708505 ], [ -155.674398851234315, 19.806693353144457 ], [ -155.674055863493436, 19.807294038689982 ], [ -155.669999599403013, 19.807140127105875 ], [ -155.669197328843353, 19.808249671481523 ], [ -155.668629078369008, 19.808746457671099 ], [ -155.668325965854365, 19.809309270060758 ], [ -155.668326331387561, 19.809961829484049 ], [ -155.668297704808992, 19.810638172802243 ], [ -155.668298331099521, 19.811720395769438 ], [ -155.667417511381956, 19.811972845257046 ], [ -155.666845407618212, 19.812238196827789 ], [ -155.666262352118537, 19.812492765468559 ], [ -155.665970566216458, 19.813034102192617 ], [ -155.665308959285937, 19.813919919638177 ], [ -155.664206825652542, 19.814883163642236 ], [ -155.66448289808892, 19.816299452716528 ], [ -155.664439096514656, 19.817326902682598 ], [ -155.664726994683349, 19.817882511984319 ], [ -155.664415948101862, 19.818154584559895 ], [ -155.663715809264914, 19.818128005362659 ], [ -155.663138038286235, 19.818128302322847 ], [ -155.663558595185037, 19.818940222977655 ], [ -155.663816130173615, 19.820334220479825 ], [ -155.664393726292161, 19.820851094044162 ], [ -155.664954655292405, 19.820319819435298 ], [ -155.665270392429136, 19.820331804601807 ], [ -155.665789333703316, 19.821450420126109 ], [ -155.664915092189744, 19.822214595415645 ], [ -155.664599859127947, 19.822512764947451 ], [ -155.6646014486588, 19.82459048430383 ], [ -155.664240451075273, 19.825821936732837 ], [ -155.664241402923608, 19.82736792617029 ], [ -155.66491403855494, 19.828004239204535 ], [ -155.665883742158286, 19.830631255215103 ], [ -155.666613485296836, 19.832039371804022 ], [ -155.66573341002001, 19.834323760063835 ], [ -155.664426133509892, 19.834894210416198 ], [ -155.665287330745258, 19.83614905885916 ], [ -155.66489550602418, 19.836834995126321 ], [ -155.664895875152581, 19.837378881427082 ], [ -155.664861589146824, 19.838190489390861 ], [ -155.664862762887878, 19.840072804365853 ], [ -155.663947137941989, 19.840872673647187 ], [ -155.663351629149076, 19.841436602126628 ], [ -155.662769004368556, 19.843027448648428 ], [ -155.661561654004061, 19.844386867591812 ], [ -155.661562672523502, 19.84598044551911 ], [ -155.661551421583965, 19.846250983673894 ], [ -155.661551655234888, 19.846787197938845 ], [ -155.660951095201852, 19.847590833269464 ], [ -155.660596328685557, 19.848559566263685 ], [ -155.661192785013469, 19.850034482533051 ], [ -155.660812775251259, 19.851020721512523 ], [ -155.66152106788067, 19.852052743957643 ], [ -155.661123375573226, 19.852748865874588 ], [ -155.661123819790504, 19.853301476641171 ], [ -155.661684460159961, 19.85383180276634 ], [ -155.662014942888874, 19.854170352006449 ], [ -155.661885707297813, 19.857206186764387 ], [ -155.660115705252423, 19.859324707575876 ], [ -155.658693680227202, 19.85973217716619 ], [ -155.658372363525103, 19.860036026703543 ], [ -155.657764944367358, 19.861163141752126 ], [ -155.657057661247563, 19.863093747055522 ], [ -155.656314361990695, 19.863743172415703 ], [ -155.655742115587998, 19.86428475862505 ], [ -155.655444901793231, 19.86454463420915 ], [ -155.654541160962964, 19.866592363600297 ], [ -155.654541206170165, 19.866989495412149 ], [ -155.653929074858041, 19.86857761725663 ], [ -155.653929500121677, 19.869116210642026 ], [ -155.653298034225941, 19.869960997625032 ], [ -155.652739398520538, 19.870996991173868 ], [ -155.652442166313421, 19.871256859053496 ], [ -155.651894972775864, 19.871774573865167 ], [ -155.65098538610971, 19.872314551054096 ], [ -155.651568513425076, 19.872866223464285 ], [ -155.650685918675237, 19.873119038290049 ], [ -155.650387691703997, 19.873957391196729 ], [ -155.650939623073242, 19.875022473500792 ], [ -155.650359091625688, 19.875529770880778 ], [ -155.650056631373388, 19.876090686666608 ], [ -155.649232700835654, 19.876450091785067 ], [ -155.648488459537049, 19.878480679463546 ], [ -155.646263763919308, 19.879262889877971 ], [ -155.645405181305819, 19.879660751803765 ], [ -155.643967701305485, 19.880287499082634 ], [ -155.643143823257162, 19.881067001943567 ], [ -155.642207263595026, 19.881623071355694 ], [ -155.64083543983628, 19.88256751335571 ], [ -155.64043417948713, 19.884324528717777 ], [ -155.639005993955294, 19.884270050024686 ], [ -155.638463494101046, 19.884270109623134 ], [ -155.636107760831663, 19.886115748617524 ], [ -155.635232693028399, 19.886497377511443 ], [ -155.634374049394751, 19.886895176162195 ], [ -155.633504574602114, 19.88714417415423 ], [ -155.63321823349753, 19.887414783716228 ], [ -155.63178270036633, 19.888380145248441 ], [ -155.629464908689812, 19.888692107921358 ], [ -155.62800056634606, 19.889221693395822 ], [ -155.627167487024252, 19.889190030907184 ], [ -155.626383763539764, 19.889190235103349 ], [ -155.625974148209508, 19.891609345467007 ], [ -155.62592381842569, 19.891873842977336 ], [ -155.624258702991114, 19.891299171788809 ], [ -155.623965725631223, 19.891841963756704 ], [ -155.622782177799024, 19.892084939915801 ], [ -155.621482349351481, 19.891419884344117 ], [ -155.62053452355832, 19.892316146537787 ], [ -155.618793259697156, 19.892550608831627 ], [ -155.61618350007106, 19.893340408568335 ], [ -155.616184202330089, 19.895804034543975 ], [ -155.613921627547342, 19.897324571016313 ], [ -155.611817440842202, 19.897561825559251 ], [ -155.610926202718019, 19.897831437059857 ], [ -155.610097844723839, 19.897799778932669 ], [ -155.609239184128057, 19.897799794703854 ], [ -155.608378714080089, 19.897766722890044 ], [ -155.607783622380992, 19.898042496551817 ], [ -155.606658949347235, 19.897999350856459 ], [ -155.605808672310957, 19.897999509871351 ], [ -155.60495099666511, 19.897560635397504 ], [ -155.604075012907629, 19.897966398812638 ], [ -155.604075270666044, 19.898635046612515 ], [ -155.604056976430201, 19.899059836568682 ], [ -155.60341356662309, 19.899621269632959 ], [ -155.600176670407393, 19.899496726465138 ], [ -155.600584336306014, 19.901137921428351 ], [ -155.600571542934034, 19.901435643622786 ], [ -155.599142158401236, 19.901380538115617 ], [ -155.598840322585829, 19.901666119159717 ], [ -155.596094194687709, 19.90286198953417 ], [ -155.594955572511196, 19.903560635990736 ], [ -155.594491300574362, 19.904826090607735 ], [ -155.593333058852295, 19.905330551569698 ], [ -155.592468590433583, 19.905860995349176 ], [ -155.591035826913924, 19.905805754816427 ], [ -155.59000129131141, 19.90772254099782 ], [ -155.588989409469548, 19.907683554462153 ], [ -155.58839425471399, 19.907959252442446 ], [ -155.587052806320145, 19.90790758135206 ], [ -155.586533386273516, 19.909758883239267 ], [ -155.585503428112673, 19.910053447515853 ], [ -155.584644732340678, 19.910312961662118 ], [ -155.583775085064275, 19.910561685266227 ], [ -155.58347232120127, 19.911122441704531 ], [ -155.582875225922209, 19.911643430562851 ], [ -155.581751048569402, 19.911600124589697 ], [ -155.581433942791989, 19.912463321367596 ], [ -155.579987607012782, 19.913725152608929 ], [ -155.579567206919847, 19.916204654080474 ], [ -155.577918691585523, 19.916675760460844 ], [ -155.577407417904539, 19.917622980134354 ], [ -155.575844108196691, 19.918549653388794 ], [ -155.575279105697888, 19.919083654305712 ], [ -155.575279138770355, 19.920171329475075 ], [ -155.575833893907031, 19.920696517430287 ], [ -155.576192181482838, 19.921063780559557 ], [ -155.575285919533997, 19.923059322965749 ], [ -155.574613823228617, 19.923645452370256 ], [ -155.574041091900256, 19.924186699915111 ], [ -155.573715695124292, 19.924445862118922 ], [ -155.572033493844799, 19.923584817723718 ], [ -155.570888186062945, 19.923584647446862 ], [ -155.570309584579832, 19.924656119318744 ], [ -155.569439844016159, 19.924904757377394 ], [ -155.567413090976174, 19.92622451018682 ], [ -155.566089259834712, 19.926502949981298 ], [ -155.565672828689571, 19.927273763190872 ], [ -155.564797215121843, 19.927792988417835 ], [ -155.564411946194525, 19.928156724503701 ], [ -155.563636386458683, 19.927759683653257 ], [ -155.562764735059233, 19.927759730261396 ], [ -155.561610065603389, 19.928294156696673 ], [ -155.560496132418876, 19.928251163947426 ], [ -155.559862105456261, 19.928251040627419 ], [ -155.557659763068671, 19.929270364248833 ], [ -155.556744134170117, 19.929532056198184 ], [ -155.556028055858036, 19.93020846007099 ], [ -155.555267815644498, 19.930871313031915 ], [ -155.554693742567508, 19.931934079595312 ], [ -155.553393092736911, 19.933395431277368 ], [ -155.552071790223891, 19.933772946021236 ], [ -155.551641956355155, 19.934178612024581 ], [ -155.550976851673283, 19.934758688886212 ], [ -155.549245433930224, 19.935122393528207 ], [ -155.547200713442464, 19.937460700354215 ], [ -155.545678609354752, 19.937711054099545 ], [ -155.54509774115408, 19.938786335287485 ], [ -155.542974250473605, 19.939024689379806 ], [ -155.541798536980309, 19.938979044169084 ], [ -155.541062712139052, 19.938978978925196 ], [ -155.540486106515232, 19.939523720944358 ], [ -155.539333411322332, 19.940024972086526 ], [ -155.539333344622605, 19.940566412017009 ], [ -155.539320879682805, 19.94085592455302 ], [ -155.538445386503241, 19.941619018655654 ], [ -155.538445206314947, 19.942165479050381 ], [ -155.538123737294512, 19.942727349450628 ], [ -155.536416661236132, 19.943469708491499 ], [ -155.535828032093832, 19.944025828702365 ], [ -155.534672680487745, 19.943981057851715 ], [ -155.533801438930311, 19.944803690895778 ], [ -155.532657257004558, 19.944759388803121 ], [ -155.531802562747316, 19.945566206642479 ], [ -155.531372374709775, 19.945549600269604 ], [ -155.53031408465759, 19.947176745057362 ], [ -155.530875047631326, 19.947708003895492 ], [ -155.531177487123699, 19.948017948260077 ], [ -155.531111305278927, 19.949535480740099 ], [ -155.527623215080297, 19.950530800813645 ], [ -155.526024897771123, 19.949978423680196 ], [ -155.525664611192298, 19.950318487625733 ], [ -155.524727013295148, 19.950873806553382 ], [ -155.523917917414735, 19.951637848461829 ], [ -155.523311019349904, 19.951901692311687 ], [ -155.522478553147181, 19.951869508914232 ], [ -155.521891427972349, 19.951869099173638 ], [ -155.521166377572285, 19.95321083962531 ], [ -155.519834736041446, 19.954801077510634 ], [ -155.519542149577859, 19.955342054477359 ], [ -155.518929722937969, 19.956136893027185 ], [ -155.518391603306384, 19.955584896695026 ], [ -155.518088892127679, 19.955313524738397 ], [ -155.517383677220863, 19.955979108333828 ], [ -155.516937278634231, 19.956368482331332 ], [ -155.515927201159116, 19.957903399764103 ], [ -155.515032326785615, 19.958292414295059 ], [ -155.514281476837368, 19.959328260197118 ], [ -155.513538613811647, 19.959975106488429 ], [ -155.511233092343076, 19.960632974861227 ], [ -155.510527160801445, 19.961938282780217 ], [ -155.509235201802028, 19.963064172923129 ], [ -155.506449927267994, 19.964554270051593 ], [ -155.506163241456932, 19.96482461967036 ], [ -155.505579414799655, 19.965078536265921 ], [ -155.503950781651241, 19.966076132536752 ], [ -155.503404659666813, 19.967560621352856 ], [ -155.502675293789679, 19.967186955404387 ], [ -155.5010004164956, 19.966377188181646 ], [ -155.499899114408322, 19.965247218816458 ], [ -155.498553301298614, 19.964908686128354 ], [ -155.497211898705018, 19.965205766970367 ], [ -155.496111303933247, 19.965714595864561 ], [ -155.494845610468104, 19.965066196671138 ], [ -155.494107167910556, 19.965407692452182 ], [ -155.49344255086055, 19.967214170821389 ], [ -155.492354716895534, 19.967524422851042 ], [ -155.492050872631978, 19.9678107966526 ], [ -155.49063447987524, 19.967755526528912 ], [ -155.490059610909242, 19.967755245836109 ], [ -155.488613640896716, 19.967445055613901 ], [ -155.487033873162716, 19.967444415900648 ], [ -155.486173766698016, 19.969034431417651 ], [ -155.485739066840608, 19.969017616634162 ], [ -155.485309593510948, 19.969017294972033 ], [ -155.484877694878179, 19.969000269273756 ], [ -155.483572123153152, 19.969394177169807 ], [ -155.482333713851517, 19.968123129650923 ], [ -155.480963554477341, 19.968756306157506 ], [ -155.480316752965308, 19.968092337394953 ], [ -155.479744124308951, 19.968092067394078 ], [ -155.478952352593922, 19.967686140367551 ], [ -155.47845256239458, 19.968610465052681 ], [ -155.47770609908028, 19.968581355152033 ], [ -155.476905135194556, 19.967759131579207 ], [ -155.476318535528463, 19.967758572880754 ], [ -155.475535204208171, 19.967727928262224 ], [ -155.47405614769383, 19.966619916249506 ], [ -155.472911718683036, 19.966331727179693 ], [ -155.472351085086387, 19.966044312776472 ], [ -155.470947502981375, 19.966043600611634 ], [ -155.470070905389775, 19.965455919764874 ], [ -155.468242537581915, 19.966575277785413 ], [ -155.467193732635963, 19.966212558584974 ], [ -155.465393707318157, 19.96575951194222 ], [ -155.464752680254946, 19.964439472440358 ], [ -155.463936982298634, 19.965208875786086 ], [ -155.454032306100004, 19.961621155833303 ], [ -155.43362125470415, 19.951932406398111 ], [ -155.429110111824855, 19.949427043321332 ], [ -155.414395846941829, 19.941013369702564 ], [ -155.397990288656302, 19.929231761727721 ], [ -155.389551429654375, 19.922234716154833 ], [ -155.387178384620597, 19.920172949429091 ], [ -155.376482937538469, 19.90988577234825 ], [ -155.371417447766817, 19.903064196228769 ], [ -155.367153472752165, 19.89505961129441 ], [ -155.361514288227198, 19.882859829450581 ], [ -155.356595416718136, 19.868639864660992 ], [ -155.353945258582144, 19.85693312589731 ], [ -155.352701325656454, 19.847878461883724 ], [ -155.352499530700584, 19.82654795783802 ], [ -155.353008206299961, 19.815086954516175 ], [ -155.355027927991529, 19.807163237597091 ], [ -155.357301533556893, 19.799950165837885 ], [ -155.360352486325695, 19.792559916458927 ], [ -155.364258006137476, 19.7843418790839 ], [ -155.370761047039451, 19.775068101947408 ], [ -155.376973089839623, 19.766525595291871 ], [ -155.380005603136794, 19.762344595324553 ], [ -155.392445614450139, 19.746833108032405 ], [ -155.401513981865151, 19.737548122072084 ], [ -155.408089367930415, 19.73300545935578 ], [ -155.416451723257268, 19.72725847012002 ], [ -155.421073562179572, 19.724080875528692 ], [ -155.431678707635228, 19.716959048648516 ], [ -155.441993417696239, 19.709625549048528 ], [ -155.450707873480411, 19.703577472872478 ], [ -155.459104044411902, 19.697428214838659 ], [ -155.46841034892455, 19.688240344385136 ], [ -155.472532619550776, 19.682546676081074 ], [ -155.474061100467623, 19.679713379231206 ], [ -155.475328858171764, 19.674738064788421 ], [ -155.475876087415259, 19.666796397532757 ], [ -155.475426355109875, 19.656891259339325 ], [ -155.474363882489968, 19.650886989135511 ], [ -155.472890581507613, 19.644021015900904 ], [ -155.470611932427261, 19.639101091177377 ], [ -155.467041442569723, 19.633880297315937 ], [ -155.461097700871989, 19.627575923192161 ], [ -155.455348005780394, 19.623839822864635 ], [ -155.443037336212996, 19.616938012002969 ], [ -155.440452550085951, 19.615382140736475 ], [ -155.432350058612627, 19.610197492617161 ], [ -155.42765078413953, 19.606049800488325 ], [ -155.420638242299901, 19.597664401497063 ], [ -155.412229110787649, 19.582380704973186 ], [ -155.406747559199829, 19.572496459024268 ], [ -155.404180888544346, 19.567862180952272 ], [ -155.399581645063421, 19.559976222296591 ], [ -155.395267401156929, 19.550553148547984 ], [ -155.391758767309085, 19.538051133507995 ], [ -155.389930096594043, 19.52642545912806 ], [ -155.390774644406093, 19.517457339627907 ], [ -155.392661741189528, 19.510217985687788 ], [ -155.396243554403725, 19.50207340604257 ], [ -155.399791995709109, 19.495391757797226 ], [ -155.405337683441928, 19.48815279321262 ], [ -155.412215946497781, 19.481057655750032 ], [ -155.42033228152431, 19.474772862926073 ], [ -155.431801581626729, 19.465867572965003 ], [ -155.441079654371748, 19.456908015492093 ], [ -155.442292316121211, 19.455847688613282 ], [ -155.444748508044967, 19.455452582770722 ], [ -155.467356827257504, 19.451324825275382 ], [ -155.473323639417572, 19.450251685360954 ], [ -155.474954141953702, 19.449989174971929 ], [ -155.473934261516547, 19.451270029238866 ], [ -155.473032159206923, 19.453340991510466 ], [ -155.472730113418379, 19.453595250068886 ], [ -155.472449896256109, 19.45387108269713 ], [ -155.471375660946109, 19.454776774390862 ], [ -155.470695546049882, 19.455938116972842 ], [ -155.470665971421056, 19.456402830962698 ], [ -155.470690549061345, 19.457635800418544 ], [ -155.468496553176749, 19.459486176649616 ], [ -155.467906733651489, 19.461134380517144 ], [ -155.466998830265567, 19.462026624973223 ], [ -155.466209557067373, 19.462691971425869 ], [ -155.466257499469492, 19.465081475312047 ], [ -155.465712373802347, 19.465541145341493 ], [ -155.465031184290837, 19.466439386776866 ], [ -155.464656770076829, 19.468407696956859 ], [ -155.464122421764529, 19.468858053167391 ], [ -155.463817690652974, 19.469439261068985 ], [ -155.462970431890426, 19.470153947612776 ], [ -155.462665693758765, 19.470735152477332 ], [ -155.461659184298611, 19.471928131359999 ], [ -155.460609757548639, 19.473402078322529 ], [ -155.459131114111841, 19.475257559324618 ], [ -155.458641390967955, 19.476191764552425 ], [ -155.456494400785459, 19.47663273102539 ], [ -155.45571636331951, 19.477288718033503 ], [ -155.455363182345565, 19.477890898298977 ], [ -155.454753614983645, 19.479053267574958 ], [ -155.453320167117198, 19.480261874821544 ], [ -155.452987076552716, 19.481476182864249 ], [ -155.451233848269311, 19.482953966259934 ], [ -155.451264343448884, 19.48449528173202 ], [ -155.450666920438152, 19.485634867753948 ], [ -155.449670151330253, 19.486475018445777 ], [ -155.449153165836549, 19.487785368731519 ], [ -155.448849215729098, 19.489143519523672 ], [ -155.448099491117574, 19.489775166301364 ], [ -155.447649667554117, 19.491276641073824 ], [ -155.44766527791424, 19.49206792395352 ], [ -155.447043566014315, 19.492887397347232 ], [ -155.446756757116844, 19.493434016995561 ], [ -155.446203259164065, 19.493402254756788 ], [ -155.445296062461352, 19.494477299794511 ], [ -155.444510088140333, 19.496280398653852 ], [ -155.443290550356068, 19.497308310447835 ], [ -155.442930460100371, 19.498221736294632 ], [ -155.442940625781461, 19.498750925742542 ], [ -155.441782136802232, 19.498771482459293 ], [ -155.440679565355282, 19.498708272433152 ], [ -155.439768003011409, 19.499241252416418 ], [ -155.438711852470846, 19.500723873160705 ], [ -155.437468506409516, 19.50194451447847 ], [ -155.435656966892736, 19.50347090889964 ], [ -155.434815305446818, 19.504297618989074 ], [ -155.433936460180121, 19.504811116219589 ], [ -155.433515901442519, 19.505224472127946 ], [ -155.432827395007365, 19.505804372167503 ], [ -155.432474038951511, 19.506407275710011 ], [ -155.432482184819264, 19.506823539219187 ], [ -155.429481825263963, 19.509768727046385 ], [ -155.427818170689363, 19.510927046073309 ], [ -155.426073560724603, 19.511531500016371 ], [ -155.426086685764176, 19.512176794397451 ], [ -155.425773014560122, 19.51305222461664 ], [ -155.423716320550369, 19.515167098150922 ], [ -155.423731802687627, 19.515932720802351 ], [ -155.423121313054253, 19.516789577469254 ], [ -155.422521776160409, 19.517579236859916 ], [ -155.421698759458195, 19.519147492785812 ], [ -155.421338549393283, 19.519450711542074 ], [ -155.420351557192191, 19.52096891771421 ], [ -155.419275290831138, 19.522387533638184 ], [ -155.418765978709388, 19.524241941817134 ], [ -155.417509130791302, 19.52530087229006 ], [ -155.417764571488277, 19.526157960721299 ], [ -155.418109350906548, 19.526807715518537 ], [ -155.417728973209478, 19.527770885653183 ], [ -155.417170357227008, 19.529330605803768 ], [ -155.416825017855672, 19.529918553279987 ], [ -155.416532616152921, 19.530735425432546 ], [ -155.415437180700906, 19.532032284001065 ], [ -155.415878961807721, 19.533970853644906 ], [ -155.416223744148482, 19.534620613034495 ], [ -155.415842126992203, 19.535587715304395 ], [ -155.416159641574211, 19.537194166146186 ], [ -155.415722473262434, 19.539311961678155 ], [ -155.416191984377747, 19.540197890278993 ], [ -155.415454255225256, 19.541455580819527 ], [ -155.415410135318695, 19.542139649632841 ], [ -155.416734066581569, 19.543352375280374 ], [ -155.417375631746864, 19.544276614931803 ], [ -155.417774892517713, 19.545566405105991 ], [ -155.41847005668123, 19.545933122424962 ], [ -155.419046303415371, 19.546204687997882 ], [ -155.419308389882445, 19.546761866161997 ], [ -155.420431589100502, 19.548127087954075 ], [ -155.420693682645407, 19.54868426524995 ], [ -155.420978543388117, 19.549220745587277 ], [ -155.421411128062488, 19.550139508488193 ], [ -155.424348981687217, 19.552273504934238 ], [ -155.424278365688139, 19.55337606132737 ], [ -155.42515253435252, 19.554176153574065 ], [ -155.425823318842873, 19.554892111529515 ], [ -155.426549886127759, 19.55555735900807 ], [ -155.427033230715779, 19.556073181606916 ], [ -155.428256855565337, 19.556961872964479 ], [ -155.429010795611077, 19.558562426321707 ], [ -155.429607906898354, 19.5588772056471 ], [ -155.430420320307718, 19.558862625209098 ], [ -155.431598428232064, 19.559717881772858 ], [ -155.43186035561888, 19.560867475277888 ], [ -155.433251815082144, 19.562141461574715 ], [ -155.43379320016399, 19.563291031520301 ], [ -155.434810680428171, 19.564604138897813 ], [ -155.435629379422636, 19.567245420465078 ], [ -155.436755876275441, 19.568447531777025 ], [ -155.441032907691437, 19.569087723789117 ], [ -155.441806082623742, 19.569795351178428 ], [ -155.442458471245885, 19.570491603582081 ], [ -155.444368272729491, 19.571106393935466 ], [ -155.444975325288993, 19.572394708068373 ], [ -155.446768255460825, 19.573837532657222 ], [ -155.447849076024426, 19.574407129146532 ], [ -155.449696738540297, 19.574374015566416 ], [ -155.45091468837137, 19.574948676563849 ], [ -155.452245829824989, 19.575958586145582 ], [ -155.454073203157094, 19.576674501117431 ], [ -155.455903451100852, 19.5779223565543 ], [ -155.457166626024048, 19.578370183279585 ], [ -155.45802855537201, 19.578647265396828 ], [ -155.458999156548657, 19.579158856281271 ], [ -155.460584780956566, 19.579249761440909 ], [ -155.462226485932206, 19.578740322825301 ], [ -155.464042406354963, 19.579039809625282 ], [ -155.464808325386969, 19.579856926971765 ], [ -155.465421777167222, 19.580146019580415 ], [ -155.466255061884851, 19.580714363626917 ], [ -155.467989045807229, 19.581063494227784 ], [ -155.468532701385271, 19.581560587516702 ], [ -155.469235996042443, 19.58264162273813 ], [ -155.470216039567845, 19.582697841371857 ], [ -155.471073245457774, 19.58268238404337 ], [ -155.471786410622087, 19.582723319646053 ], [ -155.473530402432971, 19.582691907457757 ], [ -155.475057925274371, 19.583583381476998 ], [ -155.477044604268997, 19.585242828169385 ], [ -155.478139969923348, 19.585819953189116 ], [ -155.479288953579527, 19.586189533515878 ], [ -155.48081884617244, 19.587231703838054 ], [ -155.482150464060965, 19.587207753452578 ], [ -155.483826259024397, 19.587544768881298 ], [ -155.484400431882023, 19.587847578371917 ], [ -155.485193494599059, 19.587833184171423 ], [ -155.485813099428412, 19.588124979624872 ], [ -155.486081354054079, 19.5884115042061 ], [ -155.486372374772117, 19.588677323047822 ], [ -155.487525602596861, 19.589906936806255 ], [ -155.488906783289508, 19.590351049507063 ], [ -155.49166378410527, 19.591487650929647 ], [ -155.493171764614601, 19.591256883463501 ], [ -155.49407720668043, 19.590691838309041 ], [ -155.495456853216069, 19.590770511094398 ], [ -155.49576922481171, 19.59046383737498 ], [ -155.496610054293257, 19.590511658238697 ], [ -155.497181563413648, 19.590501361987364 ], [ -155.498444196267002, 19.590573505567175 ], [ -155.499768111113525, 19.589747432964213 ], [ -155.5003279906187, 19.590042516144681 ], [ -155.501190088543638, 19.590319412072414 ], [ -155.502216568409835, 19.590683039484865 ], [ -155.504112696639254, 19.589632752527681 ], [ -155.506113038119253, 19.590575471337708 ], [ -155.510127110457944, 19.593085037364165 ], [ -155.512592781317039, 19.595142863026375 ], [ -155.515372882224824, 19.594936545655592 ], [ -155.516159451949875, 19.59416418845472 ], [ -155.518907719624224, 19.594114237684224 ], [ -155.521790545478069, 19.594578680250002 ], [ -155.524361345115494, 19.594531827474583 ], [ -155.527790122800724, 19.595165871531979 ], [ -155.529655621985313, 19.594941689113401 ], [ -155.530810081832243, 19.594390496882198 ], [ -155.531660439394727, 19.594438869647181 ], [ -155.533014498566104, 19.594414187204492 ], [ -155.533727293872886, 19.594789584247568 ], [ -155.538093129209727, 19.59470966633414 ], [ -155.53936428383534, 19.595117986091871 ], [ -155.540426892002415, 19.595677482881044 ], [ -155.541029843278977, 19.595711804815888 ], [ -155.543615559100544, 19.595047893983338 ], [ -155.547217321065233, 19.594981901982845 ], [ -155.548215931559497, 19.59503859229126 ], [ -155.549501923165224, 19.595014860001882 ], [ -155.55076133620625, 19.595086316457628 ], [ -155.551673469834583, 19.594802918554326 ], [ -155.552347483893755, 19.594840942736457 ], [ -155.556061987652157, 19.594538190295815 ], [ -155.556624155022604, 19.593985800507927 ], [ -155.558858244764423, 19.593587250630819 ], [ -155.559951872535208, 19.59364939220114 ], [ -155.561389762928712, 19.592963013082688 ], [ -155.562271152706245, 19.592589342794557 ], [ -155.563574201866231, 19.591775578409479 ], [ -155.564533529147496, 19.591829839898836 ], [ -155.56578685338485, 19.591544148544774 ], [ -155.567344961494996, 19.59163228628422 ], [ -155.568286546698516, 19.591339576327304 ], [ -155.568642077808789, 19.591359835117771 ], [ -155.569835254892695, 19.590187265572208 ], [ -155.571757327498517, 19.589792118204876 ], [ -155.573811344816562, 19.588988597714529 ], [ -155.575480337976472, 19.589083001765413 ], [ -155.577168734156544, 19.589051645092098 ], [ -155.578427711588034, 19.589908398805477 ], [ -155.580010338398012, 19.589628858854212 ], [ -155.58287350181979, 19.588975432084627 ], [ -155.5859583982662, 19.588918134088928 ], [ -155.587120505676864, 19.589529490807703 ], [ -155.587720129745662, 19.589563326427314 ], [ -155.588896340699421, 19.589294776453656 ], [ -155.59233956161404, 19.589099796696914 ], [ -155.593538722203022, 19.58835045214839 ], [ -155.595547860225395, 19.588057948754066 ], [ -155.598496661712147, 19.588224710279409 ], [ -155.599581240883026, 19.586700593884359 ], [ -155.601055128398457, 19.585672681955895 ], [ -155.603156861922855, 19.585791383692897 ], [ -155.60485033584817, 19.585517934051264 ], [ -155.606904812786809, 19.584378494363538 ], [ -155.609854863957395, 19.584817150304232 ], [ -155.611426076125298, 19.58537260128384 ], [ -155.612369535134917, 19.585426040879288 ], [ -155.613281211314302, 19.584892178487781 ], [ -155.614138248524512, 19.584356226070447 ], [ -155.615297032355897, 19.584117834700827 ], [ -155.616548590488719, 19.583831735335512 ], [ -155.618270839032988, 19.583928852616211 ], [ -155.621816667323714, 19.583198481005226 ], [ -155.622435719601953, 19.582675735956784 ], [ -155.622772424838359, 19.581820367995338 ], [ -155.622761343169543, 19.581295325758198 ], [ -155.623931600141475, 19.580478845149408 ], [ -155.624804807975863, 19.58023503532057 ], [ -155.625375109350216, 19.579962280420023 ], [ -155.626228298166239, 19.580263811749777 ], [ -155.627666227204486, 19.579465799857058 ], [ -155.629509067840047, 19.579222925265597 ], [ -155.630264286049879, 19.578160670999697 ], [ -155.632783205930394, 19.577882281290538 ], [ -155.633147847012992, 19.576860833568809 ], [ -155.634755658485886, 19.576529692900071 ], [ -155.635886216523204, 19.575417835181376 ], [ -155.636339085887442, 19.575035765141394 ], [ -155.637207249408362, 19.573958394745674 ], [ -155.638970725267427, 19.572106620900776 ], [ -155.641591332620294, 19.569166643372252 ], [ -155.642949567833085, 19.568020101849825 ], [ -155.644465258948031, 19.566529578783641 ], [ -155.645202856944223, 19.566215972522752 ], [ -155.646243862207626, 19.565191997138935 ], [ -155.648809233591493, 19.563480871026194 ], [ -155.649624272335018, 19.561606570514311 ], [ -155.650935071451215, 19.559874732368424 ], [ -155.65151194538555, 19.559062611236151 ], [ -155.654369957480839, 19.558827980956966 ], [ -155.65526757282089, 19.558070181455534 ], [ -155.655828173203105, 19.557518182494935 ], [ -155.656130204608218, 19.557263605500115 ], [ -155.657111584397796, 19.556297936376502 ], [ -155.658167855218039, 19.555406095767605 ], [ -155.659008862323248, 19.554578213210718 ], [ -155.659914375865128, 19.553813920476468 ], [ -155.660453284394265, 19.552783450250981 ], [ -155.662237654476911, 19.551409554930547 ], [ -155.662825167683707, 19.551160245584619 ], [ -155.663390809595029, 19.550889376805213 ], [ -155.664546705819589, 19.550398326043098 ], [ -155.665205436559717, 19.54888300833759 ], [ -155.667466533374323, 19.547678357614181 ], [ -155.669223016814215, 19.545592597524212 ], [ -155.669508693756541, 19.545045780802738 ], [ -155.670088272238303, 19.544556475988081 ], [ -155.670107397692902, 19.544249847793591 ], [ -155.670098653653923, 19.543833503586185 ], [ -155.67147450635764, 19.543248889691508 ], [ -155.672903850411785, 19.542041238802927 ], [ -155.674165414060212, 19.540799545779979 ], [ -155.675898266654571, 19.540063087896275 ], [ -155.676425656469576, 19.537694939707837 ], [ -155.677696440908022, 19.536272260753467 ], [ -155.678418022808899, 19.534892348248189 ], [ -155.680261816245348, 19.533077750221821 ], [ -155.68137230700728, 19.532766591615012 ], [ -155.681770805770697, 19.532004472435069 ], [ -155.682078282517125, 19.531479180405775 ], [ -155.682380483805929, 19.530120358362993 ], [ -155.684085660808876, 19.529120465326365 ], [ -155.685017336219659, 19.527526494752095 ], [ -155.685003353107646, 19.526872870065301 ], [ -155.685916665203962, 19.524770085340265 ], [ -155.687088324776994, 19.523220956694853 ], [ -155.687108220238883, 19.522901908386 ], [ -155.687102409854305, 19.522626281455437 ], [ -155.689021451286237, 19.520555665485013 ], [ -155.689798847194936, 19.518576484000196 ], [ -155.689760921569757, 19.516811343877812 ], [ -155.690370857474448, 19.515645074908274 ], [ -155.690845780170974, 19.515671489717516 ], [ -155.691698571705246, 19.514040588097654 ], [ -155.692443717710404, 19.512765200512536 ], [ -155.692192681509653, 19.511617798536591 ], [ -155.691642625004562, 19.510584438813627 ], [ -155.692351022655231, 19.509209220493176 ], [ -155.692829455831429, 19.508390881568022 ], [ -155.693114973168804, 19.507844004299045 ], [ -155.693422357738484, 19.507318679681283 ], [ -155.693724389051908, 19.505959815120526 ], [ -155.694343632688373, 19.505140872370259 ], [ -155.69526259505767, 19.501772344672695 ], [ -155.6966616351379, 19.501177325975672 ], [ -155.696968652468655, 19.500874624712278 ], [ -155.697376904452057, 19.500529878764016 ], [ -155.697951480033254, 19.499066245358865 ], [ -155.697583269028854, 19.498730320536907 ], [ -155.697098096438708, 19.496039736049514 ], [ -155.696253691380264, 19.494452878446772 ], [ -155.696582481591804, 19.49403846091165 ], [ -155.697323212247511, 19.493412363658468 ], [ -155.697720888526305, 19.491953164790168 ], [ -155.698049994584835, 19.490849676281645 ], [ -155.697990204791637, 19.488067173416617 ], [ -155.69839602776355, 19.487373079960403 ], [ -155.698681479295431, 19.486826184686461 ], [ -155.699570576648881, 19.485769927374484 ], [ -155.699887816286207, 19.484878807662067 ], [ -155.700681827299491, 19.483519635240839 ], [ -155.701701088650509, 19.480922853086522 ], [ -155.701665233095866, 19.479252659241808 ], [ -155.702012869671563, 19.477410178193956 ], [ -155.702621985217093, 19.476078028425327 ], [ -155.702962207300203, 19.472824466972597 ], [ -155.703301931520656, 19.471164284143931 ], [ -155.703286119589194, 19.470430497012725 ], [ -155.703708464234921, 19.469012702623466 ], [ -155.70327567102666, 19.467765224163436 ], [ -155.703927612088222, 19.465374578150492 ], [ -155.704284443931272, 19.464465388089206 ], [ -155.704575299490585, 19.463647807434526 ], [ -155.704931233087507, 19.462741242881378 ], [ -155.704856483829644, 19.459269372478964 ], [ -155.705250014605383, 19.458515531042025 ], [ -155.706177421576058, 19.457138904397592 ], [ -155.706145242443938, 19.455641436551595 ], [ -155.706538252067588, 19.454015786982417 ], [ -155.705674289361724, 19.452392403676622 ], [ -155.705666372111722, 19.452025508937748 ], [ -155.706477210994308, 19.450952425369003 ], [ -155.706706309350267, 19.447255761147087 ], [ -155.706374253502929, 19.44580995695458 ], [ -155.705572702637625, 19.444658644726907 ], [ -155.705523329181375, 19.44236971827452 ], [ -155.706624231933716, 19.44048431060272 ], [ -155.706238183585327, 19.436687620783882 ], [ -155.706645112724345, 19.435321347897673 ], [ -155.706589732610354, 19.432748321624953 ], [ -155.70714058440592, 19.430726780253231 ], [ -155.707692500246111, 19.429176717186593 ], [ -155.708172025252878, 19.427954012533313 ], [ -155.708155318340005, 19.427179219695617 ], [ -155.708593831008386, 19.426428024626688 ], [ -155.708495773974079, 19.421890890953978 ], [ -155.708629962903757, 19.419727185511295 ], [ -155.708609203011719, 19.418765901442082 ], [ -155.70925725292534, 19.417655715626889 ], [ -155.7092264648428, 19.416223578715012 ], [ -155.710145875230864, 19.415006193589182 ], [ -155.710120433523599, 19.413820064850853 ], [ -155.710458100865708, 19.412579700980817 ], [ -155.711008540281256, 19.411636964538637 ], [ -155.711128682352182, 19.409697225688308 ], [ -155.710657989595461, 19.408340143815657 ], [ -155.712044496888211, 19.405303517009354 ], [ -155.711655186698152, 19.404181396712374 ], [ -155.713185639088181, 19.403282309045494 ], [ -155.713274860310491, 19.401838589642708 ], [ -155.712908591730155, 19.401150277568377 ], [ -155.713297782948302, 19.400157804710432 ], [ -155.713271197902998, 19.398929608560596 ], [ -155.713631891865504, 19.397718469214603 ], [ -155.713607822059373, 19.396600582488137 ], [ -155.71400361081794, 19.393822576549702 ], [ -155.71369538619453, 19.391188899865014 ], [ -155.714356431488341, 19.388451914142472 ], [ -155.713827507956125, 19.386928260873518 ], [ -155.71356994199283, 19.386100717447729 ], [ -155.713230674434215, 19.38512361915706 ], [ -155.713624291937606, 19.384449055957024 ], [ -155.713607620157944, 19.383669763834625 ], [ -155.713649341838561, 19.382993595073984 ], [ -155.713597754483573, 19.380608887061307 ], [ -155.714092604669418, 19.379346223100793 ], [ -155.713677502448462, 19.378149606348479 ], [ -155.713769900571947, 19.37665596313926 ], [ -155.71347017123469, 19.375791697240118 ], [ -155.713577437329064, 19.37405690423585 ], [ -155.713529291636974, 19.371833026755489 ], [ -155.714155958383401, 19.370233750133359 ], [ -155.714482452851428, 19.368763902072338 ], [ -155.715132631456783, 19.368213748527872 ], [ -155.714748049190973, 19.366704345111813 ], [ -155.715641323987398, 19.365521053913959 ], [ -155.716058094103687, 19.363479558494653 ], [ -155.716027089061242, 19.362051901977956 ], [ -155.716147782242416, 19.36010289548468 ], [ -155.715824243435151, 19.359064478267758 ], [ -155.714809120172703, 19.358587372887659 ], [ -155.713854306180139, 19.357714980869581 ], [ -155.714140000344116, 19.357138673499808 ], [ -155.715898362330051, 19.354809645253798 ], [ -155.715690930512807, 19.351480502407618 ], [ -155.714456985915803, 19.350692455142383 ], [ -155.713980724746847, 19.34979697790822 ], [ -155.714043897714674, 19.348771624970588 ], [ -155.713753925546058, 19.347936098102636 ], [ -155.713507238960176, 19.346567216553538 ], [ -155.713201187483776, 19.345992121059556 ], [ -155.713279531854226, 19.344724036986999 ], [ -155.712836296585323, 19.343446534533889 ], [ -155.71359756013365, 19.341503807198805 ], [ -155.71328171742789, 19.341084017316639 ], [ -155.712527518238829, 19.340394796761313 ], [ -155.712247755879531, 19.337271395507621 ], [ -155.712297599276297, 19.336466067361901 ], [ -155.712045851442468, 19.33408540968885 ], [ -155.711351673017134, 19.332084673233656 ], [ -155.711798386370049, 19.331644012046826 ], [ -155.712099868950816, 19.33138926189908 ], [ -155.713139423213306, 19.330095689091102 ], [ -155.714056708120381, 19.329705026780385 ], [ -155.713557757558135, 19.329249412188293 ], [ -155.713289396907527, 19.328963222629749 ], [ -155.712895762734632, 19.328603906453392 ], [ -155.712315361663968, 19.326930469092694 ], [ -155.711799770249542, 19.325275917404582 ], [ -155.710439487418427, 19.324033159941347 ], [ -155.710003455412931, 19.322134657734935 ], [ -155.709391583710868, 19.321255505797975 ], [ -155.70891573634907, 19.31887053826761 ], [ -155.709384906856315, 19.317293263089404 ], [ -155.70897689406786, 19.316429956444733 ], [ -155.708131923213728, 19.315342194766444 ], [ -155.707600187493313, 19.313968165823415 ], [ -155.706768535321061, 19.31277275636814 ], [ -155.70706224867331, 19.311792293192703 ], [ -155.707630442523822, 19.310818373217355 ], [ -155.708006149438063, 19.30926188731042 ], [ -155.707719506966129, 19.308013392155473 ], [ -155.70716337696345, 19.306968131231979 ], [ -155.706910715606739, 19.304218589776482 ], [ -155.706353430458677, 19.304468716777773 ], [ -155.705207737655911, 19.305270902423747 ], [ -155.704771933103956, 19.305393122873994 ], [ -155.711070865014449, 19.295691953645751 ], [ -155.714990138464771, 19.289608874143006 ], [ -155.721747227320634, 19.276593680778699 ], [ -155.724113652768807, 19.272027716904496 ], [ -155.733100286270542, 19.254723675273308 ], [ -155.734849675943678, 19.25126367056976 ], [ -155.738411471160418, 19.241144294852511 ], [ -155.73992744162652, 19.236844173830448 ], [ -155.745086571411917, 19.222168295070691 ], [ -155.748540159324023, 19.212377948999404 ], [ -155.751954757838291, 19.204829984925954 ], [ -155.752102610773022, 19.204699860866324 ] ], [ [ -155.457151998007959, 19.741736586249274 ], [ -155.457011585259067, 19.741874445959361 ], [ -155.454962239034842, 19.742202899171389 ], [ -155.451790810407715, 19.744738161657903 ], [ -155.451009398624564, 19.745503844557902 ], [ -155.450063090415142, 19.745797276576436 ], [ -155.44890303639977, 19.746034381182564 ], [ -155.44772555604689, 19.746301797357024 ], [ -155.44655381157736, 19.746234640810812 ], [ -155.445448013352348, 19.747601082132377 ], [ -155.440297444033746, 19.747135426678405 ], [ -155.440310539703603, 19.747778075939095 ], [ -155.439703377020152, 19.748288361623132 ], [ -155.439714245595439, 19.74882998174413 ], [ -155.439400135901138, 19.749093902031856 ], [ -155.439116419720278, 19.74937217331124 ], [ -155.438258732043181, 19.749068267904125 ], [ -155.437728160260122, 19.750076797018476 ], [ -155.43737993851704, 19.750418018742248 ], [ -155.437084350323914, 19.750401027401615 ], [ -155.436571833069763, 19.751375544716129 ], [ -155.434434689516763, 19.750799742419687 ], [ -155.431931904838081, 19.751774733716925 ], [ -155.430187496521711, 19.752170555837584 ], [ -155.428823963154002, 19.751687584351192 ], [ -155.427381901469346, 19.752373332176532 ], [ -155.426759078339643, 19.751830064967933 ], [ -155.426460717634114, 19.751511636471864 ], [ -155.425198743926757, 19.751533734464282 ], [ -155.424765407068207, 19.75150868192744 ], [ -155.424223064121662, 19.752039499714897 ], [ -155.423383089026402, 19.751343313555129 ], [ -155.424360571372688, 19.749679983178336 ], [ -155.42368115219395, 19.749321681448329 ], [ -155.422818446173409, 19.749044304941357 ], [ -155.422562176342524, 19.748216511203847 ], [ -155.422000158830599, 19.747702469186887 ], [ -155.42172616709837, 19.746818277633039 ], [ -155.421018595147729, 19.746170995609184 ], [ -155.420380460175579, 19.745490206443396 ], [ -155.419046099579475, 19.745130414937854 ], [ -155.416948746124319, 19.74585556751282 ], [ -155.416232439804929, 19.74707442054293 ], [ -155.416271077701907, 19.749043295934801 ], [ -155.41621888541323, 19.74985433962798 ], [ -155.416226557818334, 19.750260538097795 ], [ -155.416144319167273, 19.751541261713552 ], [ -155.416480280988225, 19.752175037162594 ], [ -155.416446739627105, 19.752701218659436 ], [ -155.416451753798128, 19.752976509611198 ], [ -155.416142924192542, 19.753501932351764 ], [ -155.415654712098871, 19.756055566743967 ], [ -155.415089472166812, 19.756609418601446 ], [ -155.413748146742591, 19.756981954628696 ], [ -155.413163481358765, 19.757554971330883 ], [ -155.41174576117308, 19.757473124801976 ], [ -155.410944704839039, 19.758257500014121 ], [ -155.410180455922699, 19.758270970410326 ], [ -155.409452634418642, 19.758228862458679 ], [ -155.408315257719039, 19.758769611125899 ], [ -155.407768693445973, 19.758738010501084 ], [ -155.407715550913991, 19.759564093733406 ], [ -155.407741389620753, 19.760902488034194 ], [ -155.406791539568729, 19.762517872481943 ], [ -155.406338031673755, 19.765556970458345 ], [ -155.405835794970187, 19.767381720599126 ], [ -155.405493043728598, 19.768519723964822 ], [ -155.405514783644207, 19.76964126658908 ], [ -155.404982627418605, 19.772424203175486 ], [ -155.404222708952744, 19.773062646679961 ], [ -155.403099439817623, 19.774635381407641 ], [ -155.40259396023913, 19.775059792979839 ], [ -155.401637545850889, 19.776686893303779 ], [ -155.401194290205041, 19.777920400798656 ], [ -155.400455322418253, 19.778643571431246 ], [ -155.399644304062832, 19.778596826756591 ], [ -155.398363763440784, 19.779137773263539 ], [ -155.397069097727041, 19.78040511486299 ], [ -155.396082666571601, 19.780979994994357 ], [ -155.395795578274459, 19.781526158328056 ], [ -155.395219458479829, 19.782010181674917 ], [ -155.394858292754861, 19.782695744392882 ], [ -155.393254004429707, 19.784043769483802 ], [ -155.39133015404056, 19.786880194313657 ], [ -155.391366397665394, 19.788740070578925 ], [ -155.391265072866219, 19.790310086699538 ], [ -155.391646547941122, 19.791028622683939 ], [ -155.390132418159794, 19.791668129847352 ], [ -155.389834800901667, 19.792233362069311 ], [ -155.388935789077664, 19.793558053078918 ], [ -155.388606625707695, 19.794753106866775 ], [ -155.387720223800272, 19.796260176867115 ], [ -155.387745249412461, 19.797575534320529 ], [ -155.387135440102497, 19.798088180107218 ], [ -155.386829058193882, 19.798669351563234 ], [ -155.386395617009725, 19.79864418684674 ], [ -155.385680364070197, 19.798656666811681 ], [ -155.385046655832923, 19.798620041474447 ], [ -155.385077791325983, 19.800256962368291 ], [ -155.3847687315305, 19.800783090786172 ], [ -155.384774122808523, 19.801063404696045 ], [ -155.3827500228644, 19.801326648139714 ], [ -155.382171513751672, 19.80181241533451 ], [ -155.381890455540685, 19.8020879784568 ], [ -155.380734314980572, 19.802576037605046 ], [ -155.380293051049904, 19.803414042251084 ], [ -155.379546531945579, 19.804682810333219 ], [ -155.379525104435118, 19.805012275361776 ], [ -155.379535318041519, 19.805547776754125 ], [ -155.379089383351698, 19.805555645475014 ], [ -155.377832526891012, 19.805482817183638 ], [ -155.377477539086073, 19.806086769673659 ], [ -155.377497120569672, 19.807120481312872 ], [ -155.376050970846393, 19.807807743554875 ], [ -155.374707415403662, 19.807099238474258 ], [ -155.373214575730486, 19.807012857528488 ], [ -155.372867955619313, 19.807887124724619 ], [ -155.374157224512913, 19.80906771146682 ], [ -155.373714470427075, 19.809501219592345 ], [ -155.373283959665685, 19.809862810009392 ], [ -155.374174059568674, 19.810812178804653 ], [ -155.374809966058393, 19.811147599923839 ], [ -155.375386987875117, 19.811419437953628 ], [ -155.376220939447904, 19.811988327646983 ], [ -155.37759914683005, 19.812328509560277 ], [ -155.377899406740511, 19.813646537766637 ], [ -155.378467475361219, 19.814166139025524 ], [ -155.378701852737606, 19.816099011512161 ], [ -155.379235976114188, 19.817106163118662 ], [ -155.379263930885799, 19.818534444554224 ], [ -155.378392114635972, 19.818549519466441 ], [ -155.377526210809009, 19.817959102411553 ], [ -155.377235050442096, 19.817964025760833 ], [ -155.376406009402757, 19.817915989549512 ], [ -155.3755313513727, 19.819065811775324 ], [ -155.375465035889192, 19.820092488408392 ], [ -155.375930498698636, 19.821441368534277 ], [ -155.376579373381134, 19.824727636141951 ], [ -155.376170340436431, 19.827168447804198 ], [ -155.375298967181209, 19.827900139652691 ], [ -155.375562680723903, 19.828784966011852 ], [ -155.37639457410944, 19.829546529923274 ], [ -155.376100498658246, 19.83039252414083 ], [ -155.375782850736528, 19.831193893036779 ], [ -155.376355556989438, 19.83227400653281 ], [ -155.376302762917732, 19.833098207497031 ], [ -155.376315325428067, 19.83377517733037 ], [ -155.37626888035993, 19.834491920204762 ], [ -155.377115400139729, 19.836086987442556 ], [ -155.377640955251508, 19.837202356198514 ], [ -155.378508958227229, 19.837187485760431 ], [ -155.378524798270973, 19.838015726801764 ], [ -155.378411161074354, 19.839772877053669 ], [ -155.378456464967826, 19.842133313852884 ], [ -155.378074675551034, 19.843691512918998 ], [ -155.378388919674933, 19.844935814750439 ], [ -155.378025561798154, 19.845854151524836 ], [ -155.378359763438937, 19.847548240621954 ], [ -155.377684154050286, 19.848831361498213 ], [ -155.377082874728416, 19.849621407495505 ], [ -155.377092816582092, 19.850167474826943 ], [ -155.377040862859161, 19.850978474759152 ], [ -155.377056720097755, 19.851805128613808 ], [ -155.376443804148863, 19.852319754331127 ], [ -155.376942999377661, 19.852776912889873 ], [ -155.376418741377563, 19.853668177673292 ], [ -155.376424103440058, 19.85394848849042 ], [ -155.37583398680016, 19.854197118789696 ], [ -155.375840116268819, 19.854492776879333 ], [ -155.374671712712825, 19.854985513277363 ], [ -155.37468297034971, 19.855546938024798 ], [ -155.37275177496889, 19.856361689321666 ], [ -155.37347897122433, 19.857137010657432 ], [ -155.374181260260144, 19.857779388000527 ], [ -155.373256800861327, 19.858993441653872 ], [ -155.374759382754689, 19.8609325866862 ], [ -155.373470284033914, 19.862625863141151 ], [ -155.373915444297495, 19.863100964720495 ], [ -155.374206667315775, 19.863367008449782 ], [ -155.374456597828356, 19.864465412287348 ], [ -155.374747824008182, 19.86473145562918 ], [ -155.37522573039837, 19.86524132213718 ], [ -155.375928657506279, 19.865611704233597 ], [ -155.378129311073678, 19.866320528174434 ], [ -155.378136317707629, 19.866700529340864 ], [ -155.378098236377014, 19.867293993723056 ], [ -155.379389059993628, 19.868475168835715 ], [ -155.379925911579875, 19.869048081354155 ], [ -155.380915677779257, 19.869953495071751 ], [ -155.381160125731782, 19.871639681717504 ], [ -155.381706187313881, 19.872668768452982 ], [ -155.382191004248369, 19.874794950708434 ], [ -155.382528662243914, 19.875773538863545 ], [ -155.382465913096411, 19.876739755299038 ], [ -155.382848601369403, 19.877974878212907 ], [ -155.383537192815908, 19.87870894777457 ], [ -155.384188542931895, 19.879016138280804 ], [ -155.384968811493934, 19.879848023702536 ], [ -155.385696418969133, 19.880513622357107 ], [ -155.386099098695638, 19.880943431599093 ], [ -155.386390373095594, 19.881209463200289 ], [ -155.387346913848546, 19.882229169651559 ], [ -155.388064295816633, 19.882607476702621 ], [ -155.388678628973992, 19.882896984161679 ], [ -155.389426749013268, 19.883694366643876 ], [ -155.392179484919325, 19.885234789559792 ], [ -155.393570460532572, 19.886717692307734 ], [ -155.396560619423013, 19.887230606832336 ], [ -155.398466618292332, 19.888234612011946 ], [ -155.399073811910569, 19.888224176091285 ], [ -155.399387566722254, 19.888511000788149 ], [ -155.400075183656867, 19.889244209156001 ], [ -155.401347716692669, 19.88991470998122 ], [ -155.40221108769677, 19.890192299709355 ], [ -155.403948886392442, 19.89124783542303 ], [ -155.407722654761926, 19.89166725007264 ], [ -155.408310838574266, 19.893563933045378 ], [ -155.40873991262086, 19.893026987799015 ], [ -155.408719134542196, 19.891966797726177 ], [ -155.409931458815464, 19.891692305556369 ], [ -155.410612440613505, 19.891731697438967 ], [ -155.412473223478486, 19.891699468298373 ], [ -155.415267502275753, 19.891860779245299 ], [ -155.41562982300718, 19.891556681004314 ], [ -155.416136758428451, 19.891060407132354 ], [ -155.41735286217417, 19.891039449002871 ], [ -155.417638657046126, 19.891055781846088 ], [ -155.418169269922345, 19.891046646392706 ], [ -155.41967649204787, 19.891376778461439 ], [ -155.420350248955629, 19.89136496784813 ], [ -155.421040171482389, 19.891404764088364 ], [ -155.421923813514155, 19.891131499947175 ], [ -155.423084971105169, 19.890894743495359 ], [ -155.423652186855776, 19.890624884565003 ], [ -155.424813339979806, 19.890388115822176 ], [ -155.426271090232405, 19.889313490010725 ], [ -155.427048082863763, 19.889358448426993 ], [ -155.430004467111388, 19.888597546263828 ], [ -155.432781790548177, 19.887147002019834 ], [ -155.434605487201736, 19.88759649794083 ], [ -155.435978446950003, 19.888082940213646 ], [ -155.437437898512059, 19.888476202698062 ], [ -155.437989758656528, 19.888466639091728 ], [ -155.439676050016601, 19.889063751834659 ], [ -155.440541584425489, 19.889048829497082 ], [ -155.441136529070178, 19.88936210328832 ], [ -155.441713962149691, 19.889633785521688 ], [ -155.442268577983583, 19.889926157989656 ], [ -155.445335132267587, 19.890912473854293 ], [ -155.446802906570468, 19.891911736538447 ], [ -155.447666405349963, 19.892189118882733 ], [ -155.449286233503869, 19.892762880250569 ], [ -155.450806626754144, 19.892533112288611 ], [ -155.452086473799028, 19.892137008017421 ], [ -155.454257278346688, 19.891789858973961 ], [ -155.455435872362926, 19.891522566462118 ], [ -155.456259799910725, 19.891569920911898 ], [ -155.457103559843574, 19.891555013814898 ], [ -155.457914012673712, 19.89198171128815 ], [ -155.458516888095232, 19.890836358233862 ], [ -155.458860614003214, 19.89234370596072 ], [ -155.46108882262709, 19.893009054007877 ], [ -155.461484146728395, 19.893002118795916 ], [ -155.464811206430738, 19.893342979304883 ], [ -155.466239804157794, 19.893848816932362 ], [ -155.468368901562371, 19.893971227234214 ], [ -155.469215476457663, 19.893956319798324 ], [ -155.472219174568608, 19.894312829408307 ], [ -155.475085149595429, 19.894629812580714 ], [ -155.476984209132098, 19.895045232532716 ], [ -155.477608105251136, 19.894434756608192 ], [ -155.481160782188027, 19.895092795034 ], [ -155.483083221630523, 19.895058931551993 ], [ -155.483654869654231, 19.895091653492788 ], [ -155.484513764832059, 19.895076388375664 ], [ -155.485743029725114, 19.895146957549908 ], [ -155.48738546956298, 19.894883858827466 ], [ -155.488824494882266, 19.893884169811887 ], [ -155.49043709068107, 19.893554359436319 ], [ -155.491724146389515, 19.892803847954447 ], [ -155.492224599968466, 19.892313541800601 ], [ -155.494025534926294, 19.891755826205252 ], [ -155.495405648402112, 19.891473726385676 ], [ -155.497679439962127, 19.890687359874395 ], [ -155.498329870620012, 19.88945129798504 ], [ -155.499532659430855, 19.888615520477405 ], [ -155.500060194413464, 19.888645732185967 ], [ -155.50147009188484, 19.888049832257941 ], [ -155.503304320295115, 19.88625356987459 ], [ -155.503909641929027, 19.885744928518314 ], [ -155.504472298956614, 19.885193675680114 ], [ -155.506731481489055, 19.884048666858142 ], [ -155.50965315248115, 19.881187116413034 ], [ -155.511153417224591, 19.880722440389246 ], [ -155.51144871497246, 19.880739335589677 ], [ -155.511969625152034, 19.880229269201152 ], [ -155.51290320803858, 19.879684727193606 ], [ -155.513184234888485, 19.879408945102075 ], [ -155.513773186089196, 19.879160346979546 ], [ -155.514924180953074, 19.878360176009505 ], [ -155.517943780008807, 19.876759577458269 ], [ -155.519536648909337, 19.874791561141052 ], [ -155.520891933578127, 19.873463685343349 ], [ -155.522117182941514, 19.872433318147714 ], [ -155.522800940649574, 19.871475637779326 ], [ -155.523406146777319, 19.870966911427242 ], [ -155.524575757960974, 19.869820961623109 ], [ -155.526780060509623, 19.868178081601684 ], [ -155.527835981107785, 19.867143566576196 ], [ -155.530218946412134, 19.865659571853268 ], [ -155.531592789113546, 19.864857795824207 ], [ -155.532113583950945, 19.864347652111412 ], [ -155.532588595975426, 19.864374618912873 ], [ -155.534131993833967, 19.86412708218613 ], [ -155.53469897771015, 19.863856824717889 ], [ -155.536513252864353, 19.863565629478945 ], [ -155.538083008346774, 19.862901911499975 ], [ -155.53845758622424, 19.862586920260114 ], [ -155.538893851308416, 19.862159180903813 ], [ -155.540247736588981, 19.861218141825944 ], [ -155.541358895399298, 19.860748254593911 ], [ -155.541925857836475, 19.860477970344412 ], [ -155.543140792265149, 19.859964084477884 ], [ -155.543957316407614, 19.859163801406105 ], [ -155.545829855508487, 19.858863321660959 ], [ -155.546846782814697, 19.857866246906372 ], [ -155.549030133083193, 19.857418946918724 ], [ -155.549735436834141, 19.857120647513803 ], [ -155.550016363093135, 19.856844791061292 ], [ -155.550897055115257, 19.856330978148005 ], [ -155.552284592623636, 19.855366159878365 ], [ -155.553500418151543, 19.855027759112645 ], [ -155.554509878776486, 19.854398768206689 ], [ -155.557057183241483, 19.853320978795004 ], [ -155.559565786140126, 19.851885749785332 ], [ -155.560978912641133, 19.851492410578761 ], [ -155.561323785714478, 19.850530373768223 ], [ -155.563161229397394, 19.849752862920671 ], [ -155.563959247662581, 19.84870226860906 ], [ -155.563938585002603, 19.847690077699369 ], [ -155.564800709360128, 19.846049289519389 ], [ -155.565996018926256, 19.845543568783018 ], [ -155.566066243219637, 19.844436099508965 ], [ -155.566034671201777, 19.842878538503541 ], [ -155.566353706695338, 19.842270524941004 ], [ -155.566932321347394, 19.84128521376519 ], [ -155.566972057424692, 19.840659126293232 ], [ -155.566691627220138, 19.839849997660028 ], [ -155.566769030554582, 19.838628980154756 ], [ -155.566733586582671, 19.836887068035647 ], [ -155.569374361733196, 19.834173787942138 ], [ -155.570292238561365, 19.832609906119998 ], [ -155.570286511344904, 19.832330341727644 ], [ -155.570601174185271, 19.831533725050093 ], [ -155.571506271557126, 19.828833262243521 ], [ -155.572693634660681, 19.827428150474166 ], [ -155.573391466621672, 19.825660401935643 ], [ -155.572773902855857, 19.823675427211562 ], [ -155.57191983508892, 19.822895730734782 ], [ -155.571572446808801, 19.821379150665621 ], [ -155.570888333909977, 19.819931974824073 ], [ -155.568934222047858, 19.817562521452547 ], [ -155.568633455606857, 19.816595169931738 ], [ -155.568341925904946, 19.816329407247828 ], [ -155.568055632862212, 19.815078649695455 ], [ -155.567261872183053, 19.813861486465481 ], [ -155.566453762166873, 19.813481612950962 ], [ -155.564632594274315, 19.81102876377274 ], [ -155.563943014903202, 19.810295039386162 ], [ -155.563328797377068, 19.810006135408294 ], [ -155.56221392810582, 19.80916189704023 ], [ -155.560365537749789, 19.807823395262776 ], [ -155.558557892870056, 19.805553980843374 ], [ -155.556857307599074, 19.805008275080958 ], [ -155.556588611690017, 19.804721788171189 ], [ -155.556049754094289, 19.804229950404718 ], [ -155.555441361856026, 19.803296573857818 ], [ -155.554902512457147, 19.802804733801825 ], [ -155.554639655334142, 19.802247630892367 ], [ -155.553558070128446, 19.800693336311141 ], [ -155.553081228578264, 19.799683973921933 ], [ -155.550191657611862, 19.797441456413143 ], [ -155.549669378833869, 19.795160333274737 ], [ -155.549364934198451, 19.794836134884129 ], [ -155.548862836479088, 19.794377775859697 ], [ -155.548315806838389, 19.791328941879488 ], [ -155.546584719152037, 19.790018513648157 ], [ -155.54330102339739, 19.78875892433167 ], [ -155.542147040764235, 19.788779940473454 ], [ -155.540906147920424, 19.788195953150229 ], [ -155.539519266763989, 19.787466365042135 ], [ -155.538653304311083, 19.787059095753357 ], [ -155.537589548891731, 19.786499407627741 ], [ -155.537241409492822, 19.78647970311324 ], [ -155.535901365215949, 19.786503946773866 ], [ -155.533833992862867, 19.785601434662016 ], [ -155.532608030008191, 19.785207773308109 ], [ -155.53212491070795, 19.78476666547051 ], [ -155.531735628984478, 19.784351701572326 ], [ -155.529312742941983, 19.783077135899173 ], [ -155.52862488748778, 19.782753390849333 ], [ -155.527398086372614, 19.781447584553462 ], [ -155.526489591696418, 19.780867064240947 ], [ -155.521570013781087, 19.776764468798842 ], [ -155.520024911123954, 19.776128168709235 ], [ -155.519497427936869, 19.776137721765288 ], [ -155.518588466003649, 19.775709967759358 ], [ -155.517756809743275, 19.775272083971032 ], [ -155.515762084265788, 19.774431615145456 ], [ -155.514521273339568, 19.773110134567386 ], [ -155.513648841872822, 19.772699198547059 ], [ -155.512165144846676, 19.771119168674876 ], [ -155.511513873244013, 19.770812473592354 ], [ -155.510553701218157, 19.769789640362454 ], [ -155.509300222638643, 19.769129874226671 ], [ -155.508166530400899, 19.769150290948094 ], [ -155.507408886903733, 19.768343692229823 ], [ -155.506302070548088, 19.767951674460583 ], [ -155.504464937288503, 19.76798475342504 ], [ -155.503909449915625, 19.767692332834073 ], [ -155.502755682230628, 19.76714921360924 ], [ -155.501209616996448, 19.766335360182328 ], [ -155.499091599414157, 19.765703019509214 ], [ -155.4979427834202, 19.765420374349716 ], [ -155.496899937018725, 19.764710462862766 ], [ -155.493970739492795, 19.763988936964974 ], [ -155.4936722071443, 19.763670597183818 ], [ -155.492548070555017, 19.763690577869873 ], [ -155.492042078025747, 19.762618944323631 ], [ -155.491444120145871, 19.762304242882692 ], [ -155.490953010696614, 19.762313109098947 ], [ -155.489420406331163, 19.761935374206754 ], [ -155.489483439595176, 19.760944702959289 ], [ -155.48874559818816, 19.760158258308152 ], [ -155.487877670818733, 19.759701566399553 ], [ -155.485550051026735, 19.760230296082842 ], [ -155.483643636741988, 19.759226548621513 ], [ -155.482637912680218, 19.759705625057038 ], [ -155.482011629773837, 19.759970358532847 ], [ -155.481007646685129, 19.76095466259147 ], [ -155.480032957193686, 19.761418470675121 ], [ -155.48000548079375, 19.760025249476282 ], [ -155.480654221433696, 19.758382031569219 ], [ -155.48010738932706, 19.757750270928206 ], [ -155.478974251715016, 19.757216411821801 ], [ -155.478702102200288, 19.756639757819482 ], [ -155.47841678510639, 19.756103292269142 ], [ -155.477929599371691, 19.755070601551633 ], [ -155.477126785543874, 19.753915636151543 ], [ -155.476699169853987, 19.752536212465284 ], [ -155.475945627052937, 19.751452536231398 ], [ -155.475560782621955, 19.750211160104957 ], [ -155.474217734025984, 19.749779153417098 ], [ -155.471892047522005, 19.748195748536723 ], [ -155.47115178274754, 19.748921629897929 ], [ -155.470525532989029, 19.749186326873197 ], [ -155.469731617606612, 19.74996427925123 ], [ -155.468835530822219, 19.749980164012186 ], [ -155.468457580779386, 19.748327037710858 ], [ -155.467611513318531, 19.748607739873762 ], [ -155.466504707136011, 19.749975635721807 ], [ -155.464268758819628, 19.749847380208685 ], [ -155.463805294785544, 19.750301380828621 ], [ -155.461423082569837, 19.749260262889418 ], [ -155.459154245907314, 19.7483717833274 ], [ -155.4583098439347, 19.746781585929003 ], [ -155.459802423569272, 19.744458311915054 ], [ -155.459402422423068, 19.742543818553909 ], [ -155.45815493372308, 19.741886509331273 ], [ -155.457151998007959, 19.741736586249274 ] ], [ [ -155.723183149636924, 19.736246988040524 ], [ -155.723002156370626, 19.736659075398272 ], [ -155.724165614730055, 19.737543963407603 ], [ -155.724446878104658, 19.736474250071758 ], [ -155.723183149636924, 19.736246988040524 ] ] ] } },
{ "type": "Feature", "properties": { "ID": 5, "GRIDCODE": 1 }, "geometry": { "type": "Polygon", "coordinates": [ [ [ -155.752102610773022, 19.204699860866324 ], [ -155.751954757838291, 19.204829984925954 ], [ -155.748540159324023, 19.212377948999404 ], [ -155.745086571411917, 19.222168295070691 ], [ -155.73992744162652, 19.236844173830448 ], [ -155.738411471160418, 19.241144294852511 ], [ -155.734849675943678, 19.25126367056976 ], [ -155.733100286270542, 19.254723675273308 ], [ -155.724113652768807, 19.272027716904496 ], [ -155.721747227320634, 19.276593680778699 ], [ -155.714990138464771, 19.289608874143006 ], [ -155.711070865014449, 19.295691953645751 ], [ -155.704771933103956, 19.305393122873994 ], [ -155.704766506391962, 19.305663793775764 ], [ -155.704481419727244, 19.305658641207948 ], [ -155.704475992456764, 19.305929312022425 ], [ -155.704044385863796, 19.306064298587362 ], [ -155.702891278149252, 19.305458018724764 ], [ -155.70163305654043, 19.305482593465907 ], [ -155.701063320783419, 19.305450603453863 ], [ -155.700492715295979, 19.305461961140594 ], [ -155.699965544270043, 19.305432324505944 ], [ -155.698618108980952, 19.306224201430137 ], [ -155.698102964326438, 19.306732610037866 ], [ -155.696651659801631, 19.306760791333687 ], [ -155.69456763682075, 19.305665073152092 ], [ -155.691792205013996, 19.305298754274592 ], [ -155.690779813867209, 19.304940867539262 ], [ -155.68724062286455, 19.305009866910417 ], [ -155.684778945390832, 19.304872313801649 ], [ -155.682963600025772, 19.305138619366119 ], [ -155.682145734714794, 19.305092801730353 ], [ -155.681658668139193, 19.305505155884578 ], [ -155.680712416824178, 19.306438249334288 ], [ -155.679594072795311, 19.306459928003321 ], [ -155.67866798540291, 19.306132633869613 ], [ -155.676381472360561, 19.305830780516928 ], [ -155.674289382156445, 19.305445452876121 ], [ -155.673530903053802, 19.305768218351663 ], [ -155.672966190213401, 19.306039253245213 ], [ -155.667673657289896, 19.306379676275139 ], [ -155.666672534397151, 19.30700734098922 ], [ -155.664402358745093, 19.307974032124942 ], [ -155.663788790255666, 19.308579154269193 ], [ -155.662917133270156, 19.308823383780776 ], [ -155.660608912498731, 19.310687008325555 ], [ -155.65973724158107, 19.31093122017241 ], [ -155.658584973532896, 19.311483613435815 ], [ -155.657237428955057, 19.311408138799226 ], [ -155.656233075532782, 19.311835516896565 ], [ -155.654613785899784, 19.313848916982757 ], [ -155.652121539052501, 19.312968142547067 ], [ -155.651135147702604, 19.313210202496467 ], [ -155.650002813886374, 19.313752853880263 ], [ -155.649419171719018, 19.31372017923298 ], [ -155.648277960446023, 19.313742030610204 ], [ -155.646694513395857, 19.313653147518167 ], [ -155.645416901507417, 19.313917315091491 ], [ -155.644567042377531, 19.314183002998774 ], [ -155.643695340907357, 19.314427131531808 ], [ -155.642815210190918, 19.314702036177938 ], [ -155.641985094502843, 19.31465554264091 ], [ -155.641129183452051, 19.314672028177551 ], [ -155.639656180674194, 19.31458934894545 ], [ -155.637240751826624, 19.314885884082603 ], [ -155.635881533712137, 19.314809504181166 ], [ -155.633328503699744, 19.315147601880536 ], [ -155.632232386125736, 19.316692112210234 ], [ -155.630071023088846, 19.317961234454117 ], [ -155.628383558458353, 19.319018052127106 ], [ -155.627065916349153, 19.318733490608189 ], [ -155.626315922180652, 19.318338597173501 ], [ -155.625936706398022, 19.318712584756099 ], [ -155.625333845900769, 19.319222035703582 ], [ -155.624747108882474, 19.31980052827301 ], [ -155.623611712638819, 19.320283449093463 ], [ -155.622780207301588, 19.321103030331397 ], [ -155.621375336796206, 19.321024103130757 ], [ -155.620184369886289, 19.321594545034507 ], [ -155.617631514241566, 19.322121719789262 ], [ -155.61643968096044, 19.322868475510589 ], [ -155.615815625705181, 19.323133979283234 ], [ -155.615282580419091, 19.323659229409301 ], [ -155.614830467654201, 19.324041352745677 ], [ -155.614226341748378, 19.324636666931987 ], [ -155.612432911803467, 19.325759559292944 ], [ -155.612096327534658, 19.325765990930414 ], [ -155.611551059094609, 19.325735489850882 ], [ -155.610670836632522, 19.326010221324271 ], [ -155.608384468636388, 19.32648219156091 ], [ -155.607869869690973, 19.326989250481482 ], [ -155.606724396750565, 19.327537700386767 ], [ -155.604570644911689, 19.328141116458127 ], [ -155.604046778944053, 19.328583739984161 ], [ -155.603050235944892, 19.329565649164994 ], [ -155.602036388756204, 19.330050948469808 ], [ -155.600863493462754, 19.330549930045994 ], [ -155.599554257068746, 19.331176442165713 ], [ -155.598217117120186, 19.331482498558501 ], [ -155.596937391578109, 19.331410468507634 ], [ -155.594695852150778, 19.33471057043662 ], [ -155.593567871467741, 19.335190242869235 ], [ -155.592501565272954, 19.336240575778966 ], [ -155.590666810715362, 19.337020839335377 ], [ -155.589408541981271, 19.338259772045038 ], [ -155.587269274197752, 19.339912089739833 ], [ -155.586718451146623, 19.340454881429871 ], [ -155.585304025017479, 19.340374946888439 ], [ -155.584965906828216, 19.34070808951013 ], [ -155.581909454386874, 19.341338682829793 ], [ -155.581231180573894, 19.342235467068594 ], [ -155.580406686964068, 19.343812434690651 ], [ -155.579279593732878, 19.344351773862311 ], [ -155.578329227053501, 19.344617605810104 ], [ -155.577788315307743, 19.345150503386119 ], [ -155.576856992158696, 19.345411132436659 ], [ -155.576316073301456, 19.345944024455893 ], [ -155.576014386501754, 19.346198513197219 ], [ -155.57551612212518, 19.346689372676362 ], [ -155.574300087930141, 19.347271156093989 ], [ -155.573079542221762, 19.347202171581507 ], [ -155.57164526139411, 19.348043425949086 ], [ -155.571127352519454, 19.348553730186282 ], [ -155.570249747720595, 19.349068093412193 ], [ -155.569943913412686, 19.349653247757349 ], [ -155.56822556645119, 19.350383621954578 ], [ -155.567945692685527, 19.350659657209075 ], [ -155.566817265498798, 19.351139128805045 ], [ -155.566486185493773, 19.351705291212326 ], [ -155.566492885488714, 19.352023746197091 ], [ -155.565306979787096, 19.353025618349466 ], [ -155.564630553700937, 19.354319208263885 ], [ -155.562996876645627, 19.354887463235013 ], [ -155.562431855672827, 19.355158100143353 ], [ -155.560468448151795, 19.355841190155513 ], [ -155.559837278087173, 19.356462735948021 ], [ -155.55925041562918, 19.356711797129975 ], [ -155.558103749618198, 19.357512887845576 ], [ -155.557202043144969, 19.357764972993795 ], [ -155.556661022527038, 19.358297789782384 ], [ -155.555218746293889, 19.358530640732219 ], [ -155.55407205060348, 19.359331700852525 ], [ -155.552216046734173, 19.359977330519076 ], [ -155.550631991066155, 19.362206762847595 ], [ -155.549970700347927, 19.362522854122545 ], [ -155.549146006170417, 19.36247627364774 ], [ -155.548865518560461, 19.362752524771349 ], [ -155.548291480729233, 19.363237358357981 ], [ -155.54759661330371, 19.364564615848575 ], [ -155.546328320985538, 19.364919399898692 ], [ -155.544646117838568, 19.365905598342529 ], [ -155.543945371192223, 19.367245414887513 ], [ -155.541885574652355, 19.368565463331684 ], [ -155.540999874183058, 19.369665119418876 ], [ -155.539817560558078, 19.370167427502849 ], [ -155.538524242344806, 19.371439884870572 ], [ -155.53767811113039, 19.371799463710861 ], [ -155.53692239668942, 19.372862704507163 ], [ -155.53591259472887, 19.373715671109725 ], [ -155.53521213097838, 19.374405056580866 ], [ -155.534910331790343, 19.374659458430042 ], [ -155.533944439663827, 19.375858534854352 ], [ -155.532631654938513, 19.376967176323237 ], [ -155.530826384655057, 19.378913227839742 ], [ -155.530084245611221, 19.38033096276359 ], [ -155.527021078090769, 19.383443458417226 ], [ -155.527041647042125, 19.384443220353297 ], [ -155.526712923625411, 19.385071984775745 ], [ -155.52562397405228, 19.385710005500634 ], [ -155.524391307187017, 19.386922680676577 ], [ -155.52330330995332, 19.387226523311469 ], [ -155.522630241919302, 19.389478867515457 ], [ -155.522605953720841, 19.389861227955887 ], [ -155.522626698225849, 19.390877381446462 ], [ -155.522006340899281, 19.391750125835618 ], [ -155.521704488210133, 19.392004497164148 ], [ -155.521143889089018, 19.39255610031212 ], [ -155.520057284902634, 19.393473309282228 ], [ -155.519091162242432, 19.394672270442943 ], [ -155.518201639317283, 19.395727547895728 ], [ -155.517915840335746, 19.396274095498853 ], [ -155.517026300286119, 19.397329364498777 ], [ -155.516045121027673, 19.398709643558082 ], [ -155.51434347019196, 19.399773104653796 ], [ -155.51286451344194, 19.400401160425595 ], [ -155.512295807340678, 19.401486619110301 ], [ -155.510630833105409, 19.402891791692735 ], [ -155.510227807614967, 19.404020082033 ], [ -155.509011386607, 19.405216537207274 ], [ -155.507538170168601, 19.406198652918015 ], [ -155.506533926145664, 19.4076868125597 ], [ -155.506544642013125, 19.408228201237723 ], [ -155.505462386737406, 19.409141678451387 ], [ -155.502989849070133, 19.413302942032409 ], [ -155.502703962287029, 19.413849452073915 ], [ -155.501773321045391, 19.414394371210211 ], [ -155.50097405358315, 19.415180021876601 ], [ -155.500098308947287, 19.415919248600527 ], [ -155.499793827725199, 19.41650055538036 ], [ -155.498624634686792, 19.417279584140427 ], [ -155.498344527616808, 19.417555474367248 ], [ -155.497761637388862, 19.418047066329141 ], [ -155.497459848124095, 19.41889200236275 ], [ -155.497157906659226, 19.419146318413532 ], [ -155.496607592502329, 19.420197160648954 ], [ -155.495716232865362, 19.4206230370648 ], [ -155.494835468453942, 19.420996502445416 ], [ -155.494555348504605, 19.421272384723171 ], [ -155.494253398290738, 19.421526694481837 ], [ -155.493794309605448, 19.422402684860113 ], [ -155.492506451966307, 19.4236692567356 ], [ -155.491590790673314, 19.424057626173283 ], [ -155.490463311194588, 19.42579548881465 ], [ -155.489593721047385, 19.426528688211921 ], [ -155.489547308934476, 19.427261428235784 ], [ -155.489581757529038, 19.428950653110196 ], [ -155.489229963470478, 19.42955190267039 ], [ -155.489238808577198, 19.429995693657133 ], [ -155.487751374203299, 19.431958943706498 ], [ -155.487031389468342, 19.433973268531872 ], [ -155.486557965662541, 19.434372286591792 ], [ -155.486147018406399, 19.435156912890999 ], [ -155.484461297633828, 19.43542852293437 ], [ -155.483384520900643, 19.43648707128763 ], [ -155.482244551226387, 19.43680519957972 ], [ -155.48220650470185, 19.437406437177717 ], [ -155.482214368290784, 19.437817160114424 ], [ -155.481906513831433, 19.438342837864202 ], [ -155.481620503575954, 19.438889295495574 ], [ -155.480916581903102, 19.439817851821797 ], [ -155.479998681391351, 19.441569996623571 ], [ -155.47899579686046, 19.443281619993652 ], [ -155.478647000905056, 19.44425671826502 ], [ -155.477528039111718, 19.444192935293945 ], [ -155.476637957880712, 19.445712155302111 ], [ -155.476280933041465, 19.447015434832906 ], [ -155.475408750261778, 19.448504590253371 ], [ -155.47542375964062, 19.44925410875398 ], [ -155.47510515971004, 19.449862043080525 ], [ -155.474954141953702, 19.449989174971929 ], [ -155.473323639417572, 19.450251685360954 ], [ -155.467356827257504, 19.451324825275382 ], [ -155.444748508044967, 19.455452582770722 ], [ -155.442292316121211, 19.455847688613282 ], [ -155.445220071576557, 19.452897245273427 ], [ -155.477707368913343, 19.421479508885767 ], [ -155.504491989531232, 19.396825714474808 ], [ -155.504777503209141, 19.396555199672285 ], [ -155.518433274338321, 19.38385095904648 ], [ -155.52769303912504, 19.373254270351897 ], [ -155.532501124701753, 19.36758246667755 ], [ -155.543714368828716, 19.354321471522617 ], [ -155.560249243961238, 19.336428085155248 ], [ -155.564923924841935, 19.331377610551311 ], [ -155.568682558753181, 19.32731335791987 ], [ -155.574540917912401, 19.321541374177173 ], [ -155.578320405380907, 19.317816732435016 ], [ -155.581819938435643, 19.314368055184996 ], [ -155.585599093111341, 19.310643209130397 ], [ -155.589098318095012, 19.307194342778882 ], [ -155.592877140125154, 19.303469292591252 ], [ -155.600160004596177, 19.296300372916264 ], [ -155.603938321582149, 19.292575012836984 ], [ -155.607436771104716, 19.289125670729902 ], [ -155.611214755816093, 19.285400106969512 ], [ -155.61471289774741, 19.281950576345487 ], [ -155.618490550331387, 19.278224809083341 ], [ -155.621988384807821, 19.274775090108427 ], [ -155.625765705411709, 19.271049119523855 ], [ -155.629263232569627, 19.267599212364111 ], [ -155.636514723358545, 19.26044473556329 ], [ -155.639331497346888, 19.257766278730671 ], [ -155.65321487193961, 19.245611163533205 ], [ -155.679445683207604, 19.226225053949033 ], [ -155.684410716834776, 19.22343397495295 ], [ -155.695083577038076, 19.218001992029343 ], [ -155.701888804113025, 19.214224492320234 ], [ -155.709792160870535, 19.209842388829891 ], [ -155.723690127020859, 19.200819411443621 ], [ -155.728257405019519, 19.199153695511203 ], [ -155.733429238015219, 19.198144902691055 ], [ -155.738497714396658, 19.197689157556642 ], [ -155.744367276602276, 19.19829069424307 ], [ -155.746579657078911, 19.199016467718135 ], [ -155.749304871118369, 19.200783933336695 ], [ -155.75169135476267, 19.204012970365927 ], [ -155.752102610773022, 19.204699860866324 ] ] ] } }
]
}
