{
"type": "FeatureCollection",
"name": "isohosa",
"crs": { "type": "name", "properties": { "name": "urn:ogc:def:crs:OGC:1.3:CRS84" } },
"features": [
{ "type": "Feature", "properties": { "ID": 1, "GRIDCODE": 1 }, "geometry": { "type": "Polygon", "coordinates": [ [ [ -155.77374351666802, 20.077524932034407 ], [ -155.775000433950339, 20.07822033272188 ], [ -155.774720649627255, 20.079090983892211 ], [ -155.773220084393557, 20.07795244996986 ], [ -155.77361561363972, 20.077675429180225 ], [ -155.77374351666802, 20.077524932034407 ] ] ] } },
{ "type": "Feature", "properties": { "ID": 2, "GRIDCODE": 1 }, "geometry": { "type": "Polygon", "coordinates": [ [ [ -155.770625577199468, 20.07584329613929 ], [ -155.771727666413199, 20.075994084581023 ], [ -155.773021600723695, 20.077012636152705 ], [ -155.772673360542996, 20.077508668211607 ], [ -155.770749786826343, 20.075995892436296 ], [ -155.770625577199468, 20.07584329613929 ] ] ] } },
{ "type": "Feature", "properties": { "ID": 3, "GRIDCODE": 1 }, "geometry": { "type": "Polygon", "coordinates": [ [ [ -155.721461805291256, 20.042175138126332 ], [ -155.720805427397522, 20.042053228326168 ], [ -155.721313438983913, 20.041828650175432 ], [ -155.721461805291256, 20.042175138126332 ] ] ] } },
{ "type": "Feature", "properties": { "ID": 4, "GRIDCODE": 1 }, "geometry": { "type": "Polygon", "coordinates": [ [ [ -155.721461805291256, 20.042175138126332 ], [ -155.722970142831201, 20.042041560050283 ], [ -155.726720623058128, 20.042183387230743 ], [ -155.727150987152697, 20.041776626737509 ], [ -155.727927586844459, 20.042173084861638 ], [ -155.729048740279183, 20.042172159020524 ], [ -155.729899294245939, 20.042740260408479 ], [ -155.731067356292584, 20.043298103146657 ], [ -155.73222310047808, 20.042762227526225 ], [ -155.734062911885616, 20.040510378565696 ], [ -155.736300848032073, 20.040151001319224 ], [ -155.738013026178919, 20.040740396032099 ], [ -155.738850924884815, 20.04159749390972 ], [ -155.738315700480058, 20.044249748009214 ], [ -155.738875141495328, 20.045326989324188 ], [ -155.741343426909367, 20.045658361681937 ], [ -155.742422780861062, 20.046762237873104 ], [ -155.74272083414013, 20.047043915492601 ], [ -155.743751378717093, 20.047042948301641 ], [ -155.745502026165013, 20.04834995658101 ], [ -155.745815063424658, 20.048990851457937 ], [ -155.746312395577178, 20.049460361034743 ], [ -155.748582835488406, 20.050027955868501 ], [ -155.749218602650927, 20.050678091478424 ], [ -155.750077991212976, 20.050959378927551 ], [ -155.75066198313047, 20.05125727927113 ], [ -155.751190101070705, 20.052338941725026 ], [ -155.751590853563897, 20.053110743373708 ], [ -155.752779631277093, 20.053499613501902 ], [ -155.753157142488647, 20.054272704235483 ], [ -155.753745908749096, 20.053999673416609 ], [ -155.754433788088676, 20.05470284261715 ], [ -155.754863635560611, 20.055108822450467 ], [ -155.75512208665512, 20.056201916603513 ], [ -155.755425156811043, 20.056785767489224 ], [ -155.756268684039526, 20.057581957918078 ], [ -155.757099506828638, 20.057581218582218 ], [ -155.757517734301729, 20.058008662560997 ], [ -155.757947598598719, 20.058414637093758 ], [ -155.758487238080022, 20.058966469742291 ], [ -155.759596865362028, 20.059329257050944 ], [ -155.75990374274437, 20.060627633241165 ], [ -155.760478252707173, 20.060627068353661 ], [ -155.76096394795951, 20.06064536498933 ], [ -155.761444457046451, 20.062142198776449 ], [ -155.762184275349938, 20.062840481006411 ], [ -155.763306728518558, 20.062839378212004 ], [ -155.763862572703658, 20.063407757114526 ], [ -155.76443569341177, 20.063407287249607 ], [ -155.764772731713066, 20.064097253585427 ], [ -155.765840445147518, 20.064786988273099 ], [ -155.765828963015565, 20.065060188491401 ], [ -155.765829996870565, 20.066237274171147 ], [ -155.766361497501691, 20.067802198392997 ], [ -155.768068883292102, 20.067800545207351 ], [ -155.768471596415537, 20.069055586815704 ], [ -155.769195287475441, 20.069738215106806 ], [ -155.770037096644359, 20.069737491145819 ], [ -155.770310329374155, 20.070893383268498 ], [ -155.770267810572534, 20.071902825783457 ], [ -155.770554544724746, 20.072454762949722 ], [ -155.770810574771815, 20.073671950399362 ], [ -155.770054017342602, 20.075424041193248 ], [ -155.755539138935518, 20.064056455792116 ], [ -155.738753060912813, 20.052383298106268 ], [ -155.729089627054492, 20.046165952831331 ], [ -155.721599340883614, 20.042315712718572 ], [ -155.721461805291256, 20.042175138126332 ] ] ] } },
{ "type": "Feature", "properties": { "ID": 5, "GRIDCODE": 2 }, "geometry": { "type": "Polygon", "coordinates": [ [ [ -155.619673155347925, 20.005873816284847 ], [ -155.620949945882643, 20.006060140276571 ], [ -155.620534773272283, 20.006823310403234 ], [ -155.619673155347925, 20.005873816284847 ] ] ] } },
{ "type": "Feature", "properties": { "ID": 6, "GRIDCODE": 2 }, "geometry": { "type": "Polygon", "coordinates": [ [ [ -155.640690239177019, 19.973785029471578 ], [ -155.642507442905753, 19.974034952701178 ], [ -155.644505590629535, 19.975420168935912 ], [ -155.644186219828811, 19.977413227515239 ], [ -155.6428383149252, 19.978940759608466 ], [ -155.641293588255223, 19.979092857641234 ], [ -155.64057972823781, 19.97899498042354 ], [ -155.639725814323526, 19.979078992637671 ], [ -155.638653912315391, 19.978233743462514 ], [ -155.637785321793245, 19.976769959717888 ], [ -155.638377964608338, 19.974949469669735 ], [ -155.639645927992831, 19.974276835883273 ], [ -155.640559858670571, 19.973932999341955 ], [ -155.640690239177019, 19.973785029471578 ] ], [ [ -155.639785558450171, 19.975933811020322 ], [ -155.63960015619304, 19.976328740003488 ], [ -155.639788257634677, 19.977203757240847 ], [ -155.640899509439436, 19.977960643926959 ], [ -155.640504464054828, 19.976122737706312 ], [ -155.639785558450171, 19.975933811020322 ] ] ] } },
{ "type": "Feature", "properties": { "ID": 7, "GRIDCODE": 2 }, "geometry": { "type": "Polygon", "coordinates": [ [ [ -155.606804482397479, 19.951480617655509 ], [ -155.607470868726551, 19.951842624195155 ], [ -155.606929071581305, 19.952087131828495 ], [ -155.606804482397479, 19.951480617655509 ] ] ] } },
{ "type": "Feature", "properties": { "ID": 8, "GRIDCODE": 2 }, "geometry": { "type": "Polygon", "coordinates": [ [ [ -155.663711137567589, 19.927651403864001 ], [ -155.664406666791905, 19.927853784131827 ], [ -155.663893434041938, 19.928302879042651 ], [ -155.663711137567589, 19.927651403864001 ] ] ] } },
{ "type": "Feature", "properties": { "ID": 9, "GRIDCODE": 2 }, "geometry": { "type": "Polygon", "coordinates": [ [ [ -155.68140537731847, 19.916611441942258 ], [ -155.682417501546553, 19.916753296820623 ], [ -155.683536650882786, 19.917071652649614 ], [ -155.684082118143039, 19.917029483552479 ], [ -155.684949687290157, 19.917521080197467 ], [ -155.685297138929485, 19.918729293346853 ], [ -155.685194708482214, 19.919525096997639 ], [ -155.685237285389775, 19.920016894989882 ], [ -155.684770486145254, 19.921125036054367 ], [ -155.68357665035677, 19.922025789575486 ], [ -155.682450726834759, 19.921387636182388 ], [ -155.681359801437935, 19.921951855675587 ], [ -155.680036991399078, 19.921799159365957 ], [ -155.679189172774954, 19.920549856492556 ], [ -155.67980196398409, 19.918624541960448 ], [ -155.680115455293702, 19.917402237067513 ], [ -155.681272346368615, 19.91675675952364 ], [ -155.68140537731847, 19.916611441942258 ] ] ] } },
{ "type": "Feature", "properties": { "ID": 10, "GRIDCODE": 2 }, "geometry": { "type": "Polygon", "coordinates": [ [ [ -155.730637455280174, 19.833317107407005 ], [ -155.731332717644136, 19.833519180732029 ], [ -155.730819990272437, 19.83396854320937 ], [ -155.730637455280174, 19.833317107407005 ] ] ] } },
{ "type": "Feature", "properties": { "ID": 11, "GRIDCODE": 1 }, "geometry": { "type": "Polygon", "coordinates": [ [ [ -155.74309667023411, 19.825692951065385 ], [ -155.743465359457645, 19.825850404355656 ], [ -155.743198643264947, 19.826310120061663 ], [ -155.74309667023411, 19.825692951065385 ] ] ] } },
{ "type": "Feature", "properties": { "ID": 12, "GRIDCODE": 1 }, "geometry": { "type": "Polygon", "coordinates": [ [ [ -155.733412782569587, 19.809540696802909 ], [ -155.734381105091387, 19.810252785205481 ], [ -155.735805192480598, 19.810564415537822 ], [ -155.73544859650417, 19.811280549423781 ], [ -155.734622137012053, 19.811582993525771 ], [ -155.735193078182078, 19.812519173071809 ], [ -155.734871842213579, 19.81274862752305 ], [ -155.733536069473502, 19.812202478471509 ], [ -155.733414248862204, 19.811300695380019 ], [ -155.73355765457444, 19.810490232814267 ], [ -155.733412782569587, 19.809540696802909 ] ] ] } },
{ "type": "Feature", "properties": { "ID": 13, "GRIDCODE": 2 }, "geometry": { "type": "Polygon", "coordinates": [ [ [ -155.725219157007984, 19.804516773520685 ], [ -155.725642768119172, 19.804662836001004 ], [ -155.725934164132923, 19.804662364651886 ], [ -155.726186723229659, 19.806026367746618 ], [ -155.726472306058469, 19.806869280978418 ], [ -155.726439495314509, 19.807652941323035 ], [ -155.726439814973986, 19.807937460371189 ], [ -155.728150210036688, 19.807935776236992 ], [ -155.728974702811172, 19.808780106028671 ], [ -155.731120508272369, 19.809482853368234 ], [ -155.731546583000977, 19.809919280609549 ], [ -155.73184189088326, 19.809277128643298 ], [ -155.729733553262207, 19.808586446593893 ], [ -155.728739601875731, 19.807367241994889 ], [ -155.729349240162833, 19.806355118366735 ], [ -155.731140254939078, 19.808189415894446 ], [ -155.732728485198038, 19.809216947550421 ], [ -155.732669831574526, 19.810610153329215 ], [ -155.732670826311676, 19.811422465688359 ], [ -155.732620221628707, 19.812626759144212 ], [ -155.733345164717008, 19.813682637000099 ], [ -155.734039319680875, 19.814017143493523 ], [ -155.734573791637985, 19.814564226375072 ], [ -155.735166689662691, 19.814850073596194 ], [ -155.735441457808037, 19.815131155451049 ], [ -155.735727614503276, 19.815401868614508 ], [ -155.736097075307782, 19.815779873306393 ], [ -155.736866000905138, 19.815422695237189 ], [ -155.737558752936792, 19.815169888229523 ], [ -155.738257181979947, 19.817348785637581 ], [ -155.73860133869897, 19.818364632893811 ], [ -155.739940506020247, 19.820103348214506 ], [ -155.739895562662895, 19.821169196803552 ], [ -155.740192888255336, 19.821742341114042 ], [ -155.740098734520672, 19.823987132011801 ], [ -155.74113338993368, 19.825493405772395 ], [ -155.741502758315306, 19.826548581722228 ], [ -155.738635859499141, 19.826827221779968 ], [ -155.737524352014816, 19.8275107725567 ], [ -155.736826411392514, 19.828807668941419 ], [ -155.735434002466263, 19.829207364913 ], [ -155.735434686437998, 19.830007508906149 ], [ -155.734960431145907, 19.831241063468585 ], [ -155.73296060582723, 19.831814703818281 ], [ -155.731579064334937, 19.83110876797944 ], [ -155.730813692739247, 19.831833782399464 ], [ -155.729124154346607, 19.832114010519366 ], [ -155.728729977877663, 19.83415495506323 ], [ -155.727606505360029, 19.83447728281584 ], [ -155.727072480544138, 19.835937372510749 ], [ -155.725942976497066, 19.836430390214087 ], [ -155.72555428448473, 19.837152511064879 ], [ -155.725251669875234, 19.83768318808885 ], [ -155.724915569174499, 19.840389925758746 ], [ -155.723516291910755, 19.840791500817076 ], [ -155.722874416596255, 19.842247735920324 ], [ -155.721126810269766, 19.844341489064814 ], [ -155.720806062392143, 19.844937131655822 ], [ -155.71994185642086, 19.845692788180923 ], [ -155.719638965768439, 19.846520384280836 ], [ -155.718758523886947, 19.847290277083079 ], [ -155.718758847926154, 19.847586956790138 ], [ -155.718326901771206, 19.848343688737039 ], [ -155.717008505217905, 19.848721836489819 ], [ -155.717009500410171, 19.84958305352324 ], [ -155.716899748007307, 19.852185779484696 ], [ -155.71578673351766, 19.852671614153046 ], [ -155.715489482095251, 19.853223518288001 ], [ -155.714213746378022, 19.853780376666492 ], [ -155.713585623408022, 19.85549752558185 ], [ -155.712705100461108, 19.85626737656661 ], [ -155.71198996580668, 19.856944558139947 ], [ -155.711359020022911, 19.857496107999744 ], [ -155.7102400333589, 19.857984434809936 ], [ -155.709925931593006, 19.859608473839724 ], [ -155.709320221394194, 19.860669475276485 ], [ -155.70873696253517, 19.861752570434998 ], [ -155.708439826559754, 19.862012547782758 ], [ -155.706754907595894, 19.863608054499483 ], [ -155.707253468235962, 19.865610681350852 ], [ -155.707178324328567, 19.867394074717385 ], [ -155.707459384034706, 19.868223711546115 ], [ -155.707126399479961, 19.869622374205072 ], [ -155.706544401281519, 19.870641755517745 ], [ -155.706235486091174, 19.872010981493151 ], [ -155.706813902676799, 19.872557649138599 ], [ -155.706708779172345, 19.875046465816464 ], [ -155.705562991263861, 19.876580262565174 ], [ -155.70519995333845, 19.877254400749699 ], [ -155.70556846520671, 19.880017188216645 ], [ -155.704538702352693, 19.881249840593998 ], [ -155.704910117921656, 19.882345831732394 ], [ -155.704831816663273, 19.884197641734591 ], [ -155.703918233531027, 19.885797590369236 ], [ -155.70320372984034, 19.886421843415196 ], [ -155.703908012494708, 19.887087463575359 ], [ -155.704465318400395, 19.888128995299887 ], [ -155.702987771361364, 19.889897754161268 ], [ -155.702988517336053, 19.890617230354277 ], [ -155.702089147168124, 19.891959889348531 ], [ -155.700951547720422, 19.89191684112626 ], [ -155.700952300317141, 19.892500673593212 ], [ -155.69951152377584, 19.893759499120961 ], [ -155.697520430442751, 19.896198726137744 ], [ -155.697125423776612, 19.897277318773256 ], [ -155.696816955145152, 19.898078565666804 ], [ -155.696473493072517, 19.900362498507793 ], [ -155.695301950685064, 19.902111734792935 ], [ -155.694677988750584, 19.903269878244576 ], [ -155.694679182462409, 19.904812727129322 ], [ -155.694358285718096, 19.90564546386927 ], [ -155.693620010326413, 19.906290636533292 ], [ -155.691472424306198, 19.906645692893139 ], [ -155.690629473607942, 19.907443845256736 ], [ -155.686665905059812, 19.907827147110272 ], [ -155.686015717484565, 19.908442196429441 ], [ -155.685420909408577, 19.908961767189076 ], [ -155.684682294280634, 19.90966109304096 ], [ -155.68420504815748, 19.910963645188417 ], [ -155.683050168006673, 19.911649376247968 ], [ -155.68250289881621, 19.912167177834874 ], [ -155.682205619454777, 19.912427090499932 ], [ -155.68162694159841, 19.912989515565833 ], [ -155.682764371798811, 19.914064680998319 ], [ -155.680864655788554, 19.914378742736673 ], [ -155.679974562281757, 19.915609047959002 ], [ -155.676470905967562, 19.916435369533648 ], [ -155.67608874477682, 19.917477906461546 ], [ -155.675356608576379, 19.918117548652866 ], [ -155.674915680274779, 19.918534457665213 ], [ -155.674916265967624, 19.919428156356272 ], [ -155.673462478155045, 19.919844604291342 ], [ -155.67289803928557, 19.920378439902212 ], [ -155.67141438764213, 19.920618481171349 ], [ -155.670311022067665, 19.920054449080439 ], [ -155.670022670778195, 19.920326931139257 ], [ -155.66886686994917, 19.920570717696865 ], [ -155.66722236581677, 19.921068671488563 ], [ -155.665518140317943, 19.921427997982654 ], [ -155.664792214497055, 19.924019259916442 ], [ -155.664080159414794, 19.925589390066381 ], [ -155.662594808157991, 19.924830142483923 ], [ -155.66217676462756, 19.925605707683538 ], [ -155.661319166189912, 19.925572927254201 ], [ -155.659570249337293, 19.925821357275929 ], [ -155.658753990365312, 19.925790399627147 ], [ -155.657878383043254, 19.926055507886744 ], [ -155.657288958175883, 19.926033043211078 ], [ -155.657289461508128, 19.927111543730128 ], [ -155.656967410268152, 19.927947332299556 ], [ -155.655818716802742, 19.928447890665197 ], [ -155.655532322030467, 19.928718529953066 ], [ -155.654386157017797, 19.929218067742998 ], [ -155.653786532241043, 19.929785274295529 ], [ -155.650989090139092, 19.929678587039014 ], [ -155.65010087430781, 19.92834009718716 ], [ -155.649899669550962, 19.928070843827591 ], [ -155.649510057503306, 19.929204903025738 ], [ -155.650610690828529, 19.931328174901864 ], [ -155.650597593765667, 19.931630929449707 ], [ -155.649408151506492, 19.93266925222051 ], [ -155.648568123141843, 19.932637265908983 ], [ -155.647405140415032, 19.933176358640765 ], [ -155.647405275653654, 19.933977489095735 ], [ -155.647387529861049, 19.934394110556291 ], [ -155.646524050256346, 19.934770430473886 ], [ -155.646231910709929, 19.935311686536362 ], [ -155.645548872305113, 19.936224965782841 ], [ -155.645911526596478, 19.936924807511719 ], [ -155.646161117174785, 19.938582542467081 ], [ -155.646834590239763, 19.93988236034237 ], [ -155.646369247853698, 19.941831700462014 ], [ -155.646369518208132, 19.942374515208677 ], [ -155.645339475253905, 19.94327382722139 ], [ -155.644766592621806, 19.943815057694195 ], [ -155.644320494093961, 19.944204804255516 ], [ -155.643719062903614, 19.944773516623396 ], [ -155.643719663942818, 19.946132796290549 ], [ -155.644263385759189, 19.94718216484214 ], [ -155.644251740739776, 19.947455067409468 ], [ -155.644251732427108, 19.947997346960769 ], [ -155.64334224843563, 19.948257757542812 ], [ -155.642002052497361, 19.9482064822441 ], [ -155.63991560862334, 19.948734898692841 ], [ -155.639194120376089, 19.950072297663198 ], [ -155.638191968346348, 19.950034006159846 ], [ -155.637513908272695, 19.950970600801345 ], [ -155.635401488667156, 19.951574610890553 ], [ -155.635848462404965, 19.952437352294968 ], [ -155.636117488459604, 19.952989225658072 ], [ -155.636397920546273, 19.953530739306917 ], [ -155.636804390655413, 19.95480067439653 ], [ -155.638366981772862, 19.955192523793887 ], [ -155.639353201632105, 19.95585211272488 ], [ -155.63971920461114, 19.958755512852893 ], [ -155.640773254082916, 19.959751902090851 ], [ -155.641091557513988, 19.961476511485685 ], [ -155.642224971605657, 19.96230492034589 ], [ -155.642510711513694, 19.962597467090763 ], [ -155.642486240799229, 19.963171802842954 ], [ -155.641576730227627, 19.964761843946043 ], [ -155.639880703311889, 19.964697183694728 ], [ -155.639594358111026, 19.964697043826025 ], [ -155.638172157081812, 19.96464284573474 ], [ -155.636722811749337, 19.966012685858985 ], [ -155.635335739903724, 19.964975314397989 ], [ -155.634908877051231, 19.964099465988653 ], [ -155.63358619534182, 19.963770827911201 ], [ -155.633587037978089, 19.966087474193614 ], [ -155.633204518668521, 19.967389229042588 ], [ -155.63179438796459, 19.967792608915595 ], [ -155.631503948896693, 19.968247929400434 ], [ -155.633112705827415, 19.968775294364875 ], [ -155.634038174199702, 19.97000644601496 ], [ -155.63543412191575, 19.970679927769847 ], [ -155.635703559481158, 19.972490599301821 ], [ -155.635120019201878, 19.97299985016198 ], [ -155.63481038170093, 19.973292472693014 ], [ -155.634810801163098, 19.974878587615034 ], [ -155.634043169560584, 19.975904137688385 ], [ -155.63361054645685, 19.97691701205617 ], [ -155.634631027557475, 19.97840352649855 ], [ -155.635242050978974, 19.980313489545914 ], [ -155.63612153184755, 19.980737624780733 ], [ -155.636079515866697, 19.981714825358772 ], [ -155.635485526712358, 19.982753458142614 ], [ -155.634619218274594, 19.986155893119484 ], [ -155.633367335851176, 19.986513887193784 ], [ -155.632273024878486, 19.986471930834362 ], [ -155.631048567568683, 19.987223054305836 ], [ -155.629656542055955, 19.987515957017077 ], [ -155.62844365118454, 19.988077709658416 ], [ -155.627635044180579, 19.98884200997955 ], [ -155.627039731502663, 19.989361309816665 ], [ -155.626724133325467, 19.990994007580973 ], [ -155.628440567313277, 19.991556938332543 ], [ -155.627164249254349, 19.99182544747288 ], [ -155.626678171034115, 19.993150051497665 ], [ -155.626082819037435, 19.993945635459447 ], [ -155.62574441937943, 19.996187187443805 ], [ -155.625744797641033, 19.997965897746674 ], [ -155.625105086819531, 19.998820514656643 ], [ -155.624416429796327, 20.000696997476929 ], [ -155.623356966266556, 20.000656299313121 ], [ -155.622210339481285, 20.001187133521373 ], [ -155.621636591162826, 20.001165079023259 ], [ -155.621048101705043, 20.00197702961356 ], [ -155.62044307524198, 20.002240577747823 ], [ -155.618903275943609, 20.003695330372246 ], [ -155.619593340664125, 20.004700905457558 ], [ -155.619522523433773, 20.005462189803094 ], [ -155.618373347478041, 20.003729623450162 ], [ -155.617201328189537, 20.002621504041116 ], [ -155.61624450705915, 20.003064575658943 ], [ -155.616719063957305, 20.003513462155304 ], [ -155.617097319676162, 20.003901019002754 ], [ -155.617541080997285, 20.004992181957679 ], [ -155.614987995493721, 20.005721732121973 ], [ -155.614390905052716, 20.008330550073932 ], [ -155.606172871302732, 20.006698889564536 ], [ -155.604917076163957, 20.006265527506166 ], [ -155.60291310227089, 20.005961623578738 ], [ -155.597172156952524, 20.004821405714026 ], [ -155.594182077679307, 20.004124997747144 ], [ -155.575496895067459, 19.999212159289826 ], [ -155.56236377587814, 19.995573536139549 ], [ -155.56328113934822, 19.994349026794122 ], [ -155.563979058943801, 19.992449652595564 ], [ -155.565231625474325, 19.991357874820089 ], [ -155.566291731861014, 19.9917239810366 ], [ -155.566850789189431, 19.991723982088569 ], [ -155.567139724543296, 19.99173513611812 ], [ -155.567551153671928, 19.991346673493684 ], [ -155.56834971320211, 19.988504458924787 ], [ -155.569150105775861, 19.988156311176887 ], [ -155.570331175342034, 19.989366921757668 ], [ -155.571206403344462, 19.988830520317002 ], [ -155.571790254514895, 19.988576384939197 ], [ -155.572655267191038, 19.988046386874057 ], [ -155.573792423841695, 19.987372537599121 ], [ -155.574215735271679, 19.985865287989792 ], [ -155.575412473366669, 19.985344862052472 ], [ -155.576590785003674, 19.983904547632942 ], [ -155.578278361332281, 19.980780422298007 ], [ -155.579989622097827, 19.979288239863795 ], [ -155.580602416522453, 19.978442672463032 ], [ -155.58145882181708, 19.978475855931432 ], [ -155.581745433358236, 19.978205104935391 ], [ -155.582717670156143, 19.977782074854272 ], [ -155.585493192178205, 19.977469944248206 ], [ -155.584917865094326, 19.976631331422098 ], [ -155.584960821807073, 19.97563780863376 ], [ -155.586406598101092, 19.974780771946001 ], [ -155.586716516326817, 19.973427802914546 ], [ -155.587872755833473, 19.97318462801536 ], [ -155.58818246661599, 19.972892100242067 ], [ -155.588182409171452, 19.971427668196387 ], [ -155.586960527069664, 19.968176525075457 ], [ -155.587613238725851, 19.966486186492588 ], [ -155.589013900942803, 19.965264980904614 ], [ -155.589758735465495, 19.965646015216425 ], [ -155.590439910570126, 19.96564589959722 ], [ -155.592347049411501, 19.96460202561239 ], [ -155.593651975675954, 19.964228939396186 ], [ -155.594099266219757, 19.963011043185496 ], [ -155.594674256063911, 19.963033193295825 ], [ -155.596103136200867, 19.96303313849474 ], [ -155.596999731017206, 19.963952177264567 ], [ -155.597825892892502, 19.962812131951246 ], [ -155.598935658332095, 19.961329587464547 ], [ -155.598417998155128, 19.960330052571742 ], [ -155.59851110362851, 19.958167295304499 ], [ -155.59943171773341, 19.956558437737666 ], [ -155.600420762094473, 19.955695402231168 ], [ -155.600863692354721, 19.955276905562471 ], [ -155.602550550867818, 19.956139940377206 ], [ -155.603151442909535, 19.956139818663953 ], [ -155.603850074946564, 19.955479800961374 ], [ -155.604312529849068, 19.955076209718278 ], [ -155.605468728939996, 19.952934052927237 ], [ -155.606903794382873, 19.953516732528996 ], [ -155.607766099283481, 19.953255883155098 ], [ -155.608054699087489, 19.953266955187058 ], [ -155.608343815917578, 19.953266932256799 ], [ -155.609209947636657, 19.953846909518127 ], [ -155.609734407132237, 19.954923486724791 ], [ -155.610890891648779, 19.955211039949305 ], [ -155.610890555033023, 19.953735469683242 ], [ -155.611797502803825, 19.95252364615353 ], [ -155.61110956372741, 19.951520888322218 ], [ -155.612353798649593, 19.950435272876344 ], [ -155.610493760597279, 19.949825217668419 ], [ -155.610165154079795, 19.948428772624929 ], [ -155.608942865118451, 19.948121984456176 ], [ -155.607309194188957, 19.947558265733338 ], [ -155.607420578236599, 19.944964879231176 ], [ -155.608265826709328, 19.944597145841996 ], [ -155.608812269515965, 19.944617902774748 ], [ -155.609112829443632, 19.944618095315253 ], [ -155.609972800065833, 19.943024655189397 ], [ -155.6112944502961, 19.941871776505145 ], [ -155.611787251896516, 19.940528562900365 ], [ -155.611786841818514, 19.939238326737559 ], [ -155.611225858755944, 19.938707822271979 ], [ -155.611274605088198, 19.937577159740275 ], [ -155.612417009450894, 19.936580270586347 ], [ -155.612720676622928, 19.935752969534594 ], [ -155.613631063543579, 19.935356304957299 ], [ -155.614293685971944, 19.932458522577335 ], [ -155.614871409670883, 19.931954505617636 ], [ -155.614545973410486, 19.930644054505663 ], [ -155.615851983993053, 19.930270517475694 ], [ -155.616316269994172, 19.928240903655503 ], [ -155.616931887385789, 19.927164396567271 ], [ -155.617489163285427, 19.927185854427023 ], [ -155.61806205355694, 19.92692047758689 ], [ -155.618645610023123, 19.926666141876758 ], [ -155.620093965861599, 19.925605477288688 ], [ -155.620963671603874, 19.925356579571716 ], [ -155.621549221837654, 19.924548102304321 ], [ -155.622314720855485, 19.924939690567474 ], [ -155.622984312209837, 19.924306777108999 ], [ -155.623870602457004, 19.924053155505462 ], [ -155.624438052578512, 19.923516647840501 ], [ -155.625565443626442, 19.923559755483179 ], [ -155.626446925125606, 19.923018896131225 ], [ -155.627888919103327, 19.92278083227491 ], [ -155.628177912625347, 19.922507647644661 ], [ -155.629863441859186, 19.923901278575055 ], [ -155.630738639460191, 19.924183339684223 ], [ -155.631586503555894, 19.923381649871942 ], [ -155.632415088292447, 19.923805327787999 ], [ -155.632765311362249, 19.922555824858318 ], [ -155.632765007425121, 19.922055846630432 ], [ -155.63309059922986, 19.921796566454262 ], [ -155.634190486451217, 19.922359163517665 ], [ -155.634654281916511, 19.92235896390228 ], [ -155.635363944416667, 19.921006275088242 ], [ -155.634657674404906, 19.920338247889976 ], [ -155.635285360196036, 19.917707763269274 ], [ -155.63605695635016, 19.916676425368159 ], [ -155.637772862082699, 19.915658199824776 ], [ -155.638059255362776, 19.91538758987258 ], [ -155.638368561492712, 19.915117412932595 ], [ -155.639212120425128, 19.915149502680109 ], [ -155.640070898457338, 19.915149355416958 ], [ -155.640928984388125, 19.91518197620276 ], [ -155.641963323636247, 19.915181702304441 ], [ -155.643364423693072, 19.914321655796165 ], [ -155.645824924558724, 19.91391521542473 ], [ -155.646419749819813, 19.913639572588718 ], [ -155.648102950969417, 19.913703860198471 ], [ -155.648406157605621, 19.913417155265648 ], [ -155.649576797145244, 19.913170342442481 ], [ -155.650401125478396, 19.912390572496719 ], [ -155.651583295103705, 19.911688930116348 ], [ -155.653621840123918, 19.911352418628244 ], [ -155.654736785366765, 19.910297568975395 ], [ -155.655639281306094, 19.910039053093261 ], [ -155.65629505933336, 19.909734907353492 ], [ -155.658535026120717, 19.908193017259673 ], [ -155.659118465410444, 19.907938528554446 ], [ -155.659702321247607, 19.907131974721292 ], [ -155.661014701640795, 19.906855220879009 ], [ -155.661552895119428, 19.904934403779965 ], [ -155.66263552915126, 19.905307715147039 ], [ -155.663487565890392, 19.905307320870637 ], [ -155.66435431435454, 19.903699629928848 ], [ -155.664949082484867, 19.902903834166722 ], [ -155.665532889137666, 19.902097253849156 ], [ -155.667183230262197, 19.900310698494316 ], [ -155.667993209815307, 19.898100398468756 ], [ -155.671104574954427, 19.897874983383026 ], [ -155.672845483293571, 19.898475251502436 ], [ -155.674796884204, 19.898474218580262 ], [ -155.675351819340989, 19.897949177592889 ], [ -155.67579770574784, 19.897559321649751 ], [ -155.676258242345881, 19.897123731669723 ], [ -155.678214004066859, 19.896270825111063 ], [ -155.678561345851108, 19.895030905410366 ], [ -155.679453928388881, 19.894250922487608 ], [ -155.679453318067601, 19.893423055631118 ], [ -155.681782802328655, 19.892848361481562 ], [ -155.681781512850392, 19.891261633388815 ], [ -155.681200044869883, 19.890139481430154 ], [ -155.681295129135037, 19.887898823887156 ], [ -155.682158280466808, 19.887522284623302 ], [ -155.682730987928892, 19.887241062575004 ], [ -155.682008987473296, 19.88655864531346 ], [ -155.683259068013825, 19.885466428524079 ], [ -155.682785070932596, 19.884552259595196 ], [ -155.68308428434699, 19.884290524035755 ], [ -155.6835701379608, 19.88383078955766 ], [ -155.683105546612609, 19.88293477679807 ], [ -155.683712869803941, 19.88159471501881 ], [ -155.68419541449083, 19.879870784351333 ], [ -155.684958460731423, 19.878849584514239 ], [ -155.685768351255319, 19.87814204700512 ], [ -155.686565771208336, 19.877039511651397 ], [ -155.687910760775594, 19.873810746188063 ], [ -155.687909467840655, 19.872058488669943 ], [ -155.687926570037177, 19.871652675851145 ], [ -155.687926610137254, 19.871381922520147 ], [ -155.68793782511915, 19.871111377148846 ], [ -155.687937325505686, 19.870302014054555 ], [ -155.688843689110712, 19.868714976621785 ], [ -155.689172229246736, 19.866528876362 ], [ -155.689480647738435, 19.8657276371551 ], [ -155.690126499896905, 19.862673826057303 ], [ -155.690125694335791, 19.861811044789253 ], [ -155.69017550862381, 19.860636937496515 ], [ -155.689884533343331, 19.859778280704077 ], [ -155.689898070917053, 19.859462828119263 ], [ -155.690501848263153, 19.857894735923775 ], [ -155.690799282205774, 19.857082710483088 ], [ -155.691713931785955, 19.855063488527399 ], [ -155.691712835985498, 19.853823388098927 ], [ -155.691163867296495, 19.853304202092399 ], [ -155.690791727429342, 19.852922884622256 ], [ -155.691191919437131, 19.852221702656422 ], [ -155.691541428641898, 19.850973043632319 ], [ -155.691537975133002, 19.846828889858134 ], [ -155.692633512813131, 19.846350819168709 ], [ -155.693048961266328, 19.845195392287529 ], [ -155.692289527304723, 19.84447743613778 ], [ -155.693076552091668, 19.844134034356237 ], [ -155.693362717078344, 19.843863301388041 ], [ -155.693659835072083, 19.843603347480492 ], [ -155.694310562734159, 19.842703470813003 ], [ -155.694848199382278, 19.841704983416687 ], [ -155.69574151326438, 19.840923824115034 ], [ -155.695740378065381, 19.839575309473275 ], [ -155.696740455390028, 19.838981209969628 ], [ -155.69807365970928, 19.8374525017298 ], [ -155.698370757640021, 19.83719253699234 ], [ -155.698921963184858, 19.836670487356905 ], [ -155.700698700142397, 19.835716602002236 ], [ -155.700697314549643, 19.834283200887409 ], [ -155.701064927320431, 19.833639287585843 ], [ -155.702153335164468, 19.834014532659953 ], [ -155.703209455844956, 19.833694034922473 ], [ -155.70447277707467, 19.832405116537739 ], [ -155.703361704671039, 19.830786729613834 ], [ -155.703090793683657, 19.83032084927385 ], [ -155.705094870583281, 19.829746312991357 ], [ -155.705964348748722, 19.82892286921852 ], [ -155.707352504620815, 19.828975216785302 ], [ -155.70772454467027, 19.827342196473584 ], [ -155.708065836635257, 19.82645478099305 ], [ -155.710113025083615, 19.826022436878254 ], [ -155.710937513981719, 19.824152375588518 ], [ -155.711240540207143, 19.823887204424242 ], [ -155.711239780649123, 19.823082842936344 ], [ -155.711840281262823, 19.822278991637301 ], [ -155.711840042439917, 19.822005582971723 ], [ -155.71187574975994, 19.821153241112643 ], [ -155.713050523227764, 19.820126228228983 ], [ -155.714060291667323, 19.818250567639534 ], [ -155.714576506805315, 19.817345465711483 ], [ -155.714244882504318, 19.816366575448175 ], [ -155.713990653809475, 19.815088735488164 ], [ -155.715141820297561, 19.814758528642933 ], [ -155.715713878210465, 19.814493011755882 ], [ -155.71636059834097, 19.814210622375871 ], [ -155.717798946340793, 19.812847586878053 ], [ -155.71898785891409, 19.812392448935274 ], [ -155.720020229614079, 19.813765241120237 ], [ -155.72087277207612, 19.814317149142976 ], [ -155.72227480414881, 19.815431252086729 ], [ -155.722846925283704, 19.815707237358225 ], [ -155.723110567779429, 19.816529656607958 ], [ -155.723986191205881, 19.816951883661993 ], [ -155.723902776316976, 19.818935063735026 ], [ -155.72420443638299, 19.819825078229361 ], [ -155.724754526415154, 19.820345240586846 ], [ -155.725865087821461, 19.821724734715634 ], [ -155.726457990248122, 19.822010612303881 ], [ -155.727256815743914, 19.822828308582782 ], [ -155.728136938895858, 19.823114956984043 ], [ -155.728135761629517, 19.821876668178078 ], [ -155.729841407860164, 19.823151508489083 ], [ -155.730447601066714, 19.823443964000369 ], [ -155.731563579417184, 19.823442738470632 ], [ -155.731563032701843, 19.822909661363195 ], [ -155.731574157488751, 19.822639101004018 ], [ -155.731573480352608, 19.821962177956802 ], [ -155.731612611680902, 19.821032936134607 ], [ -155.731314146562141, 19.819834411431781 ], [ -155.730507489430522, 19.818279391369387 ], [ -155.730535050931252, 19.817628899215251 ], [ -155.732384308011774, 19.816635254319639 ], [ -155.731743500281141, 19.815399786738407 ], [ -155.73026164448504, 19.815028888827246 ], [ -155.728698316112059, 19.814229979555861 ], [ -155.728336164027922, 19.813100356443769 ], [ -155.727483595922081, 19.812548481349111 ], [ -155.726617622208977, 19.811969386343094 ], [ -155.72577518326716, 19.810241826748726 ], [ -155.724942813780785, 19.809523465749887 ], [ -155.723810029894082, 19.810049749451537 ], [ -155.723244162720647, 19.810028253237707 ], [ -155.722638560654076, 19.810309575710875 ], [ -155.721505145323533, 19.810266807375523 ], [ -155.72082981602307, 19.809575376635781 ], [ -155.720251543950752, 19.809028512680012 ], [ -155.721265158130564, 19.808142042821167 ], [ -155.721577964692813, 19.807561049830042 ], [ -155.722188868742961, 19.807306797736196 ], [ -155.723290371063996, 19.807869609879347 ], [ -155.724151741560604, 19.807608315368718 ], [ -155.725592642228321, 19.807369285298392 ], [ -155.725879225740385, 19.807072050074712 ], [ -155.725328803511019, 19.80601062765205 ], [ -155.725219157007984, 19.804516773520685 ] ], [ [ -155.609761723309504, 19.960471445805329 ], [ -155.609550410585598, 19.960885934702461 ], [ -155.610315841331214, 19.961665716061411 ], [ -155.610724103091201, 19.960619132320762 ], [ -155.609761723309504, 19.960471445805329 ] ], [ [ -155.60817759642552, 19.954214235556385 ], [ -155.607801445593765, 19.955145625307154 ], [ -155.608872218180295, 19.954825569738485 ], [ -155.60817759642552, 19.954214235556385 ] ] ] } },
{ "type": "Feature", "properties": { "ID": 14, "GRIDCODE": 1 }, "geometry": { "type": "Polygon", "coordinates": [ [ [ -155.780946897227466, 19.778994644550213 ], [ -155.781955782981811, 19.779138157651236 ], [ -155.782229036036028, 19.78038616127683 ], [ -155.785273742935885, 19.782966276898655 ], [ -155.7856839020954, 19.784089287281756 ], [ -155.785175494264962, 19.785326660662871 ], [ -155.786492612482647, 19.786830640114573 ], [ -155.787490033971324, 19.787381144671652 ], [ -155.788078143188301, 19.787642401435164 ], [ -155.788386412258859, 19.78833149736176 ], [ -155.789345900146742, 19.789144419670585 ], [ -155.790188974500126, 19.790107028930436 ], [ -155.79142680697035, 19.790484138516707 ], [ -155.791687044274624, 19.792691788487684 ], [ -155.79395311747777, 19.794246621819699 ], [ -155.794295912348218, 19.795403317631887 ], [ -155.795334172503374, 19.796708415380905 ], [ -155.795615223504683, 19.797335931933709 ], [ -155.796712152488226, 19.798265526319689 ], [ -155.796299203315613, 19.799605925252873 ], [ -155.795554668877429, 19.799981805725285 ], [ -155.794670474685859, 19.800216612964132 ], [ -155.794264595965956, 19.800645636472506 ], [ -155.793796247307739, 19.8010132464428 ], [ -155.793436124010725, 19.802072171016558 ], [ -155.79292677646157, 19.80210162740973 ], [ -155.792376310668317, 19.802049956437592 ], [ -155.791464918423401, 19.802637007590075 ], [ -155.790914451984776, 19.802585331913573 ], [ -155.790621317963229, 19.802602273778959 ], [ -155.789405487984538, 19.802154676204257 ], [ -155.78862772270233, 19.802765004873162 ], [ -155.788329031125556, 19.803642827274807 ], [ -155.787719921459768, 19.8044240982654 ], [ -155.78717952294619, 19.806012320936379 ], [ -155.785800809972613, 19.806092210251489 ], [ -155.785253316389571, 19.805628323902095 ], [ -155.784641805217376, 19.80493032071238 ], [ -155.783652235918254, 19.805457214522825 ], [ -155.783110310893932, 19.806549851957524 ], [ -155.782539202528483, 19.806496190392771 ], [ -155.781536704579764, 19.806554269674553 ], [ -155.779712131136336, 19.806382266716561 ], [ -155.77887610207884, 19.807593596951818 ], [ -155.777901068984278, 19.806912545575084 ], [ -155.77707193884811, 19.8085846229209 ], [ -155.775901689536965, 19.80881416091869 ], [ -155.775625918602032, 19.809105601391213 ], [ -155.774762859387806, 19.808788028661692 ], [ -155.774143369589041, 19.809442658576437 ], [ -155.772850804101637, 19.80796679049724 ], [ -155.772194725825585, 19.808205601427971 ], [ -155.771408424163923, 19.809344806011072 ], [ -155.77050185519343, 19.808844236451002 ], [ -155.769729140657375, 19.810402528707158 ], [ -155.768240581329621, 19.810262136051811 ], [ -155.767619702968176, 19.810749068099962 ], [ -155.766427805369432, 19.812475589536923 ], [ -155.765823243180336, 19.812141768435318 ], [ -155.765527665413543, 19.813272645944188 ], [ -155.764702786331156, 19.813194756608244 ], [ -155.764561996236807, 19.814532045444523 ], [ -155.765189652619256, 19.815064080354432 ], [ -155.764901258459986, 19.815963713649463 ], [ -155.764409707274467, 19.815402150598967 ], [ -155.764040489720713, 19.815367160276402 ], [ -155.763541414192275, 19.815894624875149 ], [ -155.763037062653382, 19.815923815714349 ], [ -155.762351043931034, 19.81585927491691 ], [ -155.761741020264481, 19.816167098570048 ], [ -155.761333038733454, 19.81570118032046 ], [ -155.76004797149983, 19.816216213557961 ], [ -155.759597620198491, 19.818321839268059 ], [ -155.759113941303269, 19.818832909381399 ], [ -155.758417865868239, 19.817735065727106 ], [ -155.757708699775293, 19.817668234671768 ], [ -155.756706143783219, 19.817726163041787 ], [ -155.755812093802177, 19.817641684009459 ], [ -155.755667085151686, 19.819017484819184 ], [ -155.755704228489407, 19.819596189492685 ], [ -155.75420175974682, 19.820563877952502 ], [ -155.751852176932658, 19.818752382835807 ], [ -155.750942301639412, 19.820586238303029 ], [ -155.750111648299736, 19.821464057882636 ], [ -155.749034942053214, 19.820551482593832 ], [ -155.748517220863732, 19.819960317453685 ], [ -155.747648592593549, 19.81942304122396 ], [ -155.746273288075173, 19.817753257989782 ], [ -155.744333882066314, 19.815577384061619 ], [ -155.743730452791851, 19.812818244586417 ], [ -155.742967815696119, 19.811113353309381 ], [ -155.74211065763609, 19.81038667763255 ], [ -155.74181624211451, 19.808286826558266 ], [ -155.741313400132896, 19.807393687064881 ], [ -155.741065608407212, 19.806556766482966 ], [ -155.740488572817156, 19.805754024758301 ], [ -155.740179108396831, 19.804338483336316 ], [ -155.738318777386127, 19.802200505828655 ], [ -155.738197038977091, 19.800307149460501 ], [ -155.739153326166701, 19.800251905163432 ], [ -155.73944953758712, 19.800590485385467 ], [ -155.739751620570189, 19.800846673362141 ], [ -155.740233489466789, 19.801397006678872 ], [ -155.742033443793872, 19.80117919742834 ], [ -155.743034955318763, 19.800851611263468 ], [ -155.745295185231669, 19.801065239488779 ], [ -155.745890352809795, 19.799865568411771 ], [ -155.747892242656462, 19.798728809288249 ], [ -155.748393293693852, 19.797718588902491 ], [ -155.749799335626648, 19.797155323336529 ], [ -155.750265503507705, 19.795372346580969 ], [ -155.751249686545322, 19.795923068863946 ], [ -155.751284517329054, 19.79646391832275 ], [ -155.751228765038888, 19.796994393526237 ], [ -155.752399243617987, 19.796543429308052 ], [ -155.752448064826723, 19.796078932900006 ], [ -155.752405398106418, 19.795414719536225 ], [ -155.752734317314662, 19.795395581769178 ], [ -155.753183457474023, 19.795908533591497 ], [ -155.754350814708772, 19.794674540388314 ], [ -155.755310079910714, 19.794360916561956 ], [ -155.756619788189795, 19.794013460573822 ], [ -155.757611586426918, 19.792742141283526 ], [ -155.757663513781552, 19.792247553358429 ], [ -155.757632051242041, 19.791759912849315 ], [ -155.758177296409343, 19.791183847857788 ], [ -155.758823161289172, 19.791446245653685 ], [ -155.759382048950357, 19.791754923830144 ], [ -155.759856776505586, 19.791253463096957 ], [ -155.761193922037108, 19.791991666419978 ], [ -155.761661508943916, 19.791497739081443 ], [ -155.761975463548083, 19.791251435048256 ], [ -155.761945869507571, 19.790795029710928 ], [ -155.763087994143888, 19.789588008516066 ], [ -155.764884282814648, 19.788867736740347 ], [ -155.764853243358829, 19.788385655371659 ], [ -155.765461037116978, 19.787505020031379 ], [ -155.766631129760356, 19.787275530375055 ], [ -155.766907200566635, 19.786718886826112 ], [ -155.767505386001204, 19.786479037520255 ], [ -155.76815876797329, 19.785788280016451 ], [ -155.76880611530305, 19.786337041713654 ], [ -155.769484385743084, 19.787111652356163 ], [ -155.770313879224915, 19.786234741770151 ], [ -155.770827745280371, 19.786283167698894 ], [ -155.773231582644485, 19.786018816257073 ], [ -155.773783312631082, 19.786323090221821 ], [ -155.7743359520762, 19.786291291650794 ], [ -155.774929399621612, 19.786618792163697 ], [ -155.775706356595862, 19.786226657913424 ], [ -155.776361723542635, 19.786975183378484 ], [ -155.777641253824754, 19.786901226792324 ], [ -155.778079008778661, 19.786942441734553 ], [ -155.77893130680647, 19.785707595733463 ], [ -155.780354634029976, 19.785136705134484 ], [ -155.780417838511511, 19.784536004231313 ], [ -155.780391657920319, 19.784129369607356 ], [ -155.780434172075957, 19.783723973070945 ], [ -155.780295070086282, 19.781570601400674 ], [ -155.780811614828366, 19.779137643188193 ], [ -155.780946897227466, 19.778994644550213 ] ] ] } },
{ "type": "Feature", "properties": { "ID": 15, "GRIDCODE": 1 }, "geometry": { "type": "Polygon", "coordinates": [ [ [ -155.786995124787012, 19.776937296047823 ], [ -155.787981990971161, 19.777245382797862 ], [ -155.787193513075039, 19.777588717585417 ], [ -155.786995124787012, 19.776937296047823 ] ] ] } },
{ "type": "Feature", "properties": { "ID": 16, "GRIDCODE": 1 }, "geometry": { "type": "Polygon", "coordinates": [ [ [ -155.822046821721301, 19.76916981801082 ], [ -155.823942100237076, 19.769760938224973 ], [ -155.825488392282182, 19.774120961110842 ], [ -155.827544691559496, 19.77659930009823 ], [ -155.830448325499333, 19.77835777925705 ], [ -155.829256884368021, 19.778683055960151 ], [ -155.82764010563514, 19.782639709650425 ], [ -155.826494757841687, 19.783202718280474 ], [ -155.825599897431289, 19.783136312031878 ], [ -155.823948986350757, 19.78408935499505 ], [ -155.823255239400311, 19.787275390127846 ], [ -155.822374415700551, 19.787992477748599 ], [ -155.822899885660291, 19.788950097628756 ], [ -155.822053241160404, 19.78936633197986 ], [ -155.821420290478869, 19.789319369391158 ], [ -155.819307896639174, 19.791039207653991 ], [ -155.818655460384491, 19.791705072434148 ], [ -155.818010124489973, 19.791971497482226 ], [ -155.817016637700902, 19.792984828656532 ], [ -155.815970732246399, 19.79341678140246 ], [ -155.815128559775076, 19.793830941876724 ], [ -155.814207208443264, 19.79408237956309 ], [ -155.813229087716707, 19.7950798285354 ], [ -155.810801144126657, 19.795649174826913 ], [ -155.809635938776267, 19.795883802480073 ], [ -155.808793740496014, 19.796297928858941 ], [ -155.807903861941213, 19.796665186720567 ], [ -155.807381979360684, 19.797197416380477 ], [ -155.807045616857181, 19.796665177699122 ], [ -155.806668047839736, 19.795846084165959 ], [ -155.806134701611626, 19.796126892886662 ], [ -155.805477635639903, 19.79679711248216 ], [ -155.805065672842574, 19.796343641637975 ], [ -155.804040328647318, 19.796023836946752 ], [ -155.802059265469097, 19.794780964455249 ], [ -155.801663203381878, 19.79326739608587 ], [ -155.801745570449668, 19.792277512059286 ], [ -155.801423460912815, 19.791690519262101 ], [ -155.801164819130321, 19.791128990821651 ], [ -155.798946934749011, 19.790598463336597 ], [ -155.798329495898088, 19.790056150577676 ], [ -155.79831517309583, 19.789724824490921 ], [ -155.798624151079878, 19.789473334971053 ], [ -155.798611211214251, 19.789170592317891 ], [ -155.799470085128405, 19.789234641158387 ], [ -155.798900590069678, 19.788572079797969 ], [ -155.79721126711658, 19.787275428504802 ], [ -155.797578456967301, 19.786976593086607 ], [ -155.797512144051808, 19.785432177375693 ], [ -155.797861819727615, 19.784849555250634 ], [ -155.797550525618362, 19.784281791636683 ], [ -155.797616345624647, 19.783491261156687 ], [ -155.797581856480321, 19.782687826265473 ], [ -155.797900840310831, 19.782675562636634 ], [ -155.798206888064755, 19.784036264420788 ], [ -155.799768161507899, 19.784876049476573 ], [ -155.799468039845493, 19.783986673938976 ], [ -155.798456504805841, 19.782701651924306 ], [ -155.798104438761669, 19.781937743174961 ], [ -155.795682705264511, 19.781536018210947 ], [ -155.794777070369946, 19.780740227730028 ], [ -155.793957412951073, 19.779627071869072 ], [ -155.792871408880472, 19.779288148212082 ], [ -155.792554799174951, 19.77824800910923 ], [ -155.791691315862749, 19.777706288651689 ], [ -155.79142730158668, 19.777415433451971 ], [ -155.790525825786489, 19.776623403187397 ], [ -155.790877665358465, 19.776336996903073 ], [ -155.790865499480873, 19.776051986074634 ], [ -155.791459536439248, 19.775806683636784 ], [ -155.79200619021853, 19.774733386975257 ], [ -155.792619860146829, 19.774999842836003 ], [ -155.793199382284484, 19.775311695153732 ], [ -155.794322622821653, 19.775268384376485 ], [ -155.79534374847384, 19.7753446095765 ], [ -155.796622678241562, 19.775086977181154 ], [ -155.798058399097528, 19.773036646830473 ], [ -155.799678995904031, 19.773908157364922 ], [ -155.800815014109759, 19.772749389330023 ], [ -155.802104291511228, 19.772699743827946 ], [ -155.803635209017074, 19.774384865143077 ], [ -155.804364645738929, 19.774142466961813 ], [ -155.80488588081019, 19.773610754630848 ], [ -155.806639142783723, 19.774948132155181 ], [ -155.807628492076049, 19.775021604005833 ], [ -155.808201017218494, 19.774999569497716 ], [ -155.80862944452511, 19.7750315489066 ], [ -155.808922140325791, 19.775020116273804 ], [ -155.809559468691219, 19.775362832516336 ], [ -155.810898816356257, 19.775311110627122 ], [ -155.812039641395444, 19.776181096619997 ], [ -155.814065334723125, 19.774571110368857 ], [ -155.814658493950986, 19.774326238692101 ], [ -155.815221560767299, 19.774049360665408 ], [ -155.816228207724976, 19.774124150500192 ], [ -155.818021241767525, 19.772664132636045 ], [ -155.81900117976906, 19.771664287886793 ], [ -155.81987253919317, 19.771728979016181 ], [ -155.820425940663085, 19.771164202684108 ], [ -155.821470555772407, 19.770732709967426 ], [ -155.821887634000092, 19.77039318439272 ], [ -155.822046821721301, 19.76916981801082 ] ] ] } },
{ "type": "Feature", "properties": { "ID": 17, "GRIDCODE": 1 }, "geometry": { "type": "Polygon", "coordinates": [ [ [ -155.852086409672552, 19.768888982843386 ], [ -155.852719125870721, 19.768987654611607 ], [ -155.852165109456962, 19.769475582137339 ], [ -155.852086409672552, 19.768888982843386 ] ] ] } },
{ "type": "Feature", "properties": { "ID": 18, "GRIDCODE": 1 }, "geometry": { "type": "Polygon", "coordinates": [ [ [ -155.854681153978902, 19.767851494580281 ], [ -155.85534867697217, 19.768012649046756 ], [ -155.85395085148977, 19.769109296404402 ], [ -155.852977477882774, 19.768776152619079 ], [ -155.85456896007554, 19.768017178023342 ], [ -155.854681153978902, 19.767851494580281 ] ] ] } },
{ "type": "Feature", "properties": { "ID": 19, "GRIDCODE": 1 }, "geometry": { "type": "Polygon", "coordinates": [ [ [ -155.856116173904184, 19.767605946429491 ], [ -155.855950102569068, 19.76795500106461 ], [ -155.855464256334699, 19.767702902501149 ], [ -155.856116173904184, 19.767605946429491 ] ] ] } },
{ "type": "Feature", "properties": { "ID": 20, "GRIDCODE": 1 }, "geometry": { "type": "Polygon", "coordinates": [ [ [ -155.856116173904184, 19.767605946429491 ], [ -155.856282244421948, 19.767256891529321 ], [ -155.856768091037196, 19.767508987867625 ], [ -155.856116173904184, 19.767605946429491 ] ] ] } },
{ "type": "Feature", "properties": { "ID": 21, "GRIDCODE": 1 }, "geometry": { "type": "Polygon", "coordinates": [ [ [ -155.860437130131999, 19.766057133019029 ], [ -155.860061109833964, 19.766500879331545 ], [ -155.859069727198062, 19.767043558792988 ], [ -155.858202901863905, 19.766689837883625 ], [ -155.859701540542261, 19.76616215631757 ], [ -155.860437130131999, 19.766057133019029 ] ] ] } },
{ "type": "Feature", "properties": { "ID": 22, "GRIDCODE": 1 }, "geometry": { "type": "Polygon", "coordinates": [ [ [ -155.861014312948754, 19.765796476007402 ], [ -155.86100900985673, 19.766067174869402 ], [ -155.860437130131999, 19.766057133019029 ], [ -155.860442434186297, 19.765786434305699 ], [ -155.861014312948754, 19.765796476007402 ] ] ] } },
{ "type": "Feature", "properties": { "ID": 23, "GRIDCODE": 1 }, "geometry": { "type": "Polygon", "coordinates": [ [ [ -155.861014312948754, 19.765796476007402 ], [ -155.861155769037708, 19.765562545458394 ], [ -155.862191216274624, 19.765179557506112 ], [ -155.861947321911117, 19.765694912240054 ], [ -155.861014312948754, 19.765796476007402 ] ] ] } },
{ "type": "Feature", "properties": { "ID": 24, "GRIDCODE": 1 }, "geometry": { "type": "Polygon", "coordinates": [ [ [ -155.865049250394378, 19.764242517274159 ], [ -155.864344501909869, 19.765384201161094 ], [ -155.862639849674849, 19.765592032472654 ], [ -155.862568271262063, 19.765067702977074 ], [ -155.864599607304399, 19.764352575692222 ], [ -155.865049250394378, 19.764242517274159 ] ] ] } },
{ "type": "Feature", "properties": { "ID": 25, "GRIDCODE": 1 }, "geometry": { "type": "Polygon", "coordinates": [ [ [ -155.865049250394378, 19.764242517274159 ], [ -155.865153716259528, 19.763914320147059 ], [ -155.865399552212011, 19.764155838436242 ], [ -155.865049250394378, 19.764242517274159 ] ] ] } },
{ "type": "Feature", "properties": { "ID": 26, "GRIDCODE": 1 }, "geometry": { "type": "Polygon", "coordinates": [ [ [ -155.86563171566047, 19.763711143260277 ], [ -155.866287169853024, 19.763832377492811 ], [ -155.865780249077687, 19.76405752714971 ], [ -155.86563171566047, 19.763711143260277 ] ] ] } },
{ "type": "Feature", "properties": { "ID": 27, "GRIDCODE": 1 }, "geometry": { "type": "Polygon", "coordinates": [ [ [ -155.875125746176252, 19.760898579116585 ], [ -155.876278823497216, 19.761055709502241 ], [ -155.875270014610265, 19.761593689899499 ], [ -155.87316218892488, 19.762123820164568 ], [ -155.872661554783207, 19.762056093175289 ], [ -155.871180780916575, 19.762845480230549 ], [ -155.869533573645839, 19.762459116801864 ], [ -155.870403781851536, 19.761853427669976 ], [ -155.874995762336937, 19.761046778607469 ], [ -155.875125746176252, 19.760898579116585 ] ] ] } },
{ "type": "Feature", "properties": { "ID": 28, "GRIDCODE": 1 }, "geometry": { "type": "Polygon", "coordinates": [ [ [ -155.876560695692405, 19.76065285367406 ], [ -155.8772161520738, 19.76077404723512 ], [ -155.876709252314726, 19.760999231400227 ], [ -155.876560695692405, 19.76065285367406 ] ] ] } },
{ "type": "Feature", "properties": { "ID": 29, "GRIDCODE": 1 }, "geometry": { "type": "Polygon", "coordinates": [ [ [ -155.877709708012475, 19.760402123907649 ], [ -155.878056383314402, 19.760500998027517 ], [ -155.877801292035173, 19.760733754899597 ], [ -155.877709708012475, 19.760402123907649 ] ] ] } },
{ "type": "Feature", "properties": { "ID": 30, "GRIDCODE": 1 }, "geometry": { "type": "Polygon", "coordinates": [ [ [ -155.880574325172802, 19.760181321158271 ], [ -155.879735735386703, 19.761102047346192 ], [ -155.879018932845185, 19.760300951628807 ], [ -155.880574325172802, 19.760181321158271 ] ] ] } },
{ "type": "Feature", "properties": { "ID": 31, "GRIDCODE": 1 }, "geometry": { "type": "Polygon", "coordinates": [ [ [ -155.886600008233785, 19.759203141449213 ], [ -155.886462981400399, 19.759383755533484 ], [ -155.8851193223378, 19.760179094716687 ], [ -155.884046761124637, 19.75993166011796 ], [ -155.882998289047748, 19.760672094524729 ], [ -155.882457002052462, 19.760324692187044 ], [ -155.880574325172802, 19.760181321158271 ], [ -155.880765129571671, 19.759979172320893 ], [ -155.884982731810851, 19.759331004057341 ], [ -155.886600008233785, 19.759203141449213 ] ] ] } },
{ "type": "Feature", "properties": { "ID": 32, "GRIDCODE": 1 }, "geometry": { "type": "Polygon", "coordinates": [ [ [ -155.886600008233785, 19.759203141449213 ], [ -155.886704426947517, 19.758874925109026 ], [ -155.886950293332035, 19.759116417198975 ], [ -155.886600008233785, 19.759203141449213 ] ] ] } }
]
}
