{
"type": "FeatureCollection",
"name": "kankaho",
"crs": { "type": "name", "properties": { "name": "urn:ogc:def:crs:OGC:1.3:CRS84" } },
"features": [
{ "type": "Feature", "properties": { "ID": 1, "GRIDCODE": 2 }, "geometry": { "type": "Polygon", "coordinates": [ [ [ -156.585283711563534, 20.595466118485458 ], [ -156.586167748871674, 20.595723835306742 ], [ -156.586831012239685, 20.596852542172233 ], [ -156.585674029800288, 20.597441282161043 ], [ -156.584271185158968, 20.596658455073317 ], [ -156.582837742138821, 20.59633815289126 ], [ -156.583589816619849, 20.596020095666184 ], [ -156.585150765245203, 20.595612277520654 ], [ -156.585283711563534, 20.595466118485458 ] ] ] } },
{ "type": "Feature", "properties": { "ID": 2, "GRIDCODE": 2 }, "geometry": { "type": "Polygon", "coordinates": [ [ [ -156.556886015310226, 20.590191006117703 ], [ -156.557035934048656, 20.59032090033525 ], [ -156.557998083854756, 20.591365959268483 ], [ -156.559251389066219, 20.591929284021461 ], [ -156.560999770969545, 20.593372855218448 ], [ -156.561299740680766, 20.593360288025778 ], [ -156.562481995579304, 20.593676295839867 ], [ -156.562397675461597, 20.594738587119092 ], [ -156.562424638361847, 20.595304437109547 ], [ -156.562997597421855, 20.595280372548611 ], [ -156.563534493738615, 20.595863595534851 ], [ -156.564132194345291, 20.595838553342457 ], [ -156.56446166326964, 20.595861713807796 ], [ -156.564397678379976, 20.596670460080045 ], [ -156.565273644324236, 20.596938617488409 ], [ -156.565540439123538, 20.597228615613577 ], [ -156.566457510844288, 20.597509383273511 ], [ -156.566965704696798, 20.598061373340823 ], [ -156.568299876892382, 20.599217836333175 ], [ -156.569786293751946, 20.599155408834424 ], [ -156.571471088246483, 20.599605805278799 ], [ -156.572200761915553, 20.598859579079562 ], [ -156.573555588720353, 20.599779391964177 ], [ -156.574174013550135, 20.600043626749915 ], [ -156.574807989828912, 20.598792740998871 ], [ -156.575281425234721, 20.599803611212579 ], [ -156.575767831456687, 20.600065988470721 ], [ -156.577016071413851, 20.599270795833959 ], [ -156.577899318980798, 20.59902762015264 ], [ -156.578175188244273, 20.598745243038461 ], [ -156.578770793553673, 20.598498032107035 ], [ -156.579046660302197, 20.598215653329834 ], [ -156.579972228095471, 20.597960757353555 ], [ -156.580497675753804, 20.597423272394366 ], [ -156.581093272830117, 20.597176052533143 ], [ -156.582335790014696, 20.596384308132727 ], [ -156.583219437080317, 20.597343754323969 ], [ -156.5827350046672, 20.598950869369911 ], [ -156.581711037427823, 20.598408372294212 ], [ -156.581037231080359, 20.599373810751921 ], [ -156.579883910354255, 20.599852771316563 ], [ -156.579608041710856, 20.60013515124281 ], [ -156.578724789289055, 20.600378335270118 ], [ -156.578418363934958, 20.600691766338691 ], [ -156.577306424126363, 20.600613750093224 ], [ -156.57568182379697, 20.601648637608175 ], [ -156.574701809323045, 20.600584364227501 ], [ -156.574167476741962, 20.60113096319678 ], [ -156.573197513303001, 20.601384408451029 ], [ -156.572424119913762, 20.60054471645396 ], [ -156.571769979587401, 20.600867800560355 ], [ -156.570951607068878, 20.600810269654676 ], [ -156.570247626332957, 20.601157779227293 ], [ -156.569808734648973, 20.600220663372649 ], [ -156.569240115576463, 20.600802345333275 ], [ -156.567662381092646, 20.601306599369678 ], [ -156.567110675046308, 20.59953046410017 ], [ -156.566510935157964, 20.599010650544155 ], [ -156.565841445864351, 20.598283373525604 ], [ -156.565237268432469, 20.598308726431227 ], [ -156.564681165826869, 20.598013858368954 ], [ -156.564042059454835, 20.597726813609903 ], [ -156.563528354878059, 20.597168785920342 ], [ -156.562923620615237, 20.597194123218021 ], [ -156.56240163418579, 20.596627245830412 ], [ -156.561814145349501, 20.596363408001444 ], [ -156.561141601260857, 20.596006835101257 ], [ -156.560609409560698, 20.595428698193277 ], [ -156.561017322490954, 20.594406291521143 ], [ -156.559687267931906, 20.594462124294505 ], [ -156.559197647325192, 20.593416601432285 ], [ -156.558120624168765, 20.592932616019123 ], [ -156.557048046828442, 20.592364032369051 ], [ -156.556886015310226, 20.590191006117703 ] ] ] } },
{ "type": "Feature", "properties": { "ID": 3, "GRIDCODE": 2 }, "geometry": { "type": "Polygon", "coordinates": [ [ [ -156.592796235555369, 20.593403681948434 ], [ -156.592702828811952, 20.593072088461177 ], [ -156.592447140859065, 20.593306095636947 ], [ -156.592796235555369, 20.593403681948434 ], [ -156.592922840298854, 20.593821849239642 ], [ -156.593474946644278, 20.595304941107656 ], [ -156.592859838546701, 20.595758417086802 ], [ -156.591781927148872, 20.595661658138066 ], [ -156.59072355659589, 20.596198633338567 ], [ -156.588987531339654, 20.596305647201699 ], [ -156.587737300713741, 20.595625769982423 ], [ -156.586308644249783, 20.595001462457496 ], [ -156.586734317117362, 20.594678436067941 ], [ -156.589524456661735, 20.594928870315869 ], [ -156.590342728624762, 20.594598609501521 ], [ -156.591195378425027, 20.594047129279566 ], [ -156.592151516413423, 20.594132935646389 ], [ -156.591997311658332, 20.591912654114335 ], [ -156.592682390609298, 20.592172989086926 ], [ -156.593404310499466, 20.592985954191963 ], [ -156.59513001033082, 20.593140787664069 ], [ -156.595872448937683, 20.591929939797708 ], [ -156.595783972819419, 20.590656477500527 ], [ -156.596911103281997, 20.590084707223795 ], [ -156.597039043854807, 20.590687151734258 ], [ -156.596990472969054, 20.59116902047051 ], [ -156.598137553569046, 20.591511681108148 ], [ -156.597666602176162, 20.593220100248171 ], [ -156.595510805894378, 20.594907207966695 ], [ -156.592796235555369, 20.593403681948434 ] ] ] } },
{ "type": "Feature", "properties": { "ID": 4, "GRIDCODE": 2 }, "geometry": { "type": "Polygon", "coordinates": [ [ [ -156.599784211644192, 20.588082793243263 ], [ -156.600192411570077, 20.588388593962765 ], [ -156.599836808262637, 20.590304445316765 ], [ -156.59764679002933, 20.589697307417694 ], [ -156.597556787120197, 20.589058220612113 ], [ -156.599596435916283, 20.588304924551487 ], [ -156.599784211644192, 20.588082793243263 ] ] ] } },
{ "type": "Feature", "properties": { "ID": 5, "GRIDCODE": 2 }, "geometry": { "type": "Polygon", "coordinates": [ [ [ -156.602415166215508, 20.58541026397732 ], [ -156.603410943124516, 20.585599597087388 ], [ -156.603131655313433, 20.586105124415297 ], [ -156.60252766170143, 20.586894116327436 ], [ -156.602065057341036, 20.58823480795165 ], [ -156.600552865111723, 20.588298621312948 ], [ -156.600208550742025, 20.587680477180495 ], [ -156.602415166215508, 20.58541026397732 ] ] ] } },
{ "type": "Feature", "properties": { "ID": 6, "GRIDCODE": 2 }, "geometry": { "type": "Polygon", "coordinates": [ [ [ -156.60386172241283, 20.584888506003537 ], [ -156.60540747490947, 20.585030286840848 ], [ -156.604866023943345, 20.585359433926424 ], [ -156.603968646544075, 20.585057582104703 ], [ -156.60386172241283, 20.584888506003537 ] ] ] } },
{ "type": "Feature", "properties": { "ID": 7, "GRIDCODE": 2 }, "geometry": { "type": "Polygon", "coordinates": [ [ [ -156.544953553210917, 20.580811599168037 ], [ -156.5450659330983, 20.581776270352197 ], [ -156.545381694519023, 20.582021752275281 ], [ -156.545663338974492, 20.582678910836151 ], [ -156.546838715461377, 20.583592923198388 ], [ -156.548075327256981, 20.584227114179036 ], [ -156.549091130053057, 20.583684114874512 ], [ -156.549332329054693, 20.58481661332808 ], [ -156.550223317006328, 20.585070237656705 ], [ -156.550638631866633, 20.585573995298997 ], [ -156.551581421704014, 20.586173050129116 ], [ -156.552802129373163, 20.58535952158444 ], [ -156.553049605236851, 20.586223724073069 ], [ -156.554438409764231, 20.586619025105868 ], [ -156.554740712232586, 20.588414807594621 ], [ -156.556307892440486, 20.589341710968284 ], [ -156.555647105940494, 20.590365028099058 ], [ -156.554915757798085, 20.589946095919071 ], [ -156.554476955349287, 20.588922974630695 ], [ -156.554061267333879, 20.588599772011868 ], [ -156.554214573056981, 20.587565977411636 ], [ -156.553427784097835, 20.587312655701727 ], [ -156.553005124050713, 20.588218962510439 ], [ -156.551667590014063, 20.58804302212307 ], [ -156.552500932249643, 20.586752591355857 ], [ -156.552455252860312, 20.586358300396398 ], [ -156.551017085212521, 20.586855656149147 ], [ -156.549635121624419, 20.585874588872624 ], [ -156.548468823861157, 20.585392195106678 ], [ -156.548344121619891, 20.584652213324745 ], [ -156.548696122506726, 20.584564479677329 ], [ -156.548447983592069, 20.584323400620502 ], [ -156.548344121619891, 20.584652213324745 ], [ -156.547034413323075, 20.584513009531065 ], [ -156.545299643077612, 20.58316408372562 ], [ -156.544797824464325, 20.582555253388996 ], [ -156.543945440932703, 20.581892371251445 ], [ -156.544601937669313, 20.581068772294049 ], [ -156.544953553210917, 20.580811599168037 ] ] ] } },
{ "type": "Feature", "properties": { "ID": 8, "GRIDCODE": 2 }, "geometry": { "type": "Polygon", "coordinates": [ [ [ -156.612274342747668, 20.580399482313187 ], [ -156.612623426033423, 20.580497027039211 ], [ -156.612367788353566, 20.580731069076442 ], [ -156.612274342747668, 20.580399482313187 ] ] ] } },
{ "type": "Feature", "properties": { "ID": 9, "GRIDCODE": 2 }, "geometry": { "type": "Polygon", "coordinates": [ [ [ -156.544683295746637, 20.579724186803279 ], [ -156.544395700379056, 20.579720104367155 ], [ -156.544545050244011, 20.579375273697487 ], [ -156.544683295746637, 20.579724186803279 ] ] ] } },
{ "type": "Feature", "properties": { "ID": 10, "GRIDCODE": 2 }, "geometry": { "type": "Polygon", "coordinates": [ [ [ -156.60997767596993, 20.58009686128889 ], [ -156.610964147793851, 20.580377291610407 ], [ -156.610697713114888, 20.581069919801152 ], [ -156.609724040793594, 20.581608460999448 ], [ -156.609876400505215, 20.582918524291269 ], [ -156.607743577377562, 20.583979134188755 ], [ -156.607379653605705, 20.58476061973462 ], [ -156.606684620017148, 20.584832221250988 ], [ -156.606043985337237, 20.584334459085415 ], [ -156.606737925283454, 20.583198543697719 ], [ -156.608393147841412, 20.581309636839531 ], [ -156.609847537671129, 20.580245462496972 ], [ -156.60997767596993, 20.58009686128889 ] ] ] } },
{ "type": "Feature", "properties": { "ID": 11, "GRIDCODE": 2 }, "geometry": { "type": "Polygon", "coordinates": [ [ [ -156.612870637887852, 20.579053190084281 ], [ -156.613259453971921, 20.579269140914995 ], [ -156.613009136086532, 20.579847576070858 ], [ -156.611905997911464, 20.580221907688298 ], [ -156.61167376848735, 20.579746338701028 ], [ -156.612763471531593, 20.579224201163711 ], [ -156.612870637887852, 20.579053190084281 ] ] ] } },
{ "type": "Feature", "properties": { "ID": 12, "GRIDCODE": 2 }, "geometry": { "type": "Polygon", "coordinates": [ [ [ -156.544395700379056, 20.579720104367155 ], [ -156.544391364977542, 20.579990936865659 ], [ -156.54403937342957, 20.580078662597835 ], [ -156.544287498573567, 20.580319746698063 ], [ -156.544391364977542, 20.579990936865659 ], [ -156.544678960851627, 20.579995019360261 ], [ -156.544683295746637, 20.579724186803279 ], [ -156.545826094228573, 20.579477049450116 ], [ -156.545369781381197, 20.58011540362946 ], [ -156.54512552180654, 20.580703460050767 ], [ -156.544953553210917, 20.580811599168037 ], [ -156.544817937939428, 20.58028071653839 ], [ -156.543634985460528, 20.580982425697478 ], [ -156.543524240783682, 20.580249518832982 ], [ -156.54387623291052, 20.580161794221191 ], [ -156.543628108708276, 20.579920709617713 ], [ -156.543524240783682, 20.580249518832982 ], [ -156.542794150438169, 20.58038861686417 ], [ -156.542423469635651, 20.579573711792669 ], [ -156.541097059872641, 20.578464277431614 ], [ -156.540839817169314, 20.577898728259598 ], [ -156.540356663323053, 20.577494513627919 ], [ -156.539971383696638, 20.576820399396414 ], [ -156.540026108490594, 20.576280581103642 ], [ -156.53943540764331, 20.575786609685597 ], [ -156.54136893353467, 20.575224560543159 ], [ -156.540285020265031, 20.57661904341877 ], [ -156.540547925686553, 20.576831109957954 ], [ -156.541140430185152, 20.577090320536229 ], [ -156.541839621184124, 20.578177482661875 ], [ -156.542835605669808, 20.579010663140732 ], [ -156.543092857475358, 20.579576210210217 ], [ -156.544395700379056, 20.579720104367155 ] ] ] } },
{ "type": "Feature", "properties": { "ID": 13, "GRIDCODE": 2 }, "geometry": { "type": "Polygon", "coordinates": [ [ [ -156.539580427321823, 20.575046492969427 ], [ -156.539929435979388, 20.575144178729115 ], [ -156.539673709275689, 20.575378103166219 ], [ -156.539580427321823, 20.575046492969427 ] ] ] } },
{ "type": "Feature", "properties": { "ID": 14, "GRIDCODE": 2 }, "geometry": { "type": "Polygon", "coordinates": [ [ [ -156.539889723418753, 20.573696423775463 ], [ -156.540238729369207, 20.573794108632942 ], [ -156.539983005572878, 20.57402803383675 ], [ -156.539889723418753, 20.573696423775463 ] ] ] } },
{ "type": "Feature", "properties": { "ID": 15, "GRIDCODE": 2 }, "geometry": { "type": "Polygon", "coordinates": [ [ [ -156.539606482783, 20.573421502799285 ], [ -156.539894065314286, 20.573425591998497 ], [ -156.539889723418753, 20.573696423775463 ], [ -156.539602140381135, 20.573692334517666 ], [ -156.539606482783, 20.573421502799285 ] ] ] } },
{ "type": "Feature", "properties": { "ID": 16, "GRIDCODE": 2 }, "geometry": { "type": "Polygon", "coordinates": [ [ [ -156.539615167376667, 20.57287983933449 ], [ -156.539606482783, 20.573421502799285 ], [ -156.539209502269273, 20.573144963846705 ], [ -156.539615167376667, 20.57287983933449 ] ] ] } },
{ "type": "Feature", "properties": { "ID": 17, "GRIDCODE": 2 }, "geometry": { "type": "Polygon", "coordinates": [ [ [ -156.622158100940766, 20.573762982650361 ], [ -156.622010772501199, 20.574169962381305 ], [ -156.62161091167826, 20.57452148538415 ], [ -156.622258239018635, 20.575748797754933 ], [ -156.620537831134101, 20.576040761202982 ], [ -156.620243159355056, 20.576854716215855 ], [ -156.619615501827752, 20.577130876133989 ], [ -156.618788315329994, 20.577918319690358 ], [ -156.617915751740298, 20.578171921331244 ], [ -156.617629473043877, 20.578444175456386 ], [ -156.616181687542394, 20.57868984529885 ], [ -156.614467557743382, 20.579749835054169 ], [ -156.613732409294016, 20.578735576142574 ], [ -156.614978677981043, 20.578152618729789 ], [ -156.61735868945982, 20.577356825646071 ], [ -156.618808001129281, 20.576287867288968 ], [ -156.619684754344178, 20.575763412168687 ], [ -156.621623067143815, 20.573918463629177 ], [ -156.622158100940766, 20.573762982650361 ] ] ] } },
{ "type": "Feature", "properties": { "ID": 18, "GRIDCODE": 2 }, "geometry": { "type": "Polygon", "coordinates": [ [ [ -156.539615167376667, 20.57287983933449 ], [ -156.539719036620113, 20.572551032558195 ], [ -156.539967143426395, 20.572792121129641 ], [ -156.539615167376667, 20.57287983933449 ] ] ] } },
{ "type": "Feature", "properties": { "ID": 19, "GRIDCODE": 2 }, "geometry": { "type": "Polygon", "coordinates": [ [ [ -156.622158100940766, 20.573762982650361 ], [ -156.622261799510909, 20.57343410876328 ], [ -156.622510050680773, 20.573675091875206 ], [ -156.622158100940766, 20.573762982650361 ] ] ] } },
{ "type": "Feature", "properties": { "ID": 20, "GRIDCODE": 2 }, "geometry": { "type": "Polygon", "coordinates": [ [ [ -156.539340613812357, 20.572063254684032 ], [ -156.540300603914659, 20.572194626188264 ], [ -156.539529929810442, 20.572414484087503 ], [ -156.539340613812357, 20.572063254684032 ] ] ] } },
{ "type": "Feature", "properties": { "ID": 21, "GRIDCODE": 2 }, "geometry": { "type": "Polygon", "coordinates": [ [ [ -156.539384035543037, 20.569354937105139 ], [ -156.539775077069862, 20.569580862488579 ], [ -156.539492759871337, 20.570527885963134 ], [ -156.539384035543037, 20.569354937105139 ] ] ] } },
{ "type": "Feature", "properties": { "ID": 22, "GRIDCODE": 2 }, "geometry": { "type": "Polygon", "coordinates": [ [ [ -156.538238080585586, 20.569067745572706 ], [ -156.538134211481605, 20.569396551496272 ], [ -156.53788611274274, 20.569155461057708 ], [ -156.538238080585586, 20.569067745572706 ] ] ] } },
{ "type": "Feature", "properties": { "ID": 23, "GRIDCODE": 2 }, "geometry": { "type": "Polygon", "coordinates": [ [ [ -156.538529997903481, 20.568801004575906 ], [ -156.538525654666927, 20.569071836218722 ], [ -156.538238080585586, 20.569067745572706 ], [ -156.538242424328303, 20.568796913988503 ], [ -156.538529997903481, 20.568801004575906 ] ] ] } },
{ "type": "Feature", "properties": { "ID": 24, "GRIDCODE": 2 }, "geometry": { "type": "Polygon", "coordinates": [ [ [ -156.540547354513336, 20.568558793274772 ], [ -156.540337911955561, 20.568920226813141 ], [ -156.539597963336973, 20.568661300840105 ], [ -156.540547354513336, 20.568558793274772 ] ] ] } },
{ "type": "Feature", "properties": { "ID": 25, "GRIDCODE": 2 }, "geometry": { "type": "Polygon", "coordinates": [ [ [ -156.538529997903481, 20.568801004575906 ], [ -156.538739444277439, 20.568439573638827 ], [ -156.539479389999116, 20.568698503037027 ], [ -156.538529997903481, 20.568801004575906 ] ] ] } },
{ "type": "Feature", "properties": { "ID": 26, "GRIDCODE": 2 }, "geometry": { "type": "Polygon", "coordinates": [ [ [ -156.540839267189568, 20.568292047858971 ], [ -156.540834928142317, 20.568562879989123 ], [ -156.540547354513336, 20.568558793274772 ], [ -156.54055169406675, 20.568287961203179 ], [ -156.540839267189568, 20.568292047858971 ] ] ] } },
{ "type": "Feature", "properties": { "ID": 27, "GRIDCODE": 2 }, "geometry": { "type": "Polygon", "coordinates": [ [ [ -156.540839267189568, 20.568292047858971 ], [ -156.541048707607814, 20.567930613482766 ], [ -156.541788656000392, 20.568189533157209 ], [ -156.540839267189568, 20.568292047858971 ] ] ] } },
{ "type": "Feature", "properties": { "ID": 28, "GRIDCODE": 2 }, "geometry": { "type": "Polygon", "coordinates": [ [ [ -156.627697885863824, 20.568962701612428 ], [ -156.629252824551799, 20.569593418300148 ], [ -156.629332648649012, 20.570736342982816 ], [ -156.62837496374712, 20.57099373075474 ], [ -156.627434029730807, 20.571602939421695 ], [ -156.626134623739034, 20.57148657101456 ], [ -156.625750423472397, 20.571789244564894 ], [ -156.625841736806564, 20.573095690214064 ], [ -156.624519148855114, 20.573532576054305 ], [ -156.623764251918942, 20.572901824793927 ], [ -156.624194831812787, 20.571944485540467 ], [ -156.626885644833351, 20.569824737294347 ], [ -156.627697885863824, 20.568962701612428 ] ] ] } },
{ "type": "Feature", "properties": { "ID": 29, "GRIDCODE": 2 }, "geometry": { "type": "Polygon", "coordinates": [ [ [ -156.542577715006814, 20.567504060280825 ], [ -156.542421755954962, 20.568139531315623 ], [ -156.541915985156351, 20.567833544791501 ], [ -156.542577715006814, 20.567504060280825 ] ] ] } },
{ "type": "Feature", "properties": { "ID": 30, "GRIDCODE": 2 }, "geometry": { "type": "Polygon", "coordinates": [ [ [ -156.543444765710575, 20.567245475584222 ], [ -156.543440431498311, 20.567516308278439 ], [ -156.542577715006814, 20.567504060280825 ], [ -156.542582050737451, 20.567233227762117 ], [ -156.543444765710575, 20.567245475584222 ] ] ] } },
{ "type": "Feature", "properties": { "ID": 31, "GRIDCODE": 2 }, "geometry": { "type": "Polygon", "coordinates": [ [ [ -156.543444765710575, 20.567245475584222 ], [ -156.543756212899495, 20.566863395572739 ], [ -156.545850164801351, 20.567152091000018 ], [ -156.543444765710575, 20.567245475584222 ] ] ] } },
{ "type": "Feature", "properties": { "ID": 32, "GRIDCODE": 2 }, "geometry": { "type": "Polygon", "coordinates": [ [ [ -156.546329144921316, 20.566744604081716 ], [ -156.546225294754265, 20.567073416862254 ], [ -156.54597718531042, 20.566832337068885 ], [ -156.546329144921316, 20.566744604081716 ] ] ] } },
{ "type": "Feature", "properties": { "ID": 33, "GRIDCODE": 2 }, "geometry": { "type": "Polygon", "coordinates": [ [ [ -156.546621044840293, 20.566477847485672 ], [ -156.546616716404941, 20.566748680850893 ], [ -156.546329144921316, 20.566744604081716 ], [ -156.546333473862774, 20.566473770774916 ], [ -156.546621044840293, 20.566477847485672 ] ] ] } },
{ "type": "Feature", "properties": { "ID": 34, "GRIDCODE": 2 }, "geometry": { "type": "Polygon", "coordinates": [ [ [ -156.54720051435811, 20.566215165985515 ], [ -156.547196187004744, 20.566485999476892 ], [ -156.546621044840293, 20.566477847485672 ], [ -156.546625373205899, 20.566207014111114 ], [ -156.54720051435811, 20.566215165985515 ] ] ] } },
{ "type": "Feature", "properties": { "ID": 35, "GRIDCODE": 2 }, "geometry": { "type": "Polygon", "coordinates": [ [ [ -156.547204841641701, 20.565944332484804 ], [ -156.547571127631699, 20.566084970491289 ], [ -156.54720051435811, 20.566215165985515 ], [ -156.547204841641701, 20.565944332484804 ] ] ] } },
{ "type": "Feature", "properties": { "ID": 36, "GRIDCODE": 2 }, "geometry": { "type": "Polygon", "coordinates": [ [ [ -156.631182442719421, 20.566843172819254 ], [ -156.632115747530122, 20.566980683238544 ], [ -156.632709318095976, 20.567781551922803 ], [ -156.631846357875389, 20.568036685168462 ], [ -156.631038975454572, 20.568567450407851 ], [ -156.630190739566757, 20.56828691428629 ], [ -156.629939534091875, 20.567563744620998 ], [ -156.631072814661991, 20.567011783189738 ], [ -156.631182442719421, 20.566843172819254 ] ] ] } },
{ "type": "Feature", "properties": { "ID": 37, "GRIDCODE": 2 }, "geometry": { "type": "Polygon", "coordinates": [ [ [ -156.547209168855517, 20.565673498974757 ], [ -156.547204841641701, 20.565944332484804 ], [ -156.546838556397233, 20.565803693768178 ], [ -156.547209168855517, 20.565673498974757 ] ] ] } },
{ "type": "Feature", "properties": { "ID": 38, "GRIDCODE": 2 }, "geometry": { "type": "Polygon", "coordinates": [ [ [ -156.63407086533644, 20.566069957553658 ], [ -156.63441993572502, 20.566167456575496 ], [ -156.634164354069355, 20.566401536792501 ], [ -156.63407086533644, 20.566069957553658 ] ] ] } },
{ "type": "Feature", "properties": { "ID": 39, "GRIDCODE": 2 }, "geometry": { "type": "Polygon", "coordinates": [ [ [ -156.63407086533644, 20.566069957553658 ], [ -156.633380874275957, 20.565893058908586 ], [ -156.634479090014139, 20.565190588782997 ], [ -156.63407086533644, 20.566069957553658 ] ] ] } },
{ "type": "Feature", "properties": { "ID": 40, "GRIDCODE": 2 }, "geometry": { "type": "Polygon", "coordinates": [ [ [ -156.548110806191744, 20.563248219273333 ], [ -156.548583898046047, 20.563577798411455 ], [ -156.548131967841783, 20.565546364806771 ], [ -156.547209168855517, 20.565673498974757 ], [ -156.547344606182946, 20.565529918126366 ], [ -156.547918949505174, 20.56507787856814 ], [ -156.548110806191744, 20.563248219273333 ] ] ] } },
{ "type": "Feature", "properties": { "ID": 41, "GRIDCODE": 2 }, "geometry": { "type": "Polygon", "coordinates": [ [ [ -156.635538009684524, 20.564193649196767 ], [ -156.635887077192137, 20.564291144950971 ], [ -156.635631500978349, 20.564525227905708 ], [ -156.635538009684524, 20.564193649196767 ] ] ] } },
{ "type": "Feature", "properties": { "ID": 42, "GRIDCODE": 2 }, "geometry": { "type": "Polygon", "coordinates": [ [ [ -156.548110806191744, 20.563248219273333 ], [ -156.547739433272881, 20.5630922994645 ], [ -156.548005496500451, 20.562631129146055 ], [ -156.548110806191744, 20.563248219273333 ] ] ] } },
{ "type": "Feature", "properties": { "ID": 43, "GRIDCODE": 2 }, "geometry": { "type": "Polygon", "coordinates": [ [ [ -156.547866492839972, 20.560535808025278 ], [ -156.548237860025779, 20.56069172699047 ], [ -156.54797180148438, 20.561152898170683 ], [ -156.547866492839972, 20.560535808025278 ] ] ] } },
{ "type": "Feature", "properties": { "ID": 44, "GRIDCODE": 2 }, "geometry": { "type": "Polygon", "coordinates": [ [ [ -156.547583258028283, 20.560260900751047 ], [ -156.547870817646526, 20.560264974211783 ], [ -156.547866492839972, 20.560535808025278 ], [ -156.547578932715794, 20.560531734506156 ], [ -156.547583258028283, 20.560260900751047 ] ] ] } },
{ "type": "Feature", "properties": { "ID": 45, "GRIDCODE": 2 }, "geometry": { "type": "Polygon", "coordinates": [ [ [ -156.547583258028283, 20.560260900751047 ], [ -156.546893230757206, 20.559762111163412 ], [ -156.547260991164393, 20.559070904904893 ], [ -156.547583258028283, 20.560260900751047 ] ] ] } },
{ "type": "Feature", "properties": { "ID": 46, "GRIDCODE": 2 }, "geometry": { "type": "Polygon", "coordinates": [ [ [ -156.547901089339547, 20.558369137255976 ], [ -156.547519949670999, 20.55900142658713 ], [ -156.547257347653897, 20.558490042719107 ], [ -156.547901089339547, 20.558369137255976 ] ] ] } },
{ "type": "Feature", "properties": { "ID": 47, "GRIDCODE": 2 }, "geometry": { "type": "Polygon", "coordinates": [ [ [ -156.547901089339547, 20.558369137255976 ], [ -156.548004928009277, 20.558040322210413 ], [ -156.548253028325576, 20.558281398200773 ], [ -156.547901089339547, 20.558369137255976 ] ] ] } },
{ "type": "Feature", "properties": { "ID": 48, "GRIDCODE": 2 }, "geometry": { "type": "Polygon", "coordinates": [ [ [ -156.54820594003877, 20.557289873989316 ], [ -156.54857730017136, 20.557445791519271 ], [ -156.548311249331874, 20.557906964050545 ], [ -156.54820594003877, 20.557289873989316 ] ] ] } },
{ "type": "Feature", "properties": { "ID": 49, "GRIDCODE": 2 }, "geometry": { "type": "Polygon", "coordinates": [ [ [ -156.548519430933737, 20.555668941461402 ], [ -156.548868404655877, 20.555766605490117 ], [ -156.548612725760023, 20.556000548271175 ], [ -156.548519430933737, 20.555668941461402 ] ] ] } },
{ "type": "Feature", "properties": { "ID": 50, "GRIDCODE": 2 }, "geometry": { "type": "Polygon", "coordinates": [ [ [ -156.652338170590269, 20.556565910747516 ], [ -156.65203194503718, 20.557432958969223 ], [ -156.65125715445069, 20.557805799599553 ], [ -156.649352764948816, 20.557708920424211 ], [ -156.649002724798748, 20.558005502592234 ], [ -156.648634802140094, 20.559048034830173 ], [ -156.646981231391749, 20.558530179485587 ], [ -156.646129014949508, 20.557960637188394 ], [ -156.645830371922443, 20.558807006240844 ], [ -156.644670895722356, 20.558747980813802 ], [ -156.645146424535284, 20.560563380253509 ], [ -156.643493061310238, 20.560910605305985 ], [ -156.642375537294868, 20.561612743829066 ], [ -156.640968145421368, 20.560886535235124 ], [ -156.640604768917825, 20.561683992450082 ], [ -156.640315775493775, 20.562503098124246 ], [ -156.639717043258884, 20.563297344260931 ], [ -156.639297606511604, 20.564104350903623 ], [ -156.637931569292732, 20.563739010573155 ], [ -156.636991458806079, 20.562894538169637 ], [ -156.639129992494759, 20.561979505381579 ], [ -156.640908994853561, 20.560604502295131 ], [ -156.642082866757363, 20.559818084606786 ], [ -156.645006181612615, 20.557454079807904 ], [ -156.650787104824332, 20.557225457069613 ], [ -156.65189920029124, 20.556690254810771 ], [ -156.652338170590269, 20.556565910747516 ] ] ] } },
{ "type": "Feature", "properties": { "ID": 51, "GRIDCODE": 2 }, "geometry": { "type": "Polygon", "coordinates": [ [ [ -156.652338170590269, 20.556565910747516 ], [ -156.652657202744962, 20.556239137444656 ], [ -156.656818076984564, 20.555686076110735 ], [ -156.65865670959414, 20.554383373372648 ], [ -156.659986463055787, 20.554326741116334 ], [ -156.659530447312306, 20.555699610131928 ], [ -156.659110521658249, 20.555717479718108 ], [ -156.658309424628243, 20.55566167223704 ], [ -156.657948189670009, 20.555956932493977 ], [ -156.657414166399974, 20.557507053453083 ], [ -156.656586643820987, 20.558354226579631 ], [ -156.655314758129606, 20.558408438576144 ], [ -156.654599028027519, 20.556882012205868 ], [ -156.652338170590269, 20.556565910747516 ] ] ] } },
{ "type": "Feature", "properties": { "ID": 52, "GRIDCODE": 2 }, "geometry": { "type": "Polygon", "coordinates": [ [ [ -156.548867484291662, 20.55188133345909 ], [ -156.548486367524021, 20.552513627380996 ], [ -156.548223770757204, 20.552002245429879 ], [ -156.548867484291662, 20.55188133345909 ] ] ] } },
{ "type": "Feature", "properties": { "ID": 53, "GRIDCODE": 2 }, "geometry": { "type": "Polygon", "coordinates": [ [ [ -156.548867484291662, 20.55188133345909 ], [ -156.548971314982225, 20.551552516956875 ], [ -156.549219407646802, 20.551793590817979 ], [ -156.548867484291662, 20.55188133345909 ] ] ] } },
{ "type": "Feature", "properties": { "ID": 54, "GRIDCODE": 2 }, "geometry": { "type": "Polygon", "coordinates": [ [ [ -156.549738756165056, 20.551351872331796 ], [ -156.549634927250963, 20.551680689481458 ], [ -156.549386834028098, 20.551439616165855 ], [ -156.549738756165056, 20.551351872331796 ] ] ] } },
{ "type": "Feature", "properties": { "ID": 55, "GRIDCODE": 2 }, "geometry": { "type": "Polygon", "coordinates": [ [ [ -156.549738756165056, 20.551351872331796 ], [ -156.549842584561105, 20.551023055063542 ], [ -156.550090677975476, 20.551264127740378 ], [ -156.549738756165056, 20.551351872331796 ] ] ] } },
{ "type": "Feature", "properties": { "ID": 56, "GRIDCODE": 2 }, "geometry": { "type": "Polygon", "coordinates": [ [ [ -156.550326798026674, 20.550547504433545 ], [ -156.550222971072628, 20.550876322146117 ], [ -156.549974877986358, 20.550635249691567 ], [ -156.550326798026674, 20.550547504433545 ] ] ] } },
{ "type": "Feature", "properties": { "ID": 57, "GRIDCODE": 2 }, "geometry": { "type": "Polygon", "coordinates": [ [ [ -156.668228891460785, 20.55190419948158 ], [ -156.670079966523161, 20.552068935016507 ], [ -156.66924089254627, 20.552610053855346 ], [ -156.667838611214847, 20.552967384784882 ], [ -156.665781777891311, 20.554069094188186 ], [ -156.663677631771691, 20.554604502364505 ], [ -156.662606629306424, 20.55384530444492 ], [ -156.660885506787594, 20.553539114740481 ], [ -156.662007715174468, 20.553295394662669 ], [ -156.665879077929134, 20.553100383985743 ], [ -156.667182895841449, 20.55240191112647 ], [ -156.668098831712399, 20.552052852777386 ], [ -156.668228891460785, 20.55190419948158 ] ] ] } },
{ "type": "Feature", "properties": { "ID": 58, "GRIDCODE": 2 }, "geometry": { "type": "Polygon", "coordinates": [ [ [ -156.550326798026674, 20.550547504433545 ], [ -156.550430624462678, 20.550218686602388 ], [ -156.550678717740425, 20.550459758418214 ], [ -156.550326798026674, 20.550547504433545 ] ] ] } },
{ "type": "Feature", "properties": { "ID": 59, "GRIDCODE": 2 }, "geometry": { "type": "Polygon", "coordinates": [ [ [ -156.550919150433373, 20.549472299075902 ], [ -156.551268112592851, 20.54956995705756 ], [ -156.551012448350491, 20.549803904949922 ], [ -156.550919150433373, 20.549472299075902 ] ] ] } },
{ "type": "Feature", "properties": { "ID": 60, "GRIDCODE": 2 }, "geometry": { "type": "Polygon", "coordinates": [ [ [ -156.552090885117366, 20.548134384604193 ], [ -156.551726680702103, 20.549328427547678 ], [ -156.551402630225056, 20.548601633641351 ], [ -156.552090885117366, 20.548134384604193 ] ] ] } },
{ "type": "Feature", "properties": { "ID": 61, "GRIDCODE": 2 }, "geometry": { "type": "Polygon", "coordinates": [ [ [ -156.552090885117366, 20.548134384604193 ], [ -156.552194705674111, 20.547805565084722 ], [ -156.552442798541648, 20.548046634317757 ], [ -156.552090885117366, 20.548134384604193 ] ] ] } },
{ "type": "Feature", "properties": { "ID": 62, "GRIDCODE": 2 }, "geometry": { "type": "Polygon", "coordinates": [ [ [ -156.553022498759191, 20.543813209378296 ], [ -156.553992833723527, 20.545084835674256 ], [ -156.553715420085041, 20.545344936273818 ], [ -156.552552694166707, 20.543932629102212 ], [ -156.553022498759191, 20.543813209378296 ] ] ] } },
{ "type": "Feature", "properties": { "ID": 63, "GRIDCODE": 2 }, "geometry": { "type": "Polygon", "coordinates": [ [ [ -156.553022498759191, 20.543813209378296 ], [ -156.553161873957777, 20.542908971703909 ], [ -156.553395222456345, 20.543634878198866 ], [ -156.553022498759191, 20.543813209378296 ] ] ] } },
{ "type": "Feature", "properties": { "ID": 64, "GRIDCODE": 2 }, "geometry": { "type": "Polygon", "coordinates": [ [ [ -156.55333589605462, 20.542192257917517 ], [ -156.553684844286067, 20.542289909583896 ], [ -156.553429196706162, 20.542523862821575 ], [ -156.55333589605462, 20.542192257917517 ] ] ] } },
{ "type": "Feature", "properties": { "ID": 65, "GRIDCODE": 2 }, "geometry": { "type": "Polygon", "coordinates": [ [ [ -156.55363204397338, 20.541654647299158 ], [ -156.553980991278308, 20.541752298269575 ], [ -156.553725345088111, 20.54198625209381 ], [ -156.55363204397338, 20.541654647299158 ] ] ] } },
{ "type": "Feature", "properties": { "ID": 66, "GRIDCODE": 2 }, "geometry": { "type": "Polygon", "coordinates": [ [ [ -156.681308535168682, 20.54286869168126 ], [ -156.682012417131915, 20.543500899158364 ], [ -156.681537058735415, 20.544495787748655 ], [ -156.679970159531564, 20.545419309609315 ], [ -156.678536998148246, 20.546320400258672 ], [ -156.67626619578445, 20.546964196906004 ], [ -156.675633973889006, 20.547500321378831 ], [ -156.675053789135205, 20.549145139194188 ], [ -156.674454449595515, 20.549159448756157 ], [ -156.673022769657962, 20.549086645662516 ], [ -156.672535597366533, 20.550466946675595 ], [ -156.671281706577503, 20.550116211529655 ], [ -156.672536484816504, 20.548498334443352 ], [ -156.674197263905199, 20.547519530269575 ], [ -156.676515353682333, 20.545643919977032 ], [ -156.677397295432257, 20.545124235605712 ], [ -156.678992066155757, 20.543936678259829 ], [ -156.680909650197862, 20.543262714721422 ], [ -156.681308535168682, 20.54286869168126 ] ] ] } },
{ "type": "Feature", "properties": { "ID": 67, "GRIDCODE": 2 }, "geometry": { "type": "Polygon", "coordinates": [ [ [ -156.554220024016161, 20.540850259542022 ], [ -156.554568970060245, 20.540947909188397 ], [ -156.554313326145575, 20.541181864126468 ], [ -156.554220024016161, 20.540850259542022 ] ] ] } },
{ "type": "Feature", "properties": { "ID": 68, "GRIDCODE": 2 }, "geometry": { "type": "Polygon", "coordinates": [ [ [ -156.555404578128844, 20.538699803942393 ], [ -156.55607363045533, 20.53910116981989 ], [ -156.554928783810993, 20.539338189504619 ], [ -156.554566099725946, 20.539874864128354 ], [ -156.554645569825595, 20.539063295854994 ], [ -156.555292408689525, 20.538865812218397 ], [ -156.555404578128844, 20.538699803942393 ] ] ] } },
{ "type": "Feature", "properties": { "ID": 69, "GRIDCODE": 2 }, "geometry": { "type": "Polygon", "coordinates": [ [ [ -156.683374486524514, 20.539374424218938 ], [ -156.68378275567153, 20.539680032777159 ], [ -156.683303791541164, 20.540897248208228 ], [ -156.682459301817971, 20.541897787254126 ], [ -156.681808976518909, 20.541979568431646 ], [ -156.682505443589775, 20.540439322486456 ], [ -156.683374486524514, 20.539374424218938 ] ] ] } },
{ "type": "Feature", "properties": { "ID": 70, "GRIDCODE": 2 }, "geometry": { "type": "Polygon", "coordinates": [ [ [ -156.544805275278605, 20.536111876851646 ], [ -156.544800950615041, 20.536382710794399 ], [ -156.544225922101845, 20.536374562247566 ], [ -156.544230247775829, 20.536103728421722 ], [ -156.544805275278605, 20.536111876851646 ] ] ] } },
{ "type": "Feature", "properties": { "ID": 71, "GRIDCODE": 2 }, "geometry": { "type": "Polygon", "coordinates": [ [ [ -156.545388950157587, 20.535578355230349 ], [ -156.545380303060568, 20.536120023377592 ], [ -156.544805275278605, 20.536111876851646 ], [ -156.545004191778077, 20.535754912390797 ], [ -156.545388950157587, 20.535578355230349 ] ] ] } },
{ "type": "Feature", "properties": { "ID": 72, "GRIDCODE": 2 }, "geometry": { "type": "Polygon", "coordinates": [ [ [ -156.546547645293884, 20.535052973451041 ], [ -156.5464199809349, 20.535204073718337 ], [ -156.545388950157587, 20.535578355230349 ], [ -156.545397596975533, 20.535036687045821 ], [ -156.546547645293884, 20.535052973451041 ] ] ] } },
{ "type": "Feature", "properties": { "ID": 73, "GRIDCODE": 2 }, "geometry": { "type": "Polygon", "coordinates": [ [ [ -156.54741882173164, 20.534523514217707 ], [ -156.547186372376302, 20.534940853188889 ], [ -156.546547645293884, 20.535052973451041 ], [ -156.546780096491062, 20.534635635535373 ], [ -156.54741882173164, 20.534523514217707 ] ] ] } },
{ "type": "Feature", "properties": { "ID": 74, "GRIDCODE": 2 }, "geometry": { "type": "Polygon", "coordinates": [ [ [ -156.541093587422438, 20.534433878733878 ], [ -156.541538930206627, 20.534560697832443 ], [ -156.541865824232616, 20.535702484800872 ], [ -156.544225922101845, 20.536374562247566 ], [ -156.5439975427268, 20.53671219292632 ], [ -156.541516332071012, 20.535886279999609 ], [ -156.541265614541061, 20.53481051938023 ], [ -156.541093587422438, 20.534433878733878 ] ] ] } },
{ "type": "Feature", "properties": { "ID": 75, "GRIDCODE": 2 }, "geometry": { "type": "Polygon", "coordinates": [ [ [ -156.540814739999149, 20.533888132532777 ], [ -156.541102248836125, 20.53389221222929 ], [ -156.541093587422438, 20.534433878733878 ], [ -156.540806077575212, 20.534429798920282 ], [ -156.540814739999149, 20.533888132532777 ] ] ] } },
{ "type": "Feature", "properties": { "ID": 76, "GRIDCODE": 2 }, "geometry": { "type": "Polygon", "coordinates": [ [ [ -156.534197713264206, 20.534065000006741 ], [ -156.533848800003113, 20.533967312124187 ], [ -156.53410445836991, 20.533733389177215 ], [ -156.534197713264206, 20.534065000006741 ] ] ] } },
{ "type": "Feature", "properties": { "ID": 77, "GRIDCODE": 2 }, "geometry": { "type": "Polygon", "coordinates": [ [ [ -156.548581820576715, 20.533727282499047 ], [ -156.548382336673939, 20.53408530225861 ], [ -156.54741882173164, 20.534523514217707 ], [ -156.547583776505093, 20.533953502194294 ], [ -156.548581820576715, 20.533727282499047 ] ] ] } },
{ "type": "Feature", "properties": { "ID": 78, "GRIDCODE": 2 }, "geometry": { "type": "Polygon", "coordinates": [ [ [ -156.540814739999149, 20.533888132532777 ], [ -156.53690798187904, 20.533945742076913 ], [ -156.534426664267443, 20.534375790691367 ], [ -156.534197713264206, 20.534065000006741 ], [ -156.53663753071919, 20.533683305194128 ], [ -156.540458602422603, 20.533486789153283 ], [ -156.540814739999149, 20.533888132532777 ] ] ] } },
{ "type": "Feature", "properties": { "ID": 79, "GRIDCODE": 2 }, "geometry": { "type": "Polygon", "coordinates": [ [ [ -156.533635729214467, 20.533244321949752 ], [ -156.533984640701448, 20.533342010088095 ], [ -156.533728982892256, 20.53357593291544 ], [ -156.533635729214467, 20.533244321949752 ] ] ] } },
{ "type": "Feature", "properties": { "ID": 80, "GRIDCODE": 2 }, "geometry": { "type": "Polygon", "coordinates": [ [ [ -156.53365744648633, 20.531890163052871 ], [ -156.534048388976544, 20.532116091709433 ], [ -156.533766132896432, 20.533063112960921 ], [ -156.53365744648633, 20.531890163052871 ] ] ] } },
{ "type": "Feature", "properties": { "ID": 81, "GRIDCODE": 2 }, "geometry": { "type": "Polygon", "coordinates": [ [ [ -156.555404578128844, 20.538699803942393 ], [ -156.554990983728032, 20.53834092927141 ], [ -156.554945098819928, 20.537376402620808 ], [ -156.555314055966392, 20.535861782161586 ], [ -156.55584786505139, 20.533374758757681 ], [ -156.556637049131609, 20.531816985444991 ], [ -156.556866703997514, 20.532528285758847 ], [ -156.555707289902386, 20.535434132494952 ], [ -156.555404578128844, 20.538699803942393 ] ] ] } },
{ "type": "Feature", "properties": { "ID": 82, "GRIDCODE": 2 }, "geometry": { "type": "Polygon", "coordinates": [ [ [ -156.554074679743593, 20.531908618566202 ], [ -156.553863263998636, 20.532187907007426 ], [ -156.552796117115577, 20.532592678433069 ], [ -156.550273687558274, 20.533155843814662 ], [ -156.549041240529249, 20.533623200128446 ], [ -156.548581820576715, 20.533727282499047 ], [ -156.549127439781415, 20.533148499468876 ], [ -156.553343246373487, 20.532023689881246 ], [ -156.554074679743593, 20.531908618566202 ] ] ] } },
{ "type": "Feature", "properties": { "ID": 83, "GRIDCODE": 2 }, "geometry": { "type": "Polygon", "coordinates": [ [ [ -156.55494150976071, 20.53164995300779 ], [ -156.554937203960947, 20.531920789150455 ], [ -156.554074679743593, 20.531908618566202 ], [ -156.554078987058574, 20.531637782598189 ], [ -156.55494150976071, 20.53164995300779 ] ] ] } },
{ "type": "Feature", "properties": { "ID": 84, "GRIDCODE": 2 }, "geometry": { "type": "Polygon", "coordinates": [ [ [ -156.55494150976071, 20.53164995300779 ], [ -156.555045578290475, 20.531463195416357 ], [ -156.555909881469745, 20.53108054829201 ], [ -156.555708894425806, 20.531569772923735 ], [ -156.55494150976071, 20.53164995300779 ] ] ] } },
{ "type": "Feature", "properties": { "ID": 85, "GRIDCODE": 2 }, "geometry": { "type": "Polygon", "coordinates": [ [ [ -156.533099816189775, 20.530798652442112 ], [ -156.533448721836265, 20.530896341084933 ], [ -156.533193067799175, 20.531130263512104 ], [ -156.533099816189775, 20.530798652442112 ] ] ] } },
{ "type": "Feature", "properties": { "ID": 86, "GRIDCODE": 2 }, "geometry": { "type": "Polygon", "coordinates": [ [ [ -156.532829692362782, 20.529711233335597 ], [ -156.533178595385095, 20.529808922264728 ], [ -156.532922942981997, 20.530042844462077 ], [ -156.532829692362782, 20.529711233335597 ] ] ] } },
{ "type": "Feature", "properties": { "ID": 87, "GRIDCODE": 2 }, "geometry": { "type": "Polygon", "coordinates": [ [ [ -156.532568260298859, 20.528082150695585 ], [ -156.532917159514398, 20.5281798397742 ], [ -156.53266150975287, 20.528413761861017 ], [ -156.532568260298859, 20.528082150695585 ] ] ] } },
{ "type": "Feature", "properties": { "ID": 88, "GRIDCODE": 2 }, "geometry": { "type": "Polygon", "coordinates": [ [ [ -156.532868787621823, 20.527273747646991 ], [ -156.533217685321517, 20.527371435960728 ], [ -156.532962037452762, 20.527605358694679 ], [ -156.532868787621823, 20.527273747646991 ] ] ] } },
{ "type": "Feature", "properties": { "ID": 89, "GRIDCODE": 2 }, "geometry": { "type": "Polygon", "coordinates": [ [ [ -156.533173654206223, 20.526194511809763 ], [ -156.533544923804385, 20.526350452917598 ], [ -156.533278895019322, 20.526811604725825 ], [ -156.533173654206223, 20.526194511809763 ] ] ] } },
{ "type": "Feature", "properties": { "ID": 90, "GRIDCODE": 2 }, "geometry": { "type": "Polygon", "coordinates": [ [ [ -156.533469831496745, 20.52565693881359 ], [ -156.533818726164981, 20.525754625597703 ], [ -156.5335630820814, 20.525988549625808 ], [ -156.533469831496745, 20.52565693881359 ] ] ] } },
{ "type": "Feature", "properties": { "ID": 91, "GRIDCODE": 2 }, "geometry": { "type": "Polygon", "coordinates": [ [ [ -156.534928988895331, 20.524323224225419 ], [ -156.535207369953923, 20.524510247473348 ], [ -156.535483897234315, 20.525759656627876 ], [ -156.534982744443028, 20.525858084517228 ], [ -156.534114809555348, 20.525538074948404 ], [ -156.534680466457559, 20.525181974271515 ], [ -156.534928988895331, 20.524323224225419 ] ] ] } },
{ "type": "Feature", "properties": { "ID": 92, "GRIDCODE": 2 }, "geometry": { "type": "Polygon", "coordinates": [ [ [ -156.535795795933524, 20.524064653230667 ], [ -156.535691963251907, 20.524393461797892 ], [ -156.535443933374125, 20.524152374504467 ], [ -156.535795795933524, 20.524064653230667 ] ] ] } },
{ "type": "Feature", "properties": { "ID": 93, "GRIDCODE": 2 }, "geometry": { "type": "Polygon", "coordinates": [ [ [ -156.535795795933524, 20.524064653230667 ], [ -156.535899628097326, 20.523735844544657 ], [ -156.536147658167579, 20.523976931200284 ], [ -156.535795795933524, 20.524064653230667 ] ] ] } },
{ "type": "Feature", "properties": { "ID": 94, "GRIDCODE": 2 }, "geometry": { "type": "Polygon", "coordinates": [ [ [ -156.599345318989378, 20.524143592235369 ], [ -156.599694267209827, 20.52424115017698 ], [ -156.599438715173221, 20.524475181801961 ], [ -156.599345318989378, 20.524143592235369 ] ] ] } },
{ "type": "Feature", "properties": { "ID": 95, "GRIDCODE": 2 }, "geometry": { "type": "Polygon", "coordinates": [ [ [ -156.536958760713759, 20.523268496784848 ], [ -156.537618170855012, 20.523387650016016 ], [ -156.537109354054337, 20.523614545036057 ], [ -156.536958760713759, 20.523268496784848 ] ] ] } },
{ "type": "Feature", "properties": { "ID": 96, "GRIDCODE": 2 }, "geometry": { "type": "Polygon", "coordinates": [ [ [ -156.597624530380131, 20.523848852213415 ], [ -156.598013784629643, 20.524026735040096 ], [ -156.599160044056333, 20.524283092378074 ], [ -156.597760053014213, 20.524467802945761 ], [ -156.597624530380131, 20.523848852213415 ] ] ] } },
{ "type": "Feature", "properties": { "ID": 97, "GRIDCODE": 2 }, "geometry": { "type": "Polygon", "coordinates": [ [ [ -156.600216277372112, 20.523613842359655 ], [ -156.600112578552682, 20.523942703420662 ], [ -156.599864437845241, 20.523701698311672 ], [ -156.600216277372112, 20.523613842359655 ] ] ] } },
{ "type": "Feature", "properties": { "ID": 98, "GRIDCODE": 2 }, "geometry": { "type": "Polygon", "coordinates": [ [ [ -156.597341257563556, 20.52357402317444 ], [ -156.597628759237239, 20.523578007233834 ], [ -156.597624530380131, 20.523848852213415 ], [ -156.597337028201565, 20.523844868096834 ], [ -156.597341257563556, 20.52357402317444 ] ] ] } },
{ "type": "Feature", "properties": { "ID": 99, "GRIDCODE": 2 }, "geometry": { "type": "Polygon", "coordinates": [ [ [ -156.538404868014425, 20.522747246294873 ], [ -156.538753760566806, 20.522844922813544 ], [ -156.538498128506404, 20.523078855454855 ], [ -156.538404868014425, 20.522747246294873 ] ] ] } },
{ "type": "Feature", "properties": { "ID": 100, "GRIDCODE": 2 }, "geometry": { "type": "Polygon", "coordinates": [ [ [ -156.60050800346815, 20.523346976101127 ], [ -156.600503779728257, 20.523617821661542 ], [ -156.600216277372112, 20.523613842359655 ], [ -156.600220501616946, 20.523342996856353 ], [ -156.60050800346815, 20.523346976101127 ] ] ] } },
{ "type": "Feature", "properties": { "ID": 101, "GRIDCODE": 2 }, "geometry": { "type": "Polygon", "coordinates": [ [ [ -156.597057985756749, 20.523299193764839 ], [ -156.597345486857279, 20.52330317824277 ], [ -156.597341257563556, 20.52357402317444 ], [ -156.597053755958143, 20.523570038639306 ], [ -156.597057985756749, 20.523299193764839 ] ] ] } },
{ "type": "Feature", "properties": { "ID": 102, "GRIDCODE": 2 }, "geometry": { "type": "Polygon", "coordinates": [ [ [ -156.60050800346815, 20.523346976101127 ], [ -156.600611700923793, 20.523018114659056 ], [ -156.600859841938728, 20.523259118721533 ], [ -156.60050800346815, 20.523346976101127 ] ] ] } },
{ "type": "Feature", "properties": { "ID": 103, "GRIDCODE": 2 }, "geometry": { "type": "Polygon", "coordinates": [ [ [ -156.596487214500627, 20.523020378612408 ], [ -156.597062215487057, 20.523028348881084 ], [ -156.597057985756749, 20.523299193764839 ], [ -156.596482983760552, 20.52329122338174 ], [ -156.596487214500627, 20.523020378612408 ] ] ] } },
{ "type": "Feature", "properties": { "ID": 104, "GRIDCODE": 2 }, "geometry": { "type": "Polygon", "coordinates": [ [ [ -156.596203945286533, 20.52274554804308 ], [ -156.596491445172376, 20.522749533833792 ], [ -156.596487214500627, 20.523020378612408 ], [ -156.596199714109872, 20.523016392764479 ], [ -156.596203945286533, 20.52274554804308 ] ] ] } },
{ "type": "Feature", "properties": { "ID": 105, "GRIDCODE": 2 }, "geometry": { "type": "Polygon", "coordinates": [ [ [ -156.600808174683465, 20.522538417961854 ], [ -156.600704478073254, 20.522867279611891 ], [ -156.600456337890648, 20.522626275403798 ], [ -156.600808174683465, 20.522538417961854 ] ] ] } },
{ "type": "Feature", "properties": { "ID": 106, "GRIDCODE": 2 }, "geometry": { "type": "Polygon", "coordinates": [ [ [ -156.59592067708212, 20.522470717103189 ], [ -156.596208176394839, 20.522474703312398 ], [ -156.596203945286533, 20.52274554804308 ], [ -156.595916445468958, 20.522741561776638 ], [ -156.59592067708212, 20.522470717103189 ] ] ] } },
{ "type": "Feature", "properties": { "ID": 107, "GRIDCODE": 2 }, "geometry": { "type": "Polygon", "coordinates": [ [ [ -156.601099897613835, 20.522271550372032 ], [ -156.601095675156415, 20.522542396083807 ], [ -156.600808174683465, 20.522538417961854 ], [ -156.60081239764574, 20.5222675723072 ], [ -156.601099897613835, 20.522271550372032 ] ] ] } },
{ "type": "Feature", "properties": { "ID": 108, "GRIDCODE": 2 }, "geometry": { "type": "Polygon", "coordinates": [ [ [ -156.540151442171606, 20.521417561459394 ], [ -156.540500333315691, 20.521515234279313 ], [ -156.540244706061173, 20.521749170026098 ], [ -156.540151442171606, 20.521417561459394 ] ] ] } },
{ "type": "Feature", "properties": { "ID": 109, "GRIDCODE": 2 }, "geometry": { "type": "Polygon", "coordinates": [ [ [ -156.601391619534468, 20.522004682182995 ], [ -156.601387397650115, 20.522275527961153 ], [ -156.601099897613835, 20.522271550372032 ], [ -156.601104120003043, 20.522000704650981 ], [ -156.601391619534468, 20.522004682182995 ] ] ] } },
{ "type": "Feature", "properties": { "ID": 110, "GRIDCODE": 2 }, "geometry": { "type": "Polygon", "coordinates": [ [ [ -156.601391619534468, 20.522004682182995 ], [ -156.601495313932645, 20.521675819888376 ], [ -156.601743454542657, 20.521916822641504 ], [ -156.601391619534468, 20.522004682182995 ] ] ] } },
{ "type": "Feature", "properties": { "ID": 111, "GRIDCODE": 2 }, "geometry": { "type": "Polygon", "coordinates": [ [ [ -156.541026882049124, 20.520617294386906 ], [ -156.541375772193391, 20.520714965323538 ], [ -156.541120147593375, 20.52094890265256 ], [ -156.541026882049124, 20.520617294386906 ] ] ] } },
{ "type": "Feature", "properties": { "ID": 112, "GRIDCODE": 2 }, "geometry": { "type": "Polygon", "coordinates": [ [ [ -156.601404284778539, 20.521192144792842 ], [ -156.601300590633542, 20.521521007062713 ], [ -156.601052451358242, 20.521280003797319 ], [ -156.601404284778539, 20.521192144792842 ] ] ] } },
{ "type": "Feature", "properties": { "ID": 113, "GRIDCODE": 2 }, "geometry": { "type": "Polygon", "coordinates": [ [ [ -156.595366840751126, 20.521108520323427 ], [ -156.595556334827165, 20.521202154783726 ], [ -156.59573541311957, 20.522106238228627 ], [ -156.59592067708212, 20.522470717103189 ], [ -156.595345678661744, 20.522462743257616 ], [ -156.595366840751126, 20.521108520323427 ] ] ] } },
{ "type": "Feature", "properties": { "ID": 114, "GRIDCODE": 2 }, "geometry": { "type": "Polygon", "coordinates": [ [ [ -156.601404284778539, 20.521192144792842 ], [ -156.601543344099667, 20.520287835526407 ], [ -156.601776906210603, 20.52101369793953 ], [ -156.601404284778539, 20.521192144792842 ] ] ] } },
{ "type": "Feature", "properties": { "ID": 115, "GRIDCODE": 2 }, "geometry": { "type": "Polygon", "coordinates": [ [ [ -156.595366840751126, 20.521108520323427 ], [ -156.594975818616007, 20.520882723595737 ], [ -156.595257677927975, 20.519935561234892 ], [ -156.595366840751126, 20.521108520323427 ] ] ] } },
{ "type": "Feature", "properties": { "ID": 116, "GRIDCODE": 2 }, "geometry": { "type": "Polygon", "coordinates": [ [ [ -156.541623482977116, 20.519271278566347 ], [ -156.541994747307285, 20.519427200844252 ], [ -156.541728756749023, 20.519888369763212 ], [ -156.541623482977116, 20.519271278566347 ] ] ] } },
{ "type": "Feature", "properties": { "ID": 117, "GRIDCODE": 2 }, "geometry": { "type": "Polygon", "coordinates": [ [ [ -156.602287879042876, 20.519849843995292 ], [ -156.602122361923449, 20.520199677934716 ], [ -156.601632866370153, 20.519949252960163 ], [ -156.602287879042876, 20.519849843995292 ] ] ] } },
{ "type": "Feature", "properties": { "ID": 118, "GRIDCODE": 2 }, "geometry": { "type": "Polygon", "coordinates": [ [ [ -156.602287879042876, 20.519849843995292 ], [ -156.602391569615605, 20.519520980755654 ], [ -156.602639708673252, 20.51976198207398 ], [ -156.602287879042876, 20.519849843995292 ] ] ] } },
{ "type": "Feature", "properties": { "ID": 119, "GRIDCODE": 2 }, "geometry": { "type": "Polygon", "coordinates": [ [ [ -156.595400696540622, 20.518941763145939 ], [ -156.595772027684916, 20.519097575562089 ], [ -156.59550618978875, 20.519558843320201 ], [ -156.595400696540622, 20.518941763145939 ] ] ] } },
{ "type": "Feature", "properties": { "ID": 120, "GRIDCODE": 2 }, "geometry": { "type": "Polygon", "coordinates": [ [ [ -156.558314725283481, 20.518423527447862 ], [ -156.55814911475386, 20.518773309558078 ], [ -156.557659709125403, 20.518522767923283 ], [ -156.558314725283481, 20.518423527447862 ] ] ] } },
{ "type": "Feature", "properties": { "ID": 121, "GRIDCODE": 2 }, "geometry": { "type": "Polygon", "coordinates": [ [ [ -156.555727374825494, 20.518387076130828 ], [ -156.556386787166673, 20.518506157322363 ], [ -156.555878008752558, 20.518733112037971 ], [ -156.555727374825494, 20.518387076130828 ] ] ] } },
{ "type": "Feature", "properties": { "ID": 122, "GRIDCODE": 2 }, "geometry": { "type": "Polygon", "coordinates": [ [ [ -156.541645113896948, 20.517917109331691 ], [ -156.542028630317077, 20.51811447416739 ], [ -156.541753825088847, 20.518811229007763 ], [ -156.541645113896948, 20.517917109331691 ] ] ] } },
{ "type": "Feature", "properties": { "ID": 123, "GRIDCODE": 2 }, "geometry": { "type": "Polygon", "coordinates": [ [ [ -156.542516200524148, 20.517387665670935 ], [ -156.542887461648832, 20.517543585696089 ], [ -156.542621477517002, 20.51800475667973 ], [ -156.542516200524148, 20.517387665670935 ] ] ] } },
{ "type": "Feature", "properties": { "ID": 124, "GRIDCODE": 2 }, "geometry": { "type": "Polygon", "coordinates": [ [ [ -156.60318411057375, 20.517694998193058 ], [ -156.603080423310672, 20.518023862260144 ], [ -156.602832285992577, 20.517782861738631 ], [ -156.60318411057375, 20.517694998193058 ] ] ] } },
{ "type": "Feature", "properties": { "ID": 125, "GRIDCODE": 2 }, "geometry": { "type": "Polygon", "coordinates": [ [ [ -156.558314725283481, 20.518423527447862 ], [ -156.558468991715785, 20.516965523461895 ], [ -156.558705293406575, 20.518195694626094 ], [ -156.558314725283481, 20.518423527447862 ] ] ] } },
{ "type": "Feature", "properties": { "ID": 126, "GRIDCODE": 2 }, "geometry": { "type": "Polygon", "coordinates": [ [ [ -156.603475819698048, 20.517428125146797 ], [ -156.603471602505522, 20.517698971482208 ], [ -156.60318411057375, 20.517694998193058 ], [ -156.60318832827096, 20.517424151914689 ], [ -156.603475819698048, 20.517428125146797 ] ] ] } },
{ "type": "Feature", "properties": { "ID": 127, "GRIDCODE": 2 }, "geometry": { "type": "Polygon", "coordinates": [ [ [ -156.61354646134248, 20.517025191955469 ], [ -156.613895406108639, 20.517122720656271 ], [ -156.61363988639539, 20.517356776714546 ], [ -156.61354646134248, 20.517025191955469 ] ] ] } },
{ "type": "Feature", "properties": { "ID": 128, "GRIDCODE": 2 }, "geometry": { "type": "Polygon", "coordinates": [ [ [ -156.558924056990037, 20.516264923334116 ], [ -156.558797670192831, 20.516886156441299 ], [ -156.558556757819332, 20.516406974144509 ], [ -156.558924056990037, 20.516264923334116 ] ] ] } },
{ "type": "Feature", "properties": { "ID": 129, "GRIDCODE": 2 }, "geometry": { "type": "Polygon", "coordinates": [ [ [ -156.550870340454793, 20.516422268206394 ], [ -156.550974134378919, 20.516093446425163 ], [ -156.551222179598284, 20.516334512835517 ], [ -156.550870340454793, 20.516422268206394 ] ] ] } },
{ "type": "Feature", "properties": { "ID": 130, "GRIDCODE": 2 }, "geometry": { "type": "Polygon", "coordinates": [ [ [ -156.610675740802549, 20.516714758044067 ], [ -156.611335212178318, 20.516833633627769 ], [ -156.610826502549173, 20.51706075840471 ], [ -156.610675740802549, 20.516714758044067 ] ] ] } },
{ "type": "Feature", "properties": { "ID": 131, "GRIDCODE": 2 }, "geometry": { "type": "Polygon", "coordinates": [ [ [ -156.567840243587256, 20.516119299911153 ], [ -156.568189147029614, 20.516216917579357 ], [ -156.567933566983072, 20.516450899462711 ], [ -156.567840243587256, 20.516119299911153 ] ] ] } },
{ "type": "Feature", "properties": { "ID": 132, "GRIDCODE": 2 }, "geometry": { "type": "Polygon", "coordinates": [ [ [ -156.56611535619237, 20.516095100603902 ], [ -156.566464258092878, 20.516192721630404 ], [ -156.566208675754439, 20.516426700709765 ], [ -156.56611535619237, 20.516095100603902 ] ] ] } },
{ "type": "Feature", "properties": { "ID": 133, "GRIDCODE": 2 }, "geometry": { "type": "Polygon", "coordinates": [ [ [ -156.559215831527951, 20.51599813218979 ], [ -156.559211536822829, 20.516268969686678 ], [ -156.558924056990037, 20.516264923334116 ], [ -156.558928352199729, 20.515994085895336 ], [ -156.559215831527951, 20.51599813218979 ] ] ] } },
{ "type": "Feature", "properties": { "ID": 134, "GRIDCODE": 2 }, "geometry": { "type": "Polygon", "coordinates": [ [ [ -156.550870340454793, 20.516422268206394 ], [ -156.550420327841636, 20.517085481812401 ], [ -156.550011548557592, 20.517892396550437 ], [ -156.550217847724412, 20.515745863428556 ], [ -156.550720492603688, 20.516292375449513 ], [ -156.550870340454793, 20.516422268206394 ] ] ] } },
{ "type": "Feature", "properties": { "ID": 135, "GRIDCODE": 2 }, "geometry": { "type": "Polygon", "coordinates": [ [ [ -156.611542418837644, 20.516455790737293 ], [ -156.613382756690271, 20.516607981837822 ], [ -156.611795245539071, 20.51681166188558 ], [ -156.611542418837644, 20.516455790737293 ] ] ] } },
{ "type": "Feature", "properties": { "ID": 136, "GRIDCODE": 2 }, "geometry": { "type": "Polygon", "coordinates": [ [ [ -156.603780177263502, 20.51634871224066 ], [ -156.603763311193234, 20.517432097903296 ], [ -156.603475819698048, 20.517428125146797 ], [ -156.60349268778711, 20.516344739712334 ], [ -156.603780177263502, 20.51634871224066 ] ] ] } },
{ "type": "Feature", "properties": { "ID": 137, "GRIDCODE": 2 }, "geometry": { "type": "Polygon", "coordinates": [ [ [ -156.565257197467389, 20.515812155806014 ], [ -156.565606098005503, 20.515909778444183 ], [ -156.565350515023937, 20.516143756180394 ], [ -156.565257197467389, 20.515812155806014 ] ] ] } },
{ "type": "Feature", "properties": { "ID": 138, "GRIDCODE": 2 }, "geometry": { "type": "Polygon", "coordinates": [ [ [ -156.542516200524148, 20.517387665670935 ], [ -156.541778358793266, 20.517029065103578 ], [ -156.541645113896948, 20.517917109331691 ], [ -156.541236945943524, 20.517575481150196 ], [ -156.541202698042213, 20.517082675365472 ], [ -156.541554651427361, 20.516038739969982 ], [ -156.542718451522063, 20.51544836514395 ], [ -156.542516200524148, 20.517387665670935 ] ] ] } },
{ "type": "Feature", "properties": { "ID": 139, "GRIDCODE": 2 }, "geometry": { "type": "Polygon", "coordinates": [ [ [ -156.645471011119554, 20.516648840029671 ], [ -156.645367412451151, 20.516977738382639 ], [ -156.6451192036686, 20.516736792064115 ], [ -156.645471011119554, 20.516648840029671 ] ] ] } },
{ "type": "Feature", "properties": { "ID": 140, "GRIDCODE": 2 }, "geometry": { "type": "Polygon", "coordinates": [ [ [ -156.614421533363071, 20.516224512912189 ], [ -156.614770477119635, 20.51632203973427 ], [ -156.614514960060802, 20.516556097365452 ], [ -156.614421533363071, 20.516224512912189 ] ] ] } },
{ "type": "Feature", "properties": { "ID": 141, "GRIDCODE": 2 }, "geometry": { "type": "Polygon", "coordinates": [ [ [ -156.609821677732896, 20.516161177842186 ], [ -156.61017061740236, 20.516258713626826 ], [ -156.609915094212937, 20.516492763794869 ], [ -156.609821677732896, 20.516161177842186 ] ] ] } },
{ "type": "Feature", "properties": { "ID": 142, "GRIDCODE": 2 }, "geometry": { "type": "Polygon", "coordinates": [ [ [ -156.603780177263502, 20.51634871224066 ], [ -156.603883861547274, 20.516019847436738 ], [ -156.604131998145107, 20.516260846378163 ], [ -156.603780177263502, 20.51634871224066 ] ] ] } },
{ "type": "Feature", "properties": { "ID": 143, "GRIDCODE": 2 }, "geometry": { "type": "Polygon", "coordinates": [ [ [ -156.568998724788116, 20.515593744307726 ], [ -156.569347628075491, 20.515691359602311 ], [ -156.569092050562261, 20.515925343472578 ], [ -156.568998724788116, 20.515593744307726 ] ] ] } },
{ "type": "Feature", "properties": { "ID": 144, "GRIDCODE": 2 }, "geometry": { "type": "Polygon", "coordinates": [ [ [ -156.564399042323544, 20.515529207066976 ], [ -156.564747941499206, 20.515626831316741 ], [ -156.564492357874599, 20.515860807709792 ], [ -156.564399042323544, 20.515529207066976 ] ] ] } },
{ "type": "Feature", "properties": { "ID": 145, "GRIDCODE": 2 }, "geometry": { "type": "Polygon", "coordinates": [ [ [ -156.559215831527951, 20.51599813218979 ], [ -156.55952346603226, 20.51563420967689 ], [ -156.560787057350865, 20.515476326122492 ], [ -156.560140407294227, 20.515863524142407 ], [ -156.559215831527951, 20.51599813218979 ] ] ] } },
{ "type": "Feature", "properties": { "ID": 146, "GRIDCODE": 2 }, "geometry": { "type": "Polygon", "coordinates": [ [ [ -156.615288204318631, 20.515965525959437 ], [ -156.615184543713667, 20.516294400003549 ], [ -156.614936387983903, 20.516053415175435 ], [ -156.615288204318631, 20.515965525959437 ] ] ] } },
{ "type": "Feature", "properties": { "ID": 147, "GRIDCODE": 2 }, "geometry": { "type": "Polygon", "coordinates": [ [ [ -156.57072788458629, 20.51534707454627 ], [ -156.571076788823518, 20.515444686415186 ], [ -156.570821214105109, 20.515678673147839 ], [ -156.57072788458629, 20.51534707454627 ] ] ] } },
{ "type": "Feature", "properties": { "ID": 148, "GRIDCODE": 2 }, "geometry": { "type": "Polygon", "coordinates": [ [ [ -156.563540890760976, 20.515246254386987 ], [ -156.56388978857413, 20.515343880248274 ], [ -156.563634204306595, 20.515577855298151 ], [ -156.563540890760976, 20.515246254386987 ] ] ] } },
{ "type": "Feature", "properties": { "ID": 149, "GRIDCODE": 2 }, "geometry": { "type": "Polygon", "coordinates": [ [ [ -156.56267845440712, 20.515234135997055 ], [ -156.563027351448994, 20.515331763537301 ], [ -156.562771766035866, 20.51556573718501 ], [ -156.56267845440712, 20.515234135997055 ] ] ] } },
{ "type": "Feature", "properties": { "ID": 150, "GRIDCODE": 2 }, "geometry": { "type": "Polygon", "coordinates": [ [ [ -156.561816018676609, 20.515222013327701 ], [ -156.562475425072989, 20.515341070489509 ], [ -156.561966664617074, 20.515568045125057 ], [ -156.561816018676609, 20.515222013327701 ] ] ] } },
{ "type": "Feature", "properties": { "ID": 151, "GRIDCODE": 2 }, "geometry": { "type": "Polygon", "coordinates": [ [ [ -156.646054292946218, 20.516114936093309 ], [ -156.646713804009948, 20.516233679448458 ], [ -156.646205137254327, 20.516460913430265 ], [ -156.646054292946218, 20.516114936093309 ] ] ] } },
{ "type": "Feature", "properties": { "ID": 152, "GRIDCODE": 2 }, "geometry": { "type": "Polygon", "coordinates": [ [ [ -156.615288204318631, 20.515965525959437 ], [ -156.615391864408991, 20.515636651798228 ], [ -156.615640020325003, 20.515877635988591 ], [ -156.615288204318631, 20.515965525959437 ] ] ] } },
{ "type": "Feature", "properties": { "ID": 153, "GRIDCODE": 2 }, "geometry": { "type": "Polygon", "coordinates": [ [ [ -156.604367802230172, 20.515544116184 ], [ -156.604264119383316, 20.515872981428263 ], [ -156.604015983115318, 20.515631982707728 ], [ -156.604367802230172, 20.515544116184 ] ] ] } },
{ "type": "Feature", "properties": { "ID": 154, "GRIDCODE": 2 }, "geometry": { "type": "Polygon", "coordinates": [ [ [ -156.646920927438828, 20.515855785631356 ], [ -156.647269898212613, 20.515953248938889 ], [ -156.647014426009036, 20.516187359409347 ], [ -156.646920927438828, 20.515855785631356 ] ] ] } },
{ "type": "Feature", "properties": { "ID": 155, "GRIDCODE": 2 }, "geometry": { "type": "Polygon", "coordinates": [ [ [ -156.645471011119554, 20.516648840029671 ], [ -156.645609808116177, 20.515744469126314 ], [ -156.645843580292564, 20.516470292208837 ], [ -156.645471011119554, 20.516648840029671 ] ] ] } },
{ "type": "Feature", "properties": { "ID": 156, "GRIDCODE": 2 }, "geometry": { "type": "Polygon", "coordinates": [ [ [ -156.617021538771553, 20.515447538163873 ], [ -156.617370483050252, 20.515545059746319 ], [ -156.61711497094521, 20.515779121748327 ], [ -156.617021538771553, 20.515447538163873 ] ] ] } },
{ "type": "Feature", "properties": { "ID": 157, "GRIDCODE": 2 }, "geometry": { "type": "Polygon", "coordinates": [ [ [ -156.615871576852271, 20.515431733612242 ], [ -156.616831331564839, 20.515562652565066 ], [ -156.616061022076963, 20.515782891869204 ], [ -156.615871576852271, 20.515431733612242 ] ] ] } },
{ "type": "Feature", "properties": { "ID": 158, "GRIDCODE": 2 }, "geometry": { "type": "Polygon", "coordinates": [ [ [ -156.604659505025865, 20.51527724047676 ], [ -156.604655290396778, 20.515548087114531 ], [ -156.604367802230172, 20.515544116184 ], [ -156.604372017363914, 20.515273269603249 ], [ -156.604659505025865, 20.51527724047676 ] ] ] } },
{ "type": "Feature", "properties": { "ID": 159, "GRIDCODE": 2 }, "geometry": { "type": "Polygon", "coordinates": [ [ [ -156.647787559438029, 20.51559663054352 ], [ -156.647683966527694, 20.515925530869126 ], [ -156.647435755269271, 20.515684587654516 ], [ -156.647787559438029, 20.51559663054352 ] ] ] } },
{ "type": "Feature", "properties": { "ID": 160, "GRIDCODE": 2 }, "geometry": { "type": "Polygon", "coordinates": [ [ [ -156.604951206812217, 20.51501036417066 ], [ -156.604946992755856, 20.515281210874718 ], [ -156.604659505025865, 20.51527724047676 ], [ -156.604663719586881, 20.515006393829708 ], [ -156.604951206812217, 20.51501036417066 ] ] ] } },
{ "type": "Feature", "properties": { "ID": 161, "GRIDCODE": 2 }, "geometry": { "type": "Polygon", "coordinates": [ [ [ -156.648366691971745, 20.515333572832603 ], [ -156.648362554190669, 20.515604428077044 ], [ -156.647787559438029, 20.51559663054352 ], [ -156.647791698228531, 20.515325775411068 ], [ -156.648366691971745, 20.515333572832603 ] ] ] } },
{ "type": "Feature", "properties": { "ID": 162, "GRIDCODE": 2 }, "geometry": { "type": "Polygon", "coordinates": [ [ [ -156.619617333619772, 20.514941371369346 ], [ -156.620872383303151, 20.51508015669571 ], [ -156.619835871154947, 20.515300333093709 ], [ -156.619617333619772, 20.514941371369346 ] ] ] } },
{ "type": "Feature", "properties": { "ID": 163, "GRIDCODE": 2 }, "geometry": { "type": "Polygon", "coordinates": [ [ [ -156.618467373300859, 20.514925584391612 ], [ -156.618816317671957, 20.515023103041269 ], [ -156.618560808486222, 20.515257167490432 ], [ -156.618467373300859, 20.514925584391612 ] ] ] } },
{ "type": "Feature", "properties": { "ID": 164, "GRIDCODE": 2 }, "geometry": { "type": "Polygon", "coordinates": [ [ [ -156.608980242032715, 20.514795051501071 ], [ -156.609363854348885, 20.514992275203713 ], [ -156.609089349384391, 20.515689168168574 ], [ -156.608980242032715, 20.514795051501071 ] ] ] } },
{ "type": "Feature", "properties": { "ID": 165, "GRIDCODE": 2 }, "geometry": { "type": "Polygon", "coordinates": [ [ [ -156.604951206812217, 20.51501036417066 ], [ -156.605116710893896, 20.514660526147054 ], [ -156.605606197345338, 20.514910940311598 ], [ -156.604951206812217, 20.51501036417066 ] ] ] } },
{ "type": "Feature", "properties": { "ID": 166, "GRIDCODE": 2 }, "geometry": { "type": "Polygon", "coordinates": [ [ [ -156.648658326153111, 20.515066615520315 ], [ -156.648654188943595, 20.515337470829966 ], [ -156.648366691971745, 20.515333572832603 ], [ -156.648370829686002, 20.515062717578932 ], [ -156.648658326153111, 20.515066615520315 ] ] ] } },
{ "type": "Feature", "properties": { "ID": 167, "GRIDCODE": 2 }, "geometry": { "type": "Polygon", "coordinates": [ [ [ -156.621346461282428, 20.514694187607965 ], [ -156.621695407613203, 20.514791700589807 ], [ -156.621439902762177, 20.51502576975934 ], [ -156.621346461282428, 20.514694187607965 ] ] ] } },
{ "type": "Feature", "properties": { "ID": 168, "GRIDCODE": 2 }, "geometry": { "type": "Polygon", "coordinates": [ [ [ -156.605822093777334, 20.514480578562292 ], [ -156.606481549954395, 20.514599471329365 ], [ -156.605972842502752, 20.514826581930762 ], [ -156.605822093777334, 20.514480578562292 ] ] ] } },
{ "type": "Feature", "properties": { "ID": 169, "GRIDCODE": 2 }, "geometry": { "type": "Polygon", "coordinates": [ [ [ -156.649237455421115, 20.514803554545441 ], [ -156.649233319287816, 20.515074409976286 ], [ -156.648658326153111, 20.515066615520315 ], [ -156.648662463295864, 20.514795760201409 ], [ -156.649237455421115, 20.514803554545441 ] ] ] } },
{ "type": "Feature", "properties": { "ID": 170, "GRIDCODE": 2 }, "geometry": { "type": "Polygon", "coordinates": [ [ [ -156.621925625728039, 20.514431222339795 ], [ -156.622274571977073, 20.514528734135411 ], [ -156.622019068394138, 20.514762804295106 ], [ -156.621925625728039, 20.514431222339795 ] ] ] } },
{ "type": "Feature", "properties": { "ID": 171, "GRIDCODE": 2 }, "geometry": { "type": "Polygon", "coordinates": [ [ [ -156.608980242032715, 20.514795051501071 ], [ -156.608608904246921, 20.514639267027402 ], [ -156.608874694930876, 20.514177974188186 ], [ -156.608980242032715, 20.514795051501071 ] ] ] } },
{ "type": "Feature", "properties": { "ID": 172, "GRIDCODE": 2 }, "geometry": { "type": "Polygon", "coordinates": [ [ [ -156.606976250458217, 20.514225601877513 ], [ -156.606872574218755, 20.514554469368466 ], [ -156.606624435343264, 20.514313474156122 ], [ -156.606976250458217, 20.514225601877513 ] ] ] } },
{ "type": "Feature", "properties": { "ID": 173, "GRIDCODE": 2 }, "geometry": { "type": "Polygon", "coordinates": [ [ [ -156.604676362861539, 20.514193853832918 ], [ -156.60533581646169, 20.51431275075474 ], [ -156.604827108688994, 20.514539857925531 ], [ -156.604676362861539, 20.514193853832918 ] ] ] } },
{ "type": "Feature", "properties": { "ID": 174, "GRIDCODE": 2 }, "geometry": { "type": "Polygon", "coordinates": [ [ [ -156.606976250458217, 20.514225601877513 ], [ -156.607079926182877, 20.513896734269288 ], [ -156.607328065245241, 20.514137728843966 ], [ -156.606976250458217, 20.514225601877513 ] ] ] } },
{ "type": "Feature", "properties": { "ID": 175, "GRIDCODE": 2 }, "geometry": { "type": "Polygon", "coordinates": [ [ [ -156.604680577150305, 20.513923007148765 ], [ -156.604676362861539, 20.514193853832918 ], [ -156.604310129369395, 20.514053343053416 ], [ -156.604680577150305, 20.513923007148765 ] ] ] } },
{ "type": "Feature", "properties": { "ID": 176, "GRIDCODE": 2 }, "geometry": { "type": "Polygon", "coordinates": [ [ [ -156.64953322264077, 20.514265740002738 ], [ -156.64952495158397, 20.514807451004074 ], [ -156.649237455421115, 20.514803554545441 ], [ -156.649245727487312, 20.51426184365603 ], [ -156.64953322264077, 20.514265740002738 ] ] ] } },
{ "type": "Feature", "properties": { "ID": 177, "GRIDCODE": 2 }, "geometry": { "type": "Polygon", "coordinates": [ [ [ -156.6078471268371, 20.513695804916942 ], [ -156.60880685910459, 20.513826766597223 ], [ -156.608036551065624, 20.514046969990574 ], [ -156.6078471268371, 20.513695804916942 ] ] ] } },
{ "type": "Feature", "properties": { "ID": 178, "GRIDCODE": 2 }, "geometry": { "type": "Polygon", "coordinates": [ [ [ -156.604680577150305, 20.513923007148765 ], [ -156.604784257354453, 20.513594141369527 ], [ -156.605032392017563, 20.513835138834946 ], [ -156.604680577150305, 20.513923007148765 ] ] ] } },
{ "type": "Feature", "properties": { "ID": 179, "GRIDCODE": 2 }, "geometry": { "type": "Polygon", "coordinates": [ [ [ -156.574211800534499, 20.513228638032821 ], [ -156.574560703122188, 20.513326242647256 ], [ -156.574305137008622, 20.513560235456236 ], [ -156.574211800534499, 20.513228638032821 ] ] ] } },
{ "type": "Feature", "properties": { "ID": 180, "GRIDCODE": 2 }, "geometry": { "type": "Polygon", "coordinates": [ [ [ -156.645512439068, 20.513940293140706 ], [ -156.645883821359035, 20.514096002035792 ], [ -156.645618135581316, 20.514557362543911 ], [ -156.645512439068, 20.513940293140706 ] ] ] } },
{ "type": "Feature", "properties": { "ID": 181, "GRIDCODE": 2 }, "geometry": { "type": "Polygon", "coordinates": [ [ [ -156.54661860426549, 20.512569625479077 ], [ -156.54772467229094, 20.512709869029305 ], [ -156.548167537318989, 20.513288610144869 ], [ -156.549020329217342, 20.513905286417717 ], [ -156.548758715853381, 20.514922344678833 ], [ -156.548258816746284, 20.515261967426113 ], [ -156.547697184619324, 20.51595124044746 ], [ -156.547850497848117, 20.51514071969682 ], [ -156.548363765213196, 20.5143848898778 ], [ -156.546729598126348, 20.514626196276762 ], [ -156.546107133890956, 20.514516200884238 ], [ -156.544405119584752, 20.514821074257515 ], [ -156.54324590613902, 20.515617343517295 ], [ -156.543246002940265, 20.515347375293306 ], [ -156.543584175308041, 20.514849130458071 ], [ -156.543881935286322, 20.514173330815485 ], [ -156.544630510638427, 20.513664889824121 ], [ -156.545210477575523, 20.512953003289603 ], [ -156.546493449828404, 20.512723144180917 ], [ -156.54661860426549, 20.512569625479077 ] ] ] } },
{ "type": "Feature", "properties": { "ID": 182, "GRIDCODE": 2 }, "geometry": { "type": "Polygon", "coordinates": [ [ [ -156.650116481918957, 20.513731820007333 ], [ -156.649917830292566, 20.514088933005233 ], [ -156.64953322264077, 20.514265740002738 ], [ -156.649541493430405, 20.513724028964429 ], [ -156.650116481918957, 20.513731820007333 ] ] ] } },
{ "type": "Feature", "properties": { "ID": 183, "GRIDCODE": 2 }, "geometry": { "type": "Polygon", "coordinates": [ [ [ -156.624817242022971, 20.513387214627922 ], [ -156.625166188454671, 20.513484720558452 ], [ -156.624910690710834, 20.513718795610586 ], [ -156.624817242022971, 20.513387214627922 ] ] ] } },
{ "type": "Feature", "properties": { "ID": 184, "GRIDCODE": 2 }, "geometry": { "type": "Polygon", "coordinates": [ [ [ -156.573357906854255, 20.512674892905956 ], [ -156.573706807489202, 20.512772499065054 ], [ -156.57345124123421, 20.513006490590133 ], [ -156.573357906854255, 20.512674892905956 ] ] ] } },
{ "type": "Feature", "properties": { "ID": 185, "GRIDCODE": 2 }, "geometry": { "type": "Polygon", "coordinates": [ [ [ -156.650408110044026, 20.513464859114581 ], [ -156.650403976263391, 20.513735714815432 ], [ -156.650116481918957, 20.513731820007333 ], [ -156.650120616204248, 20.513460964362416 ], [ -156.650408110044026, 20.513464859114581 ] ] ] } },
{ "type": "Feature", "properties": { "ID": 186, "GRIDCODE": 2 }, "geometry": { "type": "Polygon", "coordinates": [ [ [ -156.625683884717006, 20.513128172304523 ], [ -156.625580248238236, 20.513457055041016 ], [ -156.625332078654083, 20.51321608387763 ], [ -156.625683884717006, 20.513128172304523 ] ] ] } },
{ "type": "Feature", "properties": { "ID": 187, "GRIDCODE": 2 }, "geometry": { "type": "Polygon", "coordinates": [ [ [ -156.643512422161393, 20.51310039944326 ], [ -156.643408822656028, 20.513429296572969 ], [ -156.643160622366452, 20.513188348215607 ], [ -156.643512422161393, 20.51310039944326 ] ] ] } },
{ "type": "Feature", "properties": { "ID": 188, "GRIDCODE": 2 }, "geometry": { "type": "Polygon", "coordinates": [ [ [ -156.625975549460179, 20.512861256546447 ], [ -156.625971372851922, 20.513132107477606 ], [ -156.625683884717006, 20.513128172304523 ], [ -156.625688061829919, 20.51285732142987 ], [ -156.625975549460179, 20.512861256546447 ] ] ] } },
{ "type": "Feature", "properties": { "ID": 189, "GRIDCODE": 2 }, "geometry": { "type": "Polygon", "coordinates": [ [ [ -156.622813189239139, 20.512817944110953 ], [ -156.623472658747858, 20.512936772825284 ], [ -156.622963976618195, 20.513163936366066 ], [ -156.622813189239139, 20.512817944110953 ] ] ] } },
{ "type": "Feature", "properties": { "ID": 190, "GRIDCODE": 2 }, "geometry": { "type": "Polygon", "coordinates": [ [ [ -156.609588862448419, 20.51263619599613 ], [ -156.609485193071379, 20.512965065763687 ], [ -156.609237051971945, 20.512724074101243 ], [ -156.609588862448419, 20.51263619599613 ] ] ] } },
{ "type": "Feature", "properties": { "ID": 191, "GRIDCODE": 2 }, "geometry": { "type": "Polygon", "coordinates": [ [ [ -156.608726411337045, 20.512624307909419 ], [ -156.609075342291391, 20.512721845074022 ], [ -156.608819824090858, 20.512955894129945 ], [ -156.608726411337045, 20.512624307909419 ] ] ] } },
{ "type": "Feature", "properties": { "ID": 192, "GRIDCODE": 2 }, "geometry": { "type": "Polygon", "coordinates": [ [ [ -156.591477517820778, 20.512385647524845 ], [ -156.591826433426718, 20.512483218285244 ], [ -156.591570892260791, 20.512717239345175 ], [ -156.591477517820778, 20.512385647524845 ] ] ] } },
{ "type": "Feature", "properties": { "ID": 193, "GRIDCODE": 2 }, "geometry": { "type": "Polygon", "coordinates": [ [ [ -156.645512439068, 20.513940293140706 ], [ -156.64531292348849, 20.513820780726409 ], [ -156.644975538533998, 20.512746049057043 ], [ -156.645417934765504, 20.512958677616737 ], [ -156.645512439068, 20.513940293140706 ] ] ] } },
{ "type": "Feature", "properties": { "ID": 194, "GRIDCODE": 2 }, "geometry": { "type": "Polygon", "coordinates": [ [ [ -156.625975549460179, 20.512861256546447 ], [ -156.626079184577492, 20.512532373430513 ], [ -156.626327354465786, 20.512773343547863 ], [ -156.625975549460179, 20.512861256546447 ] ] ] } },
{ "type": "Feature", "properties": { "ID": 195, "GRIDCODE": 2 }, "geometry": { "type": "Polygon", "coordinates": [ [ [ -156.591477517820778, 20.512385647524845 ], [ -156.591128602729441, 20.512288076104966 ], [ -156.591384143708837, 20.512054055682771 ], [ -156.591477517820778, 20.512385647524845 ] ] ] } },
{ "type": "Feature", "properties": { "ID": 196, "GRIDCODE": 2 }, "geometry": { "type": "Polygon", "coordinates": [ [ [ -156.573945663181235, 20.511870414194345 ], [ -156.573841920688466, 20.512199255117157 ], [ -156.573593842270185, 20.511958218086168 ], [ -156.573945663181235, 20.511870414194345 ] ] ] } },
{ "type": "Feature", "properties": { "ID": 197, "GRIDCODE": 2 }, "geometry": { "type": "Polygon", "coordinates": [ [ [ -156.650708003377844, 20.512656186065367 ], [ -156.650695603950538, 20.513468753391184 ], [ -156.650408110044026, 20.513464859114581 ], [ -156.650420510985299, 20.512652291956552 ], [ -156.650708003377844, 20.512656186065367 ] ] ] } },
{ "type": "Feature", "properties": { "ID": 198, "GRIDCODE": 2 }, "geometry": { "type": "Polygon", "coordinates": [ [ [ -156.643512422161393, 20.51310039944326 ], [ -156.643635480348905, 20.51263763399847 ], [ -156.644707719474184, 20.512998111162979 ], [ -156.643512422161393, 20.51310039944326 ] ] ] } },
{ "type": "Feature", "properties": { "ID": 199, "GRIDCODE": 2 }, "geometry": { "type": "Polygon", "coordinates": [ [ [ -156.626558875918818, 20.512327423236915 ], [ -156.626907821512532, 20.512424925543481 ], [ -156.626652328074044, 20.512659003622737 ], [ -156.626558875918818, 20.512327423236915 ] ] ] } },
{ "type": "Feature", "properties": { "ID": 200, "GRIDCODE": 2 }, "geometry": { "type": "Polygon", "coordinates": [ [ [ -156.609884755816267, 20.512098462201418 ], [ -156.609876346288047, 20.512640157740726 ], [ -156.609588862448419, 20.51263619599613 ], [ -156.609597272985781, 20.512094500570615 ], [ -156.609884755816267, 20.512098462201418 ] ] ] } },
{ "type": "Feature", "properties": { "ID": 201, "GRIDCODE": 2 }, "geometry": { "type": "Polygon", "coordinates": [ [ [ -156.575962252849024, 20.511627707702424 ], [ -156.576921925432487, 20.51175884201626 ], [ -156.576151598347764, 20.511978900197363 ], [ -156.575962252849024, 20.511627707702424 ] ] ] } },
{ "type": "Feature", "properties": { "ID": 202, "GRIDCODE": 2 }, "geometry": { "type": "Polygon", "coordinates": [ [ [ -156.574812354223837, 20.511611633916523 ], [ -156.575161253777082, 20.511709237008542 ], [ -156.574905691442012, 20.511943231104052 ], [ -156.574812354223837, 20.511611633916523 ] ] ] } },
{ "type": "Feature", "properties": { "ID": 203, "GRIDCODE": 2 }, "geometry": { "type": "Polygon", "coordinates": [ [ [ -156.573945663181235, 20.511870414194345 ], [ -156.574049405157922, 20.511541573153593 ], [ -156.574297483765662, 20.511782609547097 ], [ -156.573945663181235, 20.511870414194345 ] ] ] } },
{ "type": "Feature", "properties": { "ID": 204, "GRIDCODE": 2 }, "geometry": { "type": "Polygon", "coordinates": [ [ [ -156.650708003377844, 20.512656186065367 ], [ -156.650873405078102, 20.512306293805885 ], [ -156.651362973224877, 20.512556585337048 ], [ -156.650708003377844, 20.512656186065367 ] ] ] } },
{ "type": "Feature", "properties": { "ID": 205, "GRIDCODE": 2 }, "geometry": { "type": "Polygon", "coordinates": [ [ [ -156.627712996995342, 20.512072303394181 ], [ -156.628372469218903, 20.51219111352858 ], [ -156.627863795322668, 20.512418292423323 ], [ -156.627712996995342, 20.512072303394181 ] ] ] } },
{ "type": "Feature", "properties": { "ID": 206, "GRIDCODE": 2 }, "geometry": { "type": "Polygon", "coordinates": [ [ [ -156.610176442872358, 20.5118315755163 ], [ -156.610172238714682, 20.512102423356744 ], [ -156.609884755816267, 20.512098462201418 ], [ -156.609888960478514, 20.511827614417864 ], [ -156.610176442872358, 20.5118315755163 ] ] ] } },
{ "type": "Feature", "properties": { "ID": 207, "GRIDCODE": 2 }, "geometry": { "type": "Polygon", "coordinates": [ [ [ -156.578266313565592, 20.511388990970318 ], [ -156.579225988087131, 20.511520112574633 ], [ -156.578455664377088, 20.511740181454055 ], [ -156.578266313565592, 20.511388990970318 ] ] ] } },
{ "type": "Feature", "properties": { "ID": 208, "GRIDCODE": 2 }, "geometry": { "type": "Polygon", "coordinates": [ [ [ -156.629154601399676, 20.511821105142612 ], [ -156.628989153219948, 20.512170971915726 ], [ -156.628499629593364, 20.511920620842911 ], [ -156.629154601399676, 20.511821105142612 ] ] ] } },
{ "type": "Feature", "properties": { "ID": 209, "GRIDCODE": 2 }, "geometry": { "type": "Polygon", "coordinates": [ [ [ -156.610176442872358, 20.5118315755163 ], [ -156.610280109783588, 20.511502705074417 ], [ -156.610528250926365, 20.511743695240913 ], [ -156.610176442872358, 20.5118315755163 ] ] ] } },
{ "type": "Feature", "properties": { "ID": 210, "GRIDCODE": 2 }, "geometry": { "type": "Polygon", "coordinates": [ [ [ -156.579420471551146, 20.511134199981893 ], [ -156.580079881985029, 20.511253189805643 ], [ -156.579571155869417, 20.511480220196312 ], [ -156.579420471551146, 20.511134199981893 ] ] ] } },
{ "type": "Feature", "properties": { "ID": 211, "GRIDCODE": 2 }, "geometry": { "type": "Polygon", "coordinates": [ [ [ -156.629154601399676, 20.511821105142612 ], [ -156.629258228983105, 20.511492219353819 ], [ -156.629506402856862, 20.511733185268735 ], [ -156.629154601399676, 20.511821105142612 ] ] ] } },
{ "type": "Feature", "properties": { "ID": 212, "GRIDCODE": 2 }, "geometry": { "type": "Polygon", "coordinates": [ [ [ -156.580287152185264, 20.510875390962852 ], [ -156.580636054839232, 20.510972983219826 ], [ -156.580380501271605, 20.511206986364595 ], [ -156.580287152185264, 20.510875390962852 ] ] ] } },
{ "type": "Feature", "properties": { "ID": 213, "GRIDCODE": 2 }, "geometry": { "type": "Polygon", "coordinates": [ [ [ -156.610764016902039, 20.511026952368518 ], [ -156.6106603514271, 20.511355823250256 ], [ -156.610412210614385, 20.511114833304486 ], [ -156.610764016902039, 20.511026952368518 ] ] ] } },
{ "type": "Feature", "properties": { "ID": 214, "GRIDCODE": 2 }, "geometry": { "type": "Polygon", "coordinates": [ [ [ -156.580866356362321, 20.510612568364849 ], [ -156.581215258937874, 20.510710159435451 ], [ -156.580959706636833, 20.510944163572695 ], [ -156.580866356362321, 20.510612568364849 ] ] ] } },
{ "type": "Feature", "properties": { "ID": 215, "GRIDCODE": 2 }, "geometry": { "type": "Polygon", "coordinates": [ [ [ -156.651303647694107, 20.51130969323598 ], [ -156.651940181195329, 20.511405880969946 ], [ -156.651385399609467, 20.511896409012014 ], [ -156.651303647694107, 20.51130969323598 ] ] ] } },
{ "type": "Feature", "properties": { "ID": 216, "GRIDCODE": 2 }, "geometry": { "type": "Polygon", "coordinates": [ [ [ -156.610764016902039, 20.511026952368518 ], [ -156.610867681862345, 20.510698081369593 ], [ -156.611115822861677, 20.510939070677793 ], [ -156.610764016902039, 20.511026952368518 ] ] ] } },
{ "type": "Feature", "properties": { "ID": 217, "GRIDCODE": 2 }, "geometry": { "type": "Polygon", "coordinates": [ [ [ -156.581445558727665, 20.510349743625628 ], [ -156.581794461224774, 20.510447333509877 ], [ -156.581538910190346, 20.510681338639557 ], [ -156.581445558727665, 20.510349743625628 ] ] ] } },
{ "type": "Feature", "properties": { "ID": 218, "GRIDCODE": 2 }, "geometry": { "type": "Polygon", "coordinates": [ [ [ -156.652170248255516, 20.511050512897917 ], [ -156.652519212944014, 20.511147964947128 ], [ -156.652263756665434, 20.511382084827328 ], [ -156.652170248255516, 20.511050512897917 ] ] ] } },
{ "type": "Feature", "properties": { "ID": 219, "GRIDCODE": 2 }, "geometry": { "type": "Polygon", "coordinates": [ [ [ -156.630321221892132, 20.510753411675179 ], [ -156.630980691684726, 20.510872211543592 ], [ -156.63047202537166, 20.511099398931155 ], [ -156.630321221892132, 20.510753411675179 ] ] ] } },
{ "type": "Feature", "properties": { "ID": 220, "GRIDCODE": 2 }, "geometry": { "type": "Polygon", "coordinates": [ [ [ -156.610197462642191, 20.510477336174997 ], [ -156.610546390140513, 20.510574870010256 ], [ -156.610290877867186, 20.51080892186193 ], [ -156.610197462642191, 20.510477336174997 ] ] ] } },
{ "type": "Feature", "properties": { "ID": 221, "GRIDCODE": 2 }, "geometry": { "type": "Polygon", "coordinates": [ [ [ -156.588636661304292, 20.51017895583259 ], [ -156.588985569617336, 20.510276531657098 ], [ -156.588730028642686, 20.510510548516429 ], [ -156.588636661304292, 20.51017895583259 ] ] ] } },
{ "type": "Feature", "properties": { "ID": 222, "GRIDCODE": 2 }, "geometry": { "type": "Polygon", "coordinates": [ [ [ -156.5823122325273, 20.510090923674017 ], [ -156.582661135202301, 20.510188511812252 ], [ -156.582405585816701, 20.510422518401217 ], [ -156.5823122325273, 20.510090923674017 ] ] ] } },
{ "type": "Feature", "properties": { "ID": 223, "GRIDCODE": 2 }, "geometry": { "type": "Polygon", "coordinates": [ [ [ -156.65274935692895, 20.510787438022383 ], [ -156.653098321533349, 20.510884888885876 ], [ -156.652842866523429, 20.511119009754196 ], [ -156.65274935692895, 20.510787438022383 ] ] ] } },
{ "type": "Feature", "properties": { "ID": 224, "GRIDCODE": 2 }, "geometry": { "type": "Polygon", "coordinates": [ [ [ -156.631187843029096, 20.510494339389329 ], [ -156.631536788556559, 20.510591832273761 ], [ -156.631281304761359, 20.510825918212063 ], [ -156.631187843029096, 20.510494339389329 ] ] ] } },
{ "type": "Feature", "properties": { "ID": 225, "GRIDCODE": 2 }, "geometry": { "type": "Polygon", "coordinates": [ [ [ -156.582891430902066, 20.509828093644291 ], [ -156.583240333498509, 20.509925680596226 ], [ -156.582984785379494, 20.510159688177506 ], [ -156.582891430902066, 20.509828093644291 ] ] ] } },
{ "type": "Feature", "properties": { "ID": 226, "GRIDCODE": 2 }, "geometry": { "type": "Polygon", "coordinates": [ [ [ -156.583470627465033, 20.509565261473615 ], [ -156.583819529982833, 20.509662847239252 ], [ -156.583563983130432, 20.509896855812819 ], [ -156.583470627465033, 20.509565261473615 ] ] ] } },
{ "type": "Feature", "properties": { "ID": 227, "GRIDCODE": 2 }, "geometry": { "type": "Polygon", "coordinates": [ [ [ -156.632058626948265, 20.509964410258497 ], [ -156.631955006557178, 20.510293298462315 ], [ -156.631706830534597, 20.510052335869197 ], [ -156.632058626948265, 20.509964410258497 ] ] ] } },
{ "type": "Feature", "properties": { "ID": 228, "GRIDCODE": 2 }, "geometry": { "type": "Polygon", "coordinates": [ [ [ -156.587499493303937, 20.509350436929683 ], [ -156.587848398818181, 20.509448014792738 ], [ -156.587592857820027, 20.509682029960256 ], [ -156.587499493303937, 20.509350436929683 ] ] ] } },
{ "type": "Feature", "properties": { "ID": 229, "GRIDCODE": 2 }, "geometry": { "type": "Polygon", "coordinates": [ [ [ -156.632058626948265, 20.509964410258497 ], [ -156.632162246825516, 20.509635521937945 ], [ -156.632410423033036, 20.509876483893475 ], [ -156.632058626948265, 20.509964410258497 ] ] ] } },
{ "type": "Feature", "properties": { "ID": 230, "GRIDCODE": 2 }, "geometry": { "type": "Polygon", "coordinates": [ [ [ -156.583766600028781, 20.509027580596698 ], [ -156.584115501620346, 20.509125165668841 ], [ -156.583859956154356, 20.509359174826304 ], [ -156.583766600028781, 20.509027580596698 ] ] ] } },
{ "type": "Feature", "properties": { "ID": 231, "GRIDCODE": 2 }, "geometry": { "type": "Polygon", "coordinates": [ [ [ -156.632933568705113, 20.509163623720116 ], [ -156.633282512801344, 20.509261112915979 ], [ -156.633027033812084, 20.509495201937181 ], [ -156.632933568705113, 20.509163623720116 ] ] ] } },
{ "type": "Feature", "properties": { "ID": 232, "GRIDCODE": 2 }, "geometry": { "type": "Polygon", "coordinates": [ [ [ -156.583775099737466, 20.508485895245865 ], [ -156.584124000146431, 20.508583480184186 ], [ -156.583868455684609, 20.508817489458686 ], [ -156.583775099737466, 20.508485895245865 ] ] ] } },
{ "type": "Feature", "properties": { "ID": 233, "GRIDCODE": 2 }, "geometry": { "type": "Polygon", "coordinates": [ [ [ -156.584354289811387, 20.50822305942885 ], [ -156.584703190141738, 20.508320643180976 ], [ -156.584447646946415, 20.508554653447639 ], [ -156.584354289811387, 20.50822305942885 ] ] ] } },
{ "type": "Feature", "properties": { "ID": 234, "GRIDCODE": 2 }, "geometry": { "type": "Polygon", "coordinates": [ [ [ -156.654215688572691, 20.508910886936814 ], [ -156.654112115053948, 20.509239793109309 ], [ -156.653863902360882, 20.508998859002077 ], [ -156.654215688572691, 20.508910886936814 ] ] ] } },
{ "type": "Feature", "properties": { "ID": 235, "GRIDCODE": 2 }, "geometry": { "type": "Polygon", "coordinates": [ [ [ -156.634091820983286, 20.508637605318043 ], [ -156.633988206011423, 20.508966495296491 ], [ -156.633740028394158, 20.508725535478998 ], [ -156.634091820983286, 20.508637605318043 ] ] ] } },
{ "type": "Feature", "properties": { "ID": 236, "GRIDCODE": 2 }, "geometry": { "type": "Polygon", "coordinates": [ [ [ -156.654507300283683, 20.508643917432252 ], [ -156.654503174768166, 20.508914774081827 ], [ -156.654215688572691, 20.508910886936814 ], [ -156.65421981459275, 20.50864003034307 ], [ -156.654507300283683, 20.508643917432252 ] ] ] } },
{ "type": "Feature", "properties": { "ID": 237, "GRIDCODE": 2 }, "geometry": { "type": "Polygon", "coordinates": [ [ [ -156.634091820983286, 20.508637605318043 ], [ -156.634195435441455, 20.508308715222899 ], [ -156.634443613243462, 20.508549674402854 ], [ -156.634091820983286, 20.508637605318043 ] ] ] } },
{ "type": "Feature", "properties": { "ID": 238, "GRIDCODE": 2 }, "geometry": { "type": "Polygon", "coordinates": [ [ [ -156.654507300283683, 20.508643917432252 ], [ -156.654610872442987, 20.508315010882026 ], [ -156.654859085436584, 20.508555943943328 ], [ -156.654507300283683, 20.508643917432252 ] ] ] } },
{ "type": "Feature", "properties": { "ID": 239, "GRIDCODE": 2 }, "geometry": { "type": "Polygon", "coordinates": [ [ [ -156.634675104657646, 20.508103740122618 ], [ -156.635024047914158, 20.508201225695743 ], [ -156.634768573229678, 20.508435317741849 ], [ -156.634675104657646, 20.508103740122618 ] ] ] } },
{ "type": "Feature", "properties": { "ID": 240, "GRIDCODE": 2 }, "geometry": { "type": "Polygon", "coordinates": [ [ [ -156.635541705445291, 20.507844643814146 ], [ -156.635890648873669, 20.507942127641453 ], [ -156.63563517584069, 20.508176221142406 ], [ -156.635541705445291, 20.507844643814146 ] ] ] } },
{ "type": "Feature", "properties": { "ID": 241, "GRIDCODE": 2 }, "geometry": { "type": "Polygon", "coordinates": [ [ [ -156.65538212936238, 20.507843005340536 ], [ -156.655216743355453, 20.508192903528901 ], [ -156.654727180858458, 20.507942623508338 ], [ -156.65538212936238, 20.507843005340536 ] ] ] } },
{ "type": "Feature", "properties": { "ID": 242, "GRIDCODE": 2 }, "geometry": { "type": "Polygon", "coordinates": [ [ [ -156.640145549365457, 20.507636418960477 ], [ -156.640041947846441, 20.507965313923474 ], [ -156.639793761235524, 20.50772436198017 ], [ -156.640145549365457, 20.507636418960477 ] ] ] } },
{ "type": "Feature", "properties": { "ID": 243, "GRIDCODE": 2 }, "geometry": { "type": "Polygon", "coordinates": [ [ [ -156.636408303743565, 20.507585542880133 ], [ -156.636757247343638, 20.507683024961636 ], [ -156.636501775962216, 20.507917119917348 ], [ -156.636408303743565, 20.507585542880133 ] ] ] } },
{ "type": "Feature", "properties": { "ID": 244, "GRIDCODE": 2 }, "geometry": { "type": "Polygon", "coordinates": [ [ [ -156.65538212936238, 20.507843005340536 ], [ -156.655485698982318, 20.507514098006045 ], [ -156.655733912327719, 20.507755029842421 ], [ -156.65538212936238, 20.507843005340536 ] ] ] } },
{ "type": "Feature", "properties": { "ID": 245, "GRIDCODE": 2 }, "geometry": { "type": "Polygon", "coordinates": [ [ [ -156.64274117169532, 20.507129885005153 ], [ -156.643189116118435, 20.507253965104219 ], [ -156.643557732173861, 20.507717721679587 ], [ -156.644571050943881, 20.508476752226336 ], [ -156.644298353871022, 20.508956403262861 ], [ -156.644030840149128, 20.508619952170303 ], [ -156.642936413269553, 20.508316846251809 ], [ -156.64274117169532, 20.507129885005153 ] ] ] } },
{ "type": "Feature", "properties": { "ID": 246, "GRIDCODE": 2 }, "geometry": { "type": "Polygon", "coordinates": [ [ [ -156.637279055003006, 20.507055583987224 ], [ -156.63762799818295, 20.507153064257565 ], [ -156.637372528953819, 20.50738716072533 ], [ -156.637279055003006, 20.507055583987224 ] ] ] } },
{ "type": "Feature", "properties": { "ID": 247, "GRIDCODE": 2 }, "geometry": { "type": "Polygon", "coordinates": [ [ [ -156.642457837569623, 20.50685512434973 ], [ -156.642745317494359, 20.506859030595013 ], [ -156.64274117169532, 20.507129885005153 ], [ -156.642453691266155, 20.507125978703755 ], [ -156.642457837569623, 20.50685512434973 ] ] ] } },
{ "type": "Feature", "properties": { "ID": 248, "GRIDCODE": 2 }, "geometry": { "type": "Polygon", "coordinates": [ [ [ -156.637858167889419, 20.50679255977332 ], [ -156.638817901678578, 20.50692335362541 ], [ -156.638047657503478, 20.507143698192994 ], [ -156.637858167889419, 20.50679255977332 ] ] ] } },
{ "type": "Feature", "properties": { "ID": 249, "GRIDCODE": 2 }, "geometry": { "type": "Polygon", "coordinates": [ [ [ -156.639012235990009, 20.506537358637175 ], [ -156.639361179512917, 20.506634835416069 ], [ -156.6391057135869, 20.506868934792877 ], [ -156.639012235990009, 20.506537358637175 ] ] ] } },
{ "type": "Feature", "properties": { "ID": 250, "GRIDCODE": 2 }, "geometry": { "type": "Polygon", "coordinates": [ [ [ -156.639591344502918, 20.506274328138137 ], [ -156.639940287942778, 20.506371803731462 ], [ -156.639684823284711, 20.50660590409699 ], [ -156.639591344502918, 20.506274328138137 ] ] ] } },
{ "type": "Feature", "properties": { "ID": 251, "GRIDCODE": 2 }, "geometry": { "type": "Polygon", "coordinates": [ [ [ -156.642457837569623, 20.50685512434973 ], [ -156.641690580066864, 20.506935705633328 ], [ -156.640145549365457, 20.507636418960477 ], [ -156.640280388030362, 20.50689986355874 ], [ -156.640968825249018, 20.505988818026513 ], [ -156.641731938896726, 20.506471963042589 ], [ -156.642129908014397, 20.506393638441882 ], [ -156.642457837569623, 20.50685512434973 ] ] ] } },
{ "type": "Feature", "properties": { "ID": 252, "GRIDCODE": 2 }, "geometry": { "type": "Polygon", "coordinates": [ [ [ -156.640182901211034, 20.50519873365036 ], [ -156.640588657909404, 20.505491697375685 ], [ -156.639786509462539, 20.506090467828137 ], [ -156.640182901211034, 20.50519873365036 ] ] ] } },
{ "type": "Feature", "properties": { "ID": 253, "GRIDCODE": 2 }, "geometry": { "type": "Polygon", "coordinates": [ [ [ -156.658014799239169, 20.504898521980465 ], [ -156.659344522489675, 20.505850242913198 ], [ -156.661603177925741, 20.506153464613732 ], [ -156.663229743056633, 20.50660569332689 ], [ -156.664642138460266, 20.506127197323071 ], [ -156.666044944078038, 20.506281001817353 ], [ -156.668561834741411, 20.506073558255366 ], [ -156.671037935272807, 20.507987608511716 ], [ -156.669853229896972, 20.508431779259741 ], [ -156.666770592051591, 20.508093902747007 ], [ -156.665274470397719, 20.507259445326415 ], [ -156.66344785686502, 20.508461109648426 ], [ -156.662072692911039, 20.509001077468266 ], [ -156.660452887724688, 20.508823412237483 ], [ -156.659545139873586, 20.509130893182963 ], [ -156.658149586798942, 20.509496338060035 ], [ -156.657510091515434, 20.508487389951441 ], [ -156.656372877881267, 20.508004415268189 ], [ -156.655909363997978, 20.507463206339679 ], [ -156.656419877347247, 20.506650486446276 ], [ -156.656693715485943, 20.505816313287479 ], [ -156.657691232209999, 20.505255018778545 ], [ -156.658014799239169, 20.504898521980465 ] ] ] } }
]
}
