{
"type": "FeatureCollection",
"name": "kokdryn",
"crs": { "type": "name", "properties": { "name": "urn:ogc:def:crs:OGC:1.3:CRS84" } },
"features": [
{ "type": "Feature", "properties": { "ID": 1, "GRIDCODE": 1 }, "geometry": { "type": "Polygon", "coordinates": [ [ [ -155.844545968073533, 20.162476595296742 ], [ -155.844915529061183, 20.162633821323425 ], [ -155.844648362415711, 20.163093770154976 ], [ -155.844545968073533, 20.162476595296742 ] ] ] } },
{ "type": "Feature", "properties": { "ID": 2, "GRIDCODE": 1 }, "geometry": { "type": "Polygon", "coordinates": [ [ [ -155.842610263851412, 20.1589217122654 ], [ -155.842957745892079, 20.159020633948899 ], [ -155.842701873825035, 20.159253502111753 ], [ -155.842610263851412, 20.1589217122654 ] ] ] } },
{ "type": "Feature", "properties": { "ID": 3, "GRIDCODE": 1 }, "geometry": { "type": "Polygon", "coordinates": [ [ [ -155.842610263851412, 20.1589217122654 ], [ -155.842262782343482, 20.15882278995193 ], [ -155.84251865416789, 20.158589922412531 ], [ -155.842610263851412, 20.1589217122654 ] ] ] } },
{ "type": "Feature", "properties": { "ID": 4, "GRIDCODE": 1 }, "geometry": { "type": "Polygon", "coordinates": [ [ [ -155.843163793155554, 20.145663419553163 ], [ -155.843511247551476, 20.145762336384141 ], [ -155.843255400798597, 20.14599520865394 ], [ -155.843163793155554, 20.145663419553163 ] ] ] } },
{ "type": "Feature", "properties": { "ID": 5, "GRIDCODE": 1 }, "geometry": { "type": "Polygon", "coordinates": [ [ [ -155.756344289675013, 20.059606280207426 ], [ -155.756691481174215, 20.059705335907889 ], [ -155.756435684547796, 20.059938085433838 ], [ -155.756344289675013, 20.059606280207426 ] ] ] } },
{ "type": "Feature", "properties": { "ID": 6, "GRIDCODE": 1 }, "geometry": { "type": "Polygon", "coordinates": [ [ [ -155.843163793155554, 20.145663419553163 ], [ -155.842168711303231, 20.145452264688135 ], [ -155.842144827713923, 20.146026979417993 ], [ -155.842425331621968, 20.146600545487775 ], [ -155.843269499516396, 20.147396300199517 ], [ -155.84294971752476, 20.149317756666612 ], [ -155.842542223769897, 20.150031422969679 ], [ -155.843026969758569, 20.150488336818459 ], [ -155.842494386012731, 20.151420692285775 ], [ -155.843465883128971, 20.151887398443858 ], [ -155.843181885212914, 20.152029724528809 ], [ -155.842597403734061, 20.152284727124009 ], [ -155.84259879956096, 20.153091935899283 ], [ -155.84142049214779, 20.154121113256409 ], [ -155.841407179342582, 20.154434624432188 ], [ -155.841948882491607, 20.156026852375103 ], [ -155.841351303645013, 20.156889678059432 ], [ -155.834463477724682, 20.144890471620865 ], [ -155.827494365825942, 20.13488345122104 ], [ -155.819170304725787, 20.125191046936568 ], [ -155.807842737904622, 20.112942219145314 ], [ -155.799965833501545, 20.104402359942888 ], [ -155.796067066126739, 20.100267713351982 ], [ -155.787636977238407, 20.091725721524497 ], [ -155.787361699584693, 20.091444648463678 ], [ -155.779213499205525, 20.083178259911133 ], [ -155.777098210835959, 20.081016187516479 ], [ -155.773430745733378, 20.078079258102225 ], [ -155.772242410316693, 20.076864588289325 ], [ -155.771336288749808, 20.076259807111025 ], [ -155.770212806248651, 20.075719132484426 ], [ -155.769919878664979, 20.075155182034884 ], [ -155.770263076596535, 20.07272085773938 ], [ -155.769700541608586, 20.071902889236238 ], [ -155.769435552259807, 20.070781918799064 ], [ -155.768322288238835, 20.069731489069355 ], [ -155.768042971589011, 20.069159589511113 ], [ -155.767756360337273, 20.068888863401693 ], [ -155.767200478459586, 20.068320756794837 ], [ -155.765795416748546, 20.068972464303471 ], [ -155.765207410319789, 20.066615755008058 ], [ -155.76526938774947, 20.065150284369771 ], [ -155.764117296302658, 20.064753960209977 ], [ -155.763631288549135, 20.065213603834998 ], [ -155.76317798055797, 20.064285112860198 ], [ -155.762318135125241, 20.063871263425167 ], [ -155.760793530563859, 20.061980068532627 ], [ -155.759903354575101, 20.061980923317726 ], [ -155.759312887818737, 20.06142340094982 ], [ -155.758960980020277, 20.059525156507359 ], [ -155.758212170734254, 20.059497000846555 ], [ -155.758200563115111, 20.059775749632667 ], [ -155.758201265277904, 20.06058541297601 ], [ -155.757360118741815, 20.059821928327789 ], [ -155.756945140799047, 20.058528836686303 ], [ -155.755655971581263, 20.058107075651581 ], [ -155.755391946598252, 20.057284643586325 ], [ -155.754834174334775, 20.056758118737438 ], [ -155.754318649495417, 20.055701813960429 ], [ -155.753706953136998, 20.05507659316854 ], [ -155.752706849679129, 20.055077511034831 ], [ -155.752302489251946, 20.054249455674881 ], [ -155.751708725205788, 20.05396341043399 ], [ -155.75117350453948, 20.053416402460794 ], [ -155.750099247289086, 20.053064928814916 ], [ -155.749597054556261, 20.05149946057583 ], [ -155.74891847071612, 20.051473884342677 ], [ -155.748342601410826, 20.051474390430151 ], [ -155.748073045201465, 20.050922481838743 ], [ -155.746389299025822, 20.050371502900422 ], [ -155.745218969858371, 20.049266894424097 ], [ -155.743316693689138, 20.047321166825306 ], [ -155.742987338275384, 20.047308749544076 ], [ -155.742417083912784, 20.047309209357657 ], [ -155.74149008082378, 20.046361107026335 ], [ -155.738716223556821, 20.045881575599413 ], [ -155.738171215862451, 20.045324308026547 ], [ -155.737300738475057, 20.045325026690225 ], [ -155.737598678137601, 20.044501851508436 ], [ -155.738184214292119, 20.043477211823983 ], [ -155.738568876536164, 20.041571135572337 ], [ -155.73696716539331, 20.040753611477374 ], [ -155.735701439863846, 20.040317881964008 ], [ -155.734285413451289, 20.040723509884469 ], [ -155.731556509152824, 20.043848670905945 ], [ -155.730455273003173, 20.043562826704811 ], [ -155.729256157086581, 20.042950861452944 ], [ -155.726249991559826, 20.04295310009395 ], [ -155.72377176027274, 20.042607062135868 ], [ -155.722189505848974, 20.042608127116726 ], [ -155.713491579550521, 20.038430315504307 ], [ -155.695996411341383, 20.031056096958682 ], [ -155.680453013815765, 20.02498241886974 ], [ -155.674863531725066, 20.02281757553796 ], [ -155.661786724857564, 20.018596892220959 ], [ -155.646297879950083, 20.014531215651136 ], [ -155.639141176454643, 20.013145864857929 ], [ -155.626830225633341, 20.010766414188165 ], [ -155.614852547828093, 20.008442362327827 ], [ -155.600956521162544, 20.00560044285654 ], [ -155.601786277950168, 20.004877018192598 ], [ -155.60235750389549, 20.003818933851012 ], [ -155.602701803299993, 20.003493868748418 ], [ -155.60464856964623, 20.003568770893359 ], [ -155.605267169617179, 20.003299460424572 ], [ -155.606177115064241, 20.002878291073845 ], [ -155.60668713328738, 20.003862871572313 ], [ -155.60701156154272, 20.004528741764901 ], [ -155.608381681824113, 20.004978291599155 ], [ -155.609211653634986, 20.006082422007417 ], [ -155.609497854567451, 20.006353352509063 ], [ -155.610036481878581, 20.006905141032576 ], [ -155.610648956673288, 20.006399991610987 ], [ -155.610648831696523, 20.005701207681287 ], [ -155.610666200222965, 20.005295437986771 ], [ -155.610666100693606, 20.004491030846886 ], [ -155.61126209389414, 20.003971285087463 ], [ -155.612299910495835, 20.001144996035567 ], [ -155.612917551693329, 20.000606091736561 ], [ -155.613658915938032, 19.999905629733842 ], [ -155.616694322568662, 19.998106327345258 ], [ -155.617413353990827, 19.996774713972133 ], [ -155.618357700690524, 19.996337473325791 ], [ -155.619769231159694, 19.996824471404945 ], [ -155.621298583112008, 19.99682405409127 ], [ -155.622291787205683, 19.996862175208612 ], [ -155.622875956750136, 19.996591874367713 ], [ -155.624604634304177, 19.996097775526728 ], [ -155.624625858821219, 19.99560112197333 ], [ -155.623002639546087, 19.992268435411518 ], [ -155.622120963019142, 19.992234696856507 ], [ -155.62173391028432, 19.992600237772209 ], [ -155.620964323443985, 19.992228888113537 ], [ -155.620689529951051, 19.991947618740962 ], [ -155.618785108191474, 19.991322859745104 ], [ -155.620134389098979, 19.99004767920076 ], [ -155.620440917811749, 19.990047580644248 ], [ -155.620729868171964, 19.990058647157639 ], [ -155.621297600319224, 19.989522188675686 ], [ -155.62187494069272, 19.989544307509366 ], [ -155.62247775582378, 19.988490701286686 ], [ -155.622797605809154, 19.986843819585978 ], [ -155.623298508808347, 19.985139048989407 ], [ -155.622834613371907, 19.984663551634508 ], [ -155.62151003560777, 19.984024636789133 ], [ -155.622311370311934, 19.983325795574192 ], [ -155.622884209058384, 19.98278440192157 ], [ -155.624612080448799, 19.98203208849262 ], [ -155.624671077979372, 19.980655196558278 ], [ -155.624670890437272, 19.979325825053106 ], [ -155.625098599326748, 19.978533391045485 ], [ -155.627157164417014, 19.978100121791854 ], [ -155.627591201945279, 19.976917819521688 ], [ -155.629465742937668, 19.976523320100068 ], [ -155.629921248752652, 19.975343003981962 ], [ -155.63024586526069, 19.973426766993338 ], [ -155.631019322090026, 19.972075082813014 ], [ -155.630282900081056, 19.971002182205805 ], [ -155.630316939576176, 19.970203829693684 ], [ -155.630316878638354, 19.969667636762889 ], [ -155.631207103287181, 19.968478392023172 ], [ -155.630952778440047, 19.967235133956038 ], [ -155.630402653961312, 19.966173444507646 ], [ -155.631256274311255, 19.966428681997478 ], [ -155.631948958991927, 19.966782914205083 ], [ -155.632688176072236, 19.96646091266711 ], [ -155.63239887492972, 19.963915374925392 ], [ -155.633317566966667, 19.963489698092488 ], [ -155.634187480180344, 19.963240763404084 ], [ -155.634634356631096, 19.962818282579452 ], [ -155.636673011534526, 19.964907095385776 ], [ -155.637307571247703, 19.96465368019313 ], [ -155.637307198444034, 19.964117742558159 ], [ -155.637891502568777, 19.963847243284906 ], [ -155.641052367277922, 19.963325753129169 ], [ -155.640788089169661, 19.962548442938118 ], [ -155.640507629928663, 19.962006932231645 ], [ -155.640204187871859, 19.959990445856079 ], [ -155.638852609544159, 19.960616566515203 ], [ -155.638830181159676, 19.96007862358778 ], [ -155.63895019356795, 19.957280147640557 ], [ -155.638546066575856, 19.956017397888541 ], [ -155.63763160994111, 19.955982347171851 ], [ -155.636638107265185, 19.955982808027965 ], [ -155.636352031527792, 19.955430346934499 ], [ -155.635408129390441, 19.953027591642346 ], [ -155.632459250899103, 19.950238836391009 ], [ -155.634227978317682, 19.949136034939016 ], [ -155.636188678718838, 19.949211035620397 ], [ -155.636652703775667, 19.948399413336258 ], [ -155.637382928454059, 19.947046063747511 ], [ -155.638275717905486, 19.946267150734641 ], [ -155.639115936797793, 19.944709381120397 ], [ -155.639741345736923, 19.944118138065956 ], [ -155.640038751085427, 19.943858315934133 ], [ -155.640723315393188, 19.941727282550151 ], [ -155.64205926763961, 19.939941711699568 ], [ -155.64242567350351, 19.939300870889998 ], [ -155.642985857528714, 19.938262339035472 ], [ -155.643327353255074, 19.937939623369743 ], [ -155.645469080068807, 19.942592279814424 ], [ -155.64963963914181, 19.949235837350866 ], [ -155.65782418344898, 19.959013085440755 ], [ -155.668089905371488, 19.969526965131067 ], [ -155.678117892238419, 19.97838554022697 ], [ -155.682824799881928, 19.982521240910767 ], [ -155.692318215680075, 19.990592625676978 ], [ -155.69512460075498, 19.993087088380609 ], [ -155.701035413235019, 19.998336354865582 ], [ -155.709036272807907, 20.005447317723426 ], [ -155.717893613943886, 20.013256998914724 ], [ -155.723823106394548, 20.01798870038748 ], [ -155.729436849148414, 20.022462815110472 ], [ -155.732683941278367, 20.026267337061928 ], [ -155.734066073975043, 20.028103316433576 ], [ -155.736045575373083, 20.029288486881676 ], [ -155.739314910254251, 20.030105964056105 ], [ -155.747446656450251, 20.034815886166925 ], [ -155.757141265511109, 20.041883175179663 ], [ -155.764757596199843, 20.047443393196051 ], [ -155.771581376582901, 20.05241995649267 ], [ -155.783996400407119, 20.063349250621389 ], [ -155.793272018268453, 20.071566016020075 ], [ -155.800507540644446, 20.079228069021347 ], [ -155.804149279166182, 20.08309018729727 ], [ -155.813244284823128, 20.092719289031155 ], [ -155.820961924043104, 20.102077553982895 ], [ -155.829309734096597, 20.112186139317256 ], [ -155.839141905874243, 20.125268067743736 ], [ -155.840315497206461, 20.127176522311053 ], [ -155.839930148157606, 20.127891908560706 ], [ -155.839347364912101, 20.128401061710179 ], [ -155.84135631951446, 20.129576685319122 ], [ -155.84130181483107, 20.130880953193355 ], [ -155.84214512604629, 20.130879816581789 ], [ -155.843196638895478, 20.131385230371556 ], [ -155.843568191261113, 20.132540461631816 ], [ -155.843968697190661, 20.133718027483617 ], [ -155.843235592935827, 20.134698628028129 ], [ -155.84434103047343, 20.135740484660083 ], [ -155.844763228275497, 20.136981638689662 ], [ -155.84402665321457, 20.137967070919675 ], [ -155.844027588057855, 20.138505607995629 ], [ -155.84344297161806, 20.140023422281075 ], [ -155.843349485245909, 20.142263749727121 ], [ -155.843738864277299, 20.142630627864605 ], [ -155.842963949123146, 20.144643350552691 ], [ -155.843163793155554, 20.145663419553163 ] ], [ [ -155.763702827987714, 20.064073546976459 ], [ -155.763794240104431, 20.064405350744543 ], [ -155.76405003577932, 20.064172590138224 ], [ -155.763702827987714, 20.064073546976459 ] ], [ [ -155.640106258362295, 19.97431544155025 ], [ -155.639330922735468, 19.975257588456824 ], [ -155.640289644572448, 19.975650154268344 ], [ -155.641696343737408, 19.978220580814291 ], [ -155.642446918467186, 19.978538862632714 ], [ -155.643894855335503, 19.977477245171379 ], [ -155.644220096718954, 19.975260089987309 ], [ -155.643084471560172, 19.974795450148093 ], [ -155.642555342989027, 19.974479782559335 ], [ -155.640106258362295, 19.97431544155025 ] ], [ [ -155.63918433653825, 19.977276116396848 ], [ -155.639112832443118, 19.975624664130141 ], [ -155.638535438162336, 19.976213097073082 ], [ -155.638961126346373, 19.977159513982915 ], [ -155.63918433653825, 19.977276116396848 ], [ -155.63928589942833, 19.977893292570101 ], [ -155.639553216458665, 19.977433818914356 ], [ -155.63918433653825, 19.977276116396848 ] ] ] } },
{ "type": "Feature", "properties": { "ID": 7, "GRIDCODE": 1 }, "geometry": { "type": "Polygon", "coordinates": [ [ [ -155.642620418448615, 19.936729851946577 ], [ -155.642967242621069, 19.936829216084348 ], [ -155.642711537620158, 19.937061543838688 ], [ -155.642620418448615, 19.936729851946577 ] ] ] } },
{ "type": "Feature", "properties": { "ID": 8, "GRIDCODE": 1 }, "geometry": { "type": "Polygon", "coordinates": [ [ [ -155.694889547798084, 19.901429823395745 ], [ -155.694784612547579, 19.901757854706222 ], [ -155.694538892154526, 19.901516110373983 ], [ -155.694889547798084, 19.901429823395745 ] ] ] } },
{ "type": "Feature", "properties": { "ID": 9, "GRIDCODE": 2 }, "geometry": { "type": "Polygon", "coordinates": [ [ [ -155.830520022630907, 19.846764746913369 ], [ -155.830624636319214, 19.846436589687745 ], [ -155.830870520830786, 19.846678163955549 ], [ -155.830520022630907, 19.846764746913369 ] ] ] } },
{ "type": "Feature", "properties": { "ID": 10, "GRIDCODE": 2 }, "geometry": { "type": "Polygon", "coordinates": [ [ [ -155.831501894035966, 19.840554170045504 ], [ -155.832249824442442, 19.841027852501618 ], [ -155.832902825889505, 19.840948227220547 ], [ -155.833599056181214, 19.842098212431953 ], [ -155.834523481560723, 19.84332549923532 ], [ -155.835316125557654, 19.843927160557186 ], [ -155.835304869390342, 19.845072244237837 ], [ -155.833620509333258, 19.842876042250374 ], [ -155.833143110884492, 19.842513740550697 ], [ -155.832778420445948, 19.842048723485316 ], [ -155.831682954139609, 19.84121716170571 ], [ -155.831501894035966, 19.840554170045504 ] ] ] } },
{ "type": "Feature", "properties": { "ID": 11, "GRIDCODE": 2 }, "geometry": { "type": "Polygon", "coordinates": [ [ [ -155.753563372832019, 19.845649918531951 ], [ -155.753063585951736, 19.845518912613734 ], [ -155.752063321302302, 19.84483803991564 ], [ -155.751480575207694, 19.843827108415741 ], [ -155.750636605130978, 19.843252732310546 ], [ -155.750369461258884, 19.842182241386123 ], [ -155.750040914602437, 19.841684425457931 ], [ -155.749812310509554, 19.84045069585131 ], [ -155.749048842110483, 19.839931196237615 ], [ -155.748821843967079, 19.839606576477159 ], [ -155.749529242255846, 19.839009988539861 ], [ -155.75049079000911, 19.836800563215679 ], [ -155.751104577498069, 19.837452182263046 ], [ -155.751850509307673, 19.839025339064637 ], [ -155.75240579865681, 19.839531250131564 ], [ -155.753217462888017, 19.840772693984523 ], [ -155.753477995785403, 19.842539815036211 ], [ -155.753901193425492, 19.843756463762706 ], [ -155.753563372832019, 19.845649918531951 ] ] ] } },
{ "type": "Feature", "properties": { "ID": 12, "GRIDCODE": 2 }, "geometry": { "type": "Polygon", "coordinates": [ [ [ -155.832877105622458, 19.828934866158583 ], [ -155.834453359959582, 19.829092961175618 ], [ -155.835289382511149, 19.829659950150837 ], [ -155.836922081116086, 19.830058608163913 ], [ -155.837248812467209, 19.831861004623736 ], [ -155.838373149643303, 19.83288449461859 ], [ -155.838080610027106, 19.833771260369332 ], [ -155.837323640142898, 19.834092877032457 ], [ -155.838512656868687, 19.835618628143138 ], [ -155.837862423497654, 19.836730432643449 ], [ -155.83741484010514, 19.837585621303386 ], [ -155.836833627615164, 19.838076419665637 ], [ -155.837131470603424, 19.838347202090382 ], [ -155.837390056440853, 19.839174725230144 ], [ -155.837952248571384, 19.839686341496961 ], [ -155.837660474245752, 19.84053345202755 ], [ -155.837358077924506, 19.840788294052942 ], [ -155.836946225280769, 19.841193509642871 ], [ -155.83597112128686, 19.8391389634427 ], [ -155.834626854366974, 19.838283434705119 ], [ -155.834292327106226, 19.837213657075381 ], [ -155.833728506102716, 19.836700680425714 ], [ -155.833461000049027, 19.835844965599694 ], [ -155.832930197546176, 19.834851296034962 ], [ -155.834309465325617, 19.835785993178892 ], [ -155.833370724302171, 19.833986210883051 ], [ -155.831521289520026, 19.832651255853239 ], [ -155.831803573757185, 19.832564512580038 ], [ -155.832873648854587, 19.832940782095271 ], [ -155.833663959118979, 19.831896273135321 ], [ -155.832823754502954, 19.831131401689852 ], [ -155.833478115194083, 19.83048801057652 ], [ -155.83469647474999, 19.831263559657113 ], [ -155.835082200182796, 19.832076416920589 ], [ -155.836382986184333, 19.832148425460559 ], [ -155.836402317599294, 19.83183567263092 ], [ -155.835812575469419, 19.831559445645894 ], [ -155.835895689792011, 19.830213868467375 ], [ -155.835570495840784, 19.830195932949149 ], [ -155.834557127732012, 19.83021575931156 ], [ -155.833423903153346, 19.829853981920337 ], [ -155.832877105622458, 19.828934866158583 ] ] ] } },
{ "type": "Feature", "properties": { "ID": 13, "GRIDCODE": 2 }, "geometry": { "type": "Polygon", "coordinates": [ [ [ -155.742524643652018, 19.825682502335773 ], [ -155.743341534346911, 19.825838888224357 ], [ -155.744067583913306, 19.826668413455355 ], [ -155.745473898875105, 19.827860447820779 ], [ -155.74507928418538, 19.829906472341175 ], [ -155.744389256344647, 19.829118327542425 ], [ -155.743232602636596, 19.82860432364286 ], [ -155.742939639734601, 19.826898484379445 ], [ -155.742648550214312, 19.826100963502991 ], [ -155.742524643652018, 19.825682502335773 ] ] ] } },
{ "type": "Feature", "properties": { "ID": 14, "GRIDCODE": 1 }, "geometry": { "type": "Polygon", "coordinates": [ [ [ -155.748821843967079, 19.839606576477159 ], [ -155.749048842110483, 19.839931196237615 ], [ -155.749812310509554, 19.84045069585131 ], [ -155.750040914602437, 19.841684425457931 ], [ -155.750369461258884, 19.842182241386123 ], [ -155.750636605130978, 19.843252732310546 ], [ -155.751480575207694, 19.843827108415741 ], [ -155.752063321302302, 19.84483803991564 ], [ -155.753063585951736, 19.845518912613734 ], [ -155.753563372832019, 19.845649918531951 ], [ -155.753730409144993, 19.845763490525908 ], [ -155.753946409170169, 19.846629442612826 ], [ -155.754280484541653, 19.846856586100461 ], [ -155.754813012166068, 19.847617511000596 ], [ -155.755057587403769, 19.848274296145451 ], [ -155.755675427513239, 19.84905924928756 ], [ -155.755532839067229, 19.849611939799313 ], [ -155.755803786056759, 19.850868386432104 ], [ -155.754868169264995, 19.852172133894154 ], [ -155.755303557581755, 19.852832131282106 ], [ -155.755525077496003, 19.853427415151014 ], [ -155.75602621412537, 19.853768129001388 ], [ -155.756253244064965, 19.854092744026801 ], [ -155.756358213027198, 19.855059798250746 ], [ -155.756670856709178, 19.855572125804564 ], [ -155.756987393003726, 19.856346566815535 ], [ -155.757793123002017, 19.856675636051701 ], [ -155.7580361057868, 19.856985732418696 ], [ -155.759099060915105, 19.857240945234796 ], [ -155.758619259664869, 19.856454809137688 ], [ -155.758200289855608, 19.854917496226676 ], [ -155.759508628516244, 19.855872868844347 ], [ -155.75995511267314, 19.856442098482706 ], [ -155.76100558500471, 19.856871592216937 ], [ -155.760859706291143, 19.85769658440633 ], [ -155.760951559513956, 19.858375179196639 ], [ -155.760855909914028, 19.858914978585798 ], [ -155.760911077606977, 19.859322136486274 ], [ -155.760817935743461, 19.859848495753393 ], [ -155.759627426900039, 19.860683830640575 ], [ -155.759984010495316, 19.861592795944027 ], [ -155.761396596945133, 19.86242736668158 ], [ -155.762488507852225, 19.863295496087009 ], [ -155.762734450508106, 19.86519429962042 ], [ -155.76369566195342, 19.866471491304587 ], [ -155.764129673625092, 19.868620157110339 ], [ -155.764186561013645, 19.872107884467177 ], [ -155.759334118890933, 19.874418173618054 ], [ -155.742021229514933, 19.884117726122344 ], [ -155.729068767617463, 19.889463177387729 ], [ -155.71089327646331, 19.895908023191222 ], [ -155.700698447653764, 19.899416906547657 ], [ -155.696094255132806, 19.90108469116705 ], [ -155.694889547798084, 19.901429823395745 ], [ -155.695035573702057, 19.901021117958638 ], [ -155.695502748374281, 19.90062763718533 ], [ -155.696162979378897, 19.898422308066461 ], [ -155.696286751318667, 19.896446825326034 ], [ -155.696281195503332, 19.896175966743563 ], [ -155.69629799321163, 19.895905523537397 ], [ -155.696282062551859, 19.895151660355737 ], [ -155.697079872510244, 19.894368759169414 ], [ -155.699226531638885, 19.89271613437904 ], [ -155.700229045248847, 19.891172604747783 ], [ -155.701322349970496, 19.890709282088316 ], [ -155.702125868570931, 19.889338408231669 ], [ -155.702558260428248, 19.887558743606302 ], [ -155.701946037084753, 19.885795934059278 ], [ -155.702525549033055, 19.884914820390168 ], [ -155.703699214507594, 19.883524353991287 ], [ -155.70338058270795, 19.882592745438853 ], [ -155.702528219944128, 19.880994182681327 ], [ -155.702917909673715, 19.88032980094566 ], [ -155.703221073323874, 19.878971057013992 ], [ -155.703529334206252, 19.878445830845212 ], [ -155.703922726992175, 19.877007846162158 ], [ -155.70472437304764, 19.875479059326185 ], [ -155.705152181977638, 19.875118920195067 ], [ -155.704763107524371, 19.873593463659393 ], [ -155.704809003072654, 19.872861099801792 ], [ -155.704479031675135, 19.871207969272664 ], [ -155.705578896899823, 19.869757672836993 ], [ -155.706344880132264, 19.868450317477368 ], [ -155.706322617428214, 19.867391199313555 ], [ -155.70639857434827, 19.866177366405971 ], [ -155.705832427886349, 19.863956669823818 ], [ -155.706387550877679, 19.86177522762463 ], [ -155.70673186368785, 19.86143680299217 ], [ -155.707332557642644, 19.860930722013862 ], [ -155.706796900701761, 19.858830106534221 ], [ -155.707365493051526, 19.859011696250214 ], [ -155.708273693196219, 19.859488301384808 ], [ -155.708818063044731, 19.859029560106674 ], [ -155.708784592754142, 19.857442728859276 ], [ -155.709402336470845, 19.856921881609349 ], [ -155.709704274664006, 19.856076579384954 ], [ -155.711255998052536, 19.855757273932884 ], [ -155.712037493297316, 19.853772737332466 ], [ -155.712076658547886, 19.853147328930262 ], [ -155.712064631671637, 19.852578617634887 ], [ -155.713186187420661, 19.852641359607581 ], [ -155.713778299158236, 19.852142230619556 ], [ -155.713815362282361, 19.851550627071969 ], [ -155.713524648039368, 19.850713945940001 ], [ -155.713565488686953, 19.850061068107287 ], [ -155.713545607431854, 19.849127319939015 ], [ -155.714106135574042, 19.848654839955309 ], [ -155.71445947775095, 19.848052146788689 ], [ -155.714751291541631, 19.847234671207008 ], [ -155.71699587952736, 19.846986514367639 ], [ -155.717366056810164, 19.845632921189246 ], [ -155.718237949284799, 19.84489804463357 ], [ -155.718723222310274, 19.843124030870424 ], [ -155.719995826131026, 19.842728098474435 ], [ -155.720774004558933, 19.842771771276695 ], [ -155.721974026583553, 19.841759985502858 ], [ -155.722481103410786, 19.840894360330143 ], [ -155.722910671714033, 19.840074373742837 ], [ -155.724093544377524, 19.838752886756247 ], [ -155.724396397467075, 19.837394064562041 ], [ -155.7255125253985, 19.835742138446889 ], [ -155.724215620483591, 19.835133418909933 ], [ -155.726978583605785, 19.83280362847789 ], [ -155.727395107917147, 19.831745145630354 ], [ -155.727362212786716, 19.830201138648384 ], [ -155.729023102242849, 19.83078636696461 ], [ -155.729565038741811, 19.830329347808807 ], [ -155.730091760466451, 19.82885509678756 ], [ -155.732137490498587, 19.829927801139785 ], [ -155.733852279710419, 19.830023742098462 ], [ -155.73456118236021, 19.828670476324785 ], [ -155.735194925857542, 19.828136321623163 ], [ -155.735756384675142, 19.827584182398667 ], [ -155.736325012558098, 19.827104887367277 ], [ -155.736361606417915, 19.826517489078359 ], [ -155.736325059258348, 19.824805764025026 ], [ -155.73727454362313, 19.82435220806196 ], [ -155.738023604044116, 19.825147535479701 ], [ -155.738823098027837, 19.825566985012667 ], [ -155.740627248755942, 19.824705438179915 ], [ -155.74139596702355, 19.825373662396451 ], [ -155.742399860361303, 19.826663073209641 ], [ -155.742262013668324, 19.828872694925284 ], [ -155.743798114220766, 19.832113200659734 ], [ -155.744798313441493, 19.833175399980334 ], [ -155.745353559467418, 19.833681327320939 ], [ -155.745634322707872, 19.834273731979795 ], [ -155.746201217694448, 19.835085805129815 ], [ -155.746511569303323, 19.836433935485594 ], [ -155.74757034426068, 19.837558274914581 ], [ -155.748425474287444, 19.838337262109615 ], [ -155.748821843967079, 19.839606576477159 ] ] ] } },
{ "type": "Feature", "properties": { "ID": 15, "GRIDCODE": 2 }, "geometry": { "type": "Polygon", "coordinates": [ [ [ -155.805030067687142, 19.804880239644039 ], [ -155.805464606726446, 19.805015739092276 ], [ -155.806773285554186, 19.806455993584787 ], [ -155.807655036941156, 19.806023023570997 ], [ -155.808352996179366, 19.806790994590944 ], [ -155.80821284362986, 19.808479014534846 ], [ -155.808745204179019, 19.811076551326291 ], [ -155.808802030699297, 19.81238651600475 ], [ -155.807919645824001, 19.81101683086354 ], [ -155.805234832142617, 19.809984560623057 ], [ -155.804588930807256, 19.808583398965641 ], [ -155.805685392984657, 19.808284386624791 ], [ -155.80654087637464, 19.807614549913108 ], [ -155.805220156412702, 19.805504267550926 ], [ -155.805030067687142, 19.804880239644039 ] ] ] } },
{ "type": "Feature", "properties": { "ID": 16, "GRIDCODE": 2 }, "geometry": { "type": "Polygon", "coordinates": [ [ [ -155.830520022630907, 19.846764746913369 ], [ -155.830232337493698, 19.847037552915975 ], [ -155.813870784759558, 19.852623560870619 ], [ -155.791418709423112, 19.860162689229394 ], [ -155.770828252009977, 19.86876163698545 ], [ -155.764335101607941, 19.871977844300648 ], [ -155.764186561013645, 19.872107884467177 ], [ -155.764129673625092, 19.868620157110339 ], [ -155.76369566195342, 19.866471491304587 ], [ -155.762734450508106, 19.86519429962042 ], [ -155.762488507852225, 19.863295496087009 ], [ -155.761396596945133, 19.86242736668158 ], [ -155.759984010495316, 19.861592795944027 ], [ -155.759627426900039, 19.860683830640575 ], [ -155.760817935743461, 19.859848495753393 ], [ -155.760911077606977, 19.859322136486274 ], [ -155.760855909914028, 19.858914978585798 ], [ -155.760951559513956, 19.858375179196639 ], [ -155.760859706291143, 19.85769658440633 ], [ -155.76100558500471, 19.856871592216937 ], [ -155.75995511267314, 19.856442098482706 ], [ -155.759508628516244, 19.855872868844347 ], [ -155.758200289855608, 19.854917496226676 ], [ -155.758619259664869, 19.856454809137688 ], [ -155.759099060915105, 19.857240945234796 ], [ -155.7580361057868, 19.856985732418696 ], [ -155.757793123002017, 19.856675636051701 ], [ -155.756987393003726, 19.856346566815535 ], [ -155.756670856709178, 19.855572125804564 ], [ -155.756358213027198, 19.855059798250746 ], [ -155.756253244064965, 19.854092744026801 ], [ -155.756979112517371, 19.853978246114604 ], [ -155.757542553783111, 19.853701605641429 ], [ -155.757841407569742, 19.853723969023353 ], [ -155.758696136929473, 19.853181857374839 ], [ -155.759581230767651, 19.852671759655191 ], [ -155.759905127299277, 19.852341834174805 ], [ -155.75980817437167, 19.850071317968869 ], [ -155.759019917981959, 19.849378732803732 ], [ -155.758396030735639, 19.848024111677823 ], [ -155.757836075055252, 19.847003032724995 ], [ -155.758288439857751, 19.845879004299203 ], [ -155.758600306948637, 19.843816095167089 ], [ -155.757499983249801, 19.840728767656838 ], [ -155.757546513330539, 19.840171681456727 ], [ -155.757505791140488, 19.839219017226931 ], [ -155.758223287624276, 19.837078341931523 ], [ -155.759521137023739, 19.836424489525402 ], [ -155.75987897202188, 19.838453835818182 ], [ -155.759797735155644, 19.839427024379159 ], [ -155.760558126390407, 19.839398010921382 ], [ -155.761265161000154, 19.839450789217494 ], [ -155.761795893812064, 19.838910167024565 ], [ -155.76017344963401, 19.835951130083032 ], [ -155.759109402980641, 19.83444889904656 ], [ -155.758824097253267, 19.832467410112567 ], [ -155.757722042950206, 19.83070561328444 ], [ -155.756425843287275, 19.828502131389882 ], [ -155.754630773940477, 19.827941678937162 ], [ -155.754030717226811, 19.827618737264238 ], [ -155.753541723907034, 19.826011135654401 ], [ -155.752826997384801, 19.824292332387511 ], [ -155.75047887857167, 19.822228847224288 ], [ -155.750152156837544, 19.821519266955509 ], [ -155.749008597443435, 19.82051424777169 ], [ -155.749468636796536, 19.818310478709204 ], [ -155.750547723374439, 19.818391221253851 ], [ -155.751141233839519, 19.81809979763014 ], [ -155.751726810683181, 19.818143514890188 ], [ -155.752266050764604, 19.817594080159324 ], [ -155.753220575318352, 19.817356024117927 ], [ -155.754469263145239, 19.818027905847288 ], [ -155.754862058574076, 19.816558249473989 ], [ -155.755507570080823, 19.816292082305583 ], [ -155.75617689285113, 19.81560987871989 ], [ -155.757281264982055, 19.816825944262447 ], [ -155.758117764917984, 19.815973573977345 ], [ -155.758637748936536, 19.814953356236259 ], [ -155.759443130155375, 19.814298201308493 ], [ -155.760334187448763, 19.814777655463541 ], [ -155.760961895797465, 19.815044487041224 ], [ -155.761483979643003, 19.814512423973916 ], [ -155.761866482264367, 19.814263932913292 ], [ -155.763150021128439, 19.814954368705152 ], [ -155.76410059881195, 19.813985572370395 ], [ -155.76406482235501, 19.813144580838451 ], [ -155.763226195592352, 19.812407488764741 ], [ -155.763630993796625, 19.811733673230734 ], [ -155.764443290352858, 19.812170427685633 ], [ -155.76525213599021, 19.812101535294442 ], [ -155.764634489412373, 19.811558577530544 ], [ -155.764911955036922, 19.80944529803384 ], [ -155.765304304879066, 19.810296985198942 ], [ -155.766322916588479, 19.810258067352262 ], [ -155.766752735860251, 19.808650215592621 ], [ -155.767310114826245, 19.808691780320114 ], [ -155.767901872798006, 19.808401053847494 ], [ -155.769383171289917, 19.808167152726533 ], [ -155.770716866230259, 19.806263887750806 ], [ -155.771528100068821, 19.806324310614844 ], [ -155.772373895213377, 19.80629201223806 ], [ -155.773390323226749, 19.805792643577913 ], [ -155.774017719737571, 19.805548548639962 ], [ -155.773871350451827, 19.807305400927852 ], [ -155.774153199580638, 19.807972621447309 ], [ -155.775360556384982, 19.806249485758507 ], [ -155.77565087520756, 19.807203496894491 ], [ -155.776335906091447, 19.807177265974634 ], [ -155.777300902934456, 19.806193835521061 ], [ -155.777778926153502, 19.804821888602518 ], [ -155.778272272655272, 19.805364939312902 ], [ -155.77916727420876, 19.803971690711613 ], [ -155.780171193725749, 19.805076869210691 ], [ -155.781533853715302, 19.805668911085903 ], [ -155.782456919471116, 19.804351510987207 ], [ -155.782999392247348, 19.803286914347154 ], [ -155.784016790840809, 19.803834371196178 ], [ -155.784522308971333, 19.803814920543822 ], [ -155.785749092607318, 19.803036324292876 ], [ -155.786337150281042, 19.803080231017688 ], [ -155.786322131544324, 19.802729326839401 ], [ -155.786957649984373, 19.801148106793118 ], [ -155.788629197640915, 19.801272587500833 ], [ -155.788942439486789, 19.800657604681373 ], [ -155.789407512827268, 19.799882991473645 ], [ -155.790984387505773, 19.800450782800969 ], [ -155.791859135786325, 19.799558978693486 ], [ -155.793285661393526, 19.799948201553409 ], [ -155.793846956738605, 19.799375741148079 ], [ -155.794416875564764, 19.79941823629229 ], [ -155.795356859315092, 19.799117794529575 ], [ -155.79584940924326, 19.798615489051357 ], [ -155.796394417607814, 19.798172033712159 ], [ -155.796693907006073, 19.799302036261878 ], [ -155.795710635929396, 19.80094026121284 ], [ -155.796733321431361, 19.802383374230722 ], [ -155.797965248589264, 19.802768013865133 ], [ -155.79845577582401, 19.803832161288263 ], [ -155.797951937227594, 19.80587405774062 ], [ -155.797995942990497, 19.806899256683508 ], [ -155.800003013624831, 19.80866226352185 ], [ -155.800815540705997, 19.810781978635756 ], [ -155.80135062586649, 19.811757543391007 ], [ -155.802175217833792, 19.811725783515818 ], [ -155.802581421368274, 19.811756068688073 ], [ -155.804006310320602, 19.813324034575889 ], [ -155.804431725123777, 19.815216269124736 ], [ -155.805323333598153, 19.815844400313601 ], [ -155.806869963451959, 19.815084606662143 ], [ -155.808590028882804, 19.817419661218516 ], [ -155.808026703545437, 19.818358106090557 ], [ -155.808068075069343, 19.819322178443748 ], [ -155.808931067749313, 19.820895134777079 ], [ -155.809578859324148, 19.821463885605276 ], [ -155.810227668070524, 19.822177827105453 ], [ -155.810550090969457, 19.822165347277465 ], [ -155.810960509885319, 19.822195956467631 ], [ -155.811372734498235, 19.8235498262394 ], [ -155.811692397438549, 19.824445627270876 ], [ -155.814673731555985, 19.825027508411548 ], [ -155.816020650465987, 19.826509392791593 ], [ -155.816468494994552, 19.827480726187297 ], [ -155.81812010526221, 19.828931017779276 ], [ -155.820126818698782, 19.830189568644283 ], [ -155.820957662262401, 19.830761287151276 ], [ -155.821826914527065, 19.831032229871258 ], [ -155.822091064779755, 19.831323058480105 ], [ -155.822388229977065, 19.831583800633936 ], [ -155.822652382141598, 19.831874628660909 ], [ -155.824009676629657, 19.833066300984896 ], [ -155.823478511945439, 19.83349871068004 ], [ -155.823147454712966, 19.834449277875219 ], [ -155.823205408036813, 19.835791796524546 ], [ -155.824353846414482, 19.837411837187251 ], [ -155.826533632401123, 19.838968793214189 ], [ -155.826859613319471, 19.839327356213282 ], [ -155.826753443021545, 19.840605076586684 ], [ -155.826810418667776, 19.841927747132495 ], [ -155.82730570262575, 19.843315075982652 ], [ -155.827612115608616, 19.844320896780829 ], [ -155.827526106534464, 19.84535754538242 ], [ -155.827544662874232, 19.845787585972918 ], [ -155.829202335111688, 19.845723746734123 ], [ -155.829523953685822, 19.846077733947094 ], [ -155.830520022630907, 19.846764746913369 ] ] ] } },
{ "type": "Feature", "properties": { "ID": 17, "GRIDCODE": 2 }, "geometry": { "type": "Polygon", "coordinates": [ [ [ -155.914865521897212, 19.776753558761587 ], [ -155.915151495640117, 19.776758495503291 ], [ -155.915141065853902, 19.777299920515667 ], [ -155.914855091147871, 19.77729498362784 ], [ -155.914865521897212, 19.776753558761587 ] ] ] } },
{ "type": "Feature", "properties": { "ID": 18, "GRIDCODE": 2 }, "geometry": { "type": "Polygon", "coordinates": [ [ [ -155.914865521897212, 19.776753558761587 ], [ -155.914429710299629, 19.776434770419886 ], [ -155.913641253298522, 19.775178479648467 ], [ -155.914178829069982, 19.775275561678008 ], [ -155.914485027052393, 19.775231130746512 ], [ -155.914865521897212, 19.776753558761587 ] ] ] } },
{ "type": "Feature", "properties": { "ID": 19, "GRIDCODE": 2 }, "geometry": { "type": "Polygon", "coordinates": [ [ [ -155.93314635665314, 19.763257101891778 ], [ -155.932490817235561, 19.763136106661296 ], [ -155.932997669449264, 19.762910754510891 ], [ -155.93314635665314, 19.763257101891778 ] ] ] } },
{ "type": "Feature", "properties": { "ID": 20, "GRIDCODE": 2 }, "geometry": { "type": "Polygon", "coordinates": [ [ [ -155.920891997253193, 19.760880070170231 ], [ -155.921782967330074, 19.761046149630026 ], [ -155.92213160486898, 19.762674066931087 ], [ -155.922436327102133, 19.763199763732928 ], [ -155.922345850863849, 19.763910918810772 ], [ -155.922712570466302, 19.764888582299541 ], [ -155.922357813726563, 19.767680433461564 ], [ -155.923028945999874, 19.768080738061315 ], [ -155.922871747643171, 19.766302201656401 ], [ -155.923039296956517, 19.765126927806577 ], [ -155.923552532732771, 19.765733962339127 ], [ -155.923389637154713, 19.767016157852336 ], [ -155.923509418608518, 19.768372241005597 ], [ -155.923423535713937, 19.769047773861022 ], [ -155.923502426429224, 19.769943790818139 ], [ -155.922784539252547, 19.770784573233207 ], [ -155.922266021092355, 19.769594051836538 ], [ -155.922409184613201, 19.768467284552006 ], [ -155.922006578607039, 19.767772500150414 ], [ -155.922088215992318, 19.767129159206824 ], [ -155.922009530329831, 19.766237377351541 ], [ -155.921272998300111, 19.764966938123916 ], [ -155.920988524638318, 19.76398354864466 ], [ -155.92068104684077, 19.76373230862934 ], [ -155.920397002986221, 19.762406983407523 ], [ -155.920748907275964, 19.761567045745903 ], [ -155.920891997253193, 19.760880070170231 ] ] ] } },
{ "type": "Feature", "properties": { "ID": 21, "GRIDCODE": 2 }, "geometry": { "type": "Polygon", "coordinates": [ [ [ -155.915141065853902, 19.777299920515667 ], [ -155.915292251730591, 19.777427882270082 ], [ -155.915680975554068, 19.777870943804775 ], [ -155.916134536838342, 19.778254827773186 ], [ -155.916847653755696, 19.779377583362887 ], [ -155.917204711545878, 19.781001420752563 ], [ -155.917577469336862, 19.781316736392675 ], [ -155.918956893275777, 19.78123580399242 ], [ -155.918925169668796, 19.780750244204444 ], [ -155.918954270513524, 19.780472009123034 ], [ -155.917401389440897, 19.778316883554805 ], [ -155.917985186772938, 19.778161403950332 ], [ -155.918076862052004, 19.778493026325275 ], [ -155.918331935574457, 19.778260208198311 ], [ -155.917985186772938, 19.778161403950332 ], [ -155.918247049675131, 19.777096723843911 ], [ -155.91772179629146, 19.776141176695287 ], [ -155.917333208108289, 19.775299057553219 ], [ -155.916760406647796, 19.774492106251707 ], [ -155.916280118668482, 19.772362619268876 ], [ -155.915953813818646, 19.771768575093763 ], [ -155.916017247025337, 19.770998516213471 ], [ -155.915679064989604, 19.770383110529206 ], [ -155.915766552994796, 19.769321243045027 ], [ -155.915472982812332, 19.766533837796405 ], [ -155.916295625599332, 19.763443579081827 ], [ -155.916981197037927, 19.763106054452553 ], [ -155.917281063209117, 19.763128149673292 ], [ -155.917759172963542, 19.760156761289782 ], [ -155.919401440420074, 19.760735393433215 ], [ -155.91893980562304, 19.766134784725857 ], [ -155.918084031956823, 19.767986303597581 ], [ -155.918609298058328, 19.768025241621871 ], [ -155.918895572451845, 19.768013779423239 ], [ -155.919617222835456, 19.768067206222227 ], [ -155.92017581165058, 19.766968491968626 ], [ -155.920885476482596, 19.76824138186522 ], [ -155.92059830974722, 19.769142200144461 ], [ -155.920007230346641, 19.770128754456582 ], [ -155.920356910802496, 19.771788955950214 ], [ -155.920790020004546, 19.773207558961047 ], [ -155.921345245920065, 19.773694468127012 ], [ -155.921627115318699, 19.774305193923542 ], [ -155.921919173305326, 19.774836493431337 ], [ -155.922269445866959, 19.775594905931634 ], [ -155.923747240376201, 19.776891331087299 ], [ -155.924143666815837, 19.777327368979812 ], [ -155.924440937199989, 19.77758795120921 ], [ -155.924941613738469, 19.778138176354609 ], [ -155.92530130993913, 19.77788308168941 ], [ -155.923748974153426, 19.77591392688462 ], [ -155.923066602782029, 19.774671925026979 ], [ -155.923508875040397, 19.774538847479111 ], [ -155.92420175451673, 19.77514659560681 ], [ -155.924460838347386, 19.775708001634964 ], [ -155.924758106709589, 19.775968583043205 ], [ -155.925022391553227, 19.776259273609345 ], [ -155.92591392106587, 19.777041274212149 ], [ -155.926839219921078, 19.778058426152423 ], [ -155.92752223556684, 19.778657532135107 ], [ -155.928236577702222, 19.77976466960547 ], [ -155.92950702542845, 19.780878982464213 ], [ -155.929550937662754, 19.781881505018568 ], [ -155.928631653327471, 19.782820662780903 ], [ -155.927986478849306, 19.783087515759661 ], [ -155.927196557907592, 19.783894279550942 ], [ -155.92642910274833, 19.784520007456017 ], [ -155.925763409532721, 19.785200109577872 ], [ -155.924521487707182, 19.785451124285245 ], [ -155.923993428599033, 19.785990516552161 ], [ -155.922987392451972, 19.786265679879815 ], [ -155.920676469044594, 19.788626065730067 ], [ -155.920212450047615, 19.788362600733166 ], [ -155.91994815828204, 19.788071901871849 ], [ -155.919389324139132, 19.787581747880594 ], [ -155.919374732949223, 19.787251190454842 ], [ -155.919916244588336, 19.78634762540781 ], [ -155.918754297996315, 19.785549292600404 ], [ -155.917136078117153, 19.784812103236469 ], [ -155.914871017728643, 19.783195789093941 ], [ -155.91491955401915, 19.782605304896926 ], [ -155.914057096835961, 19.782012575412164 ], [ -155.912719944643101, 19.781596230383606 ], [ -155.912100795735853, 19.780469531095598 ], [ -155.91180387016982, 19.779496758973821 ], [ -155.911238226308797, 19.77900038530289 ], [ -155.910709421839044, 19.778419228248563 ], [ -155.909871272552238, 19.777683568593488 ], [ -155.90982269351062, 19.776567259191467 ], [ -155.910459169886508, 19.775737297951018 ], [ -155.910743161318635, 19.775178654152182 ], [ -155.911306105763316, 19.775481135705792 ], [ -155.911889320102063, 19.775746677825342 ], [ -155.912435699934974, 19.777169366212146 ], [ -155.912996676367158, 19.777661423914413 ], [ -155.914303649818748, 19.779308810895639 ], [ -155.915346304928192, 19.778755060200332 ], [ -155.915141065853902, 19.777299920515667 ] ] ] } },
{ "type": "Feature", "properties": { "ID": 22, "GRIDCODE": 2 }, "geometry": { "type": "Polygon", "coordinates": [ [ [ -155.911481873588315, 19.75936378464813 ], [ -155.913233165018482, 19.759529951066529 ], [ -155.91363789602616, 19.760459622187295 ], [ -155.913581964095073, 19.760898182127715 ], [ -155.913886653548502, 19.761423889396085 ], [ -155.914242580034937, 19.76265446167643 ], [ -155.9137314298153, 19.763464659090687 ], [ -155.91424214053697, 19.764345648306744 ], [ -155.914673339853181, 19.763872308905292 ], [ -155.915069135175713, 19.763917484177657 ], [ -155.914917681084233, 19.765109946852867 ], [ -155.915123593180255, 19.767444148825451 ], [ -155.914527151481678, 19.768867470067406 ], [ -155.914601191527055, 19.769708130207427 ], [ -155.914513949374708, 19.770394208985778 ], [ -155.913376299046206, 19.771705572231038 ], [ -155.912813047892456, 19.77253549030819 ], [ -155.912151310362333, 19.772460061315243 ], [ -155.9116919845859, 19.771405676935718 ], [ -155.911108988454913, 19.770608056392703 ], [ -155.910875856812595, 19.769225159716122 ], [ -155.909912515518528, 19.766973073841616 ], [ -155.910363468036223, 19.766258641398405 ], [ -155.910337748178563, 19.765969941090468 ], [ -155.910767089144116, 19.765289512700065 ], [ -155.910614156308299, 19.763557599083526 ], [ -155.911667362917569, 19.763146846865475 ], [ -155.911560769881419, 19.761937767780847 ], [ -155.911621020831177, 19.761463846792456 ], [ -155.911217478302575, 19.75999470418418 ], [ -155.911481873588315, 19.75936378464813 ] ] ] } },
{ "type": "Feature", "properties": { "ID": 23, "GRIDCODE": 2 }, "geometry": { "type": "Polygon", "coordinates": [ [ [ -155.894627191930965, 19.758259513592073 ], [ -155.904206300230982, 19.758558341073233 ], [ -155.906532873599872, 19.758643556586019 ], [ -155.906423767008306, 19.76131530192281 ], [ -155.905864096061322, 19.761294776247642 ], [ -155.905578097234127, 19.761582049158839 ], [ -155.90613994243418, 19.762112216649204 ], [ -155.906386388806482, 19.766637588884922 ], [ -155.906028982523708, 19.767266093716398 ], [ -155.906030358102782, 19.767802430295568 ], [ -155.905733412421, 19.768062802674159 ], [ -155.905431916980007, 19.769151629714948 ], [ -155.906010190380414, 19.769150532236353 ], [ -155.905987618824895, 19.769697296859995 ], [ -155.906275412868325, 19.769968847527625 ], [ -155.905961573460218, 19.771045825693054 ], [ -155.905962391414278, 19.771321665311497 ], [ -155.905424179269147, 19.771793654195324 ], [ -155.906216804643577, 19.772945585051698 ], [ -155.906486625048672, 19.773497146156362 ], [ -155.907054954946915, 19.774590450504558 ], [ -155.906969647737498, 19.776678690007756 ], [ -155.90727179418613, 19.777567460330939 ], [ -155.907550365000191, 19.778433079421411 ], [ -155.908115212228381, 19.779519711231263 ], [ -155.90865462380259, 19.780028598310285 ], [ -155.90892446146367, 19.780580158089617 ], [ -155.909520308172688, 19.781726032419154 ], [ -155.910042716973095, 19.782219019668631 ], [ -155.910582124892102, 19.783322396423458 ], [ -155.911155306274622, 19.783863067811417 ], [ -155.911418841500023, 19.785277696607398 ], [ -155.911388002330881, 19.786036148370012 ], [ -155.91138946547656, 19.786713177628691 ], [ -155.911340812926483, 19.787902382291488 ], [ -155.911654914875214, 19.788506538750919 ], [ -155.911611946203692, 19.789560440987241 ], [ -155.911612781515061, 19.789980409405928 ], [ -155.913302227852284, 19.791211826861907 ], [ -155.913577317438779, 19.791492672038345 ], [ -155.914445503759595, 19.791776095625586 ], [ -155.911268522175448, 19.792530673928464 ], [ -155.909261543230343, 19.793042842307621 ], [ -155.898130990187667, 19.795877569053378 ], [ -155.893929295320078, 19.796562710949456 ], [ -155.888645963210053, 19.795829698978331 ], [ -155.885525932448559, 19.796277759970955 ], [ -155.881371535794017, 19.797086391118842 ], [ -155.875930018706299, 19.799278735271553 ], [ -155.873184663458915, 19.801437484057679 ], [ -155.860747592695986, 19.811325479327923 ], [ -155.855202453647081, 19.818136151348291 ], [ -155.851463583884367, 19.82331990789335 ], [ -155.850397480331594, 19.82850926834179 ], [ -155.850405578135309, 19.832900997411002 ], [ -155.850234946650176, 19.837030678354754 ], [ -155.84895820518426, 19.839856675589999 ], [ -155.846707602073849, 19.841827679144856 ], [ -155.840712297057138, 19.843943318054205 ], [ -155.840784646607489, 19.842194803178558 ], [ -155.842774929122783, 19.842268419352635 ], [ -155.842774394319605, 19.841942355202033 ], [ -155.842221977715042, 19.840879038375032 ], [ -155.842541916240577, 19.840598847259788 ], [ -155.841392450070344, 19.839513843669685 ], [ -155.84112815043548, 19.838691511377245 ], [ -155.840841473440776, 19.83842093269848 ], [ -155.840853192170641, 19.838139511994658 ], [ -155.841865201026167, 19.838177014999236 ], [ -155.842261360162752, 19.838987667481142 ], [ -155.842547761429813, 19.839258239376971 ], [ -155.842965761855737, 19.839685575152554 ], [ -155.843400376723821, 19.839273077634008 ], [ -155.843935429096007, 19.839292866312821 ], [ -155.844259092308846, 19.839262104659252 ], [ -155.843707747274152, 19.83820092665837 ], [ -155.843443441537914, 19.837378332021153 ], [ -155.843151676882741, 19.83737898251086 ], [ -155.842357054274743, 19.836566297945684 ], [ -155.841742796517991, 19.836270613487443 ], [ -155.840949053398134, 19.835865970404566 ], [ -155.840358506875134, 19.834203283781555 ], [ -155.841345967960621, 19.833771235098233 ], [ -155.840937861972122, 19.832986021314269 ], [ -155.840970937090475, 19.832190114228023 ], [ -155.840415117383117, 19.830820514726113 ], [ -155.839563347839942, 19.830821813341053 ], [ -155.839297220114759, 19.829993894964414 ], [ -155.838861608552548, 19.829582637441913 ], [ -155.839583058346932, 19.828950722634989 ], [ -155.837316002004599, 19.828610122125458 ], [ -155.837046372127958, 19.828058479000244 ], [ -155.836631071029529, 19.82766635271393 ], [ -155.835467889482885, 19.827223404563796 ], [ -155.834185831162159, 19.828013003557309 ], [ -155.83245872224461, 19.828247827556382 ], [ -155.832172790976699, 19.828518821566622 ], [ -155.831702998467421, 19.828930138022354 ], [ -155.829464489744794, 19.829573919458447 ], [ -155.827237608200846, 19.829491203661206 ], [ -155.826446663375549, 19.828682493717675 ], [ -155.825593607715177, 19.828131030404396 ], [ -155.82526016146582, 19.82633591329207 ], [ -155.823430307419557, 19.825878905678934 ], [ -155.823088654512134, 19.824876951259494 ], [ -155.825146612563998, 19.822643937771311 ], [ -155.825144643453058, 19.821562090741274 ], [ -155.824547005420953, 19.819802465492501 ], [ -155.822624274483104, 19.818877074510787 ], [ -155.821034324387483, 19.818065486054184 ], [ -155.820671484608567, 19.816935958786104 ], [ -155.820390546715601, 19.816394675026846 ], [ -155.819825147723833, 19.815236679690923 ], [ -155.819900896716632, 19.813409982698445 ], [ -155.819311128062452, 19.813126042951001 ], [ -155.818750183109444, 19.812839971053076 ], [ -155.817359408923181, 19.812385196020983 ], [ -155.817061068777264, 19.811455936034463 ], [ -155.816699149524283, 19.810759038328879 ], [ -155.81514031801197, 19.809751489603453 ], [ -155.814241074420664, 19.808398189337503 ], [ -155.813354192987788, 19.807560755217626 ], [ -155.811336485007217, 19.80658941020048 ], [ -155.810882304337781, 19.805659211665894 ], [ -155.810601415995848, 19.805117919210044 ], [ -155.81033549813688, 19.803994344912415 ], [ -155.809525388859498, 19.802433983027257 ], [ -155.809209216935386, 19.801449131382547 ], [ -155.808083845128294, 19.800721650891486 ], [ -155.807558436655597, 19.800184180843384 ], [ -155.807129027091804, 19.799778263677794 ], [ -155.806716693282084, 19.799356785132282 ], [ -155.806143868928416, 19.798815819480581 ], [ -155.80561600629477, 19.797170853069439 ], [ -155.805043761929312, 19.796895122421812 ], [ -155.803514138287738, 19.795680702723654 ], [ -155.804250744201568, 19.794693007633576 ], [ -155.80565885323108, 19.794745440403659 ], [ -155.805950449930691, 19.794469034738107 ], [ -155.806614732652037, 19.794178403643439 ], [ -155.808961113872726, 19.794265833291615 ], [ -155.80970846009825, 19.794264643467901 ], [ -155.810828232082116, 19.793743877307246 ], [ -155.811469115157138, 19.793463386108062 ], [ -155.812838142157318, 19.793514269828652 ], [ -155.813138471275209, 19.793514076839163 ], [ -155.813714945481422, 19.79244150123699 ], [ -155.814117552454206, 19.792089052141279 ], [ -155.814869796883272, 19.792472945034476 ], [ -155.815588083688425, 19.792471740035225 ], [ -155.816018899743, 19.791670248212512 ], [ -155.816327205556377, 19.791128626857414 ], [ -155.816892785488051, 19.791149814901942 ], [ -155.817464918885378, 19.790883675845475 ], [ -155.818619670485191, 19.790638756210296 ], [ -155.818927533248655, 19.789795663530722 ], [ -155.819812039623855, 19.789021014516351 ], [ -155.820591225695239, 19.787570964604349 ], [ -155.82260890027743, 19.787143310236033 ], [ -155.823016629805863, 19.785025279688583 ], [ -155.823645274418226, 19.783387955436201 ], [ -155.825363504323406, 19.782364448172878 ], [ -155.826795813057089, 19.781375244870528 ], [ -155.827128143899813, 19.780182183883149 ], [ -155.829000091731046, 19.777670987435222 ], [ -155.830304984827279, 19.778119621459624 ], [ -155.832524517988958, 19.778453300804049 ], [ -155.835444663016887, 19.778448451312972 ], [ -155.838080458035932, 19.777423864099109 ], [ -155.840556604389576, 19.775073941469294 ], [ -155.844256948833134, 19.772685830820393 ], [ -155.848742710276838, 19.770381819744898 ], [ -155.85406201157582, 19.76827085014973 ], [ -155.864610528773937, 19.764308340282827 ], [ -155.870627415881899, 19.761830367954179 ], [ -155.879351283220132, 19.760260473119189 ], [ -155.886805854386211, 19.759017113979489 ], [ -155.894484343241942, 19.758395077097987 ], [ -155.894627191930965, 19.758259513592073 ] ] ] } },
{ "type": "Feature", "properties": { "ID": 24, "GRIDCODE": 2 }, "geometry": { "type": "Polygon", "coordinates": [ [ [ -155.93314635665314, 19.763257101891778 ], [ -155.933620165977715, 19.763108932253317 ], [ -155.943263710867598, 19.764925078118623 ], [ -155.947265859134603, 19.765296527386059 ], [ -155.950129480930258, 19.765238025584246 ], [ -155.956335864201122, 19.764118788536798 ], [ -155.960355376461422, 19.763194364176837 ], [ -155.964232423969605, 19.761618956235413 ], [ -155.968307532687646, 19.759064849834051 ], [ -155.971514010543359, 19.756438804680752 ], [ -155.972809095123125, 19.756509389775655 ], [ -155.973841350684751, 19.758679884767787 ], [ -155.974271727181559, 19.759484006186881 ], [ -155.974533097639153, 19.760199580536614 ], [ -155.972707158104015, 19.759244898015691 ], [ -155.972263021372044, 19.759820529079956 ], [ -155.973669141707944, 19.761098696514036 ], [ -155.974040055210281, 19.762699974550994 ], [ -155.973606851037346, 19.763805785236976 ], [ -155.973171073545416, 19.765032676381686 ], [ -155.972634233594505, 19.766403575590509 ], [ -155.972110225815442, 19.767301822872611 ], [ -155.972128096871785, 19.768085740325585 ], [ -155.971798964686286, 19.768649826757084 ], [ -155.971508608845198, 19.769467928132311 ], [ -155.971055785317759, 19.769850873234795 ], [ -155.970354924015226, 19.770541948056113 ], [ -155.969137241935414, 19.771572030026203 ], [ -155.966017967623458, 19.771801562312611 ], [ -155.963309930826341, 19.772089331984251 ], [ -155.962310312087112, 19.771738327938124 ], [ -155.961981369942976, 19.77174516739225 ], [ -155.961415978225489, 19.772302569135597 ], [ -155.959625854629905, 19.773065257052522 ], [ -155.958991511084747, 19.773030663899494 ], [ -155.958276051999377, 19.773045465217965 ], [ -155.957418728819846, 19.772998608935527 ], [ -155.955014966771813, 19.773047856861151 ], [ -155.953254685100205, 19.772328140629384 ], [ -155.950948197624427, 19.772375290228332 ], [ -155.94877479234637, 19.773736942702872 ], [ -155.946955222237023, 19.77363763964162 ], [ -155.945667887652377, 19.774444467719078 ], [ -155.943766715639356, 19.774697850297276 ], [ -155.943083539632937, 19.774660513829026 ], [ -155.942734757263253, 19.774667506501014 ], [ -155.941648697395578, 19.775188160532 ], [ -155.940904559848263, 19.77550494286556 ], [ -155.938378084678675, 19.77510412972654 ], [ -155.937957069525794, 19.773760335937709 ], [ -155.937556534132369, 19.773011398780767 ], [ -155.936437365364071, 19.772487894875642 ], [ -155.935864272734676, 19.771282184628035 ], [ -155.934223179884071, 19.770238521359119 ], [ -155.934724353187164, 19.769814724722202 ], [ -155.933944516579771, 19.768698819758836 ], [ -155.933421795809409, 19.765826023932124 ], [ -155.933910502285784, 19.764578487507574 ], [ -155.933275877089159, 19.763670822082922 ], [ -155.93314635665314, 19.763257101891778 ] ] ] } },
{ "type": "Feature", "properties": { "ID": 25, "GRIDCODE": 2 }, "geometry": { "type": "Polygon", "coordinates": [ [ [ -155.983188142157417, 19.73377694975785 ], [ -155.983375814812121, 19.733941438368038 ], [ -155.983871798584687, 19.735014813703547 ], [ -155.984434544709956, 19.735508273019366 ], [ -155.984148477014315, 19.736373559278121 ], [ -155.983836475069296, 19.736894597284952 ], [ -155.983416187835104, 19.737722974570694 ], [ -155.982863395479086, 19.738646177198934 ], [ -155.983298228174277, 19.739436599840609 ], [ -155.982544139291889, 19.741320133673888 ], [ -155.982893906166026, 19.742297161233239 ], [ -155.982838073126459, 19.742978815125003 ], [ -155.982885840852248, 19.744062886400943 ], [ -155.982808264856658, 19.745009436133245 ], [ -155.982840444829719, 19.745734095324806 ], [ -155.982451941637464, 19.748434650012705 ], [ -155.982749328232075, 19.74907835794852 ], [ -155.983042378126754, 19.749611179934703 ], [ -155.982977109837321, 19.750407982676265 ], [ -155.983606951461127, 19.750960235600946 ], [ -155.983560915297289, 19.751521720942733 ], [ -155.983573136265278, 19.751792743447457 ], [ -155.983528604209909, 19.75233362546814 ], [ -155.983627320501057, 19.754570054364713 ], [ -155.982643270800253, 19.755576159612556 ], [ -155.981764404621828, 19.755816809003619 ], [ -155.980910842958849, 19.756360168461292 ], [ -155.980612081768356, 19.756338199464977 ], [ -155.980049289992252, 19.756615646578972 ], [ -155.978374974582465, 19.757309103189797 ], [ -155.977781102528098, 19.757916073232938 ], [ -155.976503895977032, 19.757622349731808 ], [ -155.975464091618392, 19.757064462170774 ], [ -155.974594850384847, 19.756794285774035 ], [ -155.974044538075987, 19.756498823019975 ], [ -155.972098351160781, 19.755893581468584 ], [ -155.976183575922221, 19.751692857429433 ], [ -155.978008361544454, 19.749311212144555 ], [ -155.979950002400102, 19.745511846201733 ], [ -155.981443633542966, 19.741780530198508 ], [ -155.982639353253489, 19.737340682826158 ], [ -155.983188142157417, 19.73377694975785 ] ] ] } },
{ "type": "Feature", "properties": { "ID": 26, "GRIDCODE": 2 }, "geometry": { "type": "Polygon", "coordinates": [ [ [ -155.983269537710726, 19.72944525196862 ], [ -155.983503010904798, 19.729609718100683 ], [ -155.983781711039114, 19.731083541774243 ], [ -155.983328139090474, 19.733045141232076 ], [ -155.983269537710726, 19.72944525196862 ] ] ] } },
{ "type": "Feature", "properties": { "ID": 27, "GRIDCODE": 2 }, "geometry": { "type": "Polygon", "coordinates": [ [ [ -155.983305141490661, 19.7275501334267 ], [ -155.983686004274972, 19.727748289187328 ], [ -155.983410674996065, 19.728444231751308 ], [ -155.983305141490661, 19.7275501334267 ] ] ] } },
{ "type": "Feature", "properties": { "ID": 28, "GRIDCODE": 1 }, "geometry": { "type": "Polygon", "coordinates": [ [ [ -155.247208284961658, 19.314413677891078 ], [ -155.247553462245946, 19.314513563747362 ], [ -155.247298149149799, 19.31474540080599 ], [ -155.247208284961658, 19.314413677891078 ] ] ] } },
{ "type": "Feature", "properties": { "ID": 29, "GRIDCODE": 1 }, "geometry": { "type": "Polygon", "coordinates": [ [ [ -155.246929506798011, 19.314137271532086 ], [ -155.247214467224381, 19.314143141044426 ], [ -155.247208284961658, 19.314413677891078 ], [ -155.246923324068518, 19.314407808290177 ], [ -155.246929506798011, 19.314137271532086 ] ] ] } },
{ "type": "Feature", "properties": { "ID": 30, "GRIDCODE": 1 }, "geometry": { "type": "Polygon", "coordinates": [ [ [ -155.291215682594242, 19.309901294759477 ], [ -155.292147800461862, 19.310074895560955 ], [ -155.292550279345107, 19.313163600311238 ], [ -155.293812330353319, 19.314164657486977 ], [ -155.295115693841467, 19.314717448383295 ], [ -155.294886755581729, 19.316201509401658 ], [ -155.29500475601057, 19.317289783843702 ], [ -155.294379400439709, 19.318252184346239 ], [ -155.295399460937432, 19.319639261495052 ], [ -155.294737792560881, 19.320557044566414 ], [ -155.292989270981224, 19.320727383554516 ], [ -155.292464636465837, 19.320310957884544 ], [ -155.292585970143591, 19.319524663321598 ], [ -155.29168689497078, 19.319143172531465 ], [ -155.291111944265822, 19.318686598912876 ], [ -155.290598485676725, 19.317332287345899 ], [ -155.291049234822083, 19.316285727190024 ], [ -155.290166179068223, 19.315910901923413 ], [ -155.289415594128883, 19.313197595905702 ], [ -155.289853920128706, 19.312700592577627 ], [ -155.290454027719818, 19.312264241040548 ], [ -155.290751604937384, 19.310824144671447 ], [ -155.29107927999587, 19.310319597963232 ], [ -155.291215682594242, 19.309901294759477 ] ] ] } },
{ "type": "Feature", "properties": { "ID": 31, "GRIDCODE": 1 }, "geometry": { "type": "Polygon", "coordinates": [ [ [ -155.236856938171314, 19.305809662251338 ], [ -155.237515225995281, 19.306143077479231 ], [ -155.237259415731785, 19.308074192019365 ], [ -155.236707691601367, 19.30777971550441 ], [ -155.235992455265034, 19.306334985169187 ], [ -155.236757100359711, 19.30598733727097 ], [ -155.236856938171314, 19.305809662251338 ] ] ] } },
{ "type": "Feature", "properties": { "ID": 32, "GRIDCODE": 1 }, "geometry": { "type": "Polygon", "coordinates": [ [ [ -155.246929506798011, 19.314137271532086 ], [ -155.246356868863899, 19.313952081083556 ], [ -155.241413161771987, 19.310774813485178 ], [ -155.241591499130891, 19.308017941661756 ], [ -155.241065983762155, 19.305701447617924 ], [ -155.240107722443213, 19.304315418107173 ], [ -155.242129730796876, 19.303352436888474 ], [ -155.242688766126463, 19.303789779484497 ], [ -155.244022515091501, 19.30687253993819 ], [ -155.244749799279816, 19.309230723151213 ], [ -155.246801987248034, 19.313723362244641 ], [ -155.246929506798011, 19.314137271532086 ] ] ] } },
{ "type": "Feature", "properties": { "ID": 33, "GRIDCODE": 1 }, "geometry": { "type": "Polygon", "coordinates": [ [ [ -155.271415566101467, 19.303001184696704 ], [ -155.271605264045689, 19.303131412670961 ], [ -155.272358112672549, 19.304282620472417 ], [ -155.27177530214027, 19.304250876776013 ], [ -155.271224248825831, 19.303408563274836 ], [ -155.271415566101467, 19.303001184696704 ] ] ] } },
{ "type": "Feature", "properties": { "ID": 34, "GRIDCODE": 1 }, "geometry": { "type": "Polygon", "coordinates": [ [ [ -155.298129544579695, 19.294071941381116 ], [ -155.298284891913056, 19.294195366149101 ], [ -155.298838033989966, 19.295519535084416 ], [ -155.300185512033323, 19.296308951735988 ], [ -155.301079537953314, 19.296688168458886 ], [ -155.301326554633476, 19.296993990595595 ], [ -155.302240620111178, 19.297547011934387 ], [ -155.303031581733592, 19.298622500785985 ], [ -155.303266434982504, 19.299469430542327 ], [ -155.303804684225867, 19.300888714937066 ], [ -155.303533875942179, 19.301640277040399 ], [ -155.302915212953309, 19.302409631605329 ], [ -155.302630308032064, 19.303787376431615 ], [ -155.30116283688676, 19.304268827070565 ], [ -155.300476563620265, 19.305047635832722 ], [ -155.30003831909633, 19.304504787942854 ], [ -155.298787770584056, 19.305169309232976 ], [ -155.297956824448448, 19.304509577976908 ], [ -155.297231199179606, 19.303278117386114 ], [ -155.297816453980715, 19.300952774847925 ], [ -155.2982109827268, 19.300345683639211 ], [ -155.299165679919696, 19.298129865319684 ], [ -155.298734820720028, 19.296023373517233 ], [ -155.29768625598328, 19.295262748912549 ], [ -155.297119314424236, 19.295318113947722 ], [ -155.297392806207228, 19.294447932998253 ], [ -155.297999271198677, 19.294219702313551 ], [ -155.298129544579695, 19.294071941381116 ] ] ] } },
{ "type": "Feature", "properties": { "ID": 35, "GRIDCODE": 1 }, "geometry": { "type": "Polygon", "coordinates": [ [ [ -155.306926340322519, 19.295874367601705 ], [ -155.306836353300298, 19.295542655242567 ], [ -155.306581143184246, 19.295774594807835 ], [ -155.306926340322519, 19.295874367601705 ], [ -155.307102148382455, 19.297045495320997 ], [ -155.305674947141796, 19.296456725249225 ], [ -155.304909391986882, 19.295191705138787 ], [ -155.304556489255901, 19.294320180767233 ], [ -155.304246192521475, 19.293807428242896 ], [ -155.303744230515122, 19.292408972158746 ], [ -155.302614423506895, 19.291943047764551 ], [ -155.303155865532233, 19.291585012862704 ], [ -155.304052712532297, 19.291367402656892 ], [ -155.305170602896709, 19.290976104101048 ], [ -155.306041997525568, 19.291643489016341 ], [ -155.306283346737274, 19.291953947977628 ], [ -155.307321703812136, 19.292748946946258 ], [ -155.307653373802907, 19.294417801081575 ], [ -155.308124337061571, 19.29608260283478 ], [ -155.307636123995934, 19.296003990878905 ], [ -155.307341901409075, 19.29603926940235 ], [ -155.306926340322519, 19.295874367601705 ] ] ] } },
{ "type": "Feature", "properties": { "ID": 36, "GRIDCODE": 1 }, "geometry": { "type": "Polygon", "coordinates": [ [ [ -155.326986801049429, 19.278414394918656 ], [ -155.327137041449561, 19.278542715764338 ], [ -155.327382256099071, 19.279379792866596 ], [ -155.327994708157803, 19.280476176117507 ], [ -155.327898347972109, 19.281376165271833 ], [ -155.328158543635936, 19.282914309355661 ], [ -155.328466011461813, 19.284405030669642 ], [ -155.328366731504957, 19.285335888915505 ], [ -155.328839871931223, 19.285740070081047 ], [ -155.329225828293374, 19.286183997560311 ], [ -155.32987465759723, 19.286474873204678 ], [ -155.330347475398071, 19.287018616713596 ], [ -155.330647976000137, 19.28727525603858 ], [ -155.330926277285954, 19.287903111428243 ], [ -155.331696122826116, 19.288560148871586 ], [ -155.332272998870877, 19.290155679334262 ], [ -155.331531470955582, 19.290699848070044 ], [ -155.331144960219149, 19.290255119019633 ], [ -155.330572277943247, 19.290543361351379 ], [ -155.330137803617646, 19.290501577819033 ], [ -155.329550774782149, 19.290534439541574 ], [ -155.32853439272759, 19.290221359706166 ], [ -155.327455786583556, 19.288855213902885 ], [ -155.327201897612724, 19.287010033151507 ], [ -155.326228811731397, 19.283687516703537 ], [ -155.325279453463452, 19.284189675980016 ], [ -155.324985063537355, 19.284781681970898 ], [ -155.323628353665498, 19.285324263568981 ], [ -155.323452468912734, 19.286965964629768 ], [ -155.324566746008031, 19.288527664454264 ], [ -155.324616757070913, 19.289329355340573 ], [ -155.324586614434224, 19.289606832747335 ], [ -155.324928188669759, 19.290217730002116 ], [ -155.325476999418953, 19.292293805241801 ], [ -155.325343368795416, 19.2935395871684 ], [ -155.325381783444755, 19.294162615718115 ], [ -155.324719711114909, 19.294861932502823 ], [ -155.323949211796361, 19.293636788002907 ], [ -155.323096966058756, 19.292556966129261 ], [ -155.322864201655761, 19.290864999609088 ], [ -155.32176166166272, 19.289923928640928 ], [ -155.321729805525337, 19.289406504582118 ], [ -155.321787542890576, 19.288866303652441 ], [ -155.321728581498377, 19.287917725655149 ], [ -155.321884028101636, 19.286468848425336 ], [ -155.321329073491341, 19.285217647322714 ], [ -155.320025724281351, 19.285091707164799 ], [ -155.318933685888908, 19.285947807321101 ], [ -155.320073317822079, 19.286921358297491 ], [ -155.320129936069065, 19.287824950711077 ], [ -155.3197041661752, 19.288514478101028 ], [ -155.320129008769129, 19.291026594838122 ], [ -155.320754970115416, 19.292438893347498 ], [ -155.322310445835825, 19.294239747368085 ], [ -155.322126739243117, 19.295955564266357 ], [ -155.322700391171054, 19.297542062199685 ], [ -155.322421981425691, 19.297965468703918 ], [ -155.321396859382702, 19.297394966932835 ], [ -155.320132885073065, 19.297620055741348 ], [ -155.318653261260749, 19.298672916268515 ], [ -155.317967557512333, 19.298337107619677 ], [ -155.317310544923117, 19.297292394979117 ], [ -155.31566135564637, 19.295202803251694 ], [ -155.315109750919817, 19.293729082468467 ], [ -155.314028014898696, 19.292358312971444 ], [ -155.313715367416677, 19.290508511037377 ], [ -155.312759895921715, 19.289169367065782 ], [ -155.31446580664803, 19.288202270435328 ], [ -155.315006893483059, 19.287113031415188 ], [ -155.315816092731808, 19.286705642954281 ], [ -155.316855035749541, 19.28643135669363 ], [ -155.318302400092534, 19.285297221689603 ], [ -155.318707835713411, 19.284869245590546 ], [ -155.320468391924038, 19.283571438707924 ], [ -155.320847904293998, 19.282459883237475 ], [ -155.321527349902993, 19.282525392443844 ], [ -155.322208223286054, 19.282253103123189 ], [ -155.322478502229302, 19.28196777804197 ], [ -155.323101850373803, 19.281479153547494 ], [ -155.325270319131647, 19.279189247714868 ], [ -155.326851668493248, 19.278557062048353 ], [ -155.326986801049429, 19.278414394918656 ] ] ] } },
{ "type": "Feature", "properties": { "ID": 37, "GRIDCODE": 1 }, "geometry": { "type": "Polygon", "coordinates": [ [ [ -155.330175276728681, 19.276042376310286 ], [ -155.330460198218788, 19.276048104939171 ], [ -155.330454165772579, 19.276318668543968 ], [ -155.330169243816641, 19.276312939828497 ], [ -155.330175276728681, 19.276042376310286 ] ] ] } },
{ "type": "Feature", "properties": { "ID": 38, "GRIDCODE": 1 }, "geometry": { "type": "Polygon", "coordinates": [ [ [ -155.330175276728681, 19.276042376310286 ], [ -155.329830096892806, 19.275942651992189 ], [ -155.330085244145636, 19.275710668916322 ], [ -155.330175276728681, 19.276042376310286 ] ] ] } },
{ "type": "Feature", "properties": { "ID": 39, "GRIDCODE": 1 }, "geometry": { "type": "Polygon", "coordinates": [ [ [ -155.330454165772579, 19.276318668543968 ], [ -155.330704572086034, 19.276149502345195 ], [ -155.33117290637432, 19.275095209383167 ], [ -155.332153819466129, 19.273723431805543 ], [ -155.332647836596919, 19.273814510617434 ], [ -155.333113631348084, 19.273748002438854 ], [ -155.333475575940042, 19.274669630112708 ], [ -155.333706173853471, 19.276539191212954 ], [ -155.334149043075257, 19.277652241624459 ], [ -155.334491528981118, 19.279672874967844 ], [ -155.333809557791682, 19.280020530188214 ], [ -155.333204541793975, 19.279213235624887 ], [ -155.331756190219835, 19.278899697398252 ], [ -155.331433779211068, 19.278077989123716 ], [ -155.331117740571756, 19.277569917042879 ], [ -155.330888057535674, 19.276984278530232 ], [ -155.330454165772579, 19.276318668543968 ] ] ] } },
{ "type": "Feature", "properties": { "ID": 40, "GRIDCODE": 1 }, "geometry": { "type": "Polygon", "coordinates": [ [ [ -155.687163522608415, 19.031056928666136 ], [ -155.687540113720416, 19.031246670243299 ], [ -155.687270118593773, 19.031962115916478 ], [ -155.686939940197334, 19.031465152522362 ], [ -155.687163522608415, 19.031056928666136 ] ] ] } },
{ "type": "Feature", "properties": { "ID": 41, "GRIDCODE": 1 }, "geometry": { "type": "Polygon", "coordinates": [ [ [ -155.675510766707134, 19.03003507680971 ], [ -155.676467900962791, 19.030181618169628 ], [ -155.67519353600332, 19.030662916868309 ], [ -155.675510766707134, 19.03003507680971 ] ] ] } },
{ "type": "Feature", "properties": { "ID": 42, "GRIDCODE": 1 }, "geometry": { "type": "Polygon", "coordinates": [ [ [ -155.684945774605069, 19.028038632931079 ], [ -155.685343374658004, 19.028206014676403 ], [ -155.687042736181695, 19.02865325808844 ], [ -155.686738027911048, 19.031159819429767 ], [ -155.685035495120019, 19.03000306354841 ], [ -155.684757815327089, 19.028711124517049 ], [ -155.684945774605069, 19.028038632931079 ] ] ] } },
{ "type": "Feature", "properties": { "ID": 43, "GRIDCODE": 1 }, "geometry": { "type": "Polygon", "coordinates": [ [ [ -155.678979877399826, 19.027389846867184 ], [ -155.680669052388424, 19.027578621251561 ], [ -155.681411148304448, 19.027535114319619 ], [ -155.681304675334673, 19.028555460070965 ], [ -155.68190077734684, 19.029618582362797 ], [ -155.677017284626857, 19.030335885478525 ], [ -155.677559292353521, 19.028583797525666 ], [ -155.678710614562135, 19.027675866859568 ], [ -155.678979877399826, 19.027389846867184 ] ] ] } }
]
}
