{
"type": "FeatureCollection",
"name": "lobglor",
"crs": { "type": "name", "properties": { "name": "urn:ogc:def:crs:OGC:1.3:CRS84" } },
"features": [
{ "type": "Feature", "properties": { "ID": 1, "GRIDCODE": 2 }, "geometry": { "type": "Polygon", "coordinates": [ [ [ -156.847857595089692, 21.129686411864693 ], [ -156.848569115900773, 21.12983852183401 ], [ -156.852887580853604, 21.130186550957401 ], [ -156.854030699651332, 21.131171036515568 ], [ -156.854061446842309, 21.13179707723576 ], [ -156.853814162672677, 21.134967505253027 ], [ -156.854811466196736, 21.137503584584891 ], [ -156.856774215684197, 21.141581720230334 ], [ -156.856094881589229, 21.142911595334766 ], [ -156.85329215597352, 21.143032628991996 ], [ -156.849905373381034, 21.141199997408755 ], [ -156.847234926814934, 21.139097688474404 ], [ -156.845965225272948, 21.136120438118862 ], [ -156.844835402575939, 21.131936724609062 ], [ -156.845626971326567, 21.130375170278036 ], [ -156.846255783534161, 21.130064822569874 ], [ -156.847719353547006, 21.129827722636719 ], [ -156.847857595089692, 21.129686411864693 ] ] ] } },
{ "type": "Feature", "properties": { "ID": 2, "GRIDCODE": 2 }, "geometry": { "type": "Polygon", "coordinates": [ [ [ -156.861030651765986, 21.097071400627009 ], [ -156.861522457419369, 21.097240186539665 ], [ -156.86638912399701, 21.098030675380727 ], [ -156.872393919357222, 21.099580232229538 ], [ -156.880913479165145, 21.101924216009287 ], [ -156.889893117105572, 21.106028603539503 ], [ -156.896870972051232, 21.110380894317476 ], [ -156.900496266125288, 21.113617481907557 ], [ -156.902424098149396, 21.116042030180594 ], [ -156.903829944150345, 21.119176520067001 ], [ -156.904384711640176, 21.122418873433482 ], [ -156.904517385293872, 21.127123829478904 ], [ -156.90377170776182, 21.129897522245894 ], [ -156.902129208766127, 21.1325524150452 ], [ -156.900729668170612, 21.133430604378997 ], [ -156.899416762941115, 21.133463135045218 ], [ -156.898021880821403, 21.133029705538856 ], [ -156.896949500402002, 21.131525417824143 ], [ -156.895750211889379, 21.126986807833887 ], [ -156.895324821036837, 21.12038489731389 ], [ -156.894179443719821, 21.118027018513256 ], [ -156.891830703855106, 21.116184380742773 ], [ -156.890761048957643, 21.115636088202731 ], [ -156.886113138879779, 21.115751060925692 ], [ -156.884582957611769, 21.115388803568667 ], [ -156.881268563329769, 21.112937480116802 ], [ -156.880013942242272, 21.112612098790979 ], [ -156.876473000592057, 21.111844271653815 ], [ -156.875103156618337, 21.111216587078836 ], [ -156.873033202942395, 21.110155327661762 ], [ -156.870818811347647, 21.109516611066166 ], [ -156.867444125870946, 21.108784690194025 ], [ -156.863391855409219, 21.106385537713265 ], [ -156.857906491560385, 21.103935383983458 ], [ -156.852254090079981, 21.103545438217829 ], [ -156.849858056552705, 21.102182400528417 ], [ -156.849800161667588, 21.100094837773447 ], [ -156.852033509047232, 21.098850151357908 ], [ -156.856869276151713, 21.09772618942943 ], [ -156.860889953050787, 21.097210247412367 ], [ -156.861030651765986, 21.097071400627009 ] ] ] } },
{ "type": "Feature", "properties": { "ID": 3, "GRIDCODE": 2 }, "geometry": { "type": "Polygon", "coordinates": [ [ [ -156.564954383500435, 20.930816741413537 ], [ -156.56471934421711, 20.933650039627398 ], [ -156.562895569671809, 20.933058013297092 ], [ -156.563814771215306, 20.931744479628208 ], [ -156.564954383500435, 20.930816741413537 ] ] ] } },
{ "type": "Feature", "properties": { "ID": 4, "GRIDCODE": 2 }, "geometry": { "type": "Polygon", "coordinates": [ [ [ -156.556448620369537, 20.90414818271125 ], [ -156.556798376546737, 20.904245907419849 ], [ -156.556542061305009, 20.904479796101558 ], [ -156.556448620369537, 20.90414818271125 ] ] ] } },
{ "type": "Feature", "properties": { "ID": 5, "GRIDCODE": 2 }, "geometry": { "type": "Polygon", "coordinates": [ [ [ -156.573505522977541, 20.901140697054096 ], [ -156.573855287337125, 20.901238387229682 ], [ -156.573599001364357, 20.901472304708665 ], [ -156.573505522977541, 20.901140697054096 ] ] ] } },
{ "type": "Feature", "properties": { "ID": 6, "GRIDCODE": 2 }, "geometry": { "type": "Polygon", "coordinates": [ [ [ -156.602326459997386, 20.919697616835975 ], [ -156.602217365175449, 20.918803509697316 ], [ -156.601941894790201, 20.919500286943563 ], [ -156.602326459997386, 20.919697616835975 ], [ -156.602537092974558, 20.920633757886183 ], [ -156.601578771565698, 20.92037929363407 ], [ -156.600753429059694, 20.919907650555665 ], [ -156.601119958007359, 20.921007885332827 ], [ -156.602170602148306, 20.921441291383978 ], [ -156.603562077845311, 20.922574305088286 ], [ -156.605514689276617, 20.923905126706721 ], [ -156.606689882043639, 20.925327141739526 ], [ -156.607972069180079, 20.926201056741451 ], [ -156.607475047632988, 20.927746309552205 ], [ -156.606367188664791, 20.927489771213192 ], [ -156.606015827761524, 20.926672158864381 ], [ -156.6056575886941, 20.927066860398725 ], [ -156.606070312374413, 20.928027395106618 ], [ -156.606917443016499, 20.929151823817833 ], [ -156.606628227550544, 20.929118667155926 ], [ -156.60495684897225, 20.927822355288932 ], [ -156.604591914228024, 20.926973466024542 ], [ -156.603785714562747, 20.926640856749348 ], [ -156.602962107929983, 20.926057607704934 ], [ -156.602515584309259, 20.925930834574697 ], [ -156.602422031236102, 20.925599235977373 ], [ -156.602165739294207, 20.925833196058573 ], [ -156.602515584309259, 20.925930834574697 ], [ -156.602653079682341, 20.926703649882214 ], [ -156.60334676140323, 20.927913898946109 ], [ -156.602911225380296, 20.928794799606816 ], [ -156.601195958447676, 20.928417923131111 ], [ -156.601157211714934, 20.928799909799206 ], [ -156.602130635922379, 20.929612252980917 ], [ -156.604261617060757, 20.932107482663064 ], [ -156.604336085573095, 20.933178877053006 ], [ -156.603350614865633, 20.933952717196419 ], [ -156.604239608277481, 20.934694157827131 ], [ -156.603272650123529, 20.9352772552968 ], [ -156.601982934204727, 20.934838106869357 ], [ -156.601159950362387, 20.933913196104083 ], [ -156.601074809895579, 20.934167019627214 ], [ -156.601131186509519, 20.934976260062083 ], [ -156.600016644760757, 20.934659663824366 ], [ -156.598253777083613, 20.931685054770615 ], [ -156.597948108058858, 20.931429963618569 ], [ -156.597662168753374, 20.93080306871569 ], [ -156.597253408824059, 20.930462003116439 ], [ -156.597147807838894, 20.929844922198203 ], [ -156.596881116805775, 20.930306101961456 ], [ -156.597253408824059, 20.930462003116439 ], [ -156.597364667815583, 20.931695154200376 ], [ -156.597662521254989, 20.932757788944144 ], [ -156.598072280228081, 20.936725633179506 ], [ -156.598614844386333, 20.937647271891457 ], [ -156.597850475179371, 20.937390747399 ], [ -156.597593377704356, 20.937091101895184 ], [ -156.596865721833353, 20.936687078223219 ], [ -156.596699526111735, 20.936038059588373 ], [ -156.596013848523853, 20.93586239633359 ], [ -156.595920306391378, 20.93553079530691 ], [ -156.595663986799252, 20.935764742752465 ], [ -156.596013848523853, 20.93586239633359 ], [ -156.596295767072348, 20.936406038293679 ], [ -156.596865721833353, 20.936687078223219 ], [ -156.596724966993008, 20.936825700076692 ], [ -156.59642126377716, 20.937081996220215 ], [ -156.595847742780791, 20.938699268911236 ], [ -156.595534620387298, 20.938434279587153 ], [ -156.59501509927756, 20.937358067181648 ], [ -156.59383580832295, 20.936300457369921 ], [ -156.593862922961449, 20.935837227737903 ], [ -156.592776579740786, 20.932436805858654 ], [ -156.592193623141611, 20.932406886563861 ], [ -156.591873719365054, 20.932954472623795 ], [ -156.591587876892277, 20.933502538740886 ], [ -156.59127984061027, 20.934029656447994 ], [ -156.590988187575903, 20.934588617636166 ], [ -156.590714548955475, 20.934021673550241 ], [ -156.590423515312153, 20.933486096335358 ], [ -156.590155335155117, 20.932930207257616 ], [ -156.589859970401875, 20.932665460007932 ], [ -156.589450921023911, 20.932237867205906 ], [ -156.588736679042086, 20.931596971644861 ], [ -156.588728434615064, 20.931285356136531 ], [ -156.58931904309506, 20.930274022418853 ], [ -156.589365703151941, 20.929469942515816 ], [ -156.589025002308091, 20.928168075269667 ], [ -156.589914829732265, 20.924451251840473 ], [ -156.590082971468945, 20.921561641510788 ], [ -156.589213329242284, 20.920781391415357 ], [ -156.588398874431363, 20.918013612669711 ], [ -156.588356229779379, 20.916385541820862 ], [ -156.588419523085634, 20.915298106028526 ], [ -156.587865234355178, 20.914800605924803 ], [ -156.587466968734162, 20.913280205383209 ], [ -156.587000035198912, 20.909665373354464 ], [ -156.585862439217038, 20.907953970631805 ], [ -156.583643397301699, 20.907373923264164 ], [ -156.583351057156932, 20.907380764851929 ], [ -156.583057943058861, 20.90736563795841 ], [ -156.582775901664604, 20.907643251199879 ], [ -156.582472241769182, 20.907899526703783 ], [ -156.582186424414346, 20.908447579820528 ], [ -156.581691113491161, 20.909295830783723 ], [ -156.580932408748794, 20.914732268467876 ], [ -156.581154949806404, 20.919671377152294 ], [ -156.581975303398934, 20.920905581559175 ], [ -156.582729148232545, 20.921968872736361 ], [ -156.581684200228551, 20.921430144097712 ], [ -156.580957821089214, 20.921778304268148 ], [ -156.579728578885778, 20.921144627020375 ], [ -156.58051231232821, 20.922239302005902 ], [ -156.58122166340965, 20.922566145640399 ], [ -156.580526519692881, 20.923756517679397 ], [ -156.580450299335553, 20.925066108562927 ], [ -156.580724251129027, 20.927959316181312 ], [ -156.580106754757566, 20.929537279526976 ], [ -156.579370479713191, 20.931882178811261 ], [ -156.578625316545157, 20.932239184177664 ], [ -156.577833597414724, 20.931411571472498 ], [ -156.577200340824277, 20.931866055390397 ], [ -156.577180449471001, 20.932209808420044 ], [ -156.577193960335876, 20.932735114085556 ], [ -156.576317364029734, 20.932755200903749 ], [ -156.575781526795197, 20.932195093977661 ], [ -156.574815070406203, 20.932742183948559 ], [ -156.573758738356418, 20.933781357466845 ], [ -156.573702015833618, 20.932880451936029 ], [ -156.573728113550573, 20.932431633447504 ], [ -156.573714730042667, 20.931916647391123 ], [ -156.574018295434428, 20.931617933281686 ], [ -156.574589212494146, 20.931135857071826 ], [ -156.574626121724833, 20.930505055604272 ], [ -156.573509768167298, 20.929503504208242 ], [ -156.572831573537826, 20.928483181067421 ], [ -156.57203971943585, 20.929151783421123 ], [ -156.571453412527205, 20.929977137477419 ], [ -156.571162335950874, 20.929064959951706 ], [ -156.57059494048724, 20.928019487970197 ], [ -156.570655694793373, 20.926976080870901 ], [ -156.570175458402247, 20.926951386510819 ], [ -156.569740222939004, 20.928064060054769 ], [ -156.569798632898824, 20.930307264872997 ], [ -156.568876125425874, 20.932073416547471 ], [ -156.567012234863171, 20.93068777342026 ], [ -156.566109457579813, 20.93070849333683 ], [ -156.565673664154644, 20.930686006599664 ], [ -156.564954383500435, 20.930816741413537 ], [ -156.565376989194647, 20.930400964802178 ], [ -156.566241953172295, 20.929670875884572 ], [ -156.566855374885478, 20.928807041411481 ], [ -156.567440002867698, 20.928313413589368 ], [ -156.567186327728308, 20.926621372740275 ], [ -156.566380902686518, 20.925898540815894 ], [ -156.565995371393626, 20.925188441134004 ], [ -156.566100038811044, 20.923398075525373 ], [ -156.565798180963554, 20.922842073012802 ], [ -156.56584489947312, 20.9220417136465 ], [ -156.56492792050895, 20.92172494132658 ], [ -156.564955365729389, 20.922779257933826 ], [ -156.564383554222928, 20.923874359336846 ], [ -156.563619108812219, 20.924240547819785 ], [ -156.5629098625555, 20.923874747671015 ], [ -156.561766251795461, 20.923347587362283 ], [ -156.561725026886592, 20.921754341733099 ], [ -156.562288481591963, 20.9191923936983 ], [ -156.563287594857428, 20.917649714256111 ], [ -156.563591305118337, 20.917393478289881 ], [ -156.563872829240353, 20.917116290987742 ], [ -156.564757389299757, 20.916597452835063 ], [ -156.566233849091446, 20.914887096952349 ], [ -156.568252998762716, 20.913182075074829 ], [ -156.56856329273711, 20.912307162941822 ], [ -156.568871351193025, 20.911780088477855 ], [ -156.569219387147228, 20.911113243770689 ], [ -156.571523076561903, 20.909635762783218 ], [ -156.57148895010539, 20.908328710845129 ], [ -156.571814491113344, 20.908008484303938 ], [ -156.572390872541007, 20.908038107238642 ], [ -156.573386627337413, 20.906500198301064 ], [ -156.575322446615672, 20.907006382598993 ], [ -156.576839390823636, 20.905513678729314 ], [ -156.57936264582537, 20.904063001415558 ], [ -156.580226645212946, 20.903694701270375 ], [ -156.580251508068642, 20.903268082524924 ], [ -156.580238151048292, 20.902749522951066 ], [ -156.58057340502117, 20.901892129307591 ], [ -156.577090496761002, 20.899819674799208 ], [ -156.574876463772256, 20.900443921533867 ], [ -156.574087196010424, 20.900822250929643 ], [ -156.572858149479089, 20.900188542275547 ], [ -156.570196478396781, 20.900411273233725 ], [ -156.569403229153238, 20.900791507379427 ], [ -156.564111729751289, 20.900518780374249 ], [ -156.561550081180087, 20.900840416125163 ], [ -156.561020145026276, 20.90081314168949 ], [ -156.56038432130083, 20.901084076274813 ], [ -156.559814617517077, 20.901357143354634 ], [ -156.558404236538252, 20.901651524855552 ], [ -156.556727851352036, 20.904011575383873 ], [ -156.557032702664287, 20.900816075671298 ], [ -156.558045655223083, 20.897960709451485 ], [ -156.559445966398357, 20.895798272476462 ], [ -156.562120906478583, 20.893738797291689 ], [ -156.563146478486345, 20.893247363135391 ], [ -156.563975095011244, 20.893290130481059 ], [ -156.564263462682504, 20.893283395557244 ], [ -156.566744256721307, 20.893411332922181 ], [ -156.567155217469349, 20.893064288153759 ], [ -156.567459632524617, 20.892481210186613 ], [ -156.568037256293223, 20.89199328679862 ], [ -156.568318720395922, 20.891716085954876 ], [ -156.568622365916241, 20.891459834360109 ], [ -156.568903827945235, 20.89118263233269 ], [ -156.569443770974402, 20.890726573462302 ], [ -156.569878280478406, 20.889982647623121 ], [ -156.569295154971314, 20.888907989535276 ], [ -156.571763196343824, 20.887725261623842 ], [ -156.572752347120201, 20.887446333945888 ], [ -156.573475687027923, 20.886734539855528 ], [ -156.574707826047586, 20.888588478467803 ], [ -156.575581349644153, 20.888568334821148 ], [ -156.576697683762632, 20.888625834062054 ], [ -156.577328968130956, 20.887791027859251 ], [ -156.577651631789365, 20.887172737251131 ], [ -156.578807913381837, 20.886195898430977 ], [ -156.578770780226165, 20.884772928015042 ], [ -156.579478681939747, 20.885512959889923 ], [ -156.582032645749166, 20.887305543587718 ], [ -156.582502472771012, 20.886724772859935 ], [ -156.582575440188464, 20.885473062024356 ], [ -156.582003903328172, 20.883863169950185 ], [ -156.58286537726562, 20.884066619526113 ], [ -156.584943946660303, 20.884784475807695 ], [ -156.587465929865488, 20.884073021851329 ], [ -156.58719239925253, 20.883856864478425 ], [ -156.585919319198752, 20.883270119892817 ], [ -156.585493643701568, 20.881936628351934 ], [ -156.584352134916656, 20.881220783320252 ], [ -156.586227578735162, 20.880873740605747 ], [ -156.589715000322997, 20.881483121161651 ], [ -156.594343455474046, 20.883956604327008 ], [ -156.599106441801979, 20.887344148301775 ], [ -156.601996516905615, 20.890997493238729 ], [ -156.603814140440761, 20.89481208148041 ], [ -156.605092167371993, 20.899691032249169 ], [ -156.607029222138181, 20.908621078597395 ], [ -156.607756634992626, 20.914551808782353 ], [ -156.607728391469038, 20.915036325543959 ], [ -156.608264048589035, 20.917634925613893 ], [ -156.607923961345193, 20.921552579999513 ], [ -156.607125467089816, 20.920718253142855 ], [ -156.607337199992713, 20.921533905632774 ], [ -156.607719646056779, 20.922610279818407 ], [ -156.605332246487166, 20.921016906596133 ], [ -156.603891056742299, 20.920672876653192 ], [ -156.603046337707525, 20.920108910284156 ], [ -156.602326459997386, 20.919697616835975 ] ] ] } },
{ "type": "Feature", "properties": { "ID": 7, "GRIDCODE": 2 }, "geometry": { "type": "Polygon", "coordinates": [ [ [ -156.204996890745747, 20.814800271289606 ], [ -156.204991895002394, 20.815071022483092 ], [ -156.204455292812384, 20.815202181122718 ], [ -156.203791667143634, 20.815981897773124 ], [ -156.20401228891015, 20.81494104736397 ], [ -156.204996890745747, 20.814800271289606 ] ] ] } },
{ "type": "Feature", "properties": { "ID": 8, "GRIDCODE": 2 }, "geometry": { "type": "Polygon", "coordinates": [ [ [ -156.224091890286786, 20.825944115419539 ], [ -156.224444572491223, 20.825857128000216 ], [ -156.224196656923965, 20.825615600061763 ], [ -156.224091890286786, 20.825944115419539 ], [ -156.222779309824489, 20.826692364252818 ], [ -156.222541848327808, 20.82466967852536 ], [ -156.221360218442555, 20.825518032940813 ], [ -156.220994775384526, 20.825089452952845 ], [ -156.219798222836232, 20.825708110523543 ], [ -156.219344086345131, 20.824931741675393 ], [ -156.219088095945494, 20.824349284382954 ], [ -156.218358745868585, 20.824726501951691 ], [ -156.217662703935957, 20.824163609251389 ], [ -156.217378903733135, 20.823518147219286 ], [ -156.216710933023961, 20.823571168318935 ], [ -156.216952002159417, 20.821674218025667 ], [ -156.215912375772064, 20.823198885602089 ], [ -156.215355405574684, 20.823243126118403 ], [ -156.214924198524045, 20.823194723461025 ], [ -156.214479354651871, 20.823230072432622 ], [ -156.214227155329297, 20.822656796278011 ], [ -156.213796684515501, 20.822308607656197 ], [ -156.214246617680914, 20.821598902548125 ], [ -156.21451858079007, 20.821036530436256 ], [ -156.215102801016712, 20.8205961371984 ], [ -156.214260381777848, 20.820284893115005 ], [ -156.213104682388405, 20.821038660645346 ], [ -156.212497777646206, 20.82127449385921 ], [ -156.211880047542138, 20.821593990614883 ], [ -156.211954423964073, 20.821007380848918 ], [ -156.211918030342076, 20.820600537921873 ], [ -156.211978561991288, 20.820124125660929 ], [ -156.211044381921738, 20.820198316156549 ], [ -156.211149948468574, 20.81936928430228 ], [ -156.211089014605335, 20.818691208260287 ], [ -156.211172579855884, 20.8180333371964 ], [ -156.210652402138606, 20.817974881236026 ], [ -156.209284450699926, 20.819469694338359 ], [ -156.208793577031855, 20.819072639146349 ], [ -156.208670526526731, 20.81865182141717 ], [ -156.209023196004409, 20.818564864806525 ], [ -156.208775318386188, 20.818323318465598 ], [ -156.208670526526731, 20.81865182141717 ], [ -156.208211782736043, 20.818266925772907 ], [ -156.208823000415805, 20.81727765792272 ], [ -156.207041013332372, 20.818174713636026 ], [ -156.207168913806953, 20.816944032409733 ], [ -156.206159232516825, 20.817452442004516 ], [ -156.205412229383086, 20.816286575351644 ], [ -156.204632602492637, 20.815944044873874 ], [ -156.204991895002394, 20.815071022483092 ], [ -156.205363342355895, 20.814941664758315 ], [ -156.204996890745747, 20.814800271289606 ], [ -156.205304831163147, 20.81372196306156 ], [ -156.205657489831736, 20.813635012261919 ], [ -156.205409625282101, 20.813393462445696 ], [ -156.205304831163147, 20.81372196306156 ], [ -156.204916819586259, 20.813895484258438 ], [ -156.203955100498661, 20.814061759899044 ], [ -156.203384357857487, 20.814472976710633 ], [ -156.203284126636447, 20.813959827261559 ], [ -156.203636786504774, 20.813872880822604 ], [ -156.203388925215364, 20.813631328406874 ], [ -156.203284126636447, 20.813959827261559 ], [ -156.202369290097977, 20.814466192695669 ], [ -156.2019810462034, 20.814058101390749 ], [ -156.201404453291076, 20.814070108501536 ], [ -156.200854437053891, 20.813237520240463 ], [ -156.200406166105836, 20.813246859652462 ], [ -156.200005854825008, 20.812411557658614 ], [ -156.199607159887279, 20.812052088585961 ], [ -156.200038176895617, 20.811317120886898 ], [ -156.19916246822055, 20.811335474625118 ], [ -156.199152272252064, 20.810913191296603 ], [ -156.199177302332657, 20.810502591996929 ], [ -156.198759252613257, 20.810125349300677 ], [ -156.199489809846881, 20.809163457953229 ], [ -156.199808110573201, 20.808271528038979 ], [ -156.200921022657127, 20.806374706889578 ], [ -156.201292506131352, 20.805130421810151 ], [ -156.201594385274262, 20.803770873777033 ], [ -156.202013098092493, 20.802039514366811 ], [ -156.202307734190356, 20.797184940974432 ], [ -156.199420740146309, 20.796704057163467 ], [ -156.199179261004019, 20.794793973131693 ], [ -156.198855378542021, 20.794193328293886 ], [ -156.198209078632573, 20.79215192662182 ], [ -156.19699307117429, 20.79152109788701 ], [ -156.195923129358704, 20.791463670697738 ], [ -156.194482568909791, 20.791493801889104 ], [ -156.193763282174473, 20.791455188978837 ], [ -156.19322926132719, 20.791466418755586 ], [ -156.191756562719689, 20.791151379153234 ], [ -156.190991829961206, 20.791167419901761 ], [ -156.189741736506136, 20.790587426905788 ], [ -156.189182370740326, 20.790297115207299 ], [ -156.1883122229778, 20.790022337053163 ], [ -156.18804077095001, 20.789736741660658 ], [ -156.185801642959291, 20.788697761035213 ], [ -156.185468302655579, 20.788079882669177 ], [ -156.18497742101556, 20.78705542182448 ], [ -156.184641150726293, 20.786701844357292 ], [ -156.183692747872357, 20.786402222140612 ], [ -156.182196628535991, 20.785626127138286 ], [ -156.180653897385326, 20.785543121901487 ], [ -156.180123342136767, 20.78598957392995 ], [ -156.178860205942982, 20.788142311929555 ], [ -156.178414236653026, 20.793943245177104 ], [ -156.178483678450164, 20.796892160537023 ], [ -156.177196066149179, 20.796364222665094 ], [ -156.174535187745306, 20.793370913033439 ], [ -156.173867766656144, 20.793024554346438 ], [ -156.173285552219681, 20.792754445696985 ], [ -156.173014127378281, 20.792468829251742 ], [ -156.172431916848467, 20.792198718104732 ], [ -156.172150010205684, 20.791902216272494 ], [ -156.17157379367228, 20.791914136943799 ], [ -156.171301263865132, 20.791627706559428 ], [ -156.170447067840968, 20.791645485319641 ], [ -156.169877748943293, 20.791046698516876 ], [ -156.169317674096249, 20.791595374928672 ], [ -156.169284918525733, 20.791059924493151 ], [ -156.169318984901508, 20.790500451378964 ], [ -156.168443413538768, 20.790518661373977 ], [ -156.16843329738802, 20.790096385270765 ], [ -156.168464943843844, 20.789576280047495 ], [ -156.167596168898768, 20.789125412220258 ], [ -156.166843254713655, 20.790181076028311 ], [ -156.164724672516343, 20.78908167159976 ], [ -156.164426441993356, 20.789087849537484 ], [ -156.164154411385567, 20.788520012453191 ], [ -156.163288420912323, 20.788537958797288 ], [ -156.163019688756236, 20.787688769818875 ], [ -156.161880797189667, 20.787712378014543 ], [ -156.161588439804945, 20.787404844973089 ], [ -156.161289932025397, 20.787411013164046 ], [ -156.161037246672009, 20.786035643989408 ], [ -156.16008370673029, 20.786629878756209 ], [ -156.158651418404446, 20.786177176785294 ], [ -156.158174531135813, 20.785181717103498 ], [ -156.15787574724024, 20.785187875177975 ], [ -156.157613047355909, 20.784063591968632 ], [ -156.156227863780089, 20.78542067865375 ], [ -156.15557741343568, 20.78487855954123 ], [ -156.155305482963854, 20.784592514359229 ], [ -156.155007544199123, 20.784598681538633 ], [ -156.154447444360898, 20.784307855848809 ], [ -156.153790864728023, 20.784003129671309 ], [ -156.153022798656593, 20.783195367412251 ], [ -156.152713954507675, 20.783498092886386 ], [ -156.151866068498833, 20.783452281195952 ], [ -156.150846220928941, 20.783473431317709 ], [ -156.149850122026095, 20.783158555983459 ], [ -156.149578761044296, 20.782872909200506 ], [ -156.148996637332004, 20.782602727207411 ], [ -156.148724724172126, 20.782316673422784 ], [ -156.147939802256047, 20.782332851174928 ], [ -156.147001804966578, 20.781486272000901 ], [ -156.146871219144288, 20.781072708217319 ], [ -156.147223817294133, 20.780985872593853 ], [ -156.146976103611166, 20.780744254213783 ], [ -156.146871219144288, 20.781072708217319 ], [ -156.146724103999958, 20.780940007337804 ], [ -156.146452198174899, 20.780653950740604 ], [ -156.145864497372912, 20.780666126732271 ], [ -156.145916491860362, 20.779815512060004 ], [ -156.144837336428594, 20.780329814684585 ], [ -156.144456339922044, 20.779534675994796 ], [ -156.143024422671857, 20.779980150419011 ], [ -156.143608114260388, 20.778985523536875 ], [ -156.143299245726638, 20.778706517268294 ], [ -156.143332990613999, 20.778153796708416 ], [ -156.142447095811235, 20.778172105164654 ], [ -156.141902756875623, 20.777599574985622 ], [ -156.141461716992922, 20.777201466484613 ], [ -156.141038435917892, 20.776756444159354 ], [ -156.140206719748164, 20.777571316902918 ], [ -156.139870228280984, 20.777296208782097 ], [ -156.139904002033035, 20.776742564862619 ], [ -156.13931659998525, 20.776754724785988 ], [ -156.138473797230318, 20.776188317443747 ], [ -156.13760385267841, 20.775913301307572 ], [ -156.137043823611037, 20.775622426064963 ], [ -156.136318863594227, 20.775637306124565 ], [ -156.135599698244391, 20.775598459352342 ], [ -156.135023554583171, 20.775610396147595 ], [ -156.134304390407266, 20.775571543992879 ], [ -156.13199982653569, 20.77561886548451 ], [ -156.129838972580899, 20.775502073667081 ], [ -156.127578813370548, 20.775833460656496 ], [ -156.126382123833537, 20.775454933002614 ], [ -156.124760698959903, 20.774889705167237 ], [ -156.124383144881364, 20.774869229732577 ], [ -156.123662975795042, 20.774884004416315 ], [ -156.12294382424102, 20.774845105325607 ], [ -156.122621436047638, 20.77485173359981 ], [ -156.120990474764938, 20.774004782196187 ], [ -156.118325310557367, 20.773659347079906 ], [ -156.116635869544183, 20.773124905944638 ], [ -156.115455224484492, 20.772511726277045 ], [ -156.112628905526975, 20.772569459231448 ], [ -156.112592482586962, 20.770995249277178 ], [ -156.112971128773296, 20.76899071951377 ], [ -156.113596022742797, 20.766412460438005 ], [ -156.112380115258333, 20.764936103139704 ], [ -156.110308783243539, 20.764824025083961 ], [ -156.108574631325865, 20.765744007839377 ], [ -156.107554291844451, 20.766743307193224 ], [ -156.107098498489705, 20.767126379973831 ], [ -156.105884439987307, 20.768315332585562 ], [ -156.105211287190826, 20.768329106178143 ], [ -156.103778856696948, 20.768021829506406 ], [ -156.10267726634018, 20.768546457585721 ], [ -156.100250716703613, 20.768083391055729 ], [ -156.099006986429004, 20.7674373063589 ], [ -156.097315426878367, 20.767345502991716 ], [ -156.096307255833722, 20.767366138684835 ], [ -156.096019620210626, 20.767350429734968 ], [ -156.095731570074008, 20.767356399608708 ], [ -156.095156296836592, 20.767325111510495 ], [ -156.094378230880523, 20.767340902172702 ], [ -156.093083177360882, 20.767027533632859 ], [ -156.092010162739626, 20.766469979925123 ], [ -156.090748555781374, 20.766495678495527 ], [ -156.087455138786453, 20.766109381592049 ], [ -156.085935796520431, 20.7649720482089 ], [ -156.084098406113469, 20.765009345913814 ], [ -156.082819916609878, 20.76469988762198 ], [ -156.079827642680243, 20.763820315503342 ], [ -156.07479738508178, 20.763922184516012 ], [ -156.073358951409062, 20.76317449407556 ], [ -156.072201412155749, 20.762894261619859 ], [ -156.071065083499946, 20.762593358802086 ], [ -156.070513766227236, 20.762604580672605 ], [ -156.070197060338586, 20.762318449124791 ], [ -156.069708193054197, 20.76180352765892 ], [ -156.06848637740427, 20.761737050593982 ], [ -156.068193562184518, 20.761743025938102 ], [ -156.067633745209037, 20.761451945386376 ], [ -156.065817986008938, 20.760751041905014 ], [ -156.065058040590571, 20.760064204300296 ], [ -156.064226947519842, 20.758956446594755 ], [ -156.063645100647591, 20.758686002811846 ], [ -156.063373957904645, 20.758400243137618 ], [ -156.063079931825996, 20.758134719760985 ], [ -156.062808236639114, 20.757848553245392 ], [ -156.062510087134171, 20.757854560596403 ], [ -156.061385419703413, 20.757012181734073 ], [ -156.059146101745938, 20.755407444248775 ], [ -156.058825575776211, 20.754812207130012 ], [ -156.058695252655554, 20.754398606142118 ], [ -156.059047813054377, 20.754311950289271 ], [ -156.058800294756878, 20.754070225557445 ], [ -156.058695252655554, 20.754398606142118 ], [ -156.056561153506209, 20.753461555043074 ], [ -156.056198562784886, 20.752658256381764 ], [ -156.055365732717434, 20.751355264136116 ], [ -156.053203140515876, 20.750702115760845 ], [ -156.052893759576165, 20.748924793282246 ], [ -156.052332097365223, 20.747935596449022 ], [ -156.052060649962186, 20.747334184574374 ], [ -156.050424507068101, 20.746082841812324 ], [ -156.048980608809075, 20.745646678746425 ], [ -156.048073011861533, 20.744883592256027 ], [ -156.047551449907132, 20.744292819779588 ], [ -156.046942894562221, 20.743780946472413 ], [ -156.046404850420458, 20.742939180847632 ], [ -156.045417963628267, 20.742641093309231 ], [ -156.044699196528342, 20.741826628597046 ], [ -156.044163960981422, 20.741376437142463 ], [ -156.044086441774482, 20.740201303849691 ], [ -156.044171643390342, 20.739390352350654 ], [ -156.044153860788697, 20.739119240756231 ], [ -156.044182167233487, 20.738848921923431 ], [ -156.044164384544814, 20.738577810320702 ], [ -156.044193342719723, 20.738302874643328 ], [ -156.044050435872379, 20.737628030281947 ], [ -156.044402960301255, 20.737541400708437 ], [ -156.044155491912107, 20.737299660519728 ], [ -156.044050435872379, 20.737628030281947 ], [ -156.043119558907506, 20.73744421726407 ], [ -156.042702248629411, 20.736120562183672 ], [ -156.041905048039126, 20.736638139502425 ], [ -156.041371726555667, 20.737160255614938 ], [ -156.039453424496116, 20.737503411196126 ], [ -156.040184197040475, 20.736889629945857 ], [ -156.040471463100943, 20.736342653091111 ], [ -156.041349411557235, 20.735604989062406 ], [ -156.040214609179372, 20.735254612784086 ], [ -156.039099826091729, 20.735276931109368 ], [ -156.039068186814688, 20.733869602248088 ], [ -156.040468339139551, 20.733945947433977 ], [ -156.041099665901868, 20.733645417385745 ], [ -156.041691784541399, 20.733394985936421 ], [ -156.041667592085759, 20.732326157599346 ], [ -156.042689136379295, 20.732008931552571 ], [ -156.044578454536691, 20.732112036702741 ], [ -156.045469296458634, 20.731012127149466 ], [ -156.046360878021915, 20.731060770977535 ], [ -156.04604398158159, 20.730471531822879 ], [ -156.046076414256163, 20.729944889617759 ], [ -156.046070429642924, 20.729673980495459 ], [ -156.046087299493877, 20.729398703812745 ], [ -156.045128412582756, 20.728531724035939 ], [ -156.045531809193847, 20.727763923922637 ], [ -156.045950718507356, 20.727051132007507 ], [ -156.044997924966992, 20.726189546813256 ], [ -156.04537136021213, 20.72445978981693 ], [ -156.048676678501522, 20.72463992672207 ], [ -156.049064160770399, 20.724314415653662 ], [ -156.049346118430435, 20.72403813349419 ], [ -156.049650155661112, 20.723782857494626 ], [ -156.050180821270288, 20.723263174035068 ], [ -156.051052000709944, 20.723245588325035 ], [ -156.052523606640705, 20.723561726615664 ], [ -156.053375949015845, 20.723544467489152 ], [ -156.053905697489682, 20.724102565394823 ], [ -156.055097353389243, 20.724418249695159 ], [ -156.055533228794189, 20.724409450099149 ], [ -156.055964543714623, 20.724432967795746 ], [ -156.056535400059943, 20.72442145199285 ], [ -156.056827418916384, 20.724728994494438 ], [ -156.0579199224467, 20.724706964665444 ], [ -156.058827098939418, 20.725023706730273 ], [ -156.059603524399478, 20.725008027828093 ], [ -156.060022571924151, 20.726336048323862 ], [ -156.0619214070135, 20.726439383346943 ], [ -156.063186313686231, 20.725903904333499 ], [ -156.064546690666617, 20.724571896638007 ], [ -156.066358576221859, 20.723235413919394 ], [ -156.067219245927532, 20.723282227727875 ], [ -156.067188529882401, 20.721944048946543 ], [ -156.067814374000648, 20.72164596067352 ], [ -156.068406128102225, 20.72139555328636 ], [ -156.068688048767314, 20.721119234421685 ], [ -156.068992051643789, 20.720863919506275 ], [ -156.069290581492311, 20.72057161799464 ], [ -156.070641144107441, 20.721993774836559 ], [ -156.072000793034903, 20.72157130907885 ], [ -156.072655976026681, 20.722261210842074 ], [ -156.073132813324492, 20.720122009728925 ], [ -156.073925930777477, 20.720406846666283 ], [ -156.074573127534279, 20.721088407258001 ], [ -156.075191695236157, 20.720568412759906 ], [ -156.075614837996341, 20.720153919791375 ], [ -156.076499810018362, 20.719637391763509 ], [ -156.076483700797866, 20.718939327184579 ], [ -156.076875481764006, 20.717507957984083 ], [ -156.078406338548092, 20.717476976808509 ], [ -156.079130520497387, 20.717516252233363 ], [ -156.079433476871912, 20.716156622637413 ], [ -156.079873206797146, 20.716033839310082 ], [ -156.079965506733771, 20.716365591612696 ], [ -156.080222115042659, 20.716132457661729 ], [ -156.079873206797146, 20.716033839310082 ], [ -156.079435084500687, 20.715325434739846 ], [ -156.079499199921401, 20.713755862285304 ], [ -156.07797037097842, 20.712203537522715 ], [ -156.07462927008325, 20.711743974232242 ], [ -156.073134207408117, 20.712197225150813 ], [ -156.070164822840525, 20.712535837512345 ], [ -156.068362477275457, 20.713370985546284 ], [ -156.066311887508448, 20.71382832458935 ], [ -156.065959313288204, 20.713497814846512 ], [ -156.065682518305579, 20.71321699393593 ], [ -156.065247120283487, 20.712808772591782 ], [ -156.065777322460605, 20.711433087872535 ], [ -156.065436014203044, 20.710780785932901 ], [ -156.065161740950288, 20.71022351154441 ], [ -156.064298239581831, 20.710225440097105 ], [ -156.063723000454502, 20.710204515812475 ], [ -156.063161949726236, 20.710205782228105 ], [ -156.062778473747755, 20.709846045693318 ], [ -156.063238881197208, 20.707556913649469 ], [ -156.062913850611181, 20.706935960686955 ], [ -156.062946230961273, 20.706145769604984 ], [ -156.062520045741934, 20.705712973904379 ], [ -156.062087715772606, 20.705307444353025 ], [ -156.061644719773, 20.704857566545996 ], [ -156.059000215584859, 20.704171465087274 ], [ -156.057172981766087, 20.704944851660233 ], [ -156.054912088818753, 20.70599231414857 ], [ -156.0534354061312, 20.706237444705955 ], [ -156.050090678681158, 20.707531528382837 ], [ -156.048804742172877, 20.707534203346057 ], [ -156.048827140344144, 20.706987419235833 ], [ -156.048267865114838, 20.706419285797701 ], [ -156.047687161921232, 20.706420430311603 ], [ -156.047126413883603, 20.705348604440029 ], [ -156.048229498838083, 20.704787437137298 ], [ -156.050529782821513, 20.704871045503211 ], [ -156.051756539410974, 20.704047512676482 ], [ -156.052063607587172, 20.702950367961936 ], [ -156.052651096905635, 20.702437988026254 ], [ -156.053225673737245, 20.701895500435572 ], [ -156.053822871480151, 20.701374819085373 ], [ -156.05411029808019, 20.701103509426044 ], [ -156.054403516902511, 20.701114081939124 ], [ -156.054834655506738, 20.700707049384388 ], [ -156.055282616322756, 20.700316567706153 ], [ -156.055281329774402, 20.699772283748128 ], [ -156.055873437765939, 20.699514249202071 ], [ -156.056455824332687, 20.698435288869316 ], [ -156.056757462423263, 20.69844626529159 ], [ -156.057155317780058, 20.697360575739772 ], [ -156.05764147682433, 20.697378143041 ], [ -156.057934114801469, 20.696836105259656 ], [ -156.058232556928658, 20.696575685940026 ], [ -156.058599344518427, 20.695264006245782 ], [ -156.059371426720475, 20.696048237328682 ], [ -156.059691944669936, 20.69551738258297 ], [ -156.05998456879172, 20.694975472090327 ], [ -156.060581716227148, 20.694454760852096 ], [ -156.061449364829571, 20.693635193551511 ], [ -156.062317747206549, 20.693666675296477 ], [ -156.062610360681788, 20.693124626496086 ], [ -156.063207492251877, 20.692603904090419 ], [ -156.064080839965612, 20.691778996523638 ], [ -156.06523090203433, 20.691820687209489 ], [ -156.066544965099041, 20.691211806865038 ], [ -156.067485342188178, 20.693957755546506 ], [ -156.067486393203865, 20.694429048122572 ], [ -156.0674695394016, 20.694837622192267 ], [ -156.068030793044812, 20.695363548250338 ], [ -156.068312088304225, 20.69593521773427 ], [ -156.06886049252563, 20.696983503939308 ], [ -156.068862409155116, 20.697702217702705 ], [ -156.068845565105221, 20.698110395605315 ], [ -156.069113232076006, 20.699464117141947 ], [ -156.069369186833995, 20.70082782102314 ], [ -156.069641793194108, 20.701910418558334 ], [ -156.069902960235481, 20.703003399751861 ], [ -156.070319690836556, 20.704221079562018 ], [ -156.070719258284385, 20.705454599059625 ], [ -156.071284804608666, 20.706271370744222 ], [ -156.071805521483014, 20.707329627587946 ], [ -156.072394128006351, 20.707927019282398 ], [ -156.073275557954247, 20.707386506883598 ], [ -156.074407624116816, 20.708225468135435 ], [ -156.075025658115578, 20.708520672439803 ], [ -156.076362529568343, 20.709878282398467 ], [ -156.078703174786398, 20.709652518877874 ], [ -156.079070134744569, 20.708339991512883 ], [ -156.080157493095982, 20.708859478378603 ], [ -156.080735107175741, 20.709445947890224 ], [ -156.083769181062252, 20.71139190789242 ], [ -156.084346130766903, 20.713174141457902 ], [ -156.084911333623694, 20.714322513287758 ], [ -156.085498912233987, 20.714919056826304 ], [ -156.087183829697295, 20.714915200105324 ], [ -156.088659991688445, 20.715773923726374 ], [ -156.089507151316411, 20.716335178960779 ], [ -156.09010407856843, 20.716620457055512 ], [ -156.091179760622055, 20.717712258277786 ], [ -156.09093044041694, 20.71685843949086 ], [ -156.090109268944673, 20.715289876999179 ], [ -156.090107329133559, 20.714582393750518 ], [ -156.090134874519634, 20.713905822994935 ], [ -156.090130976819836, 20.712300439352244 ], [ -156.090744111062946, 20.71201619247103 ], [ -156.09200456230073, 20.712851535634631 ], [ -156.091849417807623, 20.712100072315312 ], [ -156.091049031429378, 20.71094483301399 ], [ -156.091071222558156, 20.710401065904119 ], [ -156.091069312932547, 20.709588588736306 ], [ -156.09109170258057, 20.709034378412714 ], [ -156.090249493563334, 20.708244982364267 ], [ -156.090243226253421, 20.705836104970466 ], [ -156.090883825324113, 20.704980539777434 ], [ -156.089468823632615, 20.704073158431406 ], [ -156.086398191210037, 20.701557553422795 ], [ -156.084922566218069, 20.700810438748523 ], [ -156.083225848899673, 20.700000061121653 ], [ -156.082354128180242, 20.69887770050455 ], [ -156.083277693900754, 20.698612886797612 ], [ -156.084398652793652, 20.698093424158674 ], [ -156.085247420829347, 20.698124063933406 ], [ -156.086168851330143, 20.697558895056513 ], [ -156.087290618428284, 20.697069839094819 ], [ -156.08860718342396, 20.695563753774799 ], [ -156.08962811992879, 20.694937567306066 ], [ -156.090214215078873, 20.694681949208309 ], [ -156.090557384951978, 20.694357693311186 ], [ -156.094572136781835, 20.695452429783181 ], [ -156.099692201539568, 20.69817976245454 ], [ -156.103282744499154, 20.701077989742068 ], [ -156.105815070894607, 20.704337611710319 ], [ -156.107186600626903, 20.708339634220941 ], [ -156.107643653932229, 20.711165914167719 ], [ -156.108091768175541, 20.718118975110226 ], [ -156.10832604200084, 20.726398989397911 ], [ -156.109363798443042, 20.734439681023975 ], [ -156.111585234754983, 20.740674236195972 ], [ -156.115207326708429, 20.745808168256502 ], [ -156.120903982074594, 20.751064900183724 ], [ -156.126979237951758, 20.755427812294098 ], [ -156.142457846478209, 20.763257725951757 ], [ -156.14656097203644, 20.765067808315901 ], [ -156.160517297262629, 20.770701314330072 ], [ -156.172969563896174, 20.774982111166956 ], [ -156.184190554781793, 20.778384547916691 ], [ -156.193698572696292, 20.781634905030618 ], [ -156.199800724143586, 20.784349304449869 ], [ -156.208856206376112, 20.78906468669464 ], [ -156.218429586492618, 20.795095273924073 ], [ -156.222687760596727, 20.79782041722201 ], [ -156.23132163845662, 20.803869014943714 ], [ -156.238875033645655, 20.81093095312405 ], [ -156.243994197582992, 20.817107372555547 ], [ -156.251910110180859, 20.827745990409177 ], [ -156.253528120515085, 20.830826572904407 ], [ -156.252933193960587, 20.831162325567245 ], [ -156.251797047287965, 20.831122275234662 ], [ -156.251320725597537, 20.832006498813641 ], [ -156.249444137227357, 20.832877622666423 ], [ -156.246057532608859, 20.833473309063304 ], [ -156.242473880993771, 20.832761547671851 ], [ -156.240983721486174, 20.831368407465504 ], [ -156.240305564825974, 20.830681970713627 ], [ -156.239478879879442, 20.830288176770022 ], [ -156.239070781796926, 20.829032673901043 ], [ -156.23857078805645, 20.829560998913436 ], [ -156.23817370836764, 20.830647072670253 ], [ -156.237404761740237, 20.830619990261155 ], [ -156.236669042803214, 20.831315498306132 ], [ -156.235964669995809, 20.830602306412683 ], [ -156.235099901157866, 20.830322798481298 ], [ -156.234678389214821, 20.829895982750855 ], [ -156.233966133765364, 20.830569507851752 ], [ -156.233654965459465, 20.830570432454863 ], [ -156.233379159487242, 20.82942166308441 ], [ -156.230421342944084, 20.830494361134857 ], [ -156.22934730862832, 20.829951977022233 ], [ -156.22751213842173, 20.831214963271993 ], [ -156.227031813254058, 20.830728726358 ], [ -156.226743056520576, 20.830458503949238 ], [ -156.226212016164112, 20.8288252838807 ], [ -156.225623865815066, 20.828804383790299 ], [ -156.223908249018479, 20.828809510753622 ], [ -156.223478530125902, 20.827559187009808 ], [ -156.223943213891914, 20.826350604133676 ], [ -156.224091890286786, 20.825944115419539 ] ] ] } }
]
}
