{
"type": "FeatureCollection",
"name": "lobgray",
"crs": { "type": "name", "properties": { "name": "urn:ogc:def:crs:OGC:1.3:CRS84" } },
"features": [
{ "type": "Feature", "properties": { "ID": 1, "GRIDCODE": 1 }, "geometry": { "type": "Polygon", "coordinates": [ [ [ -156.560366212361544, 20.893639547547693 ], [ -156.561572684696785, 20.893869063623789 ], [ -156.559015301490263, 20.896456906616891 ], [ -156.557413516358565, 20.899117230224416 ], [ -156.556153178702317, 20.899169703061979 ], [ -156.557287407540144, 20.896335123018503 ], [ -156.555565474876943, 20.896888113330355 ], [ -156.55621065772192, 20.894335550309819 ], [ -156.557602613627751, 20.894827392511989 ], [ -156.557896983465696, 20.894815199119588 ], [ -156.558609786930788, 20.894865331984082 ], [ -156.560164536441789, 20.89422143208683 ], [ -156.560366212361544, 20.893639547547693 ] ] ] } },
{ "type": "Feature", "properties": { "ID": 2, "GRIDCODE": 1 }, "geometry": { "type": "Polygon", "coordinates": [ [ [ -156.552301243805061, 20.8932533099536 ], [ -156.554138243731558, 20.893396939960859 ], [ -156.55244575573937, 20.893871754406263 ], [ -156.552301243805061, 20.8932533099536 ] ] ] } },
{ "type": "Feature", "properties": { "ID": 3, "GRIDCODE": 1 }, "geometry": { "type": "Polygon", "coordinates": [ [ [ -156.60110106824618, 20.887985771802871 ], [ -156.601539485502173, 20.888119700952281 ], [ -156.602411241888916, 20.889451620029622 ], [ -156.603624466630521, 20.890766499810312 ], [ -156.605291336136929, 20.891648319910733 ], [ -156.606938430910617, 20.892003268869516 ], [ -156.608938153622773, 20.892382978475684 ], [ -156.608972798037456, 20.893110172753463 ], [ -156.607627513231279, 20.893479960269669 ], [ -156.606703845692692, 20.894422697819547 ], [ -156.604886645811263, 20.894141681534371 ], [ -156.604329431744304, 20.89384683707264 ], [ -156.603493915140604, 20.893881944401393 ], [ -156.601567559631775, 20.890444921723301 ], [ -156.59993936182326, 20.888408209229169 ], [ -156.600962860331151, 20.888126950828738 ], [ -156.60110106824618, 20.887985771802871 ] ] ] } },
{ "type": "Feature", "properties": { "ID": 4, "GRIDCODE": 1 }, "geometry": { "type": "Polygon", "coordinates": [ [ [ -156.60433134554404, 20.884238552821145 ], [ -156.604992371067823, 20.88435760334346 ], [ -156.604482364261401, 20.884584579469525 ], [ -156.60433134554404, 20.884238552821145 ] ] ] } },
{ "type": "Feature", "properties": { "ID": 5, "GRIDCODE": 1 }, "geometry": { "type": "Polygon", "coordinates": [ [ [ -156.549003222546901, 20.8655755506764 ], [ -156.550873459340607, 20.865748630765317 ], [ -156.551790485228167, 20.865692582358033 ], [ -156.551392439713851, 20.866339898503824 ], [ -156.549152509520411, 20.866939004973894 ], [ -156.548830866021831, 20.867889776069187 ], [ -156.547070475797597, 20.867502383946558 ], [ -156.547151490625566, 20.866707550498873 ], [ -156.548851854418444, 20.866023493704823 ], [ -156.549003222546901, 20.8655755506764 ] ] ] } },
{ "type": "Feature", "properties": { "ID": 6, "GRIDCODE": 1 }, "geometry": { "type": "Polygon", "coordinates": [ [ [ -156.605771756166149, 20.866108724717822 ], [ -156.605419104740008, 20.866196511600691 ], [ -156.605667753678489, 20.866437555526879 ], [ -156.605771756166149, 20.866108724717822 ], [ -156.606496547644269, 20.866515160023937 ], [ -156.606758704002601, 20.866809830041149 ], [ -156.607064270587813, 20.86706489594701 ], [ -156.607309878307859, 20.868404691135225 ], [ -156.604787880422805, 20.868729966349477 ], [ -156.603877425255888, 20.868103861898991 ], [ -156.602627102604515, 20.867558305749217 ], [ -156.599124526047405, 20.867244628009498 ], [ -156.595546445983985, 20.869554371690089 ], [ -156.593635179256694, 20.871046903045418 ], [ -156.592852506284856, 20.87266667401984 ], [ -156.593852893394342, 20.874412993587974 ], [ -156.593560343779444, 20.875002250512441 ], [ -156.592497413781075, 20.874424997553451 ], [ -156.591761488409162, 20.874470188348006 ], [ -156.591369993164932, 20.875262407770304 ], [ -156.590640043737153, 20.876450112333679 ], [ -156.589882948963179, 20.878138608981192 ], [ -156.590924204719869, 20.879563570740906 ], [ -156.591299375141062, 20.880801501678075 ], [ -156.591910359423593, 20.881867758311206 ], [ -156.593623390998374, 20.88261527973966 ], [ -156.594371415038637, 20.883456214729893 ], [ -156.59502990011373, 20.883415746681958 ], [ -156.595559271684039, 20.882344512483222 ], [ -156.596169633354947, 20.881560520283767 ], [ -156.596449676683449, 20.880731670326284 ], [ -156.597402412387709, 20.880348113528076 ], [ -156.599346103724173, 20.880522375564738 ], [ -156.599638851952392, 20.880504396953672 ], [ -156.602230469382704, 20.880983750207534 ], [ -156.603375184658205, 20.881397151268025 ], [ -156.603855337923562, 20.880425590841178 ], [ -156.605094655690948, 20.880873110180751 ], [ -156.607993851727883, 20.88116449354925 ], [ -156.609105167148243, 20.881928576167038 ], [ -156.609669629271423, 20.88320378255241 ], [ -156.608540550933981, 20.882796195520459 ], [ -156.607956734949539, 20.882832073476116 ], [ -156.607093224695319, 20.882754644094849 ], [ -156.605951234724671, 20.882824763088873 ], [ -156.604784899200411, 20.883577723819499 ], [ -156.604176367758129, 20.883822762687956 ], [ -156.60433134554404, 20.884238552821145 ], [ -156.60219582532423, 20.884476592356652 ], [ -156.600145655798741, 20.885135636736134 ], [ -156.599259867056674, 20.885379012201767 ], [ -156.599286031948424, 20.885928575903886 ], [ -156.598671420163839, 20.88618316403586 ], [ -156.598000423076542, 20.886513807680206 ], [ -156.59405241198624, 20.883796558680565 ], [ -156.589234229347738, 20.881236003199959 ], [ -156.589270847143297, 20.880776080744667 ], [ -156.58925144283549, 20.88036946745866 ], [ -156.589294032864245, 20.879835160007985 ], [ -156.588715978117676, 20.879334823265175 ], [ -156.588179988088712, 20.87819250110617 ], [ -156.587005633100034, 20.877665757128465 ], [ -156.587286844901826, 20.877083364568929 ], [ -156.588837682300834, 20.875820088104128 ], [ -156.588748189291977, 20.873932626554026 ], [ -156.589097652925062, 20.873058606222092 ], [ -156.589065190958479, 20.8723766826541 ], [ -156.589394788099071, 20.871424340473016 ], [ -156.5900439163714, 20.871155453672191 ], [ -156.590837049903854, 20.870345879928987 ], [ -156.594155182217463, 20.869200288121178 ], [ -156.595910056798402, 20.867770363650585 ], [ -156.596500699870859, 20.866062955619 ], [ -156.597901638965538, 20.86616120618196 ], [ -156.599378789609233, 20.865306959433184 ], [ -156.600140367606969, 20.864529828381265 ], [ -156.601331005562685, 20.864613194563695 ], [ -156.604270600423234, 20.864164583470295 ], [ -156.604190057591694, 20.865179446655063 ], [ -156.605646721567553, 20.865118230788745 ], [ -156.605771756166149, 20.866108724717822 ] ] ] } },
{ "type": "Feature", "properties": { "ID": 7, "GRIDCODE": 1 }, "geometry": { "type": "Polygon", "coordinates": [ [ [ -156.567299818208426, 20.856897381617468 ], [ -156.567840534726457, 20.857259818814111 ], [ -156.568032879509843, 20.858126809983265 ], [ -156.567963806340003, 20.858396718608084 ], [ -156.568118099773699, 20.859092407323821 ], [ -156.567159873125689, 20.859280099938829 ], [ -156.567529012852248, 20.857835265049317 ], [ -156.567299818208426, 20.856897381617468 ] ] ] } },
{ "type": "Feature", "properties": { "ID": 8, "GRIDCODE": 1 }, "geometry": { "type": "Polygon", "coordinates": [ [ [ -156.562742236356087, 20.853581844009472 ], [ -156.563091884475568, 20.853679545210195 ], [ -156.562835672586004, 20.853913454013661 ], [ -156.562742236356087, 20.853581844009472 ] ] ] } },
{ "type": "Feature", "properties": { "ID": 9, "GRIDCODE": 1 }, "geometry": { "type": "Polygon", "coordinates": [ [ [ -156.554234546899153, 20.845062911435402 ], [ -156.554866822608432, 20.845553803503719 ], [ -156.55551572136909, 20.846339760715413 ], [ -156.55579235444867, 20.845747437975767 ], [ -156.556487237133496, 20.845516362849722 ], [ -156.556950114468634, 20.846076784603504 ], [ -156.557526635126379, 20.845769018718773 ], [ -156.558399695041146, 20.845883851305118 ], [ -156.559322569897972, 20.845789212398351 ], [ -156.559198509434623, 20.846623655921036 ], [ -156.559262233517785, 20.847174015172339 ], [ -156.558926494301204, 20.847959277273784 ], [ -156.558146047760232, 20.85056100885086 ], [ -156.558734643327938, 20.852068820312962 ], [ -156.558221288555274, 20.852001313416302 ], [ -156.557758040298069, 20.850922389506863 ], [ -156.557067532096085, 20.85063728027648 ], [ -156.556464704035506, 20.849907141409911 ], [ -156.554773453801829, 20.848753004642237 ], [ -156.553480094046563, 20.84838532958204 ], [ -156.552332541548992, 20.848502911691117 ], [ -156.551313781569178, 20.846870814024566 ], [ -156.55203198823915, 20.846346849794678 ], [ -156.552346527619846, 20.845673597732954 ], [ -156.552909300631228, 20.846355161757995 ], [ -156.553215392755106, 20.845403623595093 ], [ -156.554088167780037, 20.845518209165469 ], [ -156.554234546899153, 20.845062911435402 ] ] ] } },
{ "type": "Feature", "properties": { "ID": 10, "GRIDCODE": 2 }, "geometry": { "type": "Polygon", "coordinates": [ [ [ -156.128302743900974, 20.681642371753856 ], [ -156.127953867569119, 20.681543856322779 ], [ -156.128210346090725, 20.681310634291258 ], [ -156.128302743900974, 20.681642371753856 ] ] ] } },
{ "type": "Feature", "properties": { "ID": 11, "GRIDCODE": 2 }, "geometry": { "type": "Polygon", "coordinates": [ [ [ -156.350237284795156, 20.662718175175169 ], [ -156.350424348490122, 20.663080787639934 ], [ -156.350803304876166, 20.663268596438776 ], [ -156.351040112948255, 20.663922936936853 ], [ -156.348452504169643, 20.664314839015134 ], [ -156.347506677566258, 20.662995052244419 ], [ -156.348484200993198, 20.662214172320923 ], [ -156.349512085027811, 20.662579267382579 ], [ -156.350237284795156, 20.662718175175169 ] ] ] } },
{ "type": "Feature", "properties": { "ID": 12, "GRIDCODE": 2 }, "geometry": { "type": "Polygon", "coordinates": [ [ [ -156.358377429865385, 20.657967577985065 ], [ -156.359142309501237, 20.658070287404964 ], [ -156.359523551508545, 20.658255995796519 ], [ -156.359518870519793, 20.658526786751843 ], [ -156.359806572364306, 20.65853119239225 ], [ -156.359801891808871, 20.658801983400956 ], [ -156.360089594237252, 20.658806388625422 ], [ -156.360084914115163, 20.659077179687507 ], [ -156.360372617127354, 20.659081584496022 ], [ -156.360173100975942, 20.659438269460114 ], [ -156.359787849691088, 20.659614356370032 ], [ -156.359792530472248, 20.659343565389843 ], [ -156.359504827101944, 20.659339159560766 ], [ -156.359509508316478, 20.659068368633957 ], [ -156.359221805530041, 20.659063962388931 ], [ -156.359226487177949, 20.658793171515516 ], [ -156.358938784975379, 20.658788764854556 ], [ -156.358943467056577, 20.658517974034542 ], [ -156.358655765437874, 20.658513566957659 ], [ -156.358377429865385, 20.657967577985065 ] ] ] } },
{ "type": "Feature", "properties": { "ID": 13, "GRIDCODE": 2 }, "geometry": { "type": "Polygon", "coordinates": [ [ [ -156.358377429865385, 20.657967577985065 ], [ -156.358028398049214, 20.657869518165022 ], [ -156.358284523524276, 20.657635908734687 ], [ -156.358377429865385, 20.657967577985065 ] ] ] } },
{ "type": "Feature", "properties": { "ID": 14, "GRIDCODE": 2 }, "geometry": { "type": "Polygon", "coordinates": [ [ [ -156.357862913730287, 20.654438483188279 ], [ -156.358675719714626, 20.654547614383773 ], [ -156.358228263028508, 20.655347660799759 ], [ -156.357497613212672, 20.655102767817191 ], [ -156.357862913730287, 20.654438483188279 ] ] ] } },
{ "type": "Feature", "properties": { "ID": 15, "GRIDCODE": 2 }, "geometry": { "type": "Polygon", "coordinates": [ [ [ -156.360372617127354, 20.659081584496022 ], [ -156.360377296740836, 20.658810793371057 ], [ -156.360089594237252, 20.658806388625422 ], [ -156.36009427428408, 20.658535597553833 ], [ -156.359806572364306, 20.65853119239225 ], [ -156.35981125284448, 20.658260401374037 ], [ -156.359523551508545, 20.658255995796519 ], [ -156.359290472639856, 20.657481631713146 ], [ -156.357918105058019, 20.656983293163645 ], [ -156.357112958164947, 20.657031792700256 ], [ -156.35708962011006, 20.65669140232108 ], [ -156.358675242040675, 20.656054412407155 ], [ -156.359350232539725, 20.654690994984495 ], [ -156.360910373826016, 20.654274725587541 ], [ -156.361481285032085, 20.653826776860562 ], [ -156.362009131193929, 20.653268658035959 ], [ -156.362860419225115, 20.653346219224876 ], [ -156.365232391866073, 20.652002497346309 ], [ -156.36495229201185, 20.652796393018573 ], [ -156.363269025953741, 20.653753471715607 ], [ -156.362687872503642, 20.654697367956402 ], [ -156.363529696333586, 20.656968537021442 ], [ -156.363146687155648, 20.657373472112294 ], [ -156.362253228442881, 20.657881429872951 ], [ -156.361981856451649, 20.658168244442585 ], [ -156.360372617127354, 20.659081584496022 ] ] ] } },
{ "type": "Feature", "properties": { "ID": 16, "GRIDCODE": 2 }, "geometry": { "type": "Polygon", "coordinates": [ [ [ -156.362508093270804, 20.652071820971535 ], [ -156.361502350571044, 20.653257863453987 ], [ -156.360778733421313, 20.652719877933936 ], [ -156.361768288707339, 20.652178479325556 ], [ -156.362508093270804, 20.652071820971535 ] ] ] } },
{ "type": "Feature", "properties": { "ID": 17, "GRIDCODE": 2 }, "geometry": { "type": "Polygon", "coordinates": [ [ [ -156.362508093270804, 20.652071820971535 ], [ -156.362612404504773, 20.651743169232912 ], [ -156.362860315617894, 20.651984494565955 ], [ -156.362508093270804, 20.652071820971535 ] ] ] } },
{ "type": "Feature", "properties": { "ID": 18, "GRIDCODE": 2 }, "geometry": { "type": "Polygon", "coordinates": [ [ [ -156.351297614441251, 20.651358294460231 ], [ -156.351585300879691, 20.651362712346121 ], [ -156.351575914120446, 20.65190429119539 ], [ -156.351288226665218, 20.651899873183332 ], [ -156.351297614441251, 20.651358294460231 ] ] ] } },
{ "type": "Feature", "properties": { "ID": 19, "GRIDCODE": 2 }, "geometry": { "type": "Polygon", "coordinates": [ [ [ -156.362526789214741, 20.650988653666523 ], [ -156.36318652265021, 20.651108514805973 ], [ -156.362677061703607, 20.651334821041477 ], [ -156.362526789214741, 20.650988653666523 ] ] ] } },
{ "type": "Feature", "properties": { "ID": 20, "GRIDCODE": 2 }, "geometry": { "type": "Polygon", "coordinates": [ [ [ -156.362842516184884, 20.649368301140232 ], [ -156.362594595704991, 20.650137291028447 ], [ -156.361190399075014, 20.651159588815215 ], [ -156.36026971962832, 20.65004049031722 ], [ -156.359607275287232, 20.650793607238011 ], [ -156.359385606394625, 20.649717078392495 ], [ -156.3624244072914, 20.649512284851593 ], [ -156.362842516184884, 20.649368301140232 ] ] ] } },
{ "type": "Feature", "properties": { "ID": 21, "GRIDCODE": 2 }, "geometry": { "type": "Polygon", "coordinates": [ [ [ -156.362842516184884, 20.649368301140232 ], [ -156.362946824165959, 20.649039648829802 ], [ -156.363194731996686, 20.649280973331781 ], [ -156.362842516184884, 20.649368301140232 ] ] ] } },
{ "type": "Feature", "properties": { "ID": 22, "GRIDCODE": 2 }, "geometry": { "type": "Polygon", "coordinates": [ [ [ -156.357603319425948, 20.652809331052531 ], [ -156.357891010064918, 20.65281373872304 ], [ -156.357900374907388, 20.652272157158578 ], [ -156.358475754377622, 20.652280970811866 ], [ -156.358480435669122, 20.652010179889533 ], [ -156.358832659169053, 20.651922861952372 ], [ -156.358584755219994, 20.651681531521014 ], [ -156.358480435669122, 20.652010179889533 ], [ -156.357905057215703, 20.652001366362093 ], [ -156.357900374907388, 20.652272157158578 ], [ -156.357612685285233, 20.652267749613941 ], [ -156.357603319425948, 20.652809331052531 ], [ -156.356858825989519, 20.653186758116046 ], [ -156.356588876076842, 20.654300985507447 ], [ -156.356180600354321, 20.654915011748173 ], [ -156.356368357768815, 20.656261091564165 ], [ -156.355218231870481, 20.657617471279028 ], [ -156.353609795640352, 20.658012443261896 ], [ -156.352877929775673, 20.658875425198861 ], [ -156.35047276489118, 20.659723013189989 ], [ -156.350286322329595, 20.658385151904874 ], [ -156.350569610818525, 20.656764338038553 ], [ -156.350474870782477, 20.656085729348383 ], [ -156.350522271854601, 20.655815596449077 ], [ -156.350469266160218, 20.655436660830386 ], [ -156.351090934209509, 20.653910845603932 ], [ -156.352257543120288, 20.652479096119841 ], [ -156.351698566393679, 20.652059063242675 ], [ -156.351575914120446, 20.65190429119539 ], [ -156.35198207704579, 20.651639666257783 ], [ -156.351585300879691, 20.651362712346121 ], [ -156.351447468918963, 20.651013686754514 ], [ -156.351297614441251, 20.651358294460231 ], [ -156.350722241790749, 20.651349457252557 ], [ -156.350712851981314, 20.651891035723288 ], [ -156.350425164752579, 20.651886616275291 ], [ -156.350332278305444, 20.651554944801696 ], [ -156.350076153448356, 20.651788542340785 ], [ -156.350425164752579, 20.651886616275291 ], [ -156.350183080986113, 20.652477257593542 ], [ -156.350282448862885, 20.653942202108357 ], [ -156.349354522606944, 20.654670429421014 ], [ -156.349375755419629, 20.65498539369592 ], [ -156.349347326664656, 20.655263356374356 ], [ -156.35000732818574, 20.656420956718183 ], [ -156.349558061588567, 20.657516805348443 ], [ -156.349607762952587, 20.658248021165921 ], [ -156.348977540744642, 20.658742493593127 ], [ -156.349443368469792, 20.659559328487212 ], [ -156.347961645058405, 20.65995447288493 ], [ -156.347554544268149, 20.660384655695971 ], [ -156.346661024675825, 20.660892524870444 ], [ -156.345690419344862, 20.661517967901826 ], [ -156.344075828595038, 20.662166548635618 ], [ -156.342928655472491, 20.663829048605969 ], [ -156.341432670041655, 20.664894976271224 ], [ -156.33970170562327, 20.665590253524435 ], [ -156.339614425808122, 20.666437986455545 ], [ -156.340700460985914, 20.667030453754652 ], [ -156.341692093422921, 20.666524134231917 ], [ -156.342197179944634, 20.665504164456284 ], [ -156.34550546819537, 20.664850218804801 ], [ -156.346870318403546, 20.663970567401236 ], [ -156.348223361724877, 20.664708611743762 ], [ -156.350850419554064, 20.664327371545809 ], [ -156.352657459706307, 20.663601534843497 ], [ -156.352048104008986, 20.663394187939943 ], [ -156.351514976362495, 20.663426204018737 ], [ -156.350803304876166, 20.663268596438776 ], [ -156.350812700011261, 20.662727018640936 ], [ -156.350237284795156, 20.662718175175169 ], [ -156.350104061438714, 20.662573026054773 ], [ -156.349337980154019, 20.66190737371258 ], [ -156.350077890067666, 20.660453215764534 ], [ -156.350705456549804, 20.660144519164913 ], [ -156.35235824888548, 20.659575547470705 ], [ -156.355357561418572, 20.65833524996814 ], [ -156.356348411750275, 20.657705957025293 ], [ -156.357582036839119, 20.658361683948094 ], [ -156.358655765437874, 20.658513566957659 ], [ -156.35865108284807, 20.658784357714758 ], [ -156.358938784975379, 20.658788764854556 ], [ -156.358934102818893, 20.659059555665056 ], [ -156.359221805530041, 20.659063962388931 ], [ -156.359217123806872, 20.659334753252828 ], [ -156.359504827101944, 20.659339159560766 ], [ -156.359500145812149, 20.659609950478053 ], [ -156.359787849691088, 20.659614356370032 ], [ -156.359380085411885, 20.66073494235744 ], [ -156.358774629095933, 20.661862152865439 ], [ -156.358146265215765, 20.662704656728046 ], [ -156.358696919307562, 20.663219109764519 ], [ -156.358701976641157, 20.664340329988114 ], [ -156.358398800702474, 20.664872383199146 ], [ -156.358400721355849, 20.665281218949652 ], [ -156.358379551026331, 20.665822619070227 ], [ -156.358381233820296, 20.666228938254299 ], [ -156.358360846729568, 20.66675752138628 ], [ -156.358770815140019, 20.66794816523614 ], [ -156.358001310818679, 20.670594602877983 ], [ -156.358004937506308, 20.671440573442364 ], [ -156.356820708504273, 20.673250070540099 ], [ -156.356522761529874, 20.673511071680451 ], [ -156.355963686054224, 20.674552083206788 ], [ -156.355641643213431, 20.674857150903033 ], [ -156.355343690992527, 20.675118149400827 ], [ -156.355042714319467, 20.676202265796476 ], [ -156.354456742863846, 20.676458840775993 ], [ -156.354458138503276, 20.676735013821471 ], [ -156.354159899451133, 20.676996005288178 ], [ -156.353872996631765, 20.677267750758144 ], [ -156.353575036540093, 20.677528745291248 ], [ -156.353085420562053, 20.678873413376749 ], [ -156.352691054235351, 20.678874892575621 ], [ -156.352400602149373, 20.678864874453776 ], [ -156.351877199800299, 20.679839494294541 ], [ -156.350642082322679, 20.681010148608003 ], [ -156.349586417166307, 20.68163852608177 ], [ -156.349165731407311, 20.683154319819121 ], [ -156.348862762093177, 20.683686219645452 ], [ -156.348866403361342, 20.68447941480202 ], [ -156.347952725019496, 20.686380679091819 ], [ -156.347359201999524, 20.687731128740857 ], [ -156.34680106626169, 20.688711010742939 ], [ -156.34645743082578, 20.689607964796799 ], [ -156.345734798306495, 20.691591640288571 ], [ -156.345269502007142, 20.69203268167324 ], [ -156.344726018073914, 20.69250835709239 ], [ -156.344084626706177, 20.693634275306941 ], [ -156.343528433246632, 20.695161445053436 ], [ -156.342897710026079, 20.696335265487033 ], [ -156.342301394565624, 20.696857066146716 ], [ -156.3417287639233, 20.697922534576662 ], [ -156.341414470918807, 20.698197665433973 ], [ -156.339813772690576, 20.699958777905074 ], [ -156.338573135495579, 20.701043929689789 ], [ -156.337309974100549, 20.702467955937419 ], [ -156.337018259164012, 20.703010448726467 ], [ -156.336422970901282, 20.703808520369062 ], [ -156.336034195562206, 20.704531887955781 ], [ -156.334063866011547, 20.707022282166342 ], [ -156.333661665153443, 20.708126062708491 ], [ -156.331550268413565, 20.710126611753253 ], [ -156.329379360418983, 20.711830353190901 ], [ -156.328230860196555, 20.712332809693681 ], [ -156.327915855105772, 20.712885764876216 ], [ -156.327613615889931, 20.713448043051489 ], [ -156.326489556302676, 20.714430947090001 ], [ -156.326150759900372, 20.715025320386072 ], [ -156.326152980766778, 20.715523290328811 ], [ -156.324976830732254, 20.716637361423999 ], [ -156.324390938255164, 20.716893814813893 ], [ -156.324094387382189, 20.717707058118556 ], [ -156.323791535663531, 20.718238766998834 ], [ -156.32347932421365, 20.719094879576939 ], [ -156.322894790318657, 20.720120798366132 ], [ -156.32258956320652, 20.721218644026994 ], [ -156.321156740699365, 20.722471651558706 ], [ -156.320833236085662, 20.723073390155321 ], [ -156.318508977024123, 20.724639014901861 ], [ -156.318486986818101, 20.725201011870318 ], [ -156.318490002259892, 20.726003305692654 ], [ -156.317004984504678, 20.727612936134321 ], [ -156.316713142117749, 20.728155379877595 ], [ -156.316415015866824, 20.728416290841054 ], [ -156.315834159149887, 20.73000973081302 ], [ -156.313991571108858, 20.731754990956379 ], [ -156.312894942645585, 20.732429402357244 ], [ -156.311168457940823, 20.733456194535314 ], [ -156.310712655158056, 20.733887745486712 ], [ -156.310002421116138, 20.734508666439169 ], [ -156.309095683809147, 20.735620205081272 ], [ -156.30850969411253, 20.735876592854478 ], [ -156.308192902056589, 20.737015876896837 ], [ -156.306446798796571, 20.738542482555395 ], [ -156.306447913645854, 20.738828825339748 ], [ -156.306144669382292, 20.739360618383039 ], [ -156.305787970961035, 20.740338451551033 ], [ -156.304957412022418, 20.740701553017391 ], [ -156.304966772954742, 20.74309267860199 ], [ -156.304331224810142, 20.744207510213538 ], [ -156.304039300628347, 20.744749923029616 ], [ -156.303741119244933, 20.745010805582258 ], [ -156.303427507187365, 20.746648977414996 ], [ -156.302690043962031, 20.747293765838105 ], [ -156.301146529693995, 20.74875523858271 ], [ -156.299974176589473, 20.748759300805336 ], [ -156.29878541162276, 20.748452703555994 ], [ -156.298278054180429, 20.750277329048533 ], [ -156.297308021616203, 20.750873731747266 ], [ -156.296425584807537, 20.751398372073119 ], [ -156.297294101677551, 20.752210041075223 ], [ -156.296691836514924, 20.753266109797341 ], [ -156.296156499194836, 20.755190794584017 ], [ -156.295210001770783, 20.75515777379422 ], [ -156.29521180247508, 20.7555779628015 ], [ -156.295185181975427, 20.756252022393802 ], [ -156.295768812952417, 20.756797489594653 ], [ -156.295453589576539, 20.757350095194234 ], [ -156.295455854118984, 20.75788640764145 ], [ -156.295147704646553, 20.758689077549686 ], [ -156.294850894167553, 20.759502240706677 ], [ -156.294262800684066, 20.760533391486877 ], [ -156.29311053667027, 20.763966044379622 ], [ -156.290007649975479, 20.76840725724027 ], [ -156.288637522572259, 20.769005875526297 ], [ -156.28862075419778, 20.769425240080515 ], [ -156.289693518774527, 20.770802373431064 ], [ -156.288236133235955, 20.772443193028806 ], [ -156.287157209547502, 20.774448641127719 ], [ -156.286504933294765, 20.77535058883856 ], [ -156.285919530626757, 20.77586226387244 ], [ -156.28561700893701, 20.77669078480643 ], [ -156.28497163138718, 20.778117864920659 ], [ -156.284119302046093, 20.780453262022316 ], [ -156.283262292758934, 20.780456226344498 ], [ -156.282663308089099, 20.780153941359924 ], [ -156.282666361339182, 20.780957272703219 ], [ -156.282347533689318, 20.782050686596687 ], [ -156.28192879677411, 20.783555663477436 ], [ -156.280416715602712, 20.783041982575941 ], [ -156.28115267606168, 20.784442925323297 ], [ -156.280855252035309, 20.785282490587083 ], [ -156.279392548730272, 20.787033554186706 ], [ -156.279366034433764, 20.78769649500601 ], [ -156.280810113430192, 20.788051999048292 ], [ -156.28079143798584, 20.7885289902779 ], [ -156.28079359130956, 20.789130625883931 ], [ -156.278439379973037, 20.79118718668531 ], [ -156.278440429944681, 20.791473522312288 ], [ -156.277985376459128, 20.792270903239526 ], [ -156.276546219129955, 20.794944476131977 ], [ -156.275350743073801, 20.794948497619249 ], [ -156.27491898328924, 20.794933305528225 ], [ -156.274342904695771, 20.794935259142022 ], [ -156.273663220748688, 20.794911362244704 ], [ -156.27417537401405, 20.796400158374585 ], [ -156.273735863676364, 20.796815837554227 ], [ -156.2731951993959, 20.797288096132167 ], [ -156.27255421119105, 20.798145980164509 ], [ -156.272236968971299, 20.799285146325008 ], [ -156.270782674142424, 20.800555391141646 ], [ -156.270009591116633, 20.80162434389587 ], [ -156.269614085119258, 20.801625583716334 ], [ -156.269182308766119, 20.80161037512919 ], [ -156.268453743283885, 20.80161278699596 ], [ -156.267489112070024, 20.800635972758869 ], [ -156.26702957799219, 20.801037294214552 ], [ -156.266447850160461, 20.802630467063892 ], [ -156.265299169710175, 20.803717209427461 ], [ -156.264967795760612, 20.803718270789446 ], [ -156.264400520034656, 20.803698375042504 ], [ -156.263780434230625, 20.803986168130763 ], [ -156.262656847063596, 20.803946674048934 ], [ -156.261542043458576, 20.804464206717707 ], [ -156.260633715874945, 20.804467150597603 ], [ -156.259535992253149, 20.804428445775301 ], [ -156.25842617239428, 20.804747533478295 ], [ -156.256229222925526, 20.806260333550036 ], [ -156.254696389897475, 20.806265281710786 ], [ -156.254261794523615, 20.80624998916203 ], [ -156.253393638351525, 20.806783184979018 ], [ -156.252514422185612, 20.807305486516732 ], [ -156.250636595435282, 20.808681684553569 ], [ -156.248769958004914, 20.809548228799343 ], [ -156.246412906449336, 20.810048617204426 ], [ -156.243580267740441, 20.810682958360243 ], [ -156.241800806772517, 20.810388779542524 ], [ -156.240934159009811, 20.810094204449545 ], [ -156.239233136683367, 20.810883824084986 ], [ -156.238628307199519, 20.810608530923279 ], [ -156.230888764214001, 20.80352942727739 ], [ -156.221463408544281, 20.797006719837533 ], [ -156.209641360084049, 20.789558959097626 ], [ -156.207645781534609, 20.788434551484908 ], [ -156.200277342823512, 20.784597500297838 ], [ -156.200269135642742, 20.782085420246876 ], [ -156.200874398815301, 20.780512484879729 ], [ -156.200435978669191, 20.780008364494297 ], [ -156.199262111856115, 20.779231854966934 ], [ -156.195688232921867, 20.778761680971051 ], [ -156.192526844345963, 20.776670021499871 ], [ -156.190879730529815, 20.776244225313068 ], [ -156.189727488867248, 20.775959818499008 ], [ -156.188458509485912, 20.775631835732348 ], [ -156.186509874553309, 20.776044891990605 ], [ -156.184516628634981, 20.778483392996911 ], [ -156.174037217414281, 20.775305964217111 ], [ -156.173368608774666, 20.773245360380059 ], [ -156.17248705385262, 20.773786380299615 ], [ -156.171917132208677, 20.773766013790528 ], [ -156.171626343327006, 20.773766775834368 ], [ -156.17133819704091, 20.773474801284991 ], [ -156.170197542103722, 20.773477817055038 ], [ -156.169650240995907, 20.772923037581155 ], [ -156.167718599979395, 20.772169406438405 ], [ -156.167349326683052, 20.7717950243965 ], [ -156.167060788271726, 20.771524724624808 ], [ -156.16678333023836, 20.770962092992768 ], [ -156.165638759910308, 20.770965147823667 ], [ -156.164218166978543, 20.769847532975554 ], [ -156.163641773859865, 20.769572472469353 ], [ -156.163364688832246, 20.769291777575038 ], [ -156.162232532400992, 20.76875177653098 ], [ -156.161663478242673, 20.76817479672194 ], [ -156.16092738005068, 20.768516099537937 ], [ -156.15864689493327, 20.767055209399103 ], [ -156.157375322027661, 20.766213614938597 ], [ -156.156494607882792, 20.765928600681342 ], [ -156.155689371053683, 20.765112042287647 ], [ -156.155071209591199, 20.764816957227165 ], [ -156.154670801197057, 20.764411092611819 ], [ -156.155023356980877, 20.764324235793474 ], [ -156.15477565314103, 20.764082629988316 ], [ -156.154670801197057, 20.764411092611819 ], [ -156.153837506689371, 20.764867653418804 ], [ -156.152205592949258, 20.764230706887325 ], [ -156.150898454270333, 20.762905016108665 ], [ -156.150244981688473, 20.762574682941001 ], [ -156.149092952310639, 20.762290023336551 ], [ -156.147952092137189, 20.761994830628748 ], [ -156.146592206583875, 20.761998287382593 ], [ -156.145366570339945, 20.761681040121829 ], [ -156.144796580492851, 20.761682406227767 ], [ -156.144209421441474, 20.761385552809511 ], [ -156.143583917760338, 20.761976566009835 ], [ -156.140609570545422, 20.761869931581931 ], [ -156.139636903841676, 20.761872375970693 ], [ -156.12641110468428, 20.755094724547369 ], [ -156.119317173053105, 20.749815245994135 ], [ -156.11422380825519, 20.744551943203298 ], [ -156.111418295717101, 20.740256740122334 ], [ -156.109261771378158, 20.733965092080126 ], [ -156.108318482502966, 20.726131085973595 ], [ -156.108065262029868, 20.717176220828748 ], [ -156.107531494502723, 20.710100592098485 ], [ -156.106722714633605, 20.706717241541185 ], [ -156.105673278746565, 20.704270563918566 ], [ -156.104354127107825, 20.702366930643453 ], [ -156.105744920235395, 20.702659424608061 ], [ -156.10583727425481, 20.70299116918547 ], [ -156.106093822771271, 20.702757988902214 ], [ -156.105744920235395, 20.702659424608061 ], [ -156.105337922141416, 20.702230881283853 ], [ -156.104750177092654, 20.701699988011736 ], [ -156.104200592025308, 20.700551535951433 ], [ -156.103347597153601, 20.699780665202521 ], [ -156.10308160793079, 20.699224239393843 ], [ -156.10250417626176, 20.698151879244385 ], [ -156.101747834614173, 20.696570839139 ], [ -156.099694526908991, 20.694409258968122 ], [ -156.098852354328272, 20.694017802817584 ], [ -156.098293532607101, 20.693727253692529 ], [ -156.097222372043319, 20.693229316516767 ], [ -156.096762998265433, 20.691258944890219 ], [ -156.093779508962598, 20.688968428630115 ], [ -156.095220714118852, 20.688259110606264 ], [ -156.095812298552033, 20.688008587170703 ], [ -156.097070545630146, 20.687224626982729 ], [ -156.097768073344128, 20.687210466381888 ], [ -156.098699729733312, 20.687505313456267 ], [ -156.099756113951742, 20.688054428546124 ], [ -156.10017671797354, 20.686878141798207 ], [ -156.101597047288465, 20.686481149441398 ], [ -156.102025460587498, 20.686061240152277 ], [ -156.103358027598603, 20.686525986587142 ], [ -156.10332984204743, 20.685302204420609 ], [ -156.105069143757561, 20.684904330668488 ], [ -156.106811459735979, 20.684673105776181 ], [ -156.107578614092802, 20.683921273294324 ], [ -156.110350408840702, 20.68355337476444 ], [ -156.110881315442697, 20.683106596605938 ], [ -156.110868820054264, 20.682564484184091 ], [ -156.111460646012915, 20.682313773628632 ], [ -156.112532221586491, 20.681645833017463 ], [ -156.113699859307218, 20.683415813834809 ], [ -156.114646596572612, 20.684013781164005 ], [ -156.115387550691338, 20.684793824864329 ], [ -156.119226267610969, 20.685001423897486 ], [ -156.120060594760787, 20.684603725207111 ], [ -156.120902572301617, 20.684649143133488 ], [ -156.121400222620565, 20.684161441539839 ], [ -156.122947187348814, 20.683305270405416 ], [ -156.123519392078208, 20.683602575750118 ], [ -156.123905081615561, 20.683224339340413 ], [ -156.124671551593082, 20.68362247598807 ], [ -156.125229208963674, 20.682559606067205 ], [ -156.127203084862629, 20.681834820561573 ], [ -156.128150459909989, 20.682327070754425 ], [ -156.128302743900974, 20.681642371753856 ], [ -156.129961123075219, 20.681239447405197 ], [ -156.13078989451094, 20.681284198496186 ], [ -156.13191200922131, 20.680749074929075 ], [ -156.132204267461105, 20.680764916784362 ], [ -156.132774987622952, 20.680753127586055 ], [ -156.133365010954407, 20.681374151680306 ], [ -156.134519973816225, 20.680241973277703 ], [ -156.134772597613562, 20.6816198643406 ], [ -156.135051380112174, 20.682697481149273 ], [ -156.135303634775966, 20.684379645635421 ], [ -156.135905983189247, 20.685497951234236 ], [ -156.136428848470587, 20.685970272987745 ], [ -156.136972881755185, 20.686542785194291 ], [ -156.138303023310669, 20.686515304684669 ], [ -156.139870008521342, 20.686027458473461 ], [ -156.141324631188013, 20.685791100893763 ], [ -156.141894060628459, 20.685519412909994 ], [ -156.143249056165502, 20.684944969453458 ], [ -156.145647727752532, 20.685322347275502 ], [ -156.146219700381437, 20.68504949597892 ], [ -156.147674310730935, 20.684813082429596 ], [ -156.148285128056244, 20.68452169233338 ], [ -156.149384308060206, 20.684580883399711 ], [ -156.150670300976628, 20.683967547306022 ], [ -156.151282091894814, 20.683367779330631 ], [ -156.151760926325949, 20.68296469823791 ], [ -156.152347431078226, 20.682996347990148 ], [ -156.152313663124062, 20.681553452922657 ], [ -156.151771769611258, 20.680547671586375 ], [ -156.151598972759956, 20.678919855078593 ], [ -156.154091839682081, 20.679788613424577 ], [ -156.154386452989797, 20.67922643647303 ], [ -156.155296806159441, 20.678980959894385 ], [ -156.155819670266652, 20.67953124813274 ], [ -156.156606783631645, 20.679896794133686 ], [ -156.157243443647729, 20.679272417865992 ], [ -156.157561256523621, 20.679289563924996 ], [ -156.158132338713045, 20.67901705041885 ], [ -156.158424602246981, 20.679032847658529 ], [ -156.158995325327851, 20.679020970470138 ], [ -156.159280606234262, 20.679321231986894 ], [ -156.15985849053493, 20.679045518609183 ], [ -156.160564588966452, 20.679083474622619 ], [ -156.162179072264081, 20.679646181631753 ], [ -156.162734898739728, 20.679634575762364 ], [ -156.163315538069583, 20.679935993305872 ], [ -156.165547000766509, 20.679889546624185 ], [ -156.165889361784025, 20.680249584955035 ], [ -156.167641756542395, 20.680213081178547 ], [ -156.169073287739963, 20.681989468185183 ], [ -156.169624452602847, 20.682487156697629 ], [ -156.170453010424438, 20.682469825750299 ], [ -156.170709467934842, 20.68356806948589 ], [ -156.170883925481462, 20.684102280115546 ], [ -156.171813621657719, 20.682329251163125 ], [ -156.172429520849903, 20.68170050539176 ], [ -156.174172501555574, 20.683083658201337 ], [ -156.174742683535698, 20.68307172116592 ], [ -156.175608766679886, 20.683653903094818 ], [ -156.175963610374822, 20.682977222911532 ], [ -156.175910170498923, 20.680717528074887 ], [ -156.179416928172742, 20.680190079810728 ], [ -156.180569866229405, 20.679925824350864 ], [ -156.181415419880665, 20.680494020617676 ], [ -156.182067409490287, 20.680480355251685 ], [ -156.182868276326957, 20.679694579641446 ], [ -156.18330334403322, 20.679328374267055 ], [ -156.184349058577993, 20.680030881767202 ], [ -156.184857001351105, 20.681091568415354 ], [ -156.185662879975638, 20.681465626805387 ], [ -156.18687001248108, 20.679771482277967 ], [ -156.187487512927476, 20.679509542327398 ], [ -156.188064509115776, 20.679234111239278 ], [ -156.188616728948716, 20.679815074167781 ], [ -156.188923547680076, 20.679514336148696 ], [ -156.189398382293263, 20.681016162895251 ], [ -156.190381805546593, 20.679502817828737 ], [ -156.191101474180925, 20.678896583000675 ], [ -156.191736856602603, 20.678273365921193 ], [ -156.192824861636439, 20.680543859199243 ], [ -156.193513200690461, 20.679868336864331 ], [ -156.193968515875554, 20.679484975762286 ], [ -156.194406181104455, 20.6782578785471 ], [ -156.194817243284035, 20.677911747565236 ], [ -156.197298631589916, 20.678044837499662 ], [ -156.197959744634943, 20.677396357851269 ], [ -156.198912108527139, 20.677890566974099 ], [ -156.199574653430716, 20.678893959212086 ], [ -156.199791830815485, 20.679158009591863 ], [ -156.200761092370982, 20.677797766064351 ], [ -156.20195497368033, 20.677290962521674 ], [ -156.202491578847741, 20.676764353496878 ], [ -156.202842674982634, 20.676468802476414 ], [ -156.203967975769729, 20.676528990199714 ], [ -156.204568900771761, 20.677783423119386 ], [ -156.205235792893745, 20.676510945878643 ], [ -156.206280515793651, 20.676566902053736 ], [ -156.206802474976058, 20.677115847648196 ], [ -156.207112300450945, 20.677109365340193 ], [ -156.207095309950944, 20.676394706100531 ], [ -156.207156823339176, 20.675767013732266 ], [ -156.207690366071859, 20.676328046475675 ], [ -156.20826109637909, 20.6763160042415 ], [ -156.208553932937747, 20.676331725431357 ], [ -156.209219019201583, 20.674802380558987 ], [ -156.210027370080411, 20.674459337282713 ], [ -156.210597511716799, 20.674187019587194 ], [ -156.211441481182902, 20.674232154904146 ], [ -156.212625938002702, 20.673407333947225 ], [ -156.21310688027981, 20.673433098709431 ], [ -156.213934303338249, 20.675538990962469 ], [ -156.215400685377006, 20.672740190852775 ], [ -156.21624153418179, 20.672031718675846 ], [ -156.216967877499144, 20.672408580207815 ], [ -156.217394248680506, 20.671990033037819 ], [ -156.217872892432382, 20.671586743259784 ], [ -156.218850495024071, 20.671639023787176 ], [ -156.219842640185874, 20.671618137213091 ], [ -156.220423388936155, 20.671919371726549 ], [ -156.221215929182108, 20.671902531025903 ], [ -156.221614254809168, 20.670785395228254 ], [ -156.221593060030699, 20.669896362925368 ], [ -156.222491992653005, 20.669514777720799 ], [ -156.223354712127048, 20.668976289386826 ], [ -156.223651751330522, 20.668992183573337 ], [ -156.224814060693689, 20.668437089373494 ], [ -156.225675418339137, 20.668483093295301 ], [ -156.226538972350312, 20.66794420394929 ], [ -156.226831236925904, 20.667959883393319 ], [ -156.227273744948064, 20.667950472369839 ], [ -156.227883520882813, 20.6692224389923 ], [ -156.228541169197769, 20.66796649419538 ], [ -156.229171599744035, 20.667435346837568 ], [ -156.230575091666509, 20.66751040670913 ], [ -156.230923300313322, 20.666533410522746 ], [ -156.231744878612318, 20.666959614025092 ], [ -156.23203394781433, 20.666407498738963 ], [ -156.232603596716871, 20.666437937823844 ], [ -156.233481904491981, 20.665889460597828 ], [ -156.234839876785372, 20.665094760119317 ], [ -156.235787976410336, 20.665145409510863 ], [ -156.23610155385856, 20.664837409622301 ], [ -156.23669702937147, 20.664869174502481 ], [ -156.237251220467982, 20.664324868885281 ], [ -156.237554853741017, 20.66406920856388 ], [ -156.237836383878033, 20.663792562874395 ], [ -156.238715379955295, 20.663546118971414 ], [ -156.23963608995129, 20.663106199348132 ], [ -156.241445730350875, 20.663735835774247 ], [ -156.241873731476517, 20.663315525488418 ], [ -156.242847908448766, 20.66304228146431 ], [ -156.243892582725437, 20.663098000495054 ], [ -156.244457612790569, 20.662543129669633 ], [ -156.245058136973995, 20.66257521007492 ], [ -156.245921765747653, 20.662556741517033 ], [ -156.246501515684059, 20.662587691525133 ], [ -156.24707241048398, 20.662314857096554 ], [ -156.247390219739032, 20.662331834401751 ], [ -156.248199262126377, 20.661537377299876 ], [ -156.24882821888545, 20.661270224065166 ], [ -156.249397405359076, 20.660998147226202 ], [ -156.25017588108696, 20.660667382330541 ], [ -156.251787504152418, 20.660215400257716 ], [ -156.252437999911564, 20.660249969953451 ], [ -156.253013744543466, 20.660237720468817 ], [ -156.253450028660666, 20.660260938125106 ], [ -156.253873123271688, 20.659845540952684 ], [ -156.25751234320893, 20.659436235090315 ], [ -156.259011773817804, 20.658391376839123 ], [ -156.260675764006947, 20.658479979587842 ], [ -156.261267028256327, 20.658197498915115 ], [ -156.261831331794866, 20.658227489309393 ], [ -156.262401338397268, 20.657954982268457 ], [ -156.263280275867373, 20.657708404558814 ], [ -156.26356175147933, 20.657431710055516 ], [ -156.263896515046582, 20.657176491495822 ], [ -156.264566490757005, 20.657880505296347 ], [ -156.265000137475681, 20.657454532293656 ], [ -156.265657937377341, 20.657175074468014 ], [ -156.266452450234652, 20.657217428482237 ], [ -156.267934528167245, 20.656949969419564 ], [ -156.269042357298133, 20.657008913619958 ], [ -156.271139811941424, 20.656963961961296 ], [ -156.271636083508923, 20.656476274774711 ], [ -156.272802680120975, 20.656234197496094 ], [ -156.273659490571504, 20.655966583110789 ], [ -156.274826081701349, 20.655724491319141 ], [ -156.27601006598104, 20.655452380681435 ], [ -156.27655583856631, 20.655481368049372 ], [ -156.277993948251094, 20.654951665158105 ], [ -156.279160528236758, 20.654709542347874 ], [ -156.282333177704089, 20.653665857643929 ], [ -156.283651234637091, 20.653295822568214 ], [ -156.284936686213314, 20.652894316671397 ], [ -156.285846754905947, 20.652648107281234 ], [ -156.286476822825563, 20.653310153264911 ], [ -156.288357568945258, 20.652411067243499 ], [ -156.290715632416635, 20.652182963820948 ], [ -156.292435419387203, 20.651928805408872 ], [ -156.294177311971367, 20.651695607361535 ], [ -156.297345038945338, 20.650922404777774 ], [ -156.299662264371875, 20.650698164022277 ], [ -156.302001585250537, 20.650352300161586 ], [ -156.304520718512322, 20.649147586818579 ], [ -156.306024504087389, 20.648901681769761 ], [ -156.307309879212482, 20.648499998113941 ], [ -156.308627853288385, 20.648129760078419 ], [ -156.309484575929559, 20.64786195525128 ], [ -156.311801756842812, 20.647637544034239 ], [ -156.313916196648051, 20.647324772659861 ], [ -156.314707972796839, 20.646546488071657 ], [ -156.316273955863409, 20.646629314681824 ], [ -156.318466060602162, 20.646581672327194 ], [ -156.320745411240182, 20.645869192851755 ], [ -156.322571235245761, 20.64619775816842 ], [ -156.323331642723161, 20.646181124136085 ], [ -156.326252792561434, 20.646335535872947 ], [ -156.32901685866392, 20.646924833047041 ], [ -156.331448474794541, 20.647564888844499 ], [ -156.333179092711418, 20.647023749832812 ], [ -156.334522255164501, 20.647719672974251 ], [ -156.33495882814384, 20.647710151214142 ], [ -156.335677549751665, 20.647748101853519 ], [ -156.336829002956165, 20.647722900249089 ], [ -156.338728847042262, 20.647823243158012 ], [ -156.339900291520109, 20.647456845223903 ], [ -156.34200325178395, 20.647835111718692 ], [ -156.342438422284403, 20.64782554934564 ], [ -156.342869658445466, 20.647848327964063 ], [ -156.343157524788325, 20.647841917094389 ], [ -156.343450068792009, 20.647857400016971 ], [ -156.345143597073132, 20.646602705213773 ], [ -156.346613264837231, 20.647363968655807 ], [ -156.347483015358222, 20.647637890065813 ], [ -156.34804225744324, 20.647927665802182 ], [ -156.348667542733665, 20.648217264751793 ], [ -156.349232591649184, 20.648204920301531 ], [ -156.349775207052033, 20.647671271002707 ], [ -156.351259089643378, 20.647987408195185 ], [ -156.351783198950869, 20.648537575409868 ], [ -156.352507645431189, 20.648521715874548 ], [ -156.354306881022751, 20.649728392114646 ], [ -156.354607336755521, 20.651007956560868 ], [ -156.356785206808809, 20.652016610190014 ], [ -156.357772640044317, 20.651045764130174 ], [ -156.358069687500659, 20.651061424135008 ], [ -156.358928632023947, 20.650792606920877 ], [ -156.359535922064424, 20.650824653397546 ], [ -156.359467381190257, 20.651977680646628 ], [ -156.357789074950006, 20.653394372677209 ], [ -156.357603319425948, 20.652809331052531 ] ], [ [ -156.184964006329551, 20.745681500913264 ], [ -156.185056552683818, 20.746013224554019 ], [ -156.185313076481805, 20.745779921245219 ], [ -156.184964006329551, 20.745681500913264 ] ], [ [ -156.312583313534844, 20.676490595099196 ], [ -156.312439829993934, 20.676626429264303 ], [ -156.309488961691528, 20.676851757239127 ], [ -156.304513308663445, 20.678368024518175 ], [ -156.301103011596041, 20.679094128040134 ], [ -156.296347657817194, 20.677782613774447 ], [ -156.292944011950055, 20.67740462179383 ], [ -156.287473733908342, 20.678263120243887 ], [ -156.282447314490781, 20.679872747179367 ], [ -156.279498280581151, 20.680212900840818 ], [ -156.270022922304776, 20.680575997691466 ], [ -156.261581849864569, 20.682349179854373 ], [ -156.248265604932129, 20.684325267708751 ], [ -156.238212704362866, 20.687208288932244 ], [ -156.232220631553048, 20.688481501167164 ], [ -156.216730580048022, 20.691068759638593 ], [ -156.211201550796204, 20.692582630296112 ], [ -156.203878598465735, 20.695753162757175 ], [ -156.200839472669173, 20.696909306563242 ], [ -156.195778923567303, 20.69760017075053 ], [ -156.188311176144111, 20.697119318147699 ], [ -156.179715271462584, 20.696684993387063 ], [ -156.176349825156251, 20.696694489645498 ], [ -156.170425207128091, 20.697462724177463 ], [ -156.168564412262555, 20.698028003672931 ], [ -156.167838007587875, 20.700015532854611 ], [ -156.16740697352401, 20.70465021792316 ], [ -156.163597259872432, 20.708479562600065 ], [ -156.161537321202758, 20.712934876938178 ], [ -156.159776026867178, 20.715041216019355 ], [ -156.155120480904088, 20.717655752728373 ], [ -156.150753143565368, 20.719792778191799 ], [ -156.14862210057882, 20.720900929077839 ], [ -156.147230405692483, 20.72221636879296 ], [ -156.146560770053554, 20.724047077841469 ], [ -156.146575440035832, 20.729066964033741 ], [ -156.145631570237583, 20.729478558129646 ], [ -156.144198226988863, 20.729427248719499 ], [ -156.142579141161747, 20.728608239256399 ], [ -156.141669614773207, 20.728313701192032 ], [ -156.14139772632052, 20.727762244057292 ], [ -156.141105712009562, 20.727204765774893 ], [ -156.140233630755205, 20.727207056882335 ], [ -156.139409068523236, 20.727986502913602 ], [ -156.138499041181518, 20.728526493539324 ], [ -156.138082508361862, 20.729298837480894 ], [ -156.136663076013292, 20.729599449157796 ], [ -156.13534914270241, 20.729552302704651 ], [ -156.132055317323903, 20.729949240766409 ], [ -156.129424283322095, 20.730410606113612 ], [ -156.127738405789671, 20.731645044344187 ], [ -156.126899564772799, 20.733310036465983 ], [ -156.128037306063703, 20.734039293822445 ], [ -156.128926377447527, 20.734628054846002 ], [ -156.132593651144219, 20.734618922839083 ], [ -156.132935994823725, 20.734966070215798 ], [ -156.13549921939358, 20.734959614964801 ], [ -156.136661720923541, 20.736138972932405 ], [ -156.140230088096899, 20.736129884556313 ], [ -156.140999324506652, 20.736157492720853 ], [ -156.142658021752965, 20.736996489071913 ], [ -156.14344323612255, 20.737371213033899 ], [ -156.142117570569241, 20.738527943803483 ], [ -156.144226781895611, 20.738913040404011 ], [ -156.145016464259555, 20.737448001675304 ], [ -156.147618677756014, 20.737014886460564 ], [ -156.15100909932292, 20.737952890132284 ], [ -156.151569444311036, 20.737951466854586 ], [ -156.153865274299079, 20.738266278889217 ], [ -156.155671088498707, 20.737949311747233 ], [ -156.158278972336291, 20.738837594763652 ], [ -156.161623169387326, 20.739201243044153 ], [ -156.163074005787365, 20.73978285454362 ], [ -156.16419219001412, 20.739779887168375 ], [ -156.164768180035196, 20.740070929836733 ], [ -156.165403272379962, 20.740373921598184 ], [ -156.16763686214918, 20.74092542885036 ], [ -156.168797215817676, 20.741784011554746 ], [ -156.170212051611287, 20.741780207378373 ], [ -156.17106802421597, 20.742346934197307 ], [ -156.17164104680819, 20.74234539106201 ], [ -156.171934381930896, 20.742642867392547 ], [ -156.173072276837559, 20.742639771778492 ], [ -156.173359989225787, 20.74265005900434 ], [ -156.17365071882989, 20.742649287160763 ], [ -156.174205533307742, 20.743476320980733 ], [ -156.176532413819018, 20.744050676976148 ], [ -156.177659729958265, 20.743527670855567 ], [ -156.178237690461089, 20.743548271445029 ], [ -156.179109046997212, 20.743545784184146 ], [ -156.180847723825991, 20.744137667333582 ], [ -156.181684498525271, 20.744135393343718 ], [ -156.18253220412933, 20.74469637852097 ], [ -156.183760086947359, 20.744982049815484 ], [ -156.184557573574892, 20.744156178765483 ], [ -156.18339129690213, 20.743064585822353 ], [ -156.183492543176556, 20.740543208969015 ], [ -156.185727226543918, 20.739901287582956 ], [ -156.19060870772131, 20.737978482553444 ], [ -156.194264085827825, 20.736690777239136 ], [ -156.19610555014205, 20.736251763275426 ], [ -156.199036543153795, 20.737426262308894 ], [ -156.201155084598923, 20.738828168735264 ], [ -156.203267713691645, 20.739835210277622 ], [ -156.211335046763907, 20.74032045712913 ], [ -156.214693805608874, 20.7410246433321 ], [ -156.219217601960423, 20.742335979550841 ], [ -156.22109335798234, 20.743283705478269 ], [ -156.221351119092475, 20.747887345175673 ], [ -156.221324288899694, 20.748555275874086 ], [ -156.22186740332134, 20.751023149904068 ], [ -156.220570367051067, 20.752757979817346 ], [ -156.219230510358727, 20.753143210175814 ], [ -156.218933324321711, 20.753956198174023 ], [ -156.218365860618974, 20.755432642235551 ], [ -156.216861288824447, 20.756089325572965 ], [ -156.217462299507957, 20.756651448211283 ], [ -156.219415832881822, 20.756645662861995 ], [ -156.220590198958206, 20.75723887812434 ], [ -156.221369985871263, 20.757236552804692 ], [ -156.221766114879927, 20.758455247845937 ], [ -156.224566395599993, 20.759016679379691 ], [ -156.227494121664336, 20.757881039937086 ], [ -156.228656018071945, 20.757634245510364 ], [ -156.228943288041478, 20.757362752995224 ], [ -156.229817322272396, 20.757111305096505 ], [ -156.230163534240404, 20.756783895454607 ], [ -156.23228639350512, 20.757332157878643 ], [ -156.234738547768615, 20.755825574293979 ], [ -156.235308437537924, 20.755845725322089 ], [ -156.235875913415583, 20.755844015057814 ], [ -156.236452128801744, 20.756134839149485 ], [ -156.237655233456024, 20.756419743769424 ], [ -156.239349874609928, 20.754816132890056 ], [ -156.239933813786848, 20.754836758524686 ], [ -156.24129935282528, 20.754832512121315 ], [ -156.244062592661464, 20.752725088975811 ], [ -156.245735659500156, 20.751142349473028 ], [ -156.246343047963222, 20.750876881479474 ], [ -156.247008300480417, 20.750568035763315 ], [ -156.248089128604448, 20.749545363715367 ], [ -156.251875833192798, 20.747444531426904 ], [ -156.265201919175411, 20.739246171370855 ], [ -156.276820750355597, 20.730033015792291 ], [ -156.283246546231055, 20.723634449490159 ], [ -156.286928869645635, 20.719015544082055 ], [ -156.291937740974646, 20.712870218950798 ], [ -156.294004460304734, 20.7096472423978 ], [ -156.295090376591929, 20.708192756265355 ], [ -156.298686540306676, 20.705663331359698 ], [ -156.300343870628694, 20.704446964687971 ], [ -156.303882593069261, 20.699211956531531 ], [ -156.305413322517865, 20.693367625648669 ], [ -156.308310697011706, 20.688675127750066 ], [ -156.316090154111635, 20.681871101744484 ], [ -156.318388256847129, 20.680635142412211 ], [ -156.319014398615053, 20.678863961057221 ], [ -156.317684614269666, 20.677620975017774 ], [ -156.314893227169961, 20.67672022793905 ], [ -156.312583313534844, 20.676490595099196 ] ], [ [ -156.134930160596696, 20.71181411042005 ], [ -156.135022583255505, 20.712145847129513 ], [ -156.135279110114482, 20.711912620045378 ], [ -156.134930160596696, 20.71181411042005 ] ], [ [ -156.136399442568234, 20.710213634746196 ], [ -156.136503086153766, 20.710830794730224 ], [ -156.136770624530556, 20.710370431306877 ], [ -156.136399442568234, 20.710213634746196 ] ] ] } }
]
}
