{
"type": "FeatureCollection",
"name": "lysglut",
"crs": { "type": "name", "properties": { "name": "urn:ogc:def:crs:OGC:1.3:CRS84" } },
"features": [
{ "type": "Feature", "properties": { "ID": 1, "GRIDCODE": 2 }, "geometry": { "type": "Polygon", "coordinates": [ [ [ -159.625496427211232, 22.176482993725699 ], [ -159.625258899201555, 22.177695871575967 ], [ -159.624509830137896, 22.177310828124082 ], [ -159.625496427211232, 22.176482993725699 ] ] ] } },
{ "type": "Feature", "properties": { "ID": 2, "GRIDCODE": 2 }, "geometry": { "type": "Polygon", "coordinates": [ [ [ -159.598406255751996, 22.169809200864592 ], [ -159.599153463122832, 22.17003201177366 ], [ -159.599133456449152, 22.171161633268689 ], [ -159.599151249103699, 22.171840012827815 ], [ -159.597692202645504, 22.17228692368554 ], [ -159.597980078205495, 22.172930211882342 ], [ -159.59839232433967, 22.173668426984413 ], [ -159.596529742913901, 22.174014191802573 ], [ -159.595652891304894, 22.174572462699505 ], [ -159.59566271213393, 22.174020071573576 ], [ -159.595645010468075, 22.173342584432245 ], [ -159.595657063522992, 22.17266238316159 ], [ -159.595359000738881, 22.172397765429288 ], [ -159.594932115761623, 22.171586261681696 ], [ -159.594774745551547, 22.171852439383191 ], [ -159.594493036686515, 22.172671946992729 ], [ -159.593688908942624, 22.17303894639921 ], [ -159.593039146018583, 22.174590959908393 ], [ -159.591681103519335, 22.174570086398695 ], [ -159.591213302763464, 22.17593070935709 ], [ -159.589873940980112, 22.175605652917127 ], [ -159.591009243378892, 22.174581762697752 ], [ -159.591292109507663, 22.174033277541046 ], [ -159.59350702524452, 22.172035637351801 ], [ -159.594508489356883, 22.170450314544528 ], [ -159.598264267677735, 22.169947945277478 ], [ -159.598406255751996, 22.169809200864592 ] ] ] } },
{ "type": "Feature", "properties": { "ID": 3, "GRIDCODE": 2 }, "geometry": { "type": "Polygon", "coordinates": [ [ [ -159.603343505845658, 22.167622836494054 ], [ -159.602987539590117, 22.168740079089119 ], [ -159.602613130425681, 22.169148110338231 ], [ -159.602030367160467, 22.169106659453757 ], [ -159.601643624441067, 22.169922712459506 ], [ -159.600307059906044, 22.169495270741756 ], [ -159.600753321831689, 22.168859042270981 ], [ -159.602047883495146, 22.168315260394305 ], [ -159.603343505845658, 22.167622836494054 ] ] ] } },
{ "type": "Feature", "properties": { "ID": 4, "GRIDCODE": 2 }, "geometry": { "type": "Polygon", "coordinates": [ [ [ -159.603343505845658, 22.167622836494054 ], [ -159.603441689353957, 22.16729203432331 ], [ -159.603697866676214, 22.167528750005264 ], [ -159.603343505845658, 22.167622836494054 ] ] ] } },
{ "type": "Feature", "properties": { "ID": 5, "GRIDCODE": 2 }, "geometry": { "type": "Polygon", "coordinates": [ [ [ -159.604212930313679, 22.166806554516288 ], [ -159.604903703899851, 22.167007456863676 ], [ -159.604963743160823, 22.168289214116896 ], [ -159.603787545457493, 22.167951598152911 ], [ -159.604212930313679, 22.166806554516288 ] ] ] } },
{ "type": "Feature", "properties": { "ID": 6, "GRIDCODE": 2 }, "geometry": { "type": "Polygon", "coordinates": [ [ [ -159.629085221562747, 22.132834937319089 ], [ -159.628794328499708, 22.132836058197913 ], [ -159.628938234182101, 22.132488390607975 ], [ -159.629085221562747, 22.132834937319089 ] ] ] } },
{ "type": "Feature", "properties": { "ID": 7, "GRIDCODE": 2 }, "geometry": { "type": "Polygon", "coordinates": [ [ [ -159.611616396921619, 22.129378049309903 ], [ -159.611988968114645, 22.128738650522997 ], [ -159.612264933050056, 22.129245524854571 ], [ -159.611616396921619, 22.129378049309903 ] ] ] } },
{ "type": "Feature", "properties": { "ID": 8, "GRIDCODE": 2 }, "geometry": { "type": "Polygon", "coordinates": [ [ [ -159.572339933584573, 22.127894340613249 ], [ -159.57224170194047, 22.12822512663989 ], [ -159.571985648740423, 22.127988357731383 ], [ -159.572339933584573, 22.127894340613249 ] ] ] } },
{ "type": "Feature", "properties": { "ID": 9, "GRIDCODE": 2 }, "geometry": { "type": "Polygon", "coordinates": [ [ [ -159.61422615565462, 22.127471099790345 ], [ -159.614581213492585, 22.127562538479182 ], [ -159.614327152936369, 22.127801159648257 ], [ -159.61422615565462, 22.127471099790345 ] ] ] } },
{ "type": "Feature", "properties": { "ID": 10, "GRIDCODE": 2 }, "geometry": { "type": "Polygon", "coordinates": [ [ [ -159.623797846592055, 22.121201316378382 ], [ -159.624247203500971, 22.121325507327445 ], [ -159.624188443003078, 22.122044077627329 ], [ -159.626562436819285, 22.123933962219276 ], [ -159.625405476687405, 22.124052511681807 ], [ -159.624256238602698, 22.123764185441665 ], [ -159.622548390664804, 22.123409531722949 ], [ -159.622450476102159, 22.122329549482547 ], [ -159.623663846345664, 22.121347421190883 ], [ -159.623797846592055, 22.121201316378382 ] ] ] } },
{ "type": "Feature", "properties": { "ID": 11, "GRIDCODE": 2 }, "geometry": { "type": "Polygon", "coordinates": [ [ [ -159.624044583498005, 22.111172574774947 ], [ -159.625044951004071, 22.111428035297116 ], [ -159.624014170238468, 22.11210382366621 ], [ -159.623876643676397, 22.111575472827774 ], [ -159.624044583498005, 22.111172574774947 ] ] ] } },
{ "type": "Feature", "properties": { "ID": 12, "GRIDCODE": 2 }, "geometry": { "type": "Polygon", "coordinates": [ [ [ -159.559430805428661, 22.100023621556421 ], [ -159.559332561211363, 22.100354401168943 ], [ -159.55907658055574, 22.100117617976416 ], [ -159.559430805428661, 22.100023621556421 ] ] ] } },
{ "type": "Feature", "properties": { "ID": 13, "GRIDCODE": 2 }, "geometry": { "type": "Polygon", "coordinates": [ [ [ -159.557701805990405, 22.104094897190105 ], [ -159.557353964784994, 22.103846572638265 ], [ -159.5572403091995, 22.103147886505258 ], [ -159.557379217336432, 22.1022493549854 ], [ -159.55698434531746, 22.10177618539343 ], [ -159.556441838693587, 22.101388948827903 ], [ -159.557233916867119, 22.100814904929145 ], [ -159.556686069881351, 22.09988003057089 ], [ -159.556034281623653, 22.099634036530642 ], [ -159.556417395923603, 22.099356348403283 ], [ -159.555959987406169, 22.099029794082178 ], [ -159.555263311364541, 22.097962356632717 ], [ -159.555096995863011, 22.096939069184735 ], [ -159.555513205163948, 22.097444800586473 ], [ -159.555768799616459, 22.098020884481056 ], [ -159.556262588909846, 22.098373402390102 ], [ -159.556648317297089, 22.098835596555336 ], [ -159.556971134096585, 22.098790015168394 ], [ -159.557229311589879, 22.099642058289806 ], [ -159.557558557646445, 22.099877056095984 ], [ -159.557813099640697, 22.100182115550826 ], [ -159.558147332207739, 22.100420668171132 ], [ -159.558013900150655, 22.101283674288435 ], [ -159.55850022637739, 22.101215017685483 ], [ -159.558153145344448, 22.103162214454308 ], [ -159.557826812657481, 22.103670490423564 ], [ -159.557701805990405, 22.104094897190105 ] ] ] } },
{ "type": "Feature", "properties": { "ID": 14, "GRIDCODE": 2 }, "geometry": { "type": "Polygon", "coordinates": [ [ [ -159.559708808894953, 22.096770376307788 ], [ -159.560290454377053, 22.096768383349129 ], [ -159.560291524226841, 22.097039404153833 ], [ -159.559709877634276, 22.097041397139449 ], [ -159.559708808894953, 22.096770376307788 ] ] ] } },
{ "type": "Feature", "properties": { "ID": 15, "GRIDCODE": 2 }, "geometry": { "type": "Polygon", "coordinates": [ [ [ -159.559708808894953, 22.096770376307788 ], [ -159.559353861000318, 22.096678807280849 ], [ -159.559607961787151, 22.096440278189633 ], [ -159.559708808894953, 22.096770376307788 ] ] ] } },
{ "type": "Feature", "properties": { "ID": 16, "GRIDCODE": 2 }, "geometry": { "type": "Polygon", "coordinates": [ [ [ -159.555923865732154, 22.095699195973499 ], [ -159.556310825686467, 22.095879974012167 ], [ -159.556507632349309, 22.096239258597485 ], [ -159.55592598865951, 22.096241238049139 ], [ -159.555923865732154, 22.095699195973499 ] ] ] } },
{ "type": "Feature", "properties": { "ID": 17, "GRIDCODE": 2 }, "geometry": { "type": "Polygon", "coordinates": [ [ [ -159.555631984089217, 22.095429163831689 ], [ -159.555922804293118, 22.095428174922137 ], [ -159.555923865732154, 22.095699195973499 ], [ -159.555633044973064, 22.09570018489643 ], [ -159.555631984089217, 22.095429163831689 ] ] ] } },
{ "type": "Feature", "properties": { "ID": 18, "GRIDCODE": 2 }, "geometry": { "type": "Polygon", "coordinates": [ [ [ -159.555340103556659, 22.095159131136693 ], [ -159.555630923221798, 22.095158142757917 ], [ -159.555631984089217, 22.095429163831689 ], [ -159.555341163868917, 22.095430152223837 ], [ -159.555340103556659, 22.095159131136693 ] ] ] } },
{ "type": "Feature", "properties": { "ID": 19, "GRIDCODE": 2 }, "geometry": { "type": "Polygon", "coordinates": [ [ [ -159.555340103556659, 22.095159131136693 ], [ -159.554985162307474, 22.095067552461323 ], [ -159.555239267779029, 22.09482903002295 ], [ -159.555340103556659, 22.095159131136693 ] ] ] } },
{ "type": "Feature", "properties": { "ID": 20, "GRIDCODE": 2 }, "geometry": { "type": "Polygon", "coordinates": [ [ [ -159.556500194618224, 22.094342111362153 ], [ -159.557180028741783, 22.094467599055225 ], [ -159.556969390759207, 22.096029768899427 ], [ -159.556601785039987, 22.095334816749304 ], [ -159.556500194618224, 22.094342111362153 ] ] ] } },
{ "type": "Feature", "properties": { "ID": 21, "GRIDCODE": 2 }, "geometry": { "type": "Polygon", "coordinates": [ [ [ -159.562012857454249, 22.091070954771666 ], [ -159.562303668412909, 22.091069954695708 ], [ -159.562304741800602, 22.091340975595475 ], [ -159.562013930286895, 22.091341975684973 ], [ -159.562012857454249, 22.091070954771666 ] ] ] } },
{ "type": "Feature", "properties": { "ID": 22, "GRIDCODE": 2 }, "geometry": { "type": "Polygon", "coordinates": [ [ [ -159.562012857454249, 22.091070954771666 ], [ -159.561657922533726, 22.090979390417544 ], [ -159.561912009391477, 22.090740857873609 ], [ -159.562012857454249, 22.091070954771666 ] ] ] } },
{ "type": "Feature", "properties": { "ID": 23, "GRIDCODE": 2 }, "geometry": { "type": "Polygon", "coordinates": [ [ [ -159.553847944574329, 22.085407297716266 ], [ -159.553493028739041, 22.085315715167663 ], [ -159.553747119710295, 22.08507719507514 ], [ -159.553847944574329, 22.085407297716266 ] ] ] } },
{ "type": "Feature", "properties": { "ID": 24, "GRIDCODE": 2 }, "geometry": { "type": "Polygon", "coordinates": [ [ [ -159.553263177578856, 22.08459620221743 ], [ -159.553618091468621, 22.084687785313271 ], [ -159.553364000957032, 22.08492630520664 ], [ -159.553263177578856, 22.08459620221743 ] ] ] } },
{ "type": "Feature", "properties": { "ID": 25, "GRIDCODE": 2 }, "geometry": { "type": "Polygon", "coordinates": [ [ [ -159.555007966136856, 22.084590289035742 ], [ -159.554339547556765, 22.08492129684927 ], [ -159.554822652616537, 22.085913736505393 ], [ -159.553950011580412, 22.085855506346189 ], [ -159.553847944574329, 22.085407297716266 ], [ -159.554138744340122, 22.085406312404547 ], [ -159.554134514494677, 22.084322226451977 ], [ -159.555006907035477, 22.084319267574099 ], [ -159.555007966136856, 22.084590289035742 ] ] ] } },
{ "type": "Feature", "properties": { "ID": 26, "GRIDCODE": 2 }, "geometry": { "type": "Polygon", "coordinates": [ [ [ -159.552383404667779, 22.082702000566456 ], [ -159.552964993249674, 22.082700034863397 ], [ -159.552675670302733, 22.083079148053212 ], [ -159.552383404667779, 22.082702000566456 ] ] ] } },
{ "type": "Feature", "properties": { "ID": 27, "GRIDCODE": 2 }, "geometry": { "type": "Polygon", "coordinates": [ [ [ -159.552383404667779, 22.082702000566456 ], [ -159.551471769512091, 22.08256083079872 ], [ -159.55210666279342, 22.081788522819384 ], [ -159.552383404667779, 22.082702000566456 ] ] ] } },
{ "type": "Feature", "properties": { "ID": 28, "GRIDCODE": 2 }, "geometry": { "type": "Polygon", "coordinates": [ [ [ -159.558193962257434, 22.081327143484266 ], [ -159.558548870851126, 22.081418716017417 ], [ -159.558294794520663, 22.081657243374362 ], [ -159.558193962257434, 22.081327143484266 ] ] ] } },
{ "type": "Feature", "properties": { "ID": 29, "GRIDCODE": 2 }, "geometry": { "type": "Polygon", "coordinates": [ [ [ -159.559358194189741, 22.081594190272401 ], [ -159.558712726424829, 22.08150877363892 ], [ -159.559264305463898, 22.081008707632826 ], [ -159.559358194189741, 22.081594190272401 ] ] ] } },
{ "type": "Feature", "properties": { "ID": 30, "GRIDCODE": 2 }, "geometry": { "type": "Polygon", "coordinates": [ [ [ -159.559639376296104, 22.079154002881744 ], [ -159.559348589602621, 22.079154997709534 ], [ -159.55949261590635, 22.078807386480658 ], [ -159.559639376296104, 22.079154002881744 ] ] ] } },
{ "type": "Feature", "properties": { "ID": 31, "GRIDCODE": 2 }, "geometry": { "type": "Polygon", "coordinates": [ [ [ -159.559348589602621, 22.079154997709534 ], [ -159.559172112571048, 22.079483100888108 ], [ -159.558087036919403, 22.07897613745163 ], [ -159.558959408601794, 22.078976350744 ], [ -159.559348589602621, 22.079154997709534 ] ] ] } },
{ "type": "Feature", "properties": { "ID": 32, "GRIDCODE": 2 }, "geometry": { "type": "Polygon", "coordinates": [ [ [ -159.558757422900271, 22.076717792278011 ], [ -159.5591123202407, 22.07680936387251 ], [ -159.558858252935408, 22.077047892046686 ], [ -159.558757422900271, 22.076717792278011 ] ] ] } },
{ "type": "Feature", "properties": { "ID": 33, "GRIDCODE": 2 }, "geometry": { "type": "Polygon", "coordinates": [ [ [ -159.563405629932362, 22.075617746096984 ], [ -159.563050733044975, 22.075526183801223 ], [ -159.563304790494897, 22.075287649274852 ], [ -159.563405629932362, 22.075617746096984 ] ] ] } },
{ "type": "Feature", "properties": { "ID": 34, "GRIDCODE": 2 }, "geometry": { "type": "Polygon", "coordinates": [ [ [ -159.565148149266264, 22.075069684423791 ], [ -159.565817319392465, 22.075177226694549 ], [ -159.565307543718632, 22.075413257953652 ], [ -159.565148149266264, 22.075069684423791 ] ] ] } },
{ "type": "Feature", "properties": { "ID": 35, "GRIDCODE": 2 }, "geometry": { "type": "Polygon", "coordinates": [ [ [ -159.567164125034481, 22.070184255658393 ], [ -159.567065917897963, 22.070515040304297 ], [ -159.566809979628488, 22.070278267499223 ], [ -159.567164125034481, 22.070184255658393 ] ] ] } },
{ "type": "Feature", "properties": { "ID": 36, "GRIDCODE": 2 }, "geometry": { "type": "Polygon", "coordinates": [ [ [ -159.602050416348703, 22.0687044672922 ], [ -159.602168498533104, 22.068543707747217 ], [ -159.602511563079304, 22.06832104668668 ], [ -159.603027505063551, 22.067618559473541 ], [ -159.603708833579361, 22.068585407200032 ], [ -159.602050416348703, 22.0687044672922 ] ] ] } },
{ "type": "Feature", "properties": { "ID": 37, "GRIDCODE": 2 }, "geometry": { "type": "Polygon", "coordinates": [ [ [ -159.550867438802641, 22.066716609378268 ], [ -159.550512571707969, 22.066625019150681 ], [ -159.550766635114087, 22.06638650373274 ], [ -159.550867438802641, 22.066716609378268 ] ] ] } },
{ "type": "Feature", "properties": { "ID": 38, "GRIDCODE": 2 }, "geometry": { "type": "Polygon", "coordinates": [ [ [ -159.547948330285209, 22.063745126584113 ], [ -159.547850082244508, 22.06407590079132 ], [ -159.547594187115607, 22.063839096833181 ], [ -159.547948330285209, 22.063745126584113 ] ] ] } },
{ "type": "Feature", "properties": { "ID": 39, "GRIDCODE": 2 }, "geometry": { "type": "Polygon", "coordinates": [ [ [ -159.577574506319394, 22.056054532455104 ], [ -159.577219650210225, 22.055962999827546 ], [ -159.577473649189244, 22.055724443987664 ], [ -159.577574506319394, 22.056054532455104 ] ] ] } },
{ "type": "Feature", "properties": { "ID": 40, "GRIDCODE": 2 }, "geometry": { "type": "Polygon", "coordinates": [ [ [ -159.573225442677654, 22.059051100221112 ], [ -159.57322762766006, 22.0595931431032 ], [ -159.573518373636489, 22.059592124453879 ], [ -159.573619224611633, 22.059922215342365 ], [ -159.573873236676121, 22.059683664922925 ], [ -159.573518373636489, 22.059592124453879 ], [ -159.573516187545977, 22.059050081599384 ], [ -159.573225442677654, 22.059051100221112 ], [ -159.573104950377427, 22.058620171175498 ], [ -159.571068735452599, 22.058376643417727 ], [ -159.571348125884953, 22.05705152467867 ], [ -159.572702510689084, 22.056654992020725 ], [ -159.573745557902726, 22.057014635982604 ], [ -159.5748736856672, 22.057734889241395 ], [ -159.57475846410361, 22.058222656355561 ], [ -159.575087121864271, 22.058662844182805 ], [ -159.575259560056196, 22.05877293766553 ], [ -159.575360414418697, 22.059103027439402 ], [ -159.575614422065854, 22.05886447438785 ], [ -159.575259560056196, 22.05877293766553 ], [ -159.575636110587027, 22.057383386853328 ], [ -159.57656936831998, 22.057184905424933 ], [ -159.57685639742482, 22.058211272070896 ], [ -159.5771166288026, 22.057250947968694 ], [ -159.57747004342076, 22.057021652484945 ], [ -159.577399018940326, 22.056731589810823 ], [ -159.577574506319394, 22.056054532455104 ], [ -159.578005378505367, 22.056196927400713 ], [ -159.578307051169361, 22.056179088127102 ], [ -159.57982801968862, 22.056553049594754 ], [ -159.578952569922706, 22.055064782275704 ], [ -159.579758594843952, 22.055106708674728 ], [ -159.580048094314975, 22.054802351178235 ], [ -159.580986739464436, 22.054851162741084 ], [ -159.581488573155184, 22.055370736840395 ], [ -159.582104738601799, 22.055624319984158 ], [ -159.582067883411526, 22.055082814418459 ], [ -159.58270934392408, 22.054805603035589 ], [ -159.581064270813783, 22.05410881059019 ], [ -159.581548404231455, 22.053702488946154 ], [ -159.581476514847907, 22.052646765108143 ], [ -159.58210221865437, 22.051574203491104 ], [ -159.582923264319049, 22.053225140798652 ], [ -159.583460118034196, 22.052660682259152 ], [ -159.584109288036757, 22.052380129666211 ], [ -159.584426170032884, 22.05173000398522 ], [ -159.584343910827357, 22.05052194959913 ], [ -159.584680724493268, 22.049938863384714 ], [ -159.584962374101934, 22.049076908964985 ], [ -159.585943862702862, 22.049127938304501 ], [ -159.585830770806069, 22.051018455508213 ], [ -159.586461973630833, 22.051272365780189 ], [ -159.587007025308424, 22.050153988762371 ], [ -159.587879403377741, 22.050199310061458 ], [ -159.588151922822306, 22.049640152593621 ], [ -159.588607868764001, 22.049257418024492 ], [ -159.58989887825507, 22.050262514801645 ], [ -159.589029707839302, 22.050992121783327 ], [ -159.588663057844457, 22.052114330101112 ], [ -159.589339615618115, 22.052074295694055 ], [ -159.589915752738165, 22.052363443251188 ], [ -159.590660173811358, 22.051982855807381 ], [ -159.591665465797178, 22.05263207372758 ], [ -159.591941493689632, 22.052065718375349 ], [ -159.592280675160993, 22.051478423438194 ], [ -159.593874487134485, 22.050789512463069 ], [ -159.59425945387801, 22.049611000221745 ], [ -159.594872435037757, 22.049918672637315 ], [ -159.59478699432006, 22.051349042529047 ], [ -159.593973792257913, 22.052031724154613 ], [ -159.594013036756479, 22.052607889861534 ], [ -159.593325342441801, 22.052905146525504 ], [ -159.592835785912655, 22.053449002910487 ], [ -159.593416690179907, 22.053414624497623 ], [ -159.593814181728249, 22.054213751421408 ], [ -159.595173258225032, 22.053518880198567 ], [ -159.595126692014986, 22.054298592848152 ], [ -159.593969144729783, 22.055270340981973 ], [ -159.594012020802552, 22.055899957116928 ], [ -159.595018152498199, 22.055840373954588 ], [ -159.595461388463178, 22.055863393116788 ], [ -159.596605669256178, 22.055030057021956 ], [ -159.597069658710581, 22.054772592317221 ], [ -159.596591523134265, 22.05560046115917 ], [ -159.596632441358423, 22.056200506358248 ], [ -159.598077300773696, 22.055834120722317 ], [ -159.598355846592455, 22.056394042644577 ], [ -159.599428959739186, 22.056698641218222 ], [ -159.600024368551345, 22.057895524097141 ], [ -159.599419194546329, 22.05827207095653 ], [ -159.598330400493467, 22.057145093800525 ], [ -159.597204472728407, 22.057211767981908 ], [ -159.596398787944992, 22.057169959678777 ], [ -159.594805500631622, 22.057794512335054 ], [ -159.594914473164835, 22.059392820252878 ], [ -159.593869417599677, 22.059248515128598 ], [ -159.593768520447952, 22.058918437712006 ], [ -159.593514543873283, 22.059157018274174 ], [ -159.593869417599677, 22.059248515128598 ], [ -159.594004608490934, 22.059393610860472 ], [ -159.594599587952558, 22.059867695083849 ], [ -159.595944689791651, 22.060179482796219 ], [ -159.596330479420033, 22.059365004117232 ], [ -159.596514549420021, 22.059113457016448 ], [ -159.596917740981809, 22.060738133441159 ], [ -159.59724066451281, 22.06099547384115 ], [ -159.596631458152274, 22.061803126808321 ], [ -159.596364957011559, 22.062440469556606 ], [ -159.598103121024167, 22.061990220823322 ], [ -159.599249659543233, 22.062139635288631 ], [ -159.598408231202683, 22.062820738352151 ], [ -159.599858138816899, 22.063417475915671 ], [ -159.600129685012917, 22.063978676747869 ], [ -159.600613796072992, 22.064227776472695 ], [ -159.601105175373988, 22.063190244277113 ], [ -159.601582305736798, 22.063702318460255 ], [ -159.602066418277303, 22.063951413859364 ], [ -159.602461046536291, 22.06311809732988 ], [ -159.603119010274867, 22.064088657240983 ], [ -159.603035118009899, 22.065112568559584 ], [ -159.602306810794175, 22.065702094981276 ], [ -159.601911850623537, 22.067766467335417 ], [ -159.601453558806895, 22.068539356958453 ], [ -159.602050416348703, 22.0687044672922 ], [ -159.601908530598081, 22.068843214235564 ], [ -159.601465339912494, 22.069243241489986 ], [ -159.601034022862336, 22.069665026290817 ], [ -159.600452374897486, 22.069656112143065 ], [ -159.599859939212507, 22.070505599403443 ], [ -159.599004933456058, 22.071277339449804 ], [ -159.599012459427684, 22.071563918415897 ], [ -159.598422501656017, 22.072381978272066 ], [ -159.598443579218127, 22.073189596851179 ], [ -159.598433946962928, 22.073734359739746 ], [ -159.59931931423074, 22.073996749354134 ], [ -159.599276652094204, 22.072364674797914 ], [ -159.599887986938256, 22.072374046477073 ], [ -159.600170695073643, 22.07182543662643 ], [ -159.602215592027704, 22.071281299309266 ], [ -159.602203449430846, 22.071967373126817 ], [ -159.603370320797836, 22.071401638450062 ], [ -159.60433168803857, 22.0718587506849 ], [ -159.605695459729276, 22.070989735857079 ], [ -159.60598386281228, 22.071283214177541 ], [ -159.60540454491948, 22.071806150213895 ], [ -159.604832310890458, 22.072626763985877 ], [ -159.604389117117734, 22.07302679905855 ], [ -159.60396345342582, 22.073443045535846 ], [ -159.603388645374594, 22.073961888624055 ], [ -159.603094609901689, 22.074532579418989 ], [ -159.60251301410085, 22.074256040148189 ], [ -159.601913089610008, 22.073992650910828 ], [ -159.601353380065774, 22.075078804751261 ], [ -159.598420136901296, 22.07616957235334 ], [ -159.597439368797865, 22.077128540100777 ], [ -159.596996139977648, 22.077528555703509 ], [ -159.59670668479356, 22.077811586679314 ], [ -159.595301930744, 22.077789990649844 ], [ -159.594354179961243, 22.07809618912605 ], [ -159.592305120421742, 22.078064650045853 ], [ -159.591481781274183, 22.077272141874325 ], [ -159.590868268143623, 22.076727017919616 ], [ -159.588554916345771, 22.076779360741419 ], [ -159.588568333120321, 22.077293288993861 ], [ -159.588273811228959, 22.077831186195521 ], [ -159.587991747635726, 22.078532324164392 ], [ -159.589732113781338, 22.078883563296099 ], [ -159.588855524379994, 22.078104632829607 ], [ -159.5889736834134, 22.077563068926157 ], [ -159.590979829155913, 22.078970470281572 ], [ -159.591765326425843, 22.079726609455317 ], [ -159.592652986477475, 22.080515292967061 ], [ -159.592647698175455, 22.08081326637792 ], [ -159.593668641956015, 22.080790142883899 ], [ -159.594107627971766, 22.080796885777879 ], [ -159.594391579624812, 22.080519305069629 ], [ -159.594899186350716, 22.080061214869275 ], [ -159.596432166235132, 22.080790194102235 ], [ -159.596717880620417, 22.080510833017925 ], [ -159.597304160356686, 22.080243094681986 ], [ -159.598145030464963, 22.079420994940374 ], [ -159.598481703819687, 22.07942616493775 ], [ -159.598462486081417, 22.08050978421776 ], [ -159.598760356866137, 22.080774391008887 ], [ -159.599049411801417, 22.081052593939653 ], [ -159.599336111362078, 22.080772281874015 ], [ -159.600398300142643, 22.080446726901386 ], [ -159.6014895463112, 22.080965608342364 ], [ -159.600777615787649, 22.079689977877521 ], [ -159.601360306424169, 22.079164034761714 ], [ -159.601662737445196, 22.078577105075414 ], [ -159.602726939223857, 22.07960131933164 ], [ -159.603111185761435, 22.078855646579449 ], [ -159.60369564029773, 22.078864606356515 ], [ -159.603977264210982, 22.078044871569727 ], [ -159.604852521003153, 22.078058278088591 ], [ -159.606469154965396, 22.078021539650091 ], [ -159.607222458097368, 22.076559462327264 ], [ -159.607825938504817, 22.078827389431698 ], [ -159.60629938082954, 22.079395118707691 ], [ -159.607770137698253, 22.079657060088088 ], [ -159.60806783339919, 22.079943568396228 ], [ -159.608058296383774, 22.080485319730222 ], [ -159.606886483884978, 22.081020570186478 ], [ -159.606326645870183, 22.082107054706118 ], [ -159.606026547057837, 22.082655325360449 ], [ -159.606044100436776, 22.083324994305116 ], [ -159.606034486226008, 22.08386707657554 ], [ -159.606052215319039, 22.08454456910815 ], [ -159.606029763769129, 22.085821723750296 ], [ -159.60487819949347, 22.086172343421243 ], [ -159.604887818187507, 22.085630294350715 ], [ -159.603991364060676, 22.08536797777067 ], [ -159.603434862482402, 22.085912079282242 ], [ -159.602239725052897, 22.086453106860084 ], [ -159.601074603150806, 22.085331830088062 ], [ -159.600233856582321, 22.085397645830085 ], [ -159.601127442587256, 22.086191503297385 ], [ -159.601103503632572, 22.087547022551945 ], [ -159.601972288852551, 22.087527300557529 ], [ -159.603148602553347, 22.088352345307804 ], [ -159.603737302247879, 22.088615819447817 ], [ -159.603731918915656, 22.088919334398891 ], [ -159.602859002996723, 22.089707156772871 ], [ -159.603742921902295, 22.08997086514076 ], [ -159.604611052252608, 22.090244204836871 ], [ -159.605730241892815, 22.090218772175888 ], [ -159.607350844590457, 22.09072901642211 ], [ -159.608395202455711, 22.090222704836872 ], [ -159.60897547248652, 22.090850824854478 ], [ -159.605735281635475, 22.091599740538772 ], [ -159.605200974742161, 22.09159156283723 ], [ -159.604619402255992, 22.091604781524691 ], [ -159.603746902007032, 22.091591398258455 ], [ -159.602877311510071, 22.091611149650802 ], [ -159.602581596991371, 22.091326527579319 ], [ -159.602199709904397, 22.092067558214286 ], [ -159.602590048055276, 22.092414327590824 ], [ -159.602878513572932, 22.093231759067571 ], [ -159.603762687816442, 22.093767316028622 ], [ -159.603223870758825, 22.094253587142628 ], [ -159.601425127961647, 22.09458771294657 ], [ -159.602025717156181, 22.095121212534266 ], [ -159.602741139660822, 22.095809697818783 ], [ -159.604060251504364, 22.096203223686835 ], [ -159.604638032982251, 22.096662375418905 ], [ -159.603407819534226, 22.097039413195368 ], [ -159.601702161119675, 22.09701326296916 ], [ -159.600866680917278, 22.096209255707031 ], [ -159.598908137248458, 22.096253696829013 ], [ -159.59737753280001, 22.097228772122133 ], [ -159.59617487839094, 22.097597317996041 ], [ -159.594807006188233, 22.098934491166624 ], [ -159.594162073950486, 22.099220763197216 ], [ -159.59358961139813, 22.098669846250019 ], [ -159.592286540708358, 22.098699353910288 ], [ -159.591842156811936, 22.097854164783069 ], [ -159.590845424318218, 22.096968624633352 ], [ -159.588926891399609, 22.097898425181327 ], [ -159.588947909024455, 22.09870280141655 ], [ -159.588650950119842, 22.099245041470226 ], [ -159.589247921833277, 22.099512292344098 ], [ -159.58865559453622, 22.099782737579247 ], [ -159.588373982760316, 22.1006022477155 ], [ -159.587744938269623, 22.100889430049961 ], [ -159.586782387530974, 22.101830280578561 ], [ -159.586191273801234, 22.102363614021801 ], [ -159.585497086762729, 22.103042131296924 ], [ -159.584762284047343, 22.103377595072953 ], [ -159.583730370318278, 22.103052587803436 ], [ -159.583416625967146, 22.103059671707957 ], [ -159.582601487316538, 22.103856379241055 ], [ -159.581426889928281, 22.104580014491059 ], [ -159.581028192183453, 22.106522582236654 ], [ -159.580251795292753, 22.105775312458135 ], [ -159.579899528698661, 22.105462323749084 ], [ -159.577339400890168, 22.105520081604986 ], [ -159.576600812331179, 22.105508645697441 ], [ -159.575893613469447, 22.106880252646405 ], [ -159.575421784814097, 22.107689560228678 ], [ -159.574652732298858, 22.105892500638372 ], [ -159.573235233247573, 22.105263459261455 ], [ -159.572400219840063, 22.106079458075239 ], [ -159.571785261257929, 22.106634154835834 ], [ -159.570912525273172, 22.10662060700102 ], [ -159.568712851798722, 22.105574339274185 ], [ -159.570622406147862, 22.108178377890802 ], [ -159.569488591566852, 22.108525596801783 ], [ -159.570429016014401, 22.108946700233513 ], [ -159.571530586711532, 22.108245266771167 ], [ -159.572117029470888, 22.107977616163403 ], [ -159.572981530856197, 22.10742711327514 ], [ -159.573513079243355, 22.107159650252019 ], [ -159.572697110885457, 22.109054517302301 ], [ -159.572737303675609, 22.110602564131884 ], [ -159.575313794317964, 22.110984107479918 ], [ -159.576203067362968, 22.110115059365015 ], [ -159.577081292726746, 22.110128666664295 ], [ -159.577643860469806, 22.109578883104771 ], [ -159.578093044344854, 22.109173686910342 ], [ -159.578786967981728, 22.109841625758868 ], [ -159.579980043542719, 22.110375760451898 ], [ -159.579974957389283, 22.110660101596665 ], [ -159.580854560443015, 22.110922615190027 ], [ -159.581431572341131, 22.111197011463783 ], [ -159.582601890771343, 22.111458439126537 ], [ -159.583178908101644, 22.111732829089114 ], [ -159.583970067342477, 22.112087010792528 ], [ -159.584347952450486, 22.111717692192741 ], [ -159.584929702337547, 22.111726676611084 ], [ -159.585213874236672, 22.111448994837257 ], [ -159.585652955366356, 22.111455774881428 ], [ -159.586388760360478, 22.111439140683498 ], [ -159.586371295434134, 22.110770106790834 ], [ -159.586380983973243, 22.110228025743041 ], [ -159.586348916730202, 22.108998197891683 ], [ -159.587495495135499, 22.109359299762833 ], [ -159.587820164221313, 22.108729513334705 ], [ -159.588406576762679, 22.108461804888012 ], [ -159.588981296847436, 22.108183285010782 ], [ -159.58985854892353, 22.107914522623986 ], [ -159.590152633396912, 22.107343971281548 ], [ -159.591749555340584, 22.107368565923789 ], [ -159.592293823058725, 22.106312731837853 ], [ -159.594324364671252, 22.105843647860723 ], [ -159.595098038410669, 22.107650899095738 ], [ -159.59508432361099, 22.108427079660522 ], [ -159.595544509518191, 22.109251605617199 ], [ -159.59598301641762, 22.10924166103316 ], [ -159.596550113293091, 22.109787385085269 ], [ -159.597643936014975, 22.110276923371075 ], [ -159.59800204275146, 22.109234605256916 ], [ -159.598594390369186, 22.108964125967876 ], [ -159.598566355055794, 22.107890203357758 ], [ -159.599314708224796, 22.107067038565244 ], [ -159.599741414112628, 22.107878540992886 ], [ -159.600039203541115, 22.108143044505386 ], [ -159.600336945207545, 22.108429556637084 ], [ -159.600327546329027, 22.108960371534884 ], [ -159.600731327425507, 22.109319012902809 ], [ -159.601491260794432, 22.108950665241249 ], [ -159.601787526826314, 22.108955214938963 ], [ -159.602362646534061, 22.108676431929691 ], [ -159.602658911979972, 22.108680980059429 ], [ -159.603256137724202, 22.108391475951418 ], [ -159.604118231398587, 22.108404683303576 ], [ -159.604096261835593, 22.107564369547706 ], [ -159.603212001624996, 22.106778926879343 ], [ -159.604705891475163, 22.106505127719998 ], [ -159.605838061829132, 22.10865786515771 ], [ -159.606546356132299, 22.109203104614451 ], [ -159.607495379087993, 22.107842480969264 ], [ -159.607896740995869, 22.107848622090803 ], [ -159.607884862488277, 22.108523286217441 ], [ -159.607907526800574, 22.109387855042872 ], [ -159.608389286561874, 22.110009318765957 ], [ -159.608762181716287, 22.108923840087215 ], [ -159.609167089567421, 22.10818414872158 ], [ -159.610217596295939, 22.109194858195476 ], [ -159.610515407590157, 22.109459342064 ], [ -159.611082559961119, 22.110005014369275 ], [ -159.612274253824097, 22.109977881522429 ], [ -159.61223872373634, 22.108622886891013 ], [ -159.613562898360527, 22.108643103987731 ], [ -159.614572391207417, 22.108620104323474 ], [ -159.61488128630134, 22.108917307885608 ], [ -159.615765747683497, 22.108897153398484 ], [ -159.61643570327476, 22.108242074514298 ], [ -159.616937125575248, 22.106291027312444 ], [ -159.623316555531545, 22.10851310756194 ], [ -159.62330276428051, 22.109301363333394 ], [ -159.620686192269886, 22.108606543070479 ], [ -159.620403625262412, 22.109298652931102 ], [ -159.621277888595614, 22.109689787679532 ], [ -159.621566498647837, 22.110507181177187 ], [ -159.622631266932416, 22.11115187314395 ], [ -159.622005171510324, 22.111716979352288 ], [ -159.621579447615858, 22.112133262954075 ], [ -159.620746889774949, 22.112513558582116 ], [ -159.618666184353799, 22.111054809377237 ], [ -159.618083444344506, 22.110817877839427 ], [ -159.618831691259061, 22.11215792193433 ], [ -159.617233155275756, 22.112133574480119 ], [ -159.616562532307199, 22.112458723278174 ], [ -159.614420782629139, 22.112126609933622 ], [ -159.613102662117626, 22.112446668935437 ], [ -159.611474509277571, 22.112421813899655 ], [ -159.609700035357463, 22.112767390198602 ], [ -159.609364830894293, 22.112444883285654 ], [ -159.608456908189282, 22.112182671286657 ], [ -159.606980125877385, 22.112898524006859 ], [ -159.60534298594763, 22.112383157619405 ], [ -159.604150651460429, 22.113548755193452 ], [ -159.603240346014474, 22.113827740772873 ], [ -159.602683308398127, 22.114372255534551 ], [ -159.602096758191266, 22.114640073407546 ], [ -159.602111246839883, 22.115192535883136 ], [ -159.601519784007934, 22.115726231212143 ], [ -159.601235919536407, 22.116003724607122 ], [ -159.600067780292648, 22.116273617395045 ], [ -159.599481074066887, 22.116557976794383 ], [ -159.599497290137577, 22.115640156122883 ], [ -159.598287373753749, 22.114659439619867 ], [ -159.597452453754073, 22.115475563618308 ], [ -159.59699825233281, 22.115742821320829 ], [ -159.597840218174213, 22.114205132380331 ], [ -159.597421675598923, 22.113833395646267 ], [ -159.596253091007782, 22.113859889780386 ], [ -159.595667949734462, 22.114431835756896 ], [ -159.595123607350644, 22.115487812768183 ], [ -159.59482921163567, 22.115204463589297 ], [ -159.594546180303723, 22.116039272639402 ], [ -159.595598619035684, 22.116015422329056 ], [ -159.596278612916336, 22.11439033704653 ], [ -159.596591998906462, 22.11412359575937 ], [ -159.59655487725405, 22.116220773853932 ], [ -159.598068503376027, 22.116558738983326 ], [ -159.598908939331807, 22.117367386731864 ], [ -159.599448316846747, 22.117846471010203 ], [ -159.602080052534347, 22.118315131674073 ], [ -159.602403987155725, 22.117055272920041 ], [ -159.603301496748571, 22.116267129937668 ], [ -159.604451024409428, 22.116813559042438 ], [ -159.604415479615113, 22.115455047347311 ], [ -159.604803343381917, 22.115105090451518 ], [ -159.606030081967447, 22.115491270877165 ], [ -159.607056767259536, 22.115159573098634 ], [ -159.607636479921695, 22.115717360142099 ], [ -159.608349146532618, 22.115020675963336 ], [ -159.608998655140851, 22.114434550335741 ], [ -159.609951440300307, 22.114887426820605 ], [ -159.610530053996598, 22.114874256346532 ], [ -159.611407850013165, 22.115423918030498 ], [ -159.612288564714305, 22.115957237060144 ], [ -159.612975812045619, 22.11692545185544 ], [ -159.61531793950121, 22.115027869404582 ], [ -159.616353616510366, 22.115676350648769 ], [ -159.618097083346839, 22.116456343773148 ], [ -159.618526860894406, 22.117273364872826 ], [ -159.620730596673269, 22.117551500314633 ], [ -159.621039452797874, 22.117848575639968 ], [ -159.62247404740387, 22.117815836374465 ], [ -159.622858251018869, 22.117821674727832 ], [ -159.62334945033524, 22.119115068186193 ], [ -159.621783013016341, 22.120938376383133 ], [ -159.620450516120684, 22.121346867255031 ], [ -159.619584582851843, 22.12162670176766 ], [ -159.619277140614599, 22.121622020492691 ], [ -159.618282986977107, 22.122593990337169 ], [ -159.617152023610799, 22.121506068483566 ], [ -159.61609691378888, 22.12219767280175 ], [ -159.616979131790629, 22.122981047203414 ], [ -159.616969064178676, 22.123555897883133 ], [ -159.618619441906816, 22.123518273492209 ], [ -159.619587522113591, 22.123550200860656 ], [ -159.61901036806924, 22.124604591625463 ], [ -159.61853800640489, 22.125979941697768 ], [ -159.61756210117565, 22.125965076124398 ], [ -159.616069478860055, 22.126816168862948 ], [ -159.614368647904172, 22.126790247161509 ], [ -159.613384589299756, 22.126812656178267 ], [ -159.612728411537063, 22.128722825287387 ], [ -159.611464570827792, 22.128426088846492 ], [ -159.611181304846212, 22.128991689814377 ], [ -159.611616396921619, 22.129378049309903 ], [ -159.611766577227485, 22.130079894689526 ], [ -159.613219194839672, 22.130046827728812 ], [ -159.613802439578706, 22.130055718738731 ], [ -159.614084249490816, 22.128959431844805 ], [ -159.61494043085267, 22.128972486079793 ], [ -159.615537714740526, 22.128682936395705 ], [ -159.616932034031464, 22.128704189641788 ], [ -159.617896450000046, 22.128392566295052 ], [ -159.618738991425232, 22.128405395892347 ], [ -159.619029851817544, 22.128398768261913 ], [ -159.619323530364852, 22.128403237262205 ], [ -159.620741377840375, 22.127392357112491 ], [ -159.621344509902571, 22.126221853886083 ], [ -159.622956177588691, 22.125950116664129 ], [ -159.623565625623627, 22.127108455555401 ], [ -159.621938163379269, 22.128929806435433 ], [ -159.621077293411389, 22.130293615930228 ], [ -159.620367084505602, 22.131278404631132 ], [ -159.618545359184878, 22.13169950045965 ], [ -159.617683313563077, 22.131289897306441 ], [ -159.617301647742323, 22.131663044289969 ], [ -159.616014291458868, 22.131960590599228 ], [ -159.614968147126746, 22.133460413224057 ], [ -159.614985244505561, 22.134110575070622 ], [ -159.614524394974353, 22.135814332723829 ], [ -159.613051676739332, 22.134892312933605 ], [ -159.612075574254703, 22.135207674196984 ], [ -159.611701762938878, 22.134149025179493 ], [ -159.610336596684164, 22.135483537227742 ], [ -159.609575888127466, 22.135830872263707 ], [ -159.60846154346342, 22.135133176736726 ], [ -159.60747377128132, 22.135611896629424 ], [ -159.607084387786784, 22.136745361697454 ], [ -159.606230168329716, 22.137135368033221 ], [ -159.605380400653473, 22.137122361037672 ], [ -159.605401963304644, 22.137946635577329 ], [ -159.606594391304782, 22.137919537085637 ], [ -159.607150230406575, 22.137376187999227 ], [ -159.609518702644522, 22.137412394457058 ], [ -159.610199361887226, 22.138067099258308 ], [ -159.610631136910797, 22.137645073576934 ], [ -159.611210009374076, 22.137653915172574 ], [ -159.612117240572303, 22.137075992293585 ], [ -159.613648298683188, 22.137099347871494 ], [ -159.614125390103339, 22.138450558685328 ], [ -159.614637754065569, 22.139368040685767 ], [ -159.615591606738207, 22.139794714439017 ], [ -159.616875308013533, 22.14059830654039 ], [ -159.617331757680375, 22.139908945499009 ], [ -159.616283483700869, 22.138480766969437 ], [ -159.615698592955567, 22.135748264170275 ], [ -159.616186822305508, 22.13485638045411 ], [ -159.617148149730809, 22.133988868031821 ], [ -159.618766026822215, 22.134368638463695 ], [ -159.619540784817787, 22.133993070142871 ], [ -159.620219332891736, 22.134645697947068 ], [ -159.620505099187284, 22.133813641863835 ], [ -159.621252763239653, 22.133545202362324 ], [ -159.62254377321031, 22.134353346566186 ], [ -159.623353926735177, 22.134615849728831 ], [ -159.623702562797632, 22.133259412721252 ], [ -159.623998114966128, 22.132719499743072 ], [ -159.623668161175885, 22.131833309035425 ], [ -159.623695570724408, 22.130267372529524 ], [ -159.624856449308965, 22.129737151363383 ], [ -159.625431179584012, 22.129458503589774 ], [ -159.626160720250681, 22.129322909207772 ], [ -159.626261746569156, 22.12965296093336 ], [ -159.626515789769456, 22.129414321631803 ], [ -159.626160720250681, 22.129322909207772 ], [ -159.6260228118756, 22.129180301807256 ], [ -159.625146949893747, 22.128457199544258 ], [ -159.625510545454688, 22.128340965221224 ], [ -159.626328644382426, 22.128383244092685 ], [ -159.626237387084615, 22.127049480098368 ], [ -159.627802675263695, 22.128059268037426 ], [ -159.629420828400868, 22.128142875797408 ], [ -159.629951409854755, 22.127697442633593 ], [ -159.630864114842012, 22.126737727294564 ], [ -159.631083047904809, 22.127947030107233 ], [ -159.630071388520548, 22.129173732892752 ], [ -159.630658950041777, 22.129658769038297 ], [ -159.630681660025715, 22.129990278277642 ], [ -159.629783296432095, 22.130378624799711 ], [ -159.629828946436305, 22.131046282609621 ], [ -159.629232249276669, 22.131351381544842 ], [ -159.628070172989396, 22.131690613517669 ], [ -159.628640147377411, 22.132708767416311 ], [ -159.628794328499708, 22.132836058197913 ], [ -159.62894257150279, 22.133465440147507 ], [ -159.629085221562747, 22.132834937319089 ], [ -159.629583621992822, 22.13324639521263 ], [ -159.62950491538291, 22.134569372619097 ], [ -159.630546392082664, 22.134623174227592 ], [ -159.631599114168466, 22.134315843166153 ], [ -159.630407516404489, 22.133978067913876 ], [ -159.630679948049959, 22.133498709451974 ], [ -159.631251866475367, 22.133018639204277 ], [ -159.631551035924787, 22.132404633225015 ], [ -159.632637157914388, 22.132949093662603 ], [ -159.633250759340939, 22.131659374111756 ], [ -159.63184990629378, 22.131262282876328 ], [ -159.632704105323853, 22.130780668146418 ], [ -159.634568953568476, 22.130502499575766 ], [ -159.633874811526653, 22.128723430057388 ], [ -159.63462959606349, 22.128566220499401 ], [ -159.635638140705254, 22.128618282365789 ], [ -159.635545502616395, 22.127265391854902 ], [ -159.635896233872728, 22.127244539869746 ], [ -159.636469972475027, 22.127274163601488 ], [ -159.635947127194072, 22.126194210471276 ], [ -159.63501421105218, 22.126977407112673 ], [ -159.634496802152682, 22.127521460498116 ], [ -159.634377026683723, 22.127036506866162 ], [ -159.634459390332211, 22.125652754630746 ], [ -159.634132218840449, 22.125097427099139 ], [ -159.634241530410293, 22.123260407153957 ], [ -159.633557969079618, 22.122917750665639 ], [ -159.632060761404716, 22.122663375281572 ], [ -159.633249810780939, 22.122149305217761 ], [ -159.633536001827224, 22.121561845730209 ], [ -159.634025971843641, 22.121587147003403 ], [ -159.635860284196298, 22.121051561505013 ], [ -159.635584354659159, 22.120741707621974 ], [ -159.634223996054118, 22.120452370596059 ], [ -159.633812298766259, 22.119397195192999 ], [ -159.634156556574368, 22.119108204781991 ], [ -159.634095168555888, 22.118211719518968 ], [ -159.634982852940965, 22.117757762312806 ], [ -159.636779203532143, 22.119169600446707 ], [ -159.636702142575189, 22.118044255472419 ], [ -159.637301754238592, 22.118008609710149 ], [ -159.638100670436216, 22.118834747463911 ], [ -159.639082865847541, 22.118570422861275 ], [ -159.637523640574358, 22.117654981281646 ], [ -159.636731045111105, 22.117000685198814 ], [ -159.63836948996564, 22.116524112903882 ], [ -159.639289047674964, 22.117474994904512 ], [ -159.639055222410065, 22.116391826039294 ], [ -159.637885494545458, 22.11499751554712 ], [ -159.638176547502468, 22.115040156478649 ], [ -159.639034073292152, 22.115323076193004 ], [ -159.640214986371888, 22.115574220904115 ], [ -159.640491589081364, 22.115860269123377 ], [ -159.640796288127802, 22.115842143382114 ], [ -159.641366239478685, 22.116127816314616 ], [ -159.64166980304023, 22.116109751290139 ], [ -159.644461098476455, 22.117276073549441 ], [ -159.651348253194953, 22.118740380706459 ], [ -159.650489776238516, 22.121370611739014 ], [ -159.649175073170824, 22.121816061766552 ], [ -159.648096537672359, 22.121760456576169 ], [ -159.648838225687285, 22.122570473218769 ], [ -159.650755054955425, 22.121921016083586 ], [ -159.651308310632288, 22.12286011962787 ], [ -159.650174535761494, 22.123350453431687 ], [ -159.649719039949957, 22.124139456353991 ], [ -159.651693174986292, 22.123562841460373 ], [ -159.651569792261284, 22.121764300772977 ], [ -159.65187548811258, 22.121234777887643 ], [ -159.652354567012452, 22.120251151935896 ], [ -159.652986437124326, 22.119586475924748 ], [ -159.653321556692646, 22.119603736767459 ], [ -159.653839640781229, 22.119058762351983 ], [ -159.663484942636984, 22.119283121317316 ], [ -159.662341656761214, 22.120108580506216 ], [ -159.661572430988031, 22.120441326145411 ], [ -159.662281195361373, 22.121174023244663 ], [ -159.663035721538023, 22.121212853239317 ], [ -159.664226516910475, 22.119287864750532 ], [ -159.670791605041387, 22.1195174841904 ], [ -159.66975421018239, 22.1203888183475 ], [ -159.670363887448332, 22.121423317476776 ], [ -159.669625668768475, 22.12270246620589 ], [ -159.670591305830072, 22.122796115944269 ], [ -159.671659737553853, 22.122732372748857 ], [ -159.67180903406387, 22.124805122230505 ], [ -159.671454828712854, 22.124899353516071 ], [ -159.671711038157412, 22.125135962731544 ], [ -159.67180903406387, 22.124805122230505 ], [ -159.673095257838327, 22.124960014657994 ], [ -159.673854718007675, 22.126248566072313 ], [ -159.672261903641441, 22.12657251012001 ], [ -159.670227157306954, 22.126876501285583 ], [ -159.67062247848196, 22.12761338267865 ], [ -159.672505752179973, 22.12814673965703 ], [ -159.67370963559955, 22.129737462909628 ], [ -159.671383985483317, 22.130084933663845 ], [ -159.671803757544581, 22.131159914419335 ], [ -159.67085635080565, 22.131216429998624 ], [ -159.67051953859243, 22.130644966329164 ], [ -159.670120319050369, 22.129843894480146 ], [ -159.669643778234132, 22.12981939157174 ], [ -159.669368954575106, 22.130108509908197 ], [ -159.669070640968158, 22.130093166360627 ], [ -159.668249155382, 22.130142169918361 ], [ -159.667116725464211, 22.129574830599527 ], [ -159.666767852447492, 22.130548925466886 ], [ -159.667680838196873, 22.130934833726638 ], [ -159.66869492453165, 22.131982925599889 ], [ -159.669932208849133, 22.132333341655137 ], [ -159.670017856642346, 22.133579457089368 ], [ -159.668847468708918, 22.134178220356134 ], [ -159.667622817407192, 22.134115247903999 ], [ -159.667664640469894, 22.134723886053063 ], [ -159.667201545118388, 22.13470007400505 ], [ -159.665710459633686, 22.134788987004569 ], [ -159.665026769457455, 22.134446457704154 ], [ -159.66429076682266, 22.134321570948632 ], [ -159.664189648935377, 22.133991545168819 ], [ -159.663935662830369, 22.134230241640839 ], [ -159.66429076682266, 22.134321570948632 ], [ -159.664845517380684, 22.135209008146827 ], [ -159.66576744364761, 22.135587777024632 ], [ -159.666646242262459, 22.136882300102091 ], [ -159.66882384072423, 22.137138677886618 ], [ -159.669385614043563, 22.137482443468482 ], [ -159.668379420299715, 22.138297276101561 ], [ -159.667184380173552, 22.137893966698176 ], [ -159.666327342129932, 22.138344044609184 ], [ -159.665106906539421, 22.137545327923394 ], [ -159.664756038154138, 22.138176748406778 ], [ -159.665634132865193, 22.139319873065137 ], [ -159.665907293051959, 22.140151980580551 ], [ -159.667206990289287, 22.141185944932975 ], [ -159.668262500640594, 22.141477283536567 ], [ -159.669115863695254, 22.141960459423007 ], [ -159.667362996358605, 22.142459951868823 ], [ -159.66458304468523, 22.142002101365659 ], [ -159.663129981829968, 22.140444656746137 ], [ -159.662125513961968, 22.140167369455089 ], [ -159.660929599590617, 22.139302595040704 ], [ -159.661029993304481, 22.140406430344758 ], [ -159.660121232640279, 22.141142253590775 ], [ -159.661862508029685, 22.141503368758165 ], [ -159.662192904112089, 22.142185217212244 ], [ -159.662137285796916, 22.142867432540424 ], [ -159.66218655384003, 22.143409271092903 ], [ -159.661535893827221, 22.143682929740194 ], [ -159.661610092221736, 22.144498887419189 ], [ -159.660514132903813, 22.144811127698674 ], [ -159.663500576176432, 22.146536863795497 ], [ -159.66405271712992, 22.145934542646526 ], [ -159.663895991028852, 22.147856762504244 ], [ -159.661444172967236, 22.147683258053522 ], [ -159.66016398901138, 22.147784302726176 ], [ -159.659282204385818, 22.147330656072654 ], [ -159.657770598917494, 22.146709603894248 ], [ -159.657229310245185, 22.146129426326912 ], [ -159.65707247297982, 22.146004630562384 ], [ -159.656971362674255, 22.145674600570015 ], [ -159.656717343688314, 22.145913286280571 ], [ -159.65707247297982, 22.146004630562384 ], [ -159.656921320128419, 22.147502900642429 ], [ -159.657262381126941, 22.148066566722409 ], [ -159.658099983887467, 22.148000472041215 ], [ -159.6587960325013, 22.148049744181197 ], [ -159.658383817850591, 22.149109605713658 ], [ -159.658415445244628, 22.149457507135821 ], [ -159.659040463254797, 22.149954749228801 ], [ -159.660477901983143, 22.14984129865908 ], [ -159.660394155427582, 22.150868066249629 ], [ -159.658859305728015, 22.151305316431447 ], [ -159.658260618328143, 22.151262938649836 ], [ -159.657818483018957, 22.151297830510092 ], [ -159.6566651937259, 22.151008796127581 ], [ -159.65604562236831, 22.151057680372748 ], [ -159.656092549986539, 22.151573849072996 ], [ -159.655423195913443, 22.151855300783822 ], [ -159.654361264599459, 22.153013629346272 ], [ -159.653689334109146, 22.152293467773021 ], [ -159.653772469627427, 22.153207444121517 ], [ -159.653363960408456, 22.153896446665495 ], [ -159.654277510763137, 22.155085804886195 ], [ -159.653883116008814, 22.156170586530671 ], [ -159.653365263152381, 22.155101793803833 ], [ -159.652033541694124, 22.155002133155524 ], [ -159.652908027214153, 22.155361435550049 ], [ -159.653464244793895, 22.156509319024231 ], [ -159.654356929170149, 22.156438902985066 ], [ -159.655098955539216, 22.156491446220993 ], [ -159.654643270628611, 22.158069252633677 ], [ -159.654679419840306, 22.158467059216523 ], [ -159.655281912886778, 22.159462797800874 ], [ -159.654607516576533, 22.159415054288111 ], [ -159.653851475906038, 22.15785487290314 ], [ -159.651061449540862, 22.156708538295806 ], [ -159.650294655158604, 22.156769013922872 ], [ -159.650003625751964, 22.156457114115526 ], [ -159.649689940451054, 22.156207509091185 ], [ -159.649214818195844, 22.155698254112863 ], [ -159.648230275098996, 22.15512923989732 ], [ -159.647094214406394, 22.154385652267589 ], [ -159.646700328106448, 22.153572659033344 ], [ -159.645894114453853, 22.153241371814172 ], [ -159.645622208724291, 22.152680244835562 ], [ -159.644528881316063, 22.15204832444703 ], [ -159.642726655045522, 22.152190375077751 ], [ -159.642428188103054, 22.154068119057808 ], [ -159.64153492444359, 22.154322490372667 ], [ -159.638849923558496, 22.155304839833128 ], [ -159.638320568614176, 22.153691736077363 ], [ -159.637304531542696, 22.152883195547663 ], [ -159.636158476178821, 22.152412168766858 ], [ -159.635164105139609, 22.151346049254634 ], [ -159.634379844236065, 22.150721945531245 ], [ -159.633120070906841, 22.149371201675148 ], [ -159.630367712719732, 22.149847089572276 ], [ -159.629259281809567, 22.149472752931256 ], [ -159.627995844176695, 22.149572232376677 ], [ -159.626838071847516, 22.149490047871033 ], [ -159.624138073330073, 22.150425474734163 ], [ -159.622887359417206, 22.151789088052325 ], [ -159.622928419093739, 22.152242035306795 ], [ -159.622536613764879, 22.153597467172883 ], [ -159.621159979682204, 22.155670875932653 ], [ -159.6202968313616, 22.156033613848795 ], [ -159.620677769607738, 22.156987972933056 ], [ -159.620311953871607, 22.157927853881262 ], [ -159.620004148107768, 22.160857165434365 ], [ -159.62008356753833, 22.161733088937257 ], [ -159.620038663374515, 22.162281809351903 ], [ -159.621478230908991, 22.165833178301938 ], [ -159.621986179849216, 22.167876926141403 ], [ -159.622684725677118, 22.168432849302949 ], [ -159.623415632419466, 22.170204876976864 ], [ -159.624469801662343, 22.171577680791696 ], [ -159.625343109364195, 22.172272699742329 ], [ -159.625613776197753, 22.172562836863897 ], [ -159.626084369409597, 22.172937325257283 ], [ -159.626490303234277, 22.173372529051349 ], [ -159.626803987744296, 22.173622186531993 ], [ -159.627951910485478, 22.17488108384557 ], [ -159.627080580907545, 22.175247239992345 ], [ -159.625496427211232, 22.176482993725699 ], [ -159.625353236992851, 22.176345324752379 ], [ -159.624764272458236, 22.176081981488814 ], [ -159.624175593468806, 22.175802370300385 ], [ -159.623599290661218, 22.175815535362982 ], [ -159.623035530800053, 22.175273505894104 ], [ -159.621849681310778, 22.175009049789985 ], [ -159.621467196130538, 22.173926429628725 ], [ -159.62069053893228, 22.17477499448438 ], [ -159.620981502363719, 22.176096439064146 ], [ -159.621438077985374, 22.177322376274375 ], [ -159.618951376805683, 22.178084414315315 ], [ -159.616903574905848, 22.17938859652789 ], [ -159.616923152140743, 22.178274643283586 ], [ -159.616331631928205, 22.178010146019115 ], [ -159.6169233213339, 22.176929712485485 ], [ -159.616905271222805, 22.17624472118359 ], [ -159.616914888660062, 22.175697330959199 ], [ -159.615745538603392, 22.175174394046127 ], [ -159.616027689345742, 22.174483702429935 ], [ -159.616896511463807, 22.173699877406182 ], [ -159.616901865039466, 22.173396365722759 ], [ -159.61609127634631, 22.173033896314859 ], [ -159.617316796914253, 22.17192829850659 ], [ -159.616309137191337, 22.170959373979748 ], [ -159.614749990278426, 22.170262104625813 ], [ -159.614173940787623, 22.169167408505857 ], [ -159.613476940183119, 22.169796213201138 ], [ -159.614184302836975, 22.171062583640897 ], [ -159.613579709293589, 22.171608034048408 ], [ -159.61481528890323, 22.172160624455277 ], [ -159.613698644424858, 22.172871785870775 ], [ -159.613112018457088, 22.173139596297496 ], [ -159.612828065001167, 22.173417101742022 ], [ -159.612107716574144, 22.173745950044875 ], [ -159.612546293453136, 22.175313502762911 ], [ -159.61223940568965, 22.175873936698299 ], [ -159.612267398287798, 22.176940654545458 ], [ -159.610810614492891, 22.177386991945475 ], [ -159.610801650765808, 22.177893831731726 ], [ -159.610815927894691, 22.178435818303868 ], [ -159.610804913316599, 22.179059909495454 ], [ -159.611112345104289, 22.180495738400651 ], [ -159.611736902170776, 22.181613804340117 ], [ -159.610647852093024, 22.183174471491444 ], [ -159.609972417983101, 22.183189842065939 ], [ -159.609660399191966, 22.182912889416421 ], [ -159.610068323603628, 22.182168092378266 ], [ -159.609660014872475, 22.181012128494281 ], [ -159.609071058405107, 22.180748728434406 ], [ -159.608463666365054, 22.180460160595747 ], [ -159.608499969152774, 22.181846124413514 ], [ -159.607335396779092, 22.18182833650895 ], [ -159.606691377151265, 22.182457668128315 ], [ -159.605572755034871, 22.182105731006743 ], [ -159.605626433932429, 22.184154215091169 ], [ -159.605129639221133, 22.186085780124795 ], [ -159.604145034395259, 22.185645428981459 ], [ -159.603852968527974, 22.18536454109358 ], [ -159.603168500426278, 22.185380086700416 ], [ -159.60365343838825, 22.184043346307305 ], [ -159.602679367205269, 22.18375294333746 ], [ -159.602993571000923, 22.183179324322786 ], [ -159.602965824748736, 22.182121221739727 ], [ -159.603261795769356, 22.181854316668236 ], [ -159.603247289295751, 22.181301908659936 ], [ -159.603844958015969, 22.180762865123327 ], [ -159.603827226612879, 22.180087985607575 ], [ -159.60383964135832, 22.179385319954424 ], [ -159.600974598022674, 22.180773373455871 ], [ -159.600916514598822, 22.180479847232554 ], [ -159.600928141298851, 22.179822368312198 ], [ -159.599467265071155, 22.179168902748398 ], [ -159.600042200609181, 22.178879667019274 ], [ -159.601196830242287, 22.178352674825764 ], [ -159.601502846525989, 22.177509044196231 ], [ -159.601488933001292, 22.176977294090175 ], [ -159.602234429780907, 22.176304909237299 ], [ -159.601489225048908, 22.175643343609053 ], [ -159.602028899638555, 22.175085799553699 ], [ -159.604284371321569, 22.174564827057807 ], [ -159.602692031199041, 22.172626340593833 ], [ -159.603793013873656, 22.172643191165132 ], [ -159.604379231617941, 22.172359150785326 ], [ -159.605683515970014, 22.172057864181603 ], [ -159.605186047298645, 22.171167142554115 ], [ -159.605545314412097, 22.170176523155401 ], [ -159.605524412777697, 22.169376383963254 ], [ -159.606982393735677, 22.168710828905148 ], [ -159.606694257913773, 22.168014218883741 ], [ -159.605613028701441, 22.16735966119268 ], [ -159.605128320117302, 22.166491784994342 ], [ -159.609758330768045, 22.161866547544296 ], [ -159.611575081879465, 22.158900625038839 ], [ -159.611617790959457, 22.156472560185893 ], [ -159.6108185099271, 22.153470730021851 ], [ -159.609319104384213, 22.151139270668903 ], [ -159.604919714299569, 22.146907647274688 ], [ -159.597674991214092, 22.14209410563932 ], [ -159.587675854212449, 22.138049270871999 ], [ -159.576401400116652, 22.131704014273431 ], [ -159.574572458436023, 22.129943834553561 ], [ -159.572811135398979, 22.128736913765511 ], [ -159.57263081952334, 22.127893320558154 ], [ -159.572999583880801, 22.127744762102903 ], [ -159.572746188990436, 22.127269648861621 ], [ -159.57263081952334, 22.127893320558154 ], [ -159.572339933584573, 22.127894340613249 ], [ -159.572038037869788, 22.127490212298397 ], [ -159.570472669801177, 22.127121767466605 ], [ -159.570936792599383, 22.126739415759271 ], [ -159.572226484381048, 22.126426227956077 ], [ -159.572148933186554, 22.126109514868372 ], [ -159.573495800222986, 22.125993122971412 ], [ -159.573596702139099, 22.126323210197945 ], [ -159.57385083029925, 22.126084650922682 ], [ -159.573495800222986, 22.125993122971412 ], [ -159.573082149043159, 22.125594988442845 ], [ -159.571888968731173, 22.125060806534098 ], [ -159.57189407137767, 22.124776581572771 ], [ -159.571300663247001, 22.123967574463848 ], [ -159.571803120552687, 22.123514385968452 ], [ -159.571008795459306, 22.123158751411538 ], [ -159.571018542226938, 22.122616621184786 ], [ -159.570714645458338, 22.122346660369846 ], [ -159.57072432388938, 22.121804910791987 ], [ -159.570424621675159, 22.121800259325152 ], [ -159.56956044667217, 22.12181971031929 ], [ -159.568987984092956, 22.121268700304281 ], [ -159.568585783174825, 22.12161180842612 ], [ -159.568101510872054, 22.122084964497912 ], [ -159.56780507491996, 22.122080354764616 ], [ -159.567518088684693, 22.122360729542567 ], [ -159.567227083099255, 22.122080601888669 ], [ -159.56640326769562, 22.122479657995459 ], [ -159.565910671347524, 22.121154907581509 ], [ -159.566487120103432, 22.120591706273967 ], [ -159.56750442231376, 22.119674181116228 ], [ -159.566051030265271, 22.119918364347171 ], [ -159.564800800619309, 22.120321925310588 ], [ -159.563101383487464, 22.118004482746496 ], [ -159.559200816342099, 22.108795833383482 ], [ -159.557846988324769, 22.104774675238239 ], [ -159.557701805990405, 22.104094897190105 ], [ -159.558421610340702, 22.103845772540598 ], [ -159.559024822919241, 22.105093144312228 ], [ -159.559725063769349, 22.104330095872665 ], [ -159.560209154599107, 22.106282452816856 ], [ -159.560752290182648, 22.105977118285413 ], [ -159.560121032524052, 22.104393459537846 ], [ -159.559580964299897, 22.103963042570534 ], [ -159.55930834206211, 22.103108960874145 ], [ -159.560267687725656, 22.103177491384521 ], [ -159.560755579443565, 22.103701266333264 ], [ -159.561032569277728, 22.103304969820016 ], [ -159.559305446736687, 22.102158251755181 ], [ -159.560175665175962, 22.10179280228321 ], [ -159.560444205058843, 22.101612648788478 ], [ -159.559522839231164, 22.101233321790215 ], [ -159.560171385743303, 22.100708719618837 ], [ -159.560304363715431, 22.100291653105767 ], [ -159.560658588142701, 22.100197654034172 ], [ -159.560402605613518, 22.0999608729547 ], [ -159.560304363715431, 22.100291653105767 ], [ -159.559820045329189, 22.10020226572421 ], [ -159.559430805428661, 22.100023621556421 ], [ -159.559332395573875, 22.099843981272635 ], [ -159.558241841021356, 22.09933811682254 ], [ -159.559038713999712, 22.099120842797735 ], [ -159.559134637095411, 22.098669513017168 ], [ -159.559488858335328, 22.098575516531021 ], [ -159.559232880704911, 22.098338733470527 ], [ -159.559134637095411, 22.098669513017168 ], [ -159.558322903764434, 22.098574045162728 ], [ -159.557299207404753, 22.098076018196686 ], [ -159.557604353903486, 22.097436951451289 ], [ -159.557282268011818, 22.096872163850279 ], [ -159.556609716316956, 22.096687464640166 ], [ -159.556507632349309, 22.096239258597485 ], [ -159.557551598879769, 22.096460936824698 ], [ -159.558245452321557, 22.095616827302297 ], [ -159.558070551189019, 22.096748667647592 ], [ -159.559875568528867, 22.097429914498655 ], [ -159.560639680704071, 22.097855898773187 ], [ -159.560291524226841, 22.097039404153833 ], [ -159.560873170753212, 22.09703740909843 ], [ -159.560993661596569, 22.097468345238898 ], [ -159.561556753683249, 22.098267739772048 ], [ -159.561988661261637, 22.098499398265584 ], [ -159.561771210176914, 22.097610681707728 ], [ -159.560873170753212, 22.09703740909843 ], [ -159.559901769387807, 22.095018130096687 ], [ -159.560440732694047, 22.09526715927452 ], [ -159.560937439032813, 22.095800457438841 ], [ -159.561672798798099, 22.09610319844391 ], [ -159.562169512677315, 22.096636492651093 ], [ -159.562326213042553, 22.096761391694496 ], [ -159.562427066678111, 22.097091487985146 ], [ -159.562681162906927, 22.096852954220374 ], [ -159.562326213042553, 22.096761391694496 ], [ -159.562723650838819, 22.096358648272684 ], [ -159.563349071871983, 22.096617195897117 ], [ -159.563890126884559, 22.09715737874853 ], [ -159.566529239300507, 22.09685774104863 ], [ -159.564782112750351, 22.096348917778812 ], [ -159.565242742438329, 22.095948232774393 ], [ -159.561884708867126, 22.094032418040964 ], [ -159.563339391484817, 22.094178009486477 ], [ -159.564960023680896, 22.094970038827437 ], [ -159.566222175641713, 22.095012286661483 ], [ -159.56654436805556, 22.094439709815553 ], [ -159.564792036549335, 22.093810792427266 ], [ -159.56546410198294, 22.093375266465952 ], [ -159.566093352213613, 22.093349846874087 ], [ -159.566814959149809, 22.093373995341626 ], [ -159.56653405400354, 22.093082870282707 ], [ -159.565649068186929, 22.092825117198633 ], [ -159.565669078534825, 22.092305396976435 ], [ -159.564775633496254, 22.092275501558294 ], [ -159.563909650031036, 22.092706367261826 ], [ -159.563040267337271, 22.092281488180486 ], [ -159.562118688301609, 22.092318703421309 ], [ -159.562537991067387, 22.091953931912734 ], [ -159.562304741800602, 22.091340975595475 ], [ -159.563635113815621, 22.09120988049019 ], [ -159.563038132328757, 22.090221334983664 ], [ -159.564764342709651, 22.090079669681 ], [ -159.565362894290644, 22.090122413087755 ], [ -159.565733250753084, 22.089718714009731 ], [ -159.56698932384262, 22.09036613455768 ], [ -159.566763324711872, 22.088620940853911 ], [ -159.564465837273502, 22.089019744668722 ], [ -159.563597651168578, 22.089320281512073 ], [ -159.563323118670183, 22.08875266160225 ], [ -159.562696280552274, 22.088253083934163 ], [ -159.562155602134027, 22.087672581635871 ], [ -159.561260615379979, 22.087424780040774 ], [ -159.560951029510306, 22.08709242121213 ], [ -159.560107126850227, 22.087158521641896 ], [ -159.558963740672453, 22.087076829687653 ], [ -159.558553018315024, 22.087943167207541 ], [ -159.558686024738904, 22.086325827204607 ], [ -159.556942154240204, 22.086462409440404 ], [ -159.556465141876629, 22.085398411293465 ], [ -159.556833814706806, 22.085249898796501 ], [ -159.556580552656641, 22.084774747019697 ], [ -159.556465141876629, 22.085398411293465 ], [ -159.55519317149276, 22.085201468191563 ], [ -159.555007966136856, 22.084590289035742 ], [ -159.555412646191826, 22.084317889850201 ], [ -159.554836011046405, 22.083935674817951 ], [ -159.554490605680627, 22.082733196593285 ], [ -159.553392168972834, 22.082534757142469 ], [ -159.552964993249674, 22.082700034863397 ], [ -159.55336181765901, 22.081486704998486 ], [ -159.553813692677295, 22.081830557023046 ], [ -159.554279457304943, 22.082312867356347 ], [ -159.555100756085238, 22.08226444182737 ], [ -159.555755320830542, 22.08280552587004 ], [ -159.555705796150107, 22.083629836043066 ], [ -159.5562273688343, 22.083657044307387 ], [ -159.556607190595884, 22.0824957235805 ], [ -159.557437219215501, 22.084165132367623 ], [ -159.55777480488274, 22.084182739810291 ], [ -159.558634420679908, 22.083891973503107 ], [ -159.559406236514434, 22.083932195233682 ], [ -159.560351005857342, 22.08352415981118 ], [ -159.55949107137792, 22.082813348111635 ], [ -159.559815442769803, 22.082541212968504 ], [ -159.559497198598478, 22.082278125615808 ], [ -159.559514186114797, 22.081994735221311 ], [ -159.559358194189741, 22.081594190272401 ], [ -159.559939777545139, 22.081592199857397 ], [ -159.560297993915924, 22.082071949546314 ], [ -159.561177216093199, 22.082633316190879 ], [ -159.561515693266159, 22.082392393792883 ], [ -159.560450848651868, 22.081712579020884 ], [ -159.559939777545139, 22.081592199857397 ], [ -159.560248643186526, 22.081007654139594 ], [ -159.559742043113715, 22.080417729302322 ], [ -159.559639376296104, 22.079154002881744 ], [ -159.560030018676571, 22.079432888060431 ], [ -159.560939128685845, 22.080933428404613 ], [ -159.561245583615431, 22.080890128512337 ], [ -159.561536532143521, 22.08092919453982 ], [ -159.561828157288062, 22.08088799569596 ], [ -159.562845545546452, 22.081040174355081 ], [ -159.563083883689501, 22.082206527523972 ], [ -159.563858484849675, 22.081877434214125 ], [ -159.562845545546452, 22.081040174355081 ], [ -159.56268215031136, 22.080367839209465 ], [ -159.562712187013915, 22.080082617091474 ], [ -159.561921052594556, 22.079065999624458 ], [ -159.561484535255005, 22.078730570342508 ], [ -159.561540577484379, 22.078198898226336 ], [ -159.561444584854655, 22.077352109056733 ], [ -159.560795678104398, 22.077416004175717 ], [ -159.559547598451616, 22.07730175508966 ], [ -159.559206321488858, 22.076540581346119 ], [ -159.559774679427619, 22.076592613848117 ], [ -159.560210688180433, 22.076549683134939 ], [ -159.56079246887046, 22.076602939854592 ], [ -159.562156058676521, 22.07646866822957 ], [ -159.562087294644641, 22.077121670700336 ], [ -159.56257179197334, 22.077903403527891 ], [ -159.563287453536219, 22.07845334550802 ], [ -159.563256597891552, 22.078746527308759 ], [ -159.563868611498606, 22.078991424204208 ], [ -159.564135806320138, 22.079288954370433 ], [ -159.564447205379281, 22.079258286160062 ], [ -159.565195422603978, 22.079654249517191 ], [ -159.565992458776833, 22.080541802244625 ], [ -159.566480860453026, 22.079481370797915 ], [ -159.567679927395375, 22.080115934175495 ], [ -159.567547026348194, 22.081377577022153 ], [ -159.568486478977036, 22.082099367699051 ], [ -159.56908759998629, 22.081887904277256 ], [ -159.568136822741593, 22.081157389131004 ], [ -159.56989373987696, 22.080859259192604 ], [ -159.570815019943097, 22.08094353676913 ], [ -159.570074499311715, 22.079127356335466 ], [ -159.569043864973594, 22.07871501270315 ], [ -159.569123951331221, 22.077954395693752 ], [ -159.570260563828583, 22.077639214530176 ], [ -159.571303038859071, 22.077077894586004 ], [ -159.57065357807312, 22.076030073209775 ], [ -159.569661262325582, 22.076564383102887 ], [ -159.569087847986651, 22.076260930464041 ], [ -159.568720607799207, 22.076297111566685 ], [ -159.567743710687068, 22.078418201582007 ], [ -159.567090526668693, 22.07870925881733 ], [ -159.56676935249601, 22.077196741928063 ], [ -159.568439285626226, 22.075894050073071 ], [ -159.569961083055347, 22.075472059975571 ], [ -159.571435625312887, 22.074317243051585 ], [ -159.571333027429006, 22.073412900502259 ], [ -159.569706217072962, 22.072974106279446 ], [ -159.568653911919512, 22.073077781146161 ], [ -159.567930520076885, 22.073895685195964 ], [ -159.567355847582121, 22.073255698960324 ], [ -159.566740457262085, 22.073316324992252 ], [ -159.566304130536679, 22.073276398322022 ], [ -159.565468257407019, 22.073358725002464 ], [ -159.565148149266264, 22.075069684423791 ], [ -159.564958052855957, 22.075163836835458 ], [ -159.564749895791294, 22.075822383585873 ], [ -159.563760789718771, 22.076240654082817 ], [ -159.563405629932362, 22.075617746096984 ], [ -159.564456127544616, 22.075499967410828 ], [ -159.564334483127226, 22.074936981275645 ], [ -159.564475405669924, 22.074258932338783 ], [ -159.564385944821282, 22.073844862482204 ], [ -159.56482310077223, 22.07284284017771 ], [ -159.565574439629813, 22.072336951962871 ], [ -159.567534942122421, 22.071847596930002 ], [ -159.567867741507143, 22.070354679257953 ], [ -159.567164125034481, 22.070184255658393 ], [ -159.566787106036998, 22.069793862852919 ], [ -159.566135604946169, 22.069517881233175 ], [ -159.565613816085943, 22.068977635690054 ], [ -159.565018176806888, 22.069412914109808 ], [ -159.564205157951022, 22.071080248928286 ], [ -159.563799194485739, 22.070263825361231 ], [ -159.562650635302674, 22.070598753429834 ], [ -159.562084536554721, 22.071435180717067 ], [ -159.561474090269229, 22.071128717871872 ], [ -159.560390661876085, 22.072267384425032 ], [ -159.559757510895764, 22.072234383802293 ], [ -159.559321447477714, 22.072260109532024 ], [ -159.557002002191666, 22.072139194175293 ], [ -159.556551911560575, 22.072516793741041 ], [ -159.556110250114756, 22.072980928127663 ], [ -159.554897081930932, 22.071724591098903 ], [ -159.554280798474394, 22.072138578333071 ], [ -159.553827456110071, 22.07306809158316 ], [ -159.553943007139111, 22.07187865540007 ], [ -159.55514341818602, 22.071161341043553 ], [ -159.555050541973884, 22.069792534027812 ], [ -159.556135761705519, 22.06984912779588 ], [ -159.558221366979467, 22.069093644260551 ], [ -159.558860320491419, 22.067988089483279 ], [ -159.558510139808476, 22.06719422314465 ], [ -159.557986624950075, 22.067633448307841 ], [ -159.557635784770554, 22.068352868700153 ], [ -159.556804515930594, 22.06766566337377 ], [ -159.556838701578499, 22.06709608567537 ], [ -159.556529685201383, 22.066840585852969 ], [ -159.556254130277551, 22.066555245524626 ], [ -159.555403507524716, 22.06585200297047 ], [ -159.556344413971175, 22.065445609392782 ], [ -159.5559377625911, 22.064401200417894 ], [ -159.556035263115405, 22.06277688189207 ], [ -159.55503342865498, 22.063155176674794 ], [ -159.555125014960993, 22.064504237990992 ], [ -159.554199305645881, 22.065749141584597 ], [ -159.553682972170918, 22.068380487128 ], [ -159.552007855924927, 22.06753932471009 ], [ -159.5515791344109, 22.068850127180031 ], [ -159.550708590276855, 22.068481259743724 ], [ -159.551093303744864, 22.068158534805075 ], [ -159.551005210987654, 22.066859284246746 ], [ -159.550867438802641, 22.066716609378268 ], [ -159.552130064584361, 22.06650741331109 ], [ -159.552208839974753, 22.065899010276308 ], [ -159.552153027432126, 22.06549265998493 ], [ -159.552223256724773, 22.064950371413989 ], [ -159.55214881694414, 22.064408571030125 ], [ -159.55222283634555, 22.06383700662667 ], [ -159.551545827432221, 22.062772241475706 ], [ -159.553654587005923, 22.062422814417182 ], [ -159.555395269842677, 22.060381459667948 ], [ -159.558209309000745, 22.06000241738781 ], [ -159.559696415117287, 22.060810481410936 ], [ -159.559435894252744, 22.060303447179393 ], [ -159.559108341033379, 22.06006080224866 ], [ -159.559180125883472, 22.059506231292115 ], [ -159.558527283005219, 22.059252422023508 ], [ -159.558059507907842, 22.058711966200875 ], [ -159.557363119030214, 22.058955390853157 ], [ -159.555823530132159, 22.059875802352465 ], [ -159.554489099415576, 22.059402857736078 ], [ -159.553881554327461, 22.060115348992447 ], [ -159.553313004727329, 22.060051368513765 ], [ -159.553022387908783, 22.060086063663022 ], [ -159.552721069602654, 22.060052161227656 ], [ -159.552145414850173, 22.060370174561371 ], [ -159.551667320691706, 22.059817741964125 ], [ -159.550929090480366, 22.060258909157763 ], [ -159.55130876908126, 22.061169911445141 ], [ -159.550685414797726, 22.061417230560188 ], [ -159.550425158691581, 22.061722497552282 ], [ -159.548549625873989, 22.061511448488936 ], [ -159.548688614131777, 22.062523029078957 ], [ -159.548635950549823, 22.062929744624583 ], [ -159.548717461076222, 22.063523200792666 ], [ -159.54839359662185, 22.063902951986559 ], [ -159.547948330285209, 22.063745126584113 ], [ -159.547800422893317, 22.063052259136025 ], [ -159.547213846898359, 22.062530680355721 ], [ -159.546925927169923, 22.062253321806413 ], [ -159.546342731296562, 22.062535824294368 ], [ -159.545773168284029, 22.061451387356776 ], [ -159.545175435138788, 22.061718980099858 ], [ -159.544454993775702, 22.062067969235819 ], [ -159.541579120949763, 22.049269131073853 ], [ -159.542227240814668, 22.049532586572351 ], [ -159.542611728147705, 22.049903031355718 ], [ -159.543962943268639, 22.049248440817138 ], [ -159.54425652968655, 22.049531278719002 ], [ -159.544556087625836, 22.049797686391926 ], [ -159.544259478181317, 22.050339137764684 ], [ -159.5442700572967, 22.05074814023919 ], [ -159.5442488518201, 22.051921578134319 ], [ -159.544558668085244, 22.052511565455077 ], [ -159.545148322995175, 22.052775798939116 ], [ -159.544853590859447, 22.05386391307 ], [ -159.545159065002679, 22.05441186334307 ], [ -159.54512580076144, 22.056252203911423 ], [ -159.545487888914295, 22.056901649216559 ], [ -159.545449949148292, 22.059002377897219 ], [ -159.546622533050964, 22.058467264911808 ], [ -159.546906394328232, 22.058189864580822 ], [ -159.547218065590755, 22.057908731518019 ], [ -159.54791495519197, 22.056557406169286 ], [ -159.548356777671472, 22.056564329911911 ], [ -159.548935448964301, 22.056551389632283 ], [ -159.549748672352877, 22.057334741819293 ], [ -159.550404556663267, 22.057646936964087 ], [ -159.550977624791841, 22.05763410748817 ], [ -159.551846652940839, 22.057647705189794 ], [ -159.551854249728592, 22.057227377462937 ], [ -159.551832030448168, 22.056367129883775 ], [ -159.553055589107203, 22.05599244005651 ], [ -159.55416443956716, 22.055455189739323 ], [ -159.555041438937508, 22.055186617946482 ], [ -159.555616014350989, 22.054908216730606 ], [ -159.557669078785437, 22.054633914239108 ], [ -159.558502186685217, 22.053819716303725 ], [ -159.558816749672189, 22.054084242833937 ], [ -159.559377068893696, 22.05462393413633 ], [ -159.55998733476639, 22.05463346001374 ], [ -159.560572170461512, 22.05406186382643 ], [ -159.56285123508485, 22.054097399771127 ], [ -159.563619981880862, 22.053403757930433 ], [ -159.564602237824516, 22.052443660506253 ], [ -159.56491680876681, 22.052708175183007 ], [ -159.565270686828455, 22.054040031599815 ], [ -159.567063945260088, 22.052897833765044 ], [ -159.567534571951285, 22.053793677482869 ], [ -159.568727591403984, 22.051904234522492 ], [ -159.569545240873936, 22.05269169019331 ], [ -159.569859136170749, 22.052696569445256 ], [ -159.570415288811319, 22.052152928606422 ], [ -159.570729064012141, 22.052145863241179 ], [ -159.571491713647021, 22.052508749542664 ], [ -159.57189222258296, 22.052147328834387 ], [ -159.572174931125573, 22.051598864023322 ], [ -159.573077482081999, 22.050481398870968 ], [ -159.573029243765092, 22.048620235274246 ], [ -159.57334017209476, 22.048613241175239 ], [ -159.573954236806031, 22.049782021294874 ], [ -159.575236714053943, 22.049367789151148 ], [ -159.576336751862016, 22.049860530143786 ], [ -159.574791356297425, 22.051589830400403 ], [ -159.574809091779429, 22.052272575604697 ], [ -159.573360920637924, 22.052933796052177 ], [ -159.573054762642812, 22.053492964900112 ], [ -159.572772053945727, 22.054041431112555 ], [ -159.569587339579698, 22.057390687080723 ], [ -159.569875246201434, 22.058117023566805 ], [ -159.570171574375848, 22.058110367173455 ], [ -159.571347603754333, 22.058935751683229 ], [ -159.572758558563379, 22.058903972017717 ], [ -159.573225442677654, 22.059051100221112 ] ], [ [ -159.572981665996821, 22.07070603293074 ], [ -159.572800081417114, 22.071306500013009 ], [ -159.571951618126491, 22.071643237643649 ], [ -159.571403829560097, 22.072024163424537 ], [ -159.57213379709188, 22.072564836193617 ], [ -159.573734395894462, 22.071680301699342 ], [ -159.573623594380706, 22.070874662600509 ], [ -159.572981665996821, 22.07070603293074 ] ], [ [ -159.614783234831265, 22.121777548140383 ], [ -159.614884228994242, 22.12210760794558 ], [ -159.615138278636607, 22.121868985999573 ], [ -159.614783234831265, 22.121777548140383 ] ], [ [ -159.613616230762119, 22.120968872334604 ], [ -159.613717221601007, 22.121298932969506 ], [ -159.613971271842388, 22.12106031280398 ], [ -159.613616230762119, 22.120968872334604 ] ], [ [ -159.612605116597138, 22.156205434723365 ], [ -159.612740421300174, 22.156350518991399 ], [ -159.61363710437297, 22.156869024426342 ], [ -159.614132158912071, 22.157399897403995 ], [ -159.614486437537067, 22.156427535276631 ], [ -159.612605116597138, 22.156205434723365 ] ], [ [ -159.617544031858557, 22.154560684703444 ], [ -159.617912815221985, 22.154412024727943 ], [ -159.617659221424333, 22.153936987202737 ], [ -159.617544031858557, 22.154560684703444 ], [ -159.616962155167727, 22.154562886852496 ], [ -159.616964518117868, 22.155104919082774 ], [ -159.615800760060864, 22.155109317272672 ], [ -159.615801939335029, 22.155380333433584 ], [ -159.614850455324671, 22.155997582180945 ], [ -159.615551455733737, 22.156305038444472 ], [ -159.615801939335029, 22.155380333433584 ], [ -159.617547579653547, 22.155373732946085 ], [ -159.617544031858557, 22.154560684703444 ] ], [ [ -159.645443130616741, 22.147677171903677 ], [ -159.646196566587122, 22.147563491969677 ], [ -159.646692799050271, 22.146311872249928 ], [ -159.645758783109244, 22.146510822299717 ], [ -159.645443130616741, 22.147677171903677 ], [ -159.644980616220607, 22.14778969844394 ], [ -159.64474544317676, 22.148335248099244 ], [ -159.646102632462288, 22.148598317673763 ], [ -159.645443130616741, 22.147677171903677 ] ], [ [ -159.643983586335168, 22.146598860691022 ], [ -159.643627541127586, 22.147273340805523 ], [ -159.644411936727153, 22.147501274427874 ], [ -159.644663740285807, 22.146723984197269 ], [ -159.643983586335168, 22.146598860691022 ] ], [ [ -159.63901958891671, 22.142553078345884 ], [ -159.638787897154202, 22.142991978239024 ], [ -159.639396386360886, 22.143184688344238 ], [ -159.639699719516528, 22.142678223177615 ], [ -159.63901958891671, 22.142553078345884 ] ], [ [ -159.640470473787019, 22.141734329354883 ], [ -159.641403048531686, 22.141582973159846 ], [ -159.6420492653412, 22.141184000326547 ], [ -159.640774064000425, 22.141364678098714 ], [ -159.640470473787019, 22.141734329354883 ], [ -159.640116203668754, 22.141828493970749 ], [ -159.640372393562473, 22.142065152424323 ], [ -159.640470473787019, 22.141734329354883 ] ], [ [ -159.616031552371254, 22.141286383041216 ], [ -159.616385838563104, 22.141192270371796 ], [ -159.616129689362822, 22.140955573259177 ], [ -159.616031552371254, 22.141286383041216 ], [ -159.61567726568984, 22.141380494951076 ], [ -159.615933414940059, 22.141617192761419 ], [ -159.616031552371254, 22.141286383041216 ] ], [ [ -159.645695742475738, 22.139274556052086 ], [ -159.645561748716261, 22.1394206783899 ], [ -159.645092382800499, 22.139800670658058 ], [ -159.645495547846906, 22.140213835892386 ], [ -159.64641312759133, 22.139472673334598 ], [ -159.645695742475738, 22.139274556052086 ] ], [ [ -159.628216147487279, 22.133651347152366 ], [ -159.628317181917765, 22.133981397247833 ], [ -159.628571229134849, 22.133742754772317 ], [ -159.628216147487279, 22.133651347152366 ] ], [ [ -159.609286970406885, 22.128844716770907 ], [ -159.6093879573273, 22.129174779869274 ], [ -159.609642028804728, 22.128936166181624 ], [ -159.609286970406885, 22.128844716770907 ] ], [ [ -159.574663723694755, 22.127073108319607 ], [ -159.57476462914434, 22.127403194706208 ], [ -159.575018757185489, 22.127164633644881 ], [ -159.574663723694755, 22.127073108319607 ] ], [ [ -159.575533074268975, 22.126256976987531 ], [ -159.575633981102186, 22.126587062838645 ], [ -159.575888106216865, 22.12634850046306 ], [ -159.575533074268975, 22.126256976987531 ] ], [ [ -159.574659328031913, 22.125989031736765 ], [ -159.574760232637146, 22.126319118186402 ], [ -159.575014358786888, 22.126080557141908 ], [ -159.574659328031913, 22.125989031736765 ] ], [ [ -159.574656031463121, 22.125175974204669 ], [ -159.574775065869773, 22.125791461022246 ], [ -159.575034730516535, 22.125325379239992 ], [ -159.574656031463121, 22.125175974204669 ] ], [ [ -159.572318045950368, 22.122473954585587 ], [ -159.572089597702558, 22.123021466420244 ], [ -159.572269032169771, 22.124124176961139 ], [ -159.573906909154289, 22.124394843903048 ], [ -159.573323459431265, 22.123978498403414 ], [ -159.572843053275818, 22.123403027967001 ], [ -159.57248270797075, 22.122591445489061 ], [ -159.572318045950368, 22.122473954585587 ] ], [ [ -159.611853468985885, 22.116910157607524 ], [ -159.611954452609666, 22.117240219655372 ], [ -159.612208498796861, 22.11700160221287 ], [ -159.611853468985885, 22.116910157607524 ] ], [ [ -159.563520712867927, 22.104616980434116 ], [ -159.563419850932291, 22.104286885286662 ], [ -159.56316574299629, 22.104525428508776 ], [ -159.563520712867927, 22.104616980434116 ], [ -159.563621575289972, 22.104947075496177 ], [ -159.563875683180413, 22.104708531577575 ], [ -159.563520712867927, 22.104616980434116 ] ], [ [ -159.562354135590169, 22.103807927222125 ], [ -159.562454994694718, 22.10413802310595 ], [ -159.56270910317437, 22.103899480967478 ], [ -159.562354135590169, 22.103807927222125 ] ], [ [ -159.561185427783272, 22.102456824181992 ], [ -159.561286283149883, 22.102786920918668 ], [ -159.561540391273411, 22.10254838056812 ], [ -159.561185427783272, 22.102456824181992 ] ], [ [ -159.562916457467566, 22.098927554633342 ], [ -159.563381915170709, 22.099578698402372 ], [ -159.563714413033551, 22.100397489494465 ], [ -159.564495904352327, 22.10056242847952 ], [ -159.564167932242071, 22.099222235908361 ], [ -159.562916457467566, 22.098927554633342 ] ], [ [ -159.566683140221159, 22.095391221533124 ], [ -159.566842562358772, 22.095734792156225 ], [ -159.567352407495207, 22.095498755204371 ], [ -159.566683140221159, 22.095391221533124 ] ], [ [ -159.564595673785561, 22.082389265377351 ], [ -159.564714624298517, 22.08300476441768 ], [ -159.564974247492643, 22.082538688887425 ], [ -159.564595673785561, 22.082389265377351 ] ], [ [ -159.573811306862353, 22.060133148078879 ], [ -159.57391215892784, 22.060463238742294 ], [ -159.574166171433689, 22.060224687873635 ], [ -159.573811306862353, 22.060133148078879 ] ] ] } },
{ "type": "Feature", "properties": { "ID": 41, "GRIDCODE": 2 }, "geometry": { "type": "Polygon", "coordinates": [ [ [ -159.553873828425708, 22.017379639299037 ], [ -159.55431586162149, 22.017508497423005 ], [ -159.554596662186128, 22.017818375288297 ], [ -159.553866931764134, 22.018453432836058 ], [ -159.553449181763909, 22.018876884965362 ], [ -159.552801552955231, 22.019440496091303 ], [ -159.551992386306381, 22.019413315118502 ], [ -159.551238156040398, 22.019443743805851 ], [ -159.550838445295682, 22.020240816899861 ], [ -159.549933202248525, 22.020511410481156 ], [ -159.549995284055569, 22.021850243073562 ], [ -159.549592418176786, 22.022200833426684 ], [ -159.549993829614266, 22.023256598833491 ], [ -159.551173880879588, 22.023209028754419 ], [ -159.55196502471145, 22.022407063929361 ], [ -159.552578924551824, 22.022181543167587 ], [ -159.551123708087943, 22.024768281944006 ], [ -159.5499741670736, 22.025111887686183 ], [ -159.549371607967799, 22.025411751087354 ], [ -159.549412012478086, 22.026282809799167 ], [ -159.547710623764488, 22.025873230853811 ], [ -159.547103943947803, 22.026488112701603 ], [ -159.546782490090237, 22.026477308450854 ], [ -159.545629962271477, 22.027307449470023 ], [ -159.544750788282897, 22.027023417507781 ], [ -159.544469557145675, 22.027584222788789 ], [ -159.543889301954891, 22.02730041671898 ], [ -159.541979364015219, 22.027046040681295 ], [ -159.542437958687316, 22.027847282756621 ], [ -159.542719716194853, 22.028409479052709 ], [ -159.542143803005871, 22.028390095970522 ], [ -159.541853160115579, 22.028401809882876 ], [ -159.541557254059825, 22.028391853858949 ], [ -159.540999459115454, 22.028957206583765 ], [ -159.540398799076058, 22.028663430980309 ], [ -159.540105971819571, 22.028960187618825 ], [ -159.539529701640447, 22.028940780014231 ], [ -159.539039097297575, 22.028960525154044 ], [ -159.540138691325097, 22.030439200199922 ], [ -159.540060816976251, 22.031107463810585 ], [ -159.538960021804343, 22.030569034347465 ], [ -159.538277232248049, 22.03027131951734 ], [ -159.537209372990333, 22.03031429433031 ], [ -159.536400429628429, 22.030287053202905 ], [ -159.537346428795587, 22.031559224296732 ], [ -159.536919240810334, 22.031930872443255 ], [ -159.536621026347149, 22.032233066468592 ], [ -159.534933399401183, 22.025728582218402 ], [ -159.535740059525722, 22.024627312158504 ], [ -159.536110071786538, 22.023889592963599 ], [ -159.53696527608389, 22.023509845359374 ], [ -159.537770490270219, 22.023536964267841 ], [ -159.538048218916998, 22.022983261466646 ], [ -159.538652638234709, 22.022158002950224 ], [ -159.539218589525547, 22.022177051063295 ], [ -159.53956371856998, 22.021827254865268 ], [ -159.540095417298545, 22.020767099527308 ], [ -159.540072231070212, 22.020266691241094 ], [ -159.540373404402288, 22.020004629243495 ], [ -159.541133488709107, 22.019234314448141 ], [ -159.541614300321896, 22.02017569852616 ], [ -159.542156295076325, 22.021752430231313 ], [ -159.542984238372128, 22.021340434858285 ], [ -159.543565233198962, 22.02135998059595 ], [ -159.543854432701778, 22.021066902299385 ], [ -159.544736512576065, 22.020803267525903 ], [ -159.545306480912984, 22.020519641722686 ], [ -159.545607125912198, 22.020529740904557 ], [ -159.545902115685408, 22.020230684595145 ], [ -159.54646945101851, 22.020797498183288 ], [ -159.547172994657871, 22.021055855762668 ], [ -159.547818471195711, 22.019130982913627 ], [ -159.548799390967105, 22.019163961712749 ], [ -159.549082561085783, 22.018599271636642 ], [ -159.549954675805964, 22.018628571766367 ], [ -159.550237628994608, 22.018064294038105 ], [ -159.55103118774926, 22.017800922963094 ], [ -159.551489446864565, 22.0191338571383 ], [ -159.552565028998856, 22.018598518630661 ], [ -159.553622690914693, 22.018128707698491 ], [ -159.553873828425708, 22.017379639299037 ] ] ] } },
{ "type": "Feature", "properties": { "ID": 42, "GRIDCODE": 2 }, "geometry": { "type": "Polygon", "coordinates": [ [ [ -159.547478246702013, 22.017130099475715 ], [ -159.548189518393002, 22.017317163453878 ], [ -159.547679646799224, 22.017778228470071 ], [ -159.547478246702013, 22.017130099475715 ] ] ] } },
{ "type": "Feature", "properties": { "ID": 43, "GRIDCODE": 2 }, "geometry": { "type": "Polygon", "coordinates": [ [ [ -159.54834709975475, 22.016314112517254 ], [ -159.548992265624292, 22.016399576950199 ], [ -159.548440894675963, 22.016899607833924 ], [ -159.54834709975475, 22.016314112517254 ] ] ] } }
]
}
