{
"type": "FeatureCollection",
"name": "lysscop",
"crs": { "type": "name", "properties": { "name": "urn:ogc:def:crs:OGC:1.3:CRS84" } },
"features": [
{ "type": "Feature", "properties": { "ID": 1, "GRIDCODE": 2 }, "geometry": { "type": "Polygon", "coordinates": [ [ [ -159.606644151443021, 22.190918320936571 ], [ -159.60701740176242, 22.191156272738247 ], [ -159.606240777320011, 22.192435248173712 ], [ -159.605897423219488, 22.192657912074292 ], [ -159.605372372520577, 22.193522557120204 ], [ -159.605029014404863, 22.193745219250584 ], [ -159.604630607527383, 22.194287175057227 ], [ -159.603626762122246, 22.193647197723532 ], [ -159.603876563215067, 22.192596996334412 ], [ -159.604488771768388, 22.192722411038865 ], [ -159.604976037704773, 22.192059453566902 ], [ -159.606525976016115, 22.191079087643281 ], [ -159.606644151443021, 22.190918320936571 ] ] ] } },
{ "type": "Feature", "properties": { "ID": 2, "GRIDCODE": 2 }, "geometry": { "type": "Polygon", "coordinates": [ [ [ -159.607223849068816, 22.190374121393297 ], [ -159.607579061751267, 22.190465575283195 ], [ -159.607324878861533, 22.190704178274689 ], [ -159.607223849068816, 22.190374121393297 ] ] ] } },
{ "type": "Feature", "properties": { "ID": 3, "GRIDCODE": 2 }, "geometry": { "type": "Polygon", "coordinates": [ [ [ -159.625758623486007, 22.169977515445172 ], [ -159.626778999388392, 22.170789532599382 ], [ -159.628016606508908, 22.172380971098917 ], [ -159.629016836800332, 22.17317689804851 ], [ -159.629693457824175, 22.173902224343099 ], [ -159.630007149024976, 22.174151875482892 ], [ -159.630279037084904, 22.174713019255158 ], [ -159.63088371068315, 22.17496154306707 ], [ -159.63173756516224, 22.175520430400908 ], [ -159.632596045479772, 22.175873239239685 ], [ -159.632668606015955, 22.176673013684336 ], [ -159.631200269076487, 22.177443517324665 ], [ -159.630159515708158, 22.176762226213626 ], [ -159.628553603357886, 22.17688864901951 ], [ -159.628254421576628, 22.176867421727238 ], [ -159.627689957037688, 22.177163600980844 ], [ -159.627381323177929, 22.177141705477936 ], [ -159.627111884026675, 22.177435431652118 ], [ -159.626800414937719, 22.177687493328314 ], [ -159.626397176199106, 22.178953773728075 ], [ -159.62519645906761, 22.181487927235072 ], [ -159.624488185732531, 22.181239779948175 ], [ -159.623984939030066, 22.180200944481189 ], [ -159.622744044029162, 22.179562330293287 ], [ -159.622468073966843, 22.180715453526677 ], [ -159.62188718062788, 22.1804165129879 ], [ -159.620721091046619, 22.179937221269487 ], [ -159.62100691452315, 22.179584765330144 ], [ -159.622164078580681, 22.179666918262647 ], [ -159.622442421000528, 22.178503853022516 ], [ -159.625070109746417, 22.180404334271508 ], [ -159.625376765600322, 22.179881274835875 ], [ -159.625642470731293, 22.179047040441237 ], [ -159.625951544661177, 22.178252951173281 ], [ -159.626307350079969, 22.177135659191126 ], [ -159.626999012658388, 22.176381662345737 ], [ -159.630228935461304, 22.176127405352279 ], [ -159.631322151588279, 22.176689971597327 ], [ -159.631779287758718, 22.176320047837727 ], [ -159.630844794788146, 22.175936008751702 ], [ -159.629250372419563, 22.174667294487982 ], [ -159.627359625296776, 22.172556126435669 ], [ -159.626795578082294, 22.171725081427045 ], [ -159.626481897885469, 22.171475423774172 ], [ -159.626211231450611, 22.171185288048836 ], [ -159.625897553496685, 22.170935633338431 ], [ -159.625758623486007, 22.169977515445172 ] ] ] } },
{ "type": "Feature", "properties": { "ID": 4, "GRIDCODE": 2 }, "geometry": { "type": "Polygon", "coordinates": [ [ [ -159.625465256604201, 22.16943660180171 ], [ -159.62582042704463, 22.169528012959841 ], [ -159.625566312455788, 22.16976665171677 ], [ -159.625465256604201, 22.16943660180171 ] ] ] } },
{ "type": "Feature", "properties": { "ID": 5, "GRIDCODE": 2 }, "geometry": { "type": "Polygon", "coordinates": [ [ [ -159.624290615690143, 22.167001925741062 ], [ -159.62507712553537, 22.167384475134217 ], [ -159.6254262795523, 22.168413752475036 ], [ -159.624945693817153, 22.168555224382985 ], [ -159.624403510714501, 22.167440205194229 ], [ -159.624290615690143, 22.167001925741062 ] ] ] } },
{ "type": "Feature", "properties": { "ID": 6, "GRIDCODE": 2 }, "geometry": { "type": "Polygon", "coordinates": [ [ [ -159.623997260829697, 22.166461008985827 ], [ -159.624352422882481, 22.166552423571165 ], [ -159.624098310967582, 22.166791060059516 ], [ -159.623997260829697, 22.166461008985827 ] ] ] } },
{ "type": "Feature", "properties": { "ID": 7, "GRIDCODE": 2 }, "geometry": { "type": "Polygon", "coordinates": [ [ [ -159.623701518203603, 22.165378060796893 ], [ -159.624080374707461, 22.165527347675447 ], [ -159.623820803220468, 22.165993503267657 ], [ -159.623701518203603, 22.165378060796893 ] ] ] } },
{ "type": "Feature", "properties": { "ID": 8, "GRIDCODE": 2 }, "geometry": { "type": "Polygon", "coordinates": [ [ [ -159.623701518203603, 22.165378060796893 ], [ -159.6234316985975, 22.165147127853963 ], [ -159.622772246823132, 22.162270051583519 ], [ -159.624397807839131, 22.162575729452424 ], [ -159.623356096031216, 22.163482241635457 ], [ -159.624245766032999, 22.164243786200711 ], [ -159.62383964188075, 22.164965833052211 ], [ -159.623701518203603, 22.165378060796893 ] ] ] } },
{ "type": "Feature", "properties": { "ID": 9, "GRIDCODE": 2 }, "geometry": { "type": "Polygon", "coordinates": [ [ [ -159.638501325558138, 22.156648144717323 ], [ -159.638502548396673, 22.156919159645927 ], [ -159.638211606383948, 22.15692029847963 ], [ -159.638210384102507, 22.156649283535646 ], [ -159.638501325558138, 22.156648144717323 ] ] ] } },
{ "type": "Feature", "properties": { "ID": 10, "GRIDCODE": 2 }, "geometry": { "type": "Polygon", "coordinates": [ [ [ -159.639081984478878, 22.156374850616871 ], [ -159.639083208412728, 22.156645865523785 ], [ -159.638501325558138, 22.156648144717323 ], [ -159.638500102738504, 22.156377129779646 ], [ -159.639081984478878, 22.156374850616871 ] ] ] } },
{ "type": "Feature", "properties": { "ID": 11, "GRIDCODE": 2 }, "geometry": { "type": "Polygon", "coordinates": [ [ [ -159.639661416104303, 22.155830539598863 ], [ -159.639467567463271, 22.156191247831483 ], [ -159.639081984478878, 22.156374850616871 ], [ -159.639079536667879, 22.15583282077586 ], [ -159.639661416104303, 22.155830539598863 ] ] ] } },
{ "type": "Feature", "properties": { "ID": 12, "GRIDCODE": 2 }, "geometry": { "type": "Polygon", "coordinates": [ [ [ -159.639661416104303, 22.155830539598863 ], [ -159.639982002897597, 22.155505518895012 ], [ -159.643865022604672, 22.154995604899256 ], [ -159.643885381368023, 22.154458820074343 ], [ -159.643828218584247, 22.153244626781838 ], [ -159.644749114572392, 22.153772689694403 ], [ -159.645030251482837, 22.154052936240177 ], [ -159.646096199686639, 22.154362670668419 ], [ -159.646507943012182, 22.155166537935735 ], [ -159.647085269364851, 22.155660574213577 ], [ -159.647366414644267, 22.155940816466334 ], [ -159.648548823899148, 22.156952623209836 ], [ -159.648525624393983, 22.157563178870372 ], [ -159.648990159112202, 22.157544177124279 ], [ -159.649416406354646, 22.158376215184365 ], [ -159.650522480354653, 22.157825392983494 ], [ -159.650878692581244, 22.158084652294512 ], [ -159.651179046134502, 22.158384057241143 ], [ -159.653450662436512, 22.159043999273571 ], [ -159.653519481130331, 22.160502344861193 ], [ -159.652927851828821, 22.160796990020675 ], [ -159.65209235894099, 22.161168377707288 ], [ -159.653232601936168, 22.161892549472913 ], [ -159.654037483847389, 22.161076348757437 ], [ -159.65481466102986, 22.161044529786931 ], [ -159.655255564733267, 22.161059035620134 ], [ -159.656451005565657, 22.160663355700002 ], [ -159.658446303242783, 22.161097577344204 ], [ -159.658114763700951, 22.161359596061931 ], [ -159.656416115756059, 22.16130374188819 ], [ -159.656133318812692, 22.161868198721436 ], [ -159.654342456854579, 22.162141319445809 ], [ -159.653392673239637, 22.164037017078474 ], [ -159.653221484837019, 22.163777022663346 ], [ -159.652937810457985, 22.16295476354837 ], [ -159.652634145118412, 22.162694926705978 ], [ -159.652644784195019, 22.162414270959029 ], [ -159.652341120566405, 22.162154433512558 ], [ -159.652059952982228, 22.161874200585757 ], [ -159.65175671949666, 22.161614732456421 ], [ -159.651475554144497, 22.161334498449364 ], [ -159.650614604358054, 22.160960214689414 ], [ -159.652065601588731, 22.160525931002251 ], [ -159.652027347362321, 22.1597161448177 ], [ -159.652618457080962, 22.159201591488461 ], [ -159.651164791428869, 22.159438605979826 ], [ -159.650585776393683, 22.159726956095518 ], [ -159.650298957565383, 22.158895341455061 ], [ -159.649192236521714, 22.159446470852021 ], [ -159.648521949618214, 22.159179127748914 ], [ -159.648553256784623, 22.158353754204047 ], [ -159.647959819178908, 22.158378022731107 ], [ -159.647678310840718, 22.158097394416991 ], [ -159.647374665562495, 22.157837547140524 ], [ -159.647395647519801, 22.157284606868018 ], [ -159.646778280766455, 22.157309859255736 ], [ -159.646799713067679, 22.156746156810037 ], [ -159.646495644443121, 22.15648593725389 ], [ -159.646506297170447, 22.156205628782381 ], [ -159.646201419028927, 22.155674417194021 ], [ -159.645747490176376, 22.154358286882985 ], [ -159.644449778240784, 22.154315514868753 ], [ -159.643909875655652, 22.155393032906538 ], [ -159.642721230302612, 22.155688169357092 ], [ -159.639661416104303, 22.155830539598863 ] ] ] } },
{ "type": "Feature", "properties": { "ID": 13, "GRIDCODE": 2 }, "geometry": { "type": "Polygon", "coordinates": [ [ [ -159.656522057310127, 22.152782328040718 ], [ -159.658718082394074, 22.15289644497226 ], [ -159.659274406894724, 22.153190293500874 ], [ -159.662476234984496, 22.153511627552614 ], [ -159.662079981958868, 22.15423792757613 ], [ -159.658696324505996, 22.15400568622897 ], [ -159.656612694701835, 22.153472049642524 ], [ -159.656294909652615, 22.154146815492219 ], [ -159.656417522602339, 22.155221920826481 ], [ -159.656321480665866, 22.156139138845798 ], [ -159.657524850811171, 22.157062081727059 ], [ -159.657663912580176, 22.158280725799255 ], [ -159.656999821360245, 22.158799081372941 ], [ -159.65770089443447, 22.159253144820152 ], [ -159.659014143453192, 22.159777391565775 ], [ -159.65856434922992, 22.160102987255936 ], [ -159.657061906386929, 22.159503225686432 ], [ -159.656629349649592, 22.158806677424092 ], [ -159.656706891557832, 22.158066455620784 ], [ -159.656646250884506, 22.15753524024916 ], [ -159.65706793181036, 22.157206049490647 ], [ -159.655678865909863, 22.156140598851518 ], [ -159.655449500767162, 22.154130513982814 ], [ -159.65607406047863, 22.153178120796742 ], [ -159.656390702024567, 22.152930904889704 ], [ -159.656522057310127, 22.152782328040718 ] ] ] } },
{ "type": "Feature", "properties": { "ID": 14, "GRIDCODE": 2 }, "geometry": { "type": "Polygon", "coordinates": [ [ [ -159.669610151828323, 22.151916066113969 ], [ -159.66996530381013, 22.152007381681745 ], [ -159.669711296250426, 22.15224608718276 ], [ -159.669610151828323, 22.151916066113969 ] ] ] } },
{ "type": "Feature", "properties": { "ID": 15, "GRIDCODE": 2 }, "geometry": { "type": "Polygon", "coordinates": [ [ [ -159.671350589296907, 22.150824837492458 ], [ -159.672360574090902, 22.151361763558985 ], [ -159.670057663164414, 22.15197438213362 ], [ -159.670323949205937, 22.151223934031986 ], [ -159.670857661123875, 22.151261671451003 ], [ -159.671216647531423, 22.150970980167838 ], [ -159.671350589296907, 22.150824837492458 ] ] ] } },
{ "type": "Feature", "properties": { "ID": 16, "GRIDCODE": 2 }, "geometry": { "type": "Polygon", "coordinates": [ [ [ -159.638211606383948, 22.15692029847963 ], [ -159.637301644293302, 22.157810005864203 ], [ -159.636905877042551, 22.157058200141954 ], [ -159.636578532932077, 22.156767715108483 ], [ -159.636611335019666, 22.154885435145012 ], [ -159.635721123832383, 22.154905829685944 ], [ -159.635148058804702, 22.154354856898433 ], [ -159.634850106099037, 22.154090422686007 ], [ -159.634562468034545, 22.153543968895189 ], [ -159.633392575696348, 22.153570756616762 ], [ -159.633402362764457, 22.153011863873719 ], [ -159.633098425927443, 22.152742131363137 ], [ -159.632812080604708, 22.152466796789827 ], [ -159.632514136218532, 22.152202358052516 ], [ -159.632225436179539, 22.151653778264222 ], [ -159.631643047144877, 22.151936103025733 ], [ -159.631059937945651, 22.151659135164202 ], [ -159.630313963329428, 22.152020768911051 ], [ -159.629315918810647, 22.151396134893986 ], [ -159.629022242344746, 22.151402850506166 ], [ -159.628728587269904, 22.151398399816919 ], [ -159.62815335069385, 22.151677277068217 ], [ -159.626449735928816, 22.151651440017449 ], [ -159.624391679218661, 22.153250723996067 ], [ -159.624369215514065, 22.154534699383422 ], [ -159.62443671719285, 22.157099324317738 ], [ -159.623517735517254, 22.157380998505698 ], [ -159.623524979139546, 22.157654662559636 ], [ -159.623520146943122, 22.157928256983048 ], [ -159.624680338648233, 22.159508484305906 ], [ -159.622653862635701, 22.159823729500154 ], [ -159.622961883686116, 22.160650881664484 ], [ -159.62295263538465, 22.161180112649209 ], [ -159.622966539432895, 22.161708229558371 ], [ -159.622404939886081, 22.162257162004551 ], [ -159.622327494292961, 22.159314025156561 ], [ -159.622817808315546, 22.15887163782843 ], [ -159.62196406845851, 22.158113850998639 ], [ -159.622359950492637, 22.157390805371065 ], [ -159.622642660952778, 22.156842259929032 ], [ -159.623546147447428, 22.156429672234236 ], [ -159.623501005778479, 22.154712445435447 ], [ -159.624208307628891, 22.152339188525534 ], [ -159.626941849239927, 22.150597749199711 ], [ -159.628731791389328, 22.150856454448043 ], [ -159.629934290578859, 22.151138607856005 ], [ -159.631057502734166, 22.151112910900981 ], [ -159.631641970246534, 22.151121756495655 ], [ -159.632717786585715, 22.150774072674558 ], [ -159.633102942945101, 22.151115885831029 ], [ -159.633089032837603, 22.151912524513996 ], [ -159.633386934072945, 22.152198971169401 ], [ -159.633975813146691, 22.152462277731264 ], [ -159.634266312352537, 22.153014196908952 ], [ -159.635139040464452, 22.152994209451137 ], [ -159.635576338728924, 22.153824977567691 ], [ -159.636570876169998, 22.1538021917968 ], [ -159.637464317517015, 22.154595162215383 ], [ -159.637479381404177, 22.155164039836681 ], [ -159.637083442412205, 22.15588732772855 ], [ -159.637633080078047, 22.156375104536931 ], [ -159.638062624339852, 22.156788084417478 ], [ -159.638211606383948, 22.15692029847963 ] ] ] } },
{ "type": "Feature", "properties": { "ID": 17, "GRIDCODE": 2 }, "geometry": { "type": "Polygon", "coordinates": [ [ [ -159.688448077683802, 22.136931646171281 ], [ -159.688546041567406, 22.136600796881137 ], [ -159.68880230050209, 22.136837377670179 ], [ -159.688448077683802, 22.136931646171281 ] ] ] } },
{ "type": "Feature", "properties": { "ID": 18, "GRIDCODE": 2 }, "geometry": { "type": "Polygon", "coordinates": [ [ [ -159.687279225923902, 22.135852498905674 ], [ -159.686986496353256, 22.135475605648207 ], [ -159.686697434206167, 22.135854947875206 ], [ -159.68634321228987, 22.135949211791665 ], [ -159.68659946643632, 22.136185796182932 ], [ -159.686697434206167, 22.135854947875206 ], [ -159.687279225923902, 22.135852498905674 ], [ -159.68754597809928, 22.136803091121902 ], [ -159.688448077683802, 22.136931646171281 ], [ -159.688296573331399, 22.138024621302886 ], [ -159.687136638080744, 22.141581150057686 ], [ -159.683717318887801, 22.145703350605281 ], [ -159.679111169803264, 22.148729356914675 ], [ -159.677674342053137, 22.149216379906267 ], [ -159.677189649532579, 22.148243998302686 ], [ -159.676401728243093, 22.148203531036678 ], [ -159.67700799827071, 22.149231875516556 ], [ -159.676599315792117, 22.149769222961954 ], [ -159.674277889348645, 22.150556028446545 ], [ -159.675551485985949, 22.148841368912905 ], [ -159.674973859851093, 22.148768081859355 ], [ -159.673645159439019, 22.149218420796871 ], [ -159.672191428675433, 22.148604113376933 ], [ -159.673244788152545, 22.147973923920887 ], [ -159.672342039994561, 22.146898609123433 ], [ -159.672062238191785, 22.145800435591159 ], [ -159.671593100185902, 22.145004562488534 ], [ -159.672641497543282, 22.145256010880022 ], [ -159.673745686714909, 22.146857692101058 ], [ -159.674392506717822, 22.14689092324506 ], [ -159.675256852862532, 22.146597968064842 ], [ -159.678004539351008, 22.147271322217232 ], [ -159.67671670149619, 22.145737418298307 ], [ -159.677006009293621, 22.145206603655485 ], [ -159.677708340847289, 22.145932356137759 ], [ -159.679377498952221, 22.146341378647197 ], [ -159.680143439769807, 22.146295642128973 ], [ -159.681903060307917, 22.146638202304384 ], [ -159.682434550859483, 22.145717207235613 ], [ -159.681812856987221, 22.145074814546483 ], [ -159.68133794122167, 22.144683065868428 ], [ -159.681974246145614, 22.14440777616602 ], [ -159.681343578997911, 22.143338023928237 ], [ -159.681051617088855, 22.142471070564284 ], [ -159.680188661461727, 22.141759218610705 ], [ -159.680996536774103, 22.141673322589259 ], [ -159.681507593994809, 22.142094886901269 ], [ -159.681921486833716, 22.142522554234919 ], [ -159.683393605452181, 22.142772162174126 ], [ -159.683798101335725, 22.143583522637311 ], [ -159.684767449223443, 22.142908048358724 ], [ -159.683195640816848, 22.141855376118205 ], [ -159.683037351820701, 22.139555598969089 ], [ -159.68392928346708, 22.139502320912829 ], [ -159.685069440218655, 22.140073345015068 ], [ -159.685699516751981, 22.14003569645838 ], [ -159.686763529253, 22.140090292140616 ], [ -159.686264861777232, 22.139244498180584 ], [ -159.686691320813281, 22.138505451082612 ], [ -159.685866990160861, 22.138092605660095 ], [ -159.684813967237062, 22.138449613338537 ], [ -159.684108926070564, 22.137426995886976 ], [ -159.681608575248276, 22.136542768934152 ], [ -159.680747534499886, 22.136983335808321 ], [ -159.681035124422465, 22.136234857760929 ], [ -159.682054806603105, 22.135378364490407 ], [ -159.680794754061765, 22.134845913570469 ], [ -159.682950226925442, 22.134956570736747 ], [ -159.683645344897627, 22.134655803036079 ], [ -159.68404196599019, 22.13384108524254 ], [ -159.685097117693488, 22.134092426903695 ], [ -159.685914623636137, 22.134501864975498 ], [ -159.686842545416454, 22.13410034254025 ], [ -159.687252263883494, 22.13366922118955 ], [ -159.687737693657056, 22.1332614592299 ], [ -159.687110531394438, 22.132744121759938 ], [ -159.686293411553521, 22.131899790910062 ], [ -159.685172913790353, 22.131966736229842 ], [ -159.684210322476758, 22.131172679725381 ], [ -159.684548694801094, 22.131100024334163 ], [ -159.685322030592886, 22.131139713270372 ], [ -159.685972012535046, 22.130593688510562 ], [ -159.685919341164464, 22.129828468887649 ], [ -159.686228812359957, 22.129192728998941 ], [ -159.686759430724294, 22.130257211891667 ], [ -159.689136331538435, 22.130592038708588 ], [ -159.688885349019245, 22.135447726986211 ], [ -159.688579670616832, 22.135432045208741 ], [ -159.688014011594504, 22.135721519443329 ], [ -159.687279225923902, 22.135852498905674 ] ], [ [ -159.68813874891589, 22.133138692199065 ], [ -159.688298471513718, 22.133482134835258 ], [ -159.688808238109004, 22.133245721402339 ], [ -159.68813874891589, 22.133138692199065 ] ] ] } },
{ "type": "Feature", "properties": { "ID": 19, "GRIDCODE": 2 }, "geometry": { "type": "Polygon", "coordinates": [ [ [ -159.687530667936386, 22.127720881836591 ], [ -159.688200131023109, 22.127827914272498 ], [ -159.687690382582616, 22.128064325488243 ], [ -159.687530667936386, 22.127720881836591 ] ] ] } },
{ "type": "Feature", "properties": { "ID": 20, "GRIDCODE": 2 }, "geometry": { "type": "Polygon", "coordinates": [ [ [ -159.684603547961672, 22.123938918228802 ], [ -159.686114177123869, 22.124033919848547 ], [ -159.686743518199194, 22.125200357159489 ], [ -159.685870865236012, 22.125197648611483 ], [ -159.685673692928333, 22.124838529821886 ], [ -159.684703441179721, 22.124389491847179 ], [ -159.684603547961672, 22.123938918228802 ] ] ] } },
{ "type": "Feature", "properties": { "ID": 21, "GRIDCODE": 2 }, "geometry": { "type": "Polygon", "coordinates": [ [ [ -159.628403712520054, 22.110342798701719 ], [ -159.628846099363898, 22.11047143777893 ], [ -159.629149378461591, 22.111063841000522 ], [ -159.629101041440293, 22.112333100785044 ], [ -159.62982154062064, 22.113300205354218 ], [ -159.629385148092126, 22.114076417682668 ], [ -159.625793047379346, 22.113957570841418 ], [ -159.622723467888733, 22.113471599677133 ], [ -159.621668539552246, 22.114541186583651 ], [ -159.620988300489188, 22.114843512700414 ], [ -159.622468867951767, 22.115374254557072 ], [ -159.623341194003501, 22.115928677366444 ], [ -159.623751307340541, 22.115110192483453 ], [ -159.625952497623132, 22.11618472428891 ], [ -159.626253036093544, 22.116172472579564 ], [ -159.627162126953124, 22.116750247780296 ], [ -159.62710200104857, 22.118328536680142 ], [ -159.627427835104896, 22.118607536890849 ], [ -159.628346542075633, 22.119523779970702 ], [ -159.628288585225448, 22.121043791615865 ], [ -159.628614926643252, 22.121323151166191 ], [ -159.628594251703902, 22.121865455203483 ], [ -159.629188654823395, 22.122124038704101 ], [ -159.630106033031865, 22.123564312438578 ], [ -159.63003630055772, 22.122079440549122 ], [ -159.629302487088211, 22.121451216329184 ], [ -159.629765626870409, 22.121048068286903 ], [ -159.630322706549492, 22.1204832074473 ], [ -159.631013762821397, 22.11988160051428 ], [ -159.630242682412558, 22.118152798029584 ], [ -159.631227156209235, 22.116946223079726 ], [ -159.632644765551305, 22.116993084395279 ], [ -159.633849501435918, 22.116393122581762 ], [ -159.634382936104998, 22.115328413050406 ], [ -159.634682490763339, 22.114795545442227 ], [ -159.634960006938712, 22.11424168868788 ], [ -159.635261491770535, 22.114251649024137 ], [ -159.635830760001909, 22.113422681896619 ], [ -159.637230196503367, 22.11387362532664 ], [ -159.636376153215281, 22.114253273203325 ], [ -159.635576515447497, 22.115064239749827 ], [ -159.635154079152471, 22.115050284144001 ], [ -159.6343976973709, 22.116151758004946 ], [ -159.633702407231681, 22.117101675100287 ], [ -159.632293206420371, 22.117523420317671 ], [ -159.631775663364067, 22.117506309169755 ], [ -159.63086552671092, 22.117959550122823 ], [ -159.631210271438022, 22.118863982150472 ], [ -159.631497394788738, 22.120510073567839 ], [ -159.630916345163939, 22.120490864827403 ], [ -159.630226835994733, 22.12083421448235 ], [ -159.63081886961109, 22.123417174742151 ], [ -159.632315235525084, 22.124309301064645 ], [ -159.63121447174936, 22.124272917086508 ], [ -159.629989746926356, 22.124882829557333 ], [ -159.629237027493758, 22.125646035420566 ], [ -159.628458771094955, 22.125921145886824 ], [ -159.629065364198937, 22.124842268440577 ], [ -159.629473172564985, 22.123186945063171 ], [ -159.62830741176731, 22.122679813099456 ], [ -159.627698509282823, 22.121809201554129 ], [ -159.627133935851873, 22.121325818604284 ], [ -159.627448538398397, 22.120766356442481 ], [ -159.6274237633707, 22.120238850007468 ], [ -159.62743426276424, 22.119963669414787 ], [ -159.627114470078084, 22.119124672036754 ], [ -159.625959138895951, 22.11862203946319 ], [ -159.626472136913463, 22.117239995208152 ], [ -159.624045324120942, 22.115649599017033 ], [ -159.623557565946157, 22.116622948054928 ], [ -159.622179199473834, 22.115646379968201 ], [ -159.620712689735569, 22.115391276930616 ], [ -159.62043167858829, 22.115110984244449 ], [ -159.618965177138847, 22.114855865297493 ], [ -159.618393585072283, 22.114638768084809 ], [ -159.620010683358629, 22.114273364891687 ], [ -159.62149424351162, 22.114322513176294 ], [ -159.622662571561278, 22.112621365466151 ], [ -159.623319687403267, 22.112942153194457 ], [ -159.62682214629433, 22.113189432904893 ], [ -159.628681275693992, 22.113544421766626 ], [ -159.629138577704083, 22.113335267667335 ], [ -159.627962965282109, 22.111562668269539 ], [ -159.628268052196631, 22.111297065468442 ], [ -159.628403712520054, 22.110342798701719 ] ] ] } },
{ "type": "Feature", "properties": { "ID": 22, "GRIDCODE": 2 }, "geometry": { "type": "Polygon", "coordinates": [ [ [ -159.608557496570029, 22.094427604618971 ], [ -159.608714234140052, 22.094552458374949 ], [ -159.608986274160486, 22.095206058475039 ], [ -159.608071610635051, 22.095946356918482 ], [ -159.608167378612023, 22.09700377367172 ], [ -159.608032093137382, 22.098655044632462 ], [ -159.607412118236311, 22.098610950043607 ], [ -159.605882798670251, 22.098731179832512 ], [ -159.605535455459318, 22.099464397580839 ], [ -159.605104120085969, 22.099433705455596 ], [ -159.603718574337222, 22.098720033676852 ], [ -159.601769214463076, 22.100234821609753 ], [ -159.601455053802539, 22.100577403566149 ], [ -159.601113158705118, 22.099870964812645 ], [ -159.600290205517837, 22.100302839431119 ], [ -159.599449827395119, 22.099401130248904 ], [ -159.598805150554824, 22.100368732135863 ], [ -159.5973752503414, 22.100009662455722 ], [ -159.597107901912096, 22.100848951796046 ], [ -159.596796542785654, 22.101100964212463 ], [ -159.596528522057696, 22.101393114001496 ], [ -159.595680554751482, 22.102079356252133 ], [ -159.594636773846446, 22.102517937989148 ], [ -159.593785665190012, 22.102457321770316 ], [ -159.593039605209725, 22.101656688297798 ], [ -159.592187769538157, 22.100978117096179 ], [ -159.591877495338423, 22.101952081307992 ], [ -159.590427232680611, 22.102364714749321 ], [ -159.590140066879599, 22.10377666433903 ], [ -159.591398913265607, 22.102938051544811 ], [ -159.592819444079083, 22.103039235569788 ], [ -159.593543256627242, 22.103815997894159 ], [ -159.594432148656693, 22.104181726091376 ], [ -159.595662418964992, 22.1040850988119 ], [ -159.596860418583702, 22.104385933870692 ], [ -159.597396609570325, 22.103801400666949 ], [ -159.598021539227631, 22.10412332812961 ], [ -159.597969259768547, 22.103545958057907 ], [ -159.597997085562127, 22.103207003086212 ], [ -159.59981444068822, 22.103569433578368 ], [ -159.600884886791903, 22.104718050592361 ], [ -159.602348049615614, 22.104603081128545 ], [ -159.603230283770102, 22.104665861642754 ], [ -159.604402264472014, 22.103388009947807 ], [ -159.604318514369396, 22.102462931868985 ], [ -159.605790234374126, 22.103427185742518 ], [ -159.606407898831549, 22.104338007975585 ], [ -159.607071163293625, 22.104586403006103 ], [ -159.607569995160901, 22.104042503672908 ], [ -159.608172175641357, 22.10378940538126 ], [ -159.608779823132267, 22.103470522191873 ], [ -159.608710258092771, 22.104319364499617 ], [ -159.609804974802557, 22.104769663671963 ], [ -159.610477179911726, 22.103760645042492 ], [ -159.61084745347452, 22.103508403286259 ], [ -159.61151900479453, 22.104228937697485 ], [ -159.614011523312058, 22.104918046558307 ], [ -159.613962290745093, 22.105519314215478 ], [ -159.613999800022839, 22.105933613737427 ], [ -159.613820327688103, 22.106187321105573 ], [ -159.611957612954001, 22.104839196805599 ], [ -159.610976842570153, 22.104435771170461 ], [ -159.609891288284189, 22.105159118279797 ], [ -159.608537849331071, 22.105062862217846 ], [ -159.607591267030529, 22.105693596135847 ], [ -159.606721029826673, 22.105399447972381 ], [ -159.606423328564887, 22.105422843419188 ], [ -159.606056681515184, 22.105396760843739 ], [ -159.605424028165316, 22.104717951916172 ], [ -159.604729075068462, 22.104164510524367 ], [ -159.603701558127057, 22.105284814952487 ], [ -159.601761714648148, 22.105146766126957 ], [ -159.600858843405035, 22.105459522092421 ], [ -159.599742461251225, 22.104884491198991 ], [ -159.59907920744331, 22.104636066168364 ], [ -159.598580340325469, 22.105179940316617 ], [ -159.597978135980384, 22.105433003729203 ], [ -159.597711251660314, 22.105996190682603 ], [ -159.596466427863987, 22.106519263199573 ], [ -159.595482451895975, 22.105463317210834 ], [ -159.593010124520362, 22.104949385649519 ], [ -159.592263841416724, 22.104148526530896 ], [ -159.59174155318604, 22.103849736025673 ], [ -159.59111979270844, 22.105801710686343 ], [ -159.589344806166253, 22.105675266352023 ], [ -159.588403300905526, 22.106302448210855 ], [ -159.588095678194207, 22.106280529421841 ], [ -159.58749484317255, 22.106595739100065 ], [ -159.586936561349404, 22.106555952458407 ], [ -159.584620008088677, 22.107035505342772 ], [ -159.584311373426203, 22.108647257694045 ], [ -159.583263396362753, 22.109087503318555 ], [ -159.581144536338797, 22.108784256134051 ], [ -159.583664251311944, 22.108417280653654 ], [ -159.583150679709263, 22.107129280816697 ], [ -159.583234055915284, 22.106113472646069 ], [ -159.584040650371037, 22.105774607672195 ], [ -159.584308705312196, 22.105482461234736 ], [ -159.58520177432726, 22.105228406225596 ], [ -159.585760663996183, 22.104935215514601 ], [ -159.586970215866501, 22.104427056514226 ], [ -159.586901088804638, 22.103662562159183 ], [ -159.58871683612989, 22.103145992164322 ], [ -159.588633261917948, 22.102221540343358 ], [ -159.589736725148356, 22.101907615080705 ], [ -159.590118153089634, 22.101102621873807 ], [ -159.590997236601481, 22.101165248770339 ], [ -159.591265128908901, 22.099765955641612 ], [ -159.592507907585031, 22.099510579213291 ], [ -159.593011308952242, 22.100050799767637 ], [ -159.593850814143366, 22.100396256855241 ], [ -159.594180797413458, 22.101403255627492 ], [ -159.594627198539143, 22.101368200565059 ], [ -159.595209041890683, 22.101409620641164 ], [ -159.595691998056253, 22.101371700099648 ], [ -159.596331478044931, 22.099363971958251 ], [ -159.598263220802011, 22.09894756471633 ], [ -159.598530090439368, 22.098384393265025 ], [ -159.598841440565963, 22.098132377663994 ], [ -159.59910945044885, 22.097840224209239 ], [ -159.600204442487495, 22.097585331454109 ], [ -159.600859779168161, 22.098939609995767 ], [ -159.601305957503882, 22.098904554212172 ], [ -159.601750430249865, 22.098936184011858 ], [ -159.602809356255307, 22.098380459268306 ], [ -159.604657907617053, 22.098110961063597 ], [ -159.605507550327076, 22.097816644368152 ], [ -159.606982174326248, 22.097560299442158 ], [ -159.607540591760113, 22.097174633944594 ], [ -159.606932699141595, 22.096168712030508 ], [ -159.606979056990298, 22.095602690281332 ], [ -159.608369390510376, 22.095018305646928 ], [ -159.608557496570029, 22.094427604618971 ] ], [ [ -159.589112197805292, 22.103984666556315 ], [ -159.589271683873079, 22.104328213554183 ], [ -159.589781520476663, 22.104092107008359 ], [ -159.589112197805292, 22.103984666556315 ] ] ] } },
{ "type": "Feature", "properties": { "ID": 23, "GRIDCODE": 2 }, "geometry": { "type": "Polygon", "coordinates": [ [ [ -159.608263197294235, 22.093615631409506 ], [ -159.609233823022976, 22.093726023453165 ], [ -159.608575843584447, 22.0941858918885 ], [ -159.608263197294235, 22.093615631409506 ] ] ] } },
{ "type": "Feature", "properties": { "ID": 24, "GRIDCODE": 2 }, "geometry": { "type": "Polygon", "coordinates": [ [ [ -159.60821560088911, 22.082503861701635 ], [ -159.60857054194804, 22.082595324877076 ], [ -159.608316549531793, 22.082833928128316 ], [ -159.60821560088911, 22.082503861701635 ] ] ] } },
{ "type": "Feature", "properties": { "ID": 25, "GRIDCODE": 2 }, "geometry": { "type": "Polygon", "coordinates": [ [ [ -159.606432676905371, 22.073566708614756 ], [ -159.606718126817185, 22.073748852378895 ], [ -159.606917465642141, 22.07456258971909 ], [ -159.605447153956533, 22.074875537452062 ], [ -159.605769639920396, 22.074352924010054 ], [ -159.606315751992241, 22.073998490465684 ], [ -159.606432676905371, 22.073566708614756 ] ] ] } },
{ "type": "Feature", "properties": { "ID": 26, "GRIDCODE": 2 }, "geometry": { "type": "Polygon", "coordinates": [ [ [ -159.588574343240026, 22.044361270141167 ], [ -159.588476202556961, 22.044692067205744 ], [ -159.588220277018479, 22.044455326905858 ], [ -159.588574343240026, 22.044361270141167 ] ] ] } },
{ "type": "Feature", "properties": { "ID": 27, "GRIDCODE": 2 }, "geometry": { "type": "Polygon", "coordinates": [ [ [ -159.588574343240026, 22.044361270141167 ], [ -159.588444849884212, 22.043666720568567 ], [ -159.587567147073969, 22.042321958159871 ], [ -159.587833010967813, 22.040257545603719 ], [ -159.58955439706213, 22.041486405371504 ], [ -159.589684032321912, 22.042282968613648 ], [ -159.589140362762777, 22.042677303357355 ], [ -159.589606577529253, 22.043391516427349 ], [ -159.589862206242486, 22.043967549954761 ], [ -159.590423229129215, 22.044367996416611 ], [ -159.590569770592452, 22.045268596768661 ], [ -159.590160688500021, 22.045326463624146 ], [ -159.589850605770835, 22.044627818615822 ], [ -159.588738926109414, 22.044478739194449 ], [ -159.588574343240026, 22.044361270141167 ] ] ] } },
{ "type": "Feature", "properties": { "ID": 28, "GRIDCODE": 2 }, "geometry": { "type": "Polygon", "coordinates": [ [ [ -159.5815717301478, 22.038152703141108 ], [ -159.582112163495111, 22.038302292235453 ], [ -159.581943214880368, 22.040360282140053 ], [ -159.582330090486664, 22.041000954974258 ], [ -159.58084907693015, 22.041804039627937 ], [ -159.580581508486489, 22.042188582967189 ], [ -159.581482673315151, 22.043680905768834 ], [ -159.580873562042484, 22.044707800109808 ], [ -159.580598822524337, 22.046432509044269 ], [ -159.579996830852878, 22.046685519828589 ], [ -159.579395234229452, 22.047001221520564 ], [ -159.579441766987003, 22.047517103592348 ], [ -159.578958912662472, 22.048757515786395 ], [ -159.580860850234473, 22.04727949352737 ], [ -159.581795081097113, 22.046260790688638 ], [ -159.581735832657955, 22.045605322845102 ], [ -159.581766256939545, 22.045234672169997 ], [ -159.582913469950569, 22.043714030824933 ], [ -159.58317808181576, 22.042608838566789 ], [ -159.584566896909507, 22.040942499334847 ], [ -159.584935189340058, 22.038629527297516 ], [ -159.58721131802784, 22.039802834117349 ], [ -159.586365850352252, 22.040158226286778 ], [ -159.585834520567033, 22.041826593471974 ], [ -159.584332006167784, 22.043042792352292 ], [ -159.584403463279244, 22.04383415847802 ], [ -159.584343710433501, 22.044562322334091 ], [ -159.583118852306455, 22.045077111234527 ], [ -159.583261605744639, 22.046657677805346 ], [ -159.582123065934923, 22.047579186293007 ], [ -159.581634623602326, 22.048610252798795 ], [ -159.580742023806152, 22.048546574938825 ], [ -159.579935187297224, 22.048609896248095 ], [ -159.580087573913801, 22.050297557833371 ], [ -159.578852698309362, 22.051297000825862 ], [ -159.578584731296729, 22.051589121726561 ], [ -159.578151005423621, 22.051841531215111 ], [ -159.578875081399161, 22.05022148830912 ], [ -159.578424809629269, 22.049475741870886 ], [ -159.577667356799026, 22.048872033272975 ], [ -159.577991160746564, 22.048609939101869 ], [ -159.578342578699733, 22.04822675797945 ], [ -159.578230050431756, 22.046979832800368 ], [ -159.579724458022042, 22.045893556300207 ], [ -159.579985784765825, 22.043975304025107 ], [ -159.580464782326317, 22.043587613697404 ], [ -159.579977805858846, 22.042365720988151 ], [ -159.580015398596458, 22.041906974946681 ], [ -159.57912868480733, 22.042372332327986 ], [ -159.578526707382622, 22.042625337515815 ], [ -159.578258755574666, 22.042917457851242 ], [ -159.577924070329743, 22.043188358200727 ], [ -159.577972227622183, 22.043721472172255 ], [ -159.577862527835634, 22.045057054108163 ], [ -159.576211991794281, 22.045343755513674 ], [ -159.575246909428955, 22.045850177407257 ], [ -159.574331169498549, 22.044866788464269 ], [ -159.573169628989376, 22.046133268685477 ], [ -159.572195126129031, 22.046542736036095 ], [ -159.569641077394806, 22.047093015210947 ], [ -159.57030278625345, 22.048753556473997 ], [ -159.56960168037304, 22.049432271274505 ], [ -159.568614931434865, 22.047975761840998 ], [ -159.569044304520702, 22.046491485609682 ], [ -159.572887877504058, 22.045717096148834 ], [ -159.573299713148174, 22.043997261500468 ], [ -159.574117451541298, 22.044055618730567 ], [ -159.57494392014155, 22.043621946165512 ], [ -159.575345205385787, 22.04484774512224 ], [ -159.576220493784405, 22.044779077832423 ], [ -159.577092905349531, 22.044841346663521 ], [ -159.57746708246907, 22.044051515649578 ], [ -159.577340151087753, 22.042645405624473 ], [ -159.578838800601034, 22.041634140779632 ], [ -159.5793920892404, 22.040963817429802 ], [ -159.57764585642397, 22.040480389804586 ], [ -159.577084993375621, 22.04022942191154 ], [ -159.579707069963604, 22.039847434768745 ], [ -159.581103163131502, 22.038917122301481 ], [ -159.5815717301478, 22.038152703141108 ] ], [ [ -159.580421079128996, 22.041138067293545 ], [ -159.581304408429361, 22.04066371617753 ], [ -159.580646890295213, 22.039930190379604 ], [ -159.580421079128996, 22.041138067293545 ], [ -159.580067015040839, 22.041232106407492 ], [ -159.580322921405468, 22.041468859966667 ], [ -159.580421079128996, 22.041138067293545 ] ] ] } },
{ "type": "Feature", "properties": { "ID": 29, "GRIDCODE": 2 }, "geometry": { "type": "Polygon", "coordinates": [ [ [ -159.573970871357858, 22.027609498728655 ], [ -159.575064387728332, 22.028481239126574 ], [ -159.573847824669684, 22.03046577939563 ], [ -159.572326096956829, 22.030730102752255 ], [ -159.571682382471494, 22.031432032774457 ], [ -159.570979152945966, 22.032001169056809 ], [ -159.570927114636106, 22.032634119920292 ], [ -159.570978433615664, 22.033202311995556 ], [ -159.570077469222866, 22.033931467384974 ], [ -159.569697157098602, 22.035125428206086 ], [ -159.568681474740686, 22.035052896947644 ], [ -159.568322594722702, 22.035343365093606 ], [ -159.568054634900136, 22.035635469146527 ], [ -159.567161967127987, 22.03588944049309 ], [ -159.566894003877167, 22.036181542700312 ], [ -159.566292029507423, 22.036434503009914 ], [ -159.566002512335928, 22.037643194956438 ], [ -159.564214478068465, 22.038106075990267 ], [ -159.563411614294751, 22.038048709191692 ], [ -159.562643303698081, 22.038886314575315 ], [ -159.561616306672818, 22.038128735908668 ], [ -159.56206746235847, 22.03736828467451 ], [ -159.561437395835242, 22.035252505885715 ], [ -159.562569432672319, 22.035836281258984 ], [ -159.566859239793956, 22.034615983439032 ], [ -159.566887332600913, 22.034274307723802 ], [ -159.566791106929173, 22.033207441474861 ], [ -159.567161955501291, 22.033178367108384 ], [ -159.567969194206995, 22.033236015147569 ], [ -159.56864278597601, 22.032882554957585 ], [ -159.569404518309909, 22.032936962768925 ], [ -159.569853656655852, 22.03152723553228 ], [ -159.570585353096845, 22.0315794761893 ], [ -159.571212465934991, 22.031071945217032 ], [ -159.570940878537812, 22.03045578774837 ], [ -159.570355614470174, 22.029486290297001 ], [ -159.570937618928156, 22.029642720194662 ], [ -159.571836883567727, 22.03010640279409 ], [ -159.572391124292466, 22.029657796690806 ], [ -159.572660406366651, 22.029364159195271 ], [ -159.573216536022727, 22.029403867428766 ], [ -159.573611281142945, 22.028738352408773 ], [ -159.573970871357858, 22.027609498728655 ] ], [ [ -159.5664444326828, 22.035495458252164 ], [ -159.567106377059645, 22.035154169879988 ], [ -159.566589087524989, 22.034856944463456 ], [ -159.5664444326828, 22.035495458252164 ], [ -159.565694151267707, 22.035611199371122 ], [ -159.565161986330793, 22.035928792669818 ], [ -159.564014578333399, 22.03621523777667 ], [ -159.563539930801113, 22.036129479428372 ], [ -159.562793288851168, 22.036269710275302 ], [ -159.562776003954383, 22.037247409921509 ], [ -159.564560493665795, 22.036912278676184 ], [ -159.565161353335725, 22.037020823695737 ], [ -159.565777471031765, 22.036021619644693 ], [ -159.566323700307976, 22.035653753830392 ], [ -159.5664444326828, 22.035495458252164 ] ], [ [ -159.567603979530531, 22.034678365403028 ], [ -159.567775499732051, 22.034567071023428 ], [ -159.569353572361223, 22.034199883273821 ], [ -159.568954671585033, 22.033478874510937 ], [ -159.568050439042565, 22.034032352865385 ], [ -159.567395051295108, 22.033897738200704 ], [ -159.567603979530531, 22.034678365403028 ], [ -159.567249922252302, 22.0347723767179 ], [ -159.567505795915935, 22.03500915119734 ], [ -159.567603979530531, 22.034678365403028 ] ] ] } },
{ "type": "Feature", "properties": { "ID": 30, "GRIDCODE": 2 }, "geometry": { "type": "Polygon", "coordinates": [ [ [ -159.548325204001429, 22.010622606092312 ], [ -159.548679929360532, 22.0107142045856 ], [ -159.548425959518966, 22.010952716405875 ], [ -159.548325204001429, 22.010622606092312 ] ] ] } },
{ "type": "Feature", "properties": { "ID": 31, "GRIDCODE": 2 }, "geometry": { "type": "Polygon", "coordinates": [ [ [ -159.566639180026129, 22.011373411281408 ], [ -159.566285179601067, 22.011467419559608 ], [ -159.566541008894404, 22.011704197139242 ], [ -159.566639180026129, 22.011373411281408 ], [ -159.567659430145056, 22.01122793327119 ], [ -159.568556867022096, 22.011799184177963 ], [ -159.569401936453147, 22.011765002989399 ], [ -159.569755648960239, 22.011776858907776 ], [ -159.569693164455089, 22.013400359232079 ], [ -159.570021759384616, 22.013660252342241 ], [ -159.571141379296989, 22.012030194053516 ], [ -159.571812152572221, 22.011496124294982 ], [ -159.572987860811594, 22.014437318199903 ], [ -159.572051279540062, 22.014853481723037 ], [ -159.571461730652402, 22.01667633369637 ], [ -159.572045063577463, 22.017176551827998 ], [ -159.572326957693008, 22.017749431641299 ], [ -159.570698775951371, 22.017694945205953 ], [ -159.569189893429382, 22.01806921467961 ], [ -159.568849972596354, 22.017729725537539 ], [ -159.568547201655235, 22.017470071601778 ], [ -159.568070846541218, 22.016994233725306 ], [ -159.566954401468621, 22.017550028750694 ], [ -159.566029020614167, 22.01709752347961 ], [ -159.565651668845334, 22.017480090113732 ], [ -159.565350548342252, 22.017742197566349 ], [ -159.565364827525769, 22.018050196576784 ], [ -159.564775021668169, 22.019098952292921 ], [ -159.564498690164498, 22.019923307216487 ], [ -159.563325988814285, 22.02018804687799 ], [ -159.562899518567434, 22.021038737524371 ], [ -159.563545574163044, 22.022167091444594 ], [ -159.560995594813988, 22.022081616497481 ], [ -159.561047543981857, 22.023199523790169 ], [ -159.560145874699856, 22.023169292488539 ], [ -159.559861402498143, 22.023736701588312 ], [ -159.558988690292352, 22.023454841337983 ], [ -159.557693481363998, 22.023507144072983 ], [ -159.557250990476462, 22.024827010962877 ], [ -159.556714553738658, 22.024809016875142 ], [ -159.554648130963926, 22.025151731489899 ], [ -159.554228215686237, 22.02432984815923 ], [ -159.554922556755457, 22.024021418316472 ], [ -159.555395169810737, 22.023542327188565 ], [ -159.556373318364138, 22.024020667534188 ], [ -159.55724493833506, 22.022626674317586 ], [ -159.558374717473015, 22.022664581064369 ], [ -159.559325274481182, 22.022350296930664 ], [ -159.560183359925844, 22.022379060705195 ], [ -159.560130949932415, 22.021250402065867 ], [ -159.561306496832884, 22.021289819646015 ], [ -159.561584128882146, 22.020736078787493 ], [ -159.561885262675304, 22.020473978070353 ], [ -159.561866183605787, 22.020062705855519 ], [ -159.561887038202855, 22.019520580463563 ], [ -159.561867958344152, 22.019109060069521 ], [ -159.562762252905799, 22.018841697465987 ], [ -159.562724566455813, 22.018031855905537 ], [ -159.563338769292358, 22.017497303046877 ], [ -159.563303556849462, 22.016739560888848 ], [ -159.565548208516589, 22.016068390919983 ], [ -159.567530094209133, 22.016134789459368 ], [ -159.568261029810941, 22.016105227102294 ], [ -159.569481026181506, 22.016499195905663 ], [ -159.570322312811356, 22.016080318127887 ], [ -159.571152871150019, 22.014898036168262 ], [ -159.568090179333552, 22.015506645497208 ], [ -159.567096025752932, 22.015227266525475 ], [ -159.567879624419078, 22.013117428456841 ], [ -159.567227528722213, 22.013143788101427 ], [ -159.566516264886303, 22.013119978720152 ], [ -159.565070807835752, 22.013839606321653 ], [ -159.564756207526756, 22.012041232176252 ], [ -159.564132566368613, 22.012066422705253 ], [ -159.563524108236948, 22.012683371829816 ], [ -159.562245045820589, 22.012270272031852 ], [ -159.561856915034468, 22.013428149686305 ], [ -159.561560826620536, 22.013418213335658 ], [ -159.560510486868679, 22.013460632627435 ], [ -159.559754359329958, 22.01496875387592 ], [ -159.559064208297769, 22.013617875441266 ], [ -159.560696635407368, 22.011733371980693 ], [ -159.560661982265742, 22.010987421124586 ], [ -159.561265078958144, 22.010719491381966 ], [ -159.561554220244062, 22.010426382682198 ], [ -159.562130416639036, 22.010445714374146 ], [ -159.56246103521849, 22.010432355737194 ], [ -159.562398300800851, 22.009081752178272 ], [ -159.56360600642202, 22.008809108688649 ], [ -159.563566454279226, 22.007958297781975 ], [ -159.565025265777933, 22.008007187981985 ], [ -159.56562882781347, 22.007128519777002 ], [ -159.567349429424354, 22.007186163301924 ], [ -159.567631890156463, 22.006592363360674 ], [ -159.567048616559646, 22.006092127626435 ], [ -159.566767522140395, 22.005709056006417 ], [ -159.568219419083675, 22.005274877128173 ], [ -159.568183022391054, 22.00449239229614 ], [ -159.568774390676396, 22.003375878302322 ], [ -159.570341727754084, 22.007400755594897 ], [ -159.569331234979472, 22.007849748423059 ], [ -159.569694525341504, 22.008804822972056 ], [ -159.568470599702948, 22.009348644046689 ], [ -159.56621103827365, 22.009272958198672 ], [ -159.565906050997626, 22.0101831034596 ], [ -159.563938371281523, 22.0101171807772 ], [ -159.566498831840875, 22.011233221629293 ], [ -159.566639180026129, 22.011373411281408 ] ] ] } },
{ "type": "Feature", "properties": { "ID": 32, "GRIDCODE": 2 }, "geometry": { "type": "Polygon", "coordinates": [ [ [ -159.563974037068931, 21.998915343119883 ], [ -159.563619332215211, 21.998823777173488 ], [ -159.563873254961749, 21.998585242453643 ], [ -159.563974037068931, 21.998915343119883 ] ] ] } },
{ "type": "Feature", "properties": { "ID": 33, "GRIDCODE": 2 }, "geometry": { "type": "Polygon", "coordinates": [ [ [ -159.566295789428438, 21.998094260583581 ], [ -159.566702695629544, 21.998430795873126 ], [ -159.566779565820781, 21.999562678660116 ], [ -159.56642257984592, 21.99986234982628 ], [ -159.566501860721218, 22.001029806520037 ], [ -159.566174268397219, 22.002032204055382 ], [ -159.565284398580303, 22.002564293402603 ], [ -159.565609758304419, 22.003680663166115 ], [ -159.565003963187166, 22.004189207458598 ], [ -159.564725483762743, 22.004482020720683 ], [ -159.563900892164128, 22.004067829617284 ], [ -159.563844178283063, 22.005013907544505 ], [ -159.563890666025713, 22.005698528462663 ], [ -159.56297701991312, 22.006093370596957 ], [ -159.562704901958767, 22.006651611290593 ], [ -159.562133243343879, 22.007131443128454 ], [ -159.561723579947483, 22.007971916959534 ], [ -159.560369805181153, 22.008270520831037 ], [ -159.560093498998469, 22.008561036139241 ], [ -159.558647529678012, 22.00820520053162 ], [ -159.558626147108413, 22.008561245020449 ], [ -159.558943747239084, 22.009101522623009 ], [ -159.558047920972939, 22.009362831065882 ], [ -159.558099726755671, 22.010125564437473 ], [ -159.557773590688072, 22.010468419634716 ], [ -159.556968535606813, 22.010064019985247 ], [ -159.556311239216996, 22.010755035892032 ], [ -159.555700435680649, 22.010723162819598 ], [ -159.555166238516051, 22.011284777371795 ], [ -159.554562532365082, 22.011545639982927 ], [ -159.554971345144651, 22.012241196061417 ], [ -159.554349576966473, 22.012894814403442 ], [ -159.553683620597354, 22.012934103064456 ], [ -159.554015400688456, 22.012359728635808 ], [ -159.552875084922675, 22.01203557955311 ], [ -159.552823754389294, 22.011278648942369 ], [ -159.553692096062122, 22.010110501969304 ], [ -159.553105755941857, 22.009634345130102 ], [ -159.552535942014543, 22.009667944828497 ], [ -159.552245234370815, 22.009652779109196 ], [ -159.551845186728002, 22.009676358877545 ], [ -159.551079774787041, 22.008563078310399 ], [ -159.550299557132035, 22.009383297976349 ], [ -159.549650641839378, 22.009421536813512 ], [ -159.54888457560304, 22.009036651435075 ], [ -159.548457645829615, 22.00939491240354 ], [ -159.548104028615455, 22.010476533500327 ], [ -159.547568890771885, 22.009101330705612 ], [ -159.547615707540473, 22.008321241607081 ], [ -159.547564555539481, 22.007566111009972 ], [ -159.549032347390153, 22.007479599814438 ], [ -159.549565954776938, 22.008032423183352 ], [ -159.549950626897328, 22.008052522452662 ], [ -159.550484833206468, 22.007490924500118 ], [ -159.550790806030392, 22.007234121143632 ], [ -159.551311200251433, 22.006166705855442 ], [ -159.551963521709922, 22.005619246612568 ], [ -159.552753956567159, 22.004788265378188 ], [ -159.552859377579125, 22.006082272452176 ], [ -159.552722271921908, 22.008366155972794 ], [ -159.553897070495452, 22.007765712260984 ], [ -159.554611970445706, 22.008238867597498 ], [ -159.554551530662707, 22.009246525649395 ], [ -159.554579082772449, 22.009652973747567 ], [ -159.554547030742697, 22.010187511236857 ], [ -159.554996658204004, 22.009830282703053 ], [ -159.555708725426513, 22.009081635237134 ], [ -159.556577013231987, 22.009126943518805 ], [ -159.557060873531157, 22.008289422643738 ], [ -159.556582344532927, 22.007475318507751 ], [ -159.556900187948514, 22.007208505235571 ], [ -159.556309015757932, 22.006202727596381 ], [ -159.557362381918409, 22.005422923757425 ], [ -159.55834207987499, 22.005838191301006 ], [ -159.558714413495068, 22.006948145674905 ], [ -159.55921008086932, 22.006918896611644 ], [ -159.559646134712068, 22.0069416431731 ], [ -159.560350440209703, 22.00690008232397 ], [ -159.561234121437025, 22.007343980537783 ], [ -159.560631633404114, 22.005796103652205 ], [ -159.56201260239618, 22.005868115449623 ], [ -159.561243456103199, 22.00455974727809 ], [ -159.561527492733433, 22.004469000332683 ], [ -159.562605543223725, 22.00501053606072 ], [ -159.562696785070187, 22.004199191965881 ], [ -159.561526570796616, 22.002649129327622 ], [ -159.562001389808131, 22.002519019470753 ], [ -159.563951011728506, 22.002620661341059 ], [ -159.56298036319069, 22.00181791136605 ], [ -159.562948191878291, 22.001343293570109 ], [ -159.565219602873782, 22.000842208913514 ], [ -159.564455972357109, 22.000210660430135 ], [ -159.564112826780871, 21.999329033096554 ], [ -159.563974037068931, 21.998915343119883 ], [ -159.56592213403755, 21.998501760694243 ], [ -159.566295789428438, 21.998094260583581 ] ] ] } },
{ "type": "Feature", "properties": { "ID": 34, "GRIDCODE": 2 }, "geometry": { "type": "Polygon", "coordinates": [ [ [ -159.566004093186137, 21.997824239933767 ], [ -159.566294713463606, 21.997823236786253 ], [ -159.566295789428438, 21.998094260583581 ], [ -159.566005168598878, 21.998095263744709 ], [ -159.566004093186137, 21.997824239933767 ] ] ] } },
{ "type": "Feature", "properties": { "ID": 35, "GRIDCODE": 2 }, "geometry": { "type": "Polygon", "coordinates": [ [ [ -159.566004093186137, 21.997824239933767 ], [ -159.56564938986682, 21.997732678335819 ], [ -159.565903307243843, 21.997494140554696 ], [ -159.566004093186137, 21.997824239933767 ] ] ] } }
]
}
