{
"type": "FeatureCollection",
"name": "meldege",
"crs": { "type": "name", "properties": { "name": "urn:ogc:def:crs:OGC:1.3:CRS84" } },
"features": [
{ "type": "Feature", "properties": { "ID": 1, "GRIDCODE": 2 }, "geometry": { "type": "Polygon", "coordinates": [ [ [ -159.612033782196733, 22.158646765931771 ], [ -159.611679449478203, 22.158740870011876 ], [ -159.611935624389673, 22.158977573035269 ], [ -159.612033782196733, 22.158646765931771 ], [ -159.612631602099327, 22.158811981920685 ], [ -159.611903251257473, 22.15960591019439 ], [ -159.611591792681196, 22.159857934807654 ], [ -159.6110927856204, 22.160401846848835 ], [ -159.611007425274124, 22.159864260911036 ], [ -159.611320182262688, 22.159337076441723 ], [ -159.611766837410329, 22.157003249058949 ], [ -159.612776441595287, 22.157418387716596 ], [ -159.612033782196733, 22.158646765931771 ] ] ] } },
{ "type": "Feature", "properties": { "ID": 2, "GRIDCODE": 2 }, "geometry": { "type": "Polygon", "coordinates": [ [ [ -159.611436664755757, 22.155125736537521 ], [ -159.611791790766091, 22.155217179447781 ], [ -159.611537677000513, 22.155455796709003 ], [ -159.611436664755757, 22.155125736537521 ] ] ] } },
{ "type": "Feature", "properties": { "ID": 3, "GRIDCODE": 2 }, "geometry": { "type": "Polygon", "coordinates": [ [ [ -159.611436664755757, 22.155125736537521 ], [ -159.611057848960769, 22.154976419147843 ], [ -159.611317443783861, 22.154510282747118 ], [ -159.611436664755757, 22.155125736537521 ] ] ] } },
{ "type": "Feature", "properties": { "ID": 4, "GRIDCODE": 2 }, "geometry": { "type": "Polygon", "coordinates": [ [ [ -159.610846596951944, 22.153230801813486 ], [ -159.61155738659528, 22.153737650490928 ], [ -159.611015939789638, 22.154137179186684 ], [ -159.610846596951944, 22.153230801813486 ] ] ] } },
{ "type": "Feature", "properties": { "ID": 5, "GRIDCODE": 2 }, "geometry": { "type": "Polygon", "coordinates": [ [ [ -159.610554491880691, 22.152960874639753 ], [ -159.610845427292588, 22.152959785329035 ], [ -159.610846596951944, 22.153230801813486 ], [ -159.610555660983067, 22.153231891138915 ], [ -159.610554491880691, 22.152960874639753 ] ] ] } },
{ "type": "Feature", "properties": { "ID": 6, "GRIDCODE": 2 }, "geometry": { "type": "Polygon", "coordinates": [ [ [ -159.649493667834122, 22.14278274174762 ], [ -159.649138551109644, 22.142691380617691 ], [ -159.649392577573536, 22.142452706443919 ], [ -159.649493667834122, 22.14278274174762 ] ] ] } },
{ "type": "Feature", "properties": { "ID": 7, "GRIDCODE": 2 }, "geometry": { "type": "Polygon", "coordinates": [ [ [ -159.685257376570149, 22.138842204298935 ], [ -159.685676469536617, 22.13914076588479 ], [ -159.684992590609056, 22.139478068871167 ], [ -159.685257376570149, 22.138842204298935 ] ] ] } },
{ "type": "Feature", "properties": { "ID": 8, "GRIDCODE": 2 }, "geometry": { "type": "Polygon", "coordinates": [ [ [ -159.583412556458853, 22.132462530490013 ], [ -159.584738201449454, 22.132578311207546 ], [ -159.58535475736997, 22.133290008210682 ], [ -159.586168498558095, 22.132840407125538 ], [ -159.588587008668583, 22.13319472395461 ], [ -159.588480834795718, 22.134015890486985 ], [ -159.586716349861661, 22.133817859444314 ], [ -159.586198729361485, 22.134036161688098 ], [ -159.587037147394909, 22.134656744522726 ], [ -159.587449329672324, 22.135558307962 ], [ -159.585953720145824, 22.135962517594209 ], [ -159.586660495917414, 22.136485646649007 ], [ -159.58832991841129, 22.136923852828684 ], [ -159.587631531496186, 22.137449034593228 ], [ -159.587715890888632, 22.138061491748118 ], [ -159.58473672854555, 22.136419931693105 ], [ -159.58446184153695, 22.136102592447479 ], [ -159.584107995018201, 22.135840719070256 ], [ -159.585134394973096, 22.135563348559447 ], [ -159.585586054111644, 22.134368247681987 ], [ -159.584387515514578, 22.134802409363623 ], [ -159.583629949163054, 22.133927886720095 ], [ -159.582982555956505, 22.134005259227937 ], [ -159.58178856770536, 22.133871220978129 ], [ -159.581870849167956, 22.134468677550359 ], [ -159.581664297634632, 22.134757474451586 ], [ -159.580902609672705, 22.133878272162693 ], [ -159.580968074965114, 22.133372096734835 ], [ -159.581525702753794, 22.133434698837036 ], [ -159.582574874162361, 22.133309308328709 ], [ -159.582961703967896, 22.132855688148751 ], [ -159.583283850011043, 22.132613488689724 ], [ -159.583412556458853, 22.132462530490013 ] ] ] } },
{ "type": "Feature", "properties": { "ID": 9, "GRIDCODE": 2 }, "geometry": { "type": "Polygon", "coordinates": [ [ [ -159.406517690521952, 22.123241938522803 ], [ -159.407186981585482, 22.123350127855659 ], [ -159.406676760558298, 22.123585670591805 ], [ -159.406517690521952, 22.123241938522803 ] ] ] } },
{ "type": "Feature", "properties": { "ID": 10, "GRIDCODE": 2 }, "geometry": { "type": "Polygon", "coordinates": [ [ [ -159.568524715998848, 22.119505948750668 ], [ -159.568426480728988, 22.119836732885453 ], [ -159.568170449252193, 22.11959995729449 ], [ -159.568524715998848, 22.119505948750668 ] ] ] } },
{ "type": "Feature", "properties": { "ID": 11, "GRIDCODE": 2 }, "geometry": { "type": "Polygon", "coordinates": [ [ [ -159.568524715998848, 22.119505948750668 ], [ -159.568685070550629, 22.119153145940007 ], [ -159.569185268416902, 22.119395091163121 ], [ -159.568524715998848, 22.119505948750668 ] ] ] } },
{ "type": "Feature", "properties": { "ID": 12, "GRIDCODE": 2 }, "geometry": { "type": "Polygon", "coordinates": [ [ [ -159.405633407128562, 22.119178715837851 ], [ -159.403768986418584, 22.119056465368029 ], [ -159.405371136794969, 22.118826793854367 ], [ -159.405633407128562, 22.119178715837851 ] ] ] } },
{ "type": "Feature", "properties": { "ID": 13, "GRIDCODE": 2 }, "geometry": { "type": "Polygon", "coordinates": [ [ [ -159.57375596687757, 22.118403559647756 ], [ -159.573854188722947, 22.118072772535292 ], [ -159.57411022665292, 22.118309539115341 ], [ -159.57375596687757, 22.118403559647756 ] ] ] } },
{ "type": "Feature", "properties": { "ID": 14, "GRIDCODE": 2 }, "geometry": { "type": "Polygon", "coordinates": [ [ [ -159.569391880581975, 22.11814781025949 ], [ -159.569101014476018, 22.118148824120571 ], [ -159.569103190163389, 22.118690863477678 ], [ -159.568230588409023, 22.118693902035108 ], [ -159.568228416057167, 22.118151862595866 ], [ -159.569222241524699, 22.117920734626917 ], [ -159.569391880581975, 22.11814781025949 ] ] ] } },
{ "type": "Feature", "properties": { "ID": 15, "GRIDCODE": 2 }, "geometry": { "type": "Polygon", "coordinates": [ [ [ -159.568228416057167, 22.118151862595866 ], [ -159.567255005861341, 22.1180374430078 ], [ -159.568029960289152, 22.117803898035774 ], [ -159.568228416057167, 22.118151862595866 ] ] ] } },
{ "type": "Feature", "properties": { "ID": 16, "GRIDCODE": 2 }, "geometry": { "type": "Polygon", "coordinates": [ [ [ -159.410258399804178, 22.109139117507656 ], [ -159.41128492757835, 22.109264424590531 ], [ -159.412325894029522, 22.109788133834922 ], [ -159.41341481733923, 22.110098452212046 ], [ -159.413896825183258, 22.110070458050121 ], [ -159.41528323371486, 22.110143935419103 ], [ -159.414475916906923, 22.111966642426211 ], [ -159.414164456463084, 22.11322949844655 ], [ -159.414225567828055, 22.114143128889843 ], [ -159.414192497185553, 22.114685269029962 ], [ -159.414212176158486, 22.114979910928877 ], [ -159.415074480335335, 22.114929823773661 ], [ -159.415358861176514, 22.115503017353824 ], [ -159.415702261830404, 22.11578735672699 ], [ -159.416801145823996, 22.115723523550209 ], [ -159.41884362099853, 22.113581670072591 ], [ -159.41921098068488, 22.113274133799802 ], [ -159.421920730744887, 22.112679295408515 ], [ -159.422334483288807, 22.113741561013587 ], [ -159.4214630015978, 22.114116988290778 ], [ -159.42109148564964, 22.114506598029788 ], [ -159.420550667402011, 22.115612582532449 ], [ -159.420614495846621, 22.11656605300886 ], [ -159.420543254116069, 22.117734200586948 ], [ -159.418599156988165, 22.118571649795602 ], [ -159.418001892564916, 22.120391526214224 ], [ -159.417410027964507, 22.120360179009978 ], [ -159.416998696559915, 22.120791501514308 ], [ -159.416484033147071, 22.121222375256945 ], [ -159.416959682556637, 22.123269411425287 ], [ -159.416249837548435, 22.123863649177913 ], [ -159.412736775343319, 22.124382861867552 ], [ -159.410370305053675, 22.125306937033265 ], [ -159.409590729965373, 22.12690076145164 ], [ -159.409232186847191, 22.12715743647685 ], [ -159.409397989026047, 22.124443549343532 ], [ -159.4076620155314, 22.123276322131069 ], [ -159.406743670779775, 22.121758347437424 ], [ -159.407830727801695, 22.122305235423603 ], [ -159.408102607021732, 22.12088413195459 ], [ -159.407311027932764, 22.120228703034616 ], [ -159.405771087784188, 22.119321513868037 ], [ -159.405633407128562, 22.119178715837851 ], [ -159.407231772124646, 22.119313055881673 ], [ -159.407527247436008, 22.119306694435426 ], [ -159.408087905345667, 22.119847458125822 ], [ -159.409492084000249, 22.119427078632743 ], [ -159.408687077510763, 22.11798064802877 ], [ -159.409553281401344, 22.117675465526013 ], [ -159.410134773475846, 22.117685056483843 ], [ -159.409606274906082, 22.117165078788691 ], [ -159.40896342461221, 22.116858532544345 ], [ -159.408387325320035, 22.116870933347414 ], [ -159.408101197599535, 22.116594979447495 ], [ -159.406938420366743, 22.116619997780241 ], [ -159.406931117292288, 22.116327003077011 ], [ -159.408657036014517, 22.116008581231448 ], [ -159.407514987874094, 22.114991637967393 ], [ -159.408191734832826, 22.11496496927284 ], [ -159.408963255273989, 22.114977712280659 ], [ -159.408973669365054, 22.114427391650743 ], [ -159.408357975360104, 22.114150956089958 ], [ -159.407658978832501, 22.113476661518437 ], [ -159.40720974383035, 22.113076657152341 ], [ -159.407514661709229, 22.112802262960699 ], [ -159.407499246751343, 22.112182504343039 ], [ -159.408954058299457, 22.111714444718071 ], [ -159.409392876242094, 22.111580544292245 ], [ -159.409493387212024, 22.111910740489261 ], [ -159.409747771417273, 22.111672431715839 ], [ -159.409392876242094, 22.111580544292245 ], [ -159.409550981120645, 22.111395594276097 ], [ -159.410320638382643, 22.111482842118427 ], [ -159.41073947488826, 22.111168561897017 ], [ -159.409787517126404, 22.11063301503383 ], [ -159.410369960429648, 22.110195953894141 ], [ -159.409031887235471, 22.109202944483638 ], [ -159.410100298323556, 22.109324068206856 ], [ -159.410258399804178, 22.109139117507656 ] ] ] } },
{ "type": "Feature", "properties": { "ID": 17, "GRIDCODE": 2 }, "geometry": { "type": "Polygon", "coordinates": [ [ [ -159.410258399804178, 22.109139117507656 ], [ -159.409903510685183, 22.109047231073173 ], [ -159.410157889139242, 22.108808921666874 ], [ -159.410258399804178, 22.109139117507656 ] ] ] } },
{ "type": "Feature", "properties": { "ID": 18, "GRIDCODE": 2 }, "geometry": { "type": "Polygon", "coordinates": [ [ [ -159.560625177279888, 22.107879231126486 ], [ -159.561923869816098, 22.108709974682547 ], [ -159.561111516423097, 22.109101015782372 ], [ -159.560181325605129, 22.109358847316479 ], [ -159.559700255329176, 22.109902544381132 ], [ -159.559097700772867, 22.108414694711612 ], [ -159.560493759854097, 22.108027732932875 ], [ -159.560625177279888, 22.107879231126486 ] ] ] } },
{ "type": "Feature", "properties": { "ID": 19, "GRIDCODE": 2 }, "geometry": { "type": "Polygon", "coordinates": [ [ [ -159.57077968133899, 22.101610520447199 ], [ -159.570424714703648, 22.101518975927657 ], [ -159.570678804932612, 22.101280429972412 ], [ -159.57077968133899, 22.101610520447199 ] ] ] } },
{ "type": "Feature", "properties": { "ID": 20, "GRIDCODE": 2 }, "geometry": { "type": "Polygon", "coordinates": [ [ [ -159.571331888099365, 22.094290940890932 ], [ -159.570057214757128, 22.094170284279649 ], [ -159.570293784809564, 22.093832994631704 ], [ -159.571220310863623, 22.094123628029326 ], [ -159.571331888099365, 22.094290940890932 ] ] ] } },
{ "type": "Feature", "properties": { "ID": 21, "GRIDCODE": 2 }, "geometry": { "type": "Polygon", "coordinates": [ [ [ -159.561990331802718, 22.085379513506549 ], [ -159.561859380604375, 22.084958439261634 ], [ -159.561013718668221, 22.08462975778853 ], [ -159.560914453145699, 22.083907558365013 ], [ -159.561274570450962, 22.084147373287802 ], [ -159.561537249671858, 22.084450861534126 ], [ -159.562041866876882, 22.084390618540926 ], [ -159.562678371560821, 22.084862094184199 ], [ -159.561990331802718, 22.085379513506549 ] ] ] } },
{ "type": "Feature", "properties": { "ID": 22, "GRIDCODE": 2 }, "geometry": { "type": "Polygon", "coordinates": [ [ [ -159.571283909734774, 22.082366035738051 ], [ -159.571574702400454, 22.082365019548959 ], [ -159.571575793009885, 22.082636040301008 ], [ -159.571284999789412, 22.082637056503856 ], [ -159.571283909734774, 22.082366035738051 ] ] ] } },
{ "type": "Feature", "properties": { "ID": 23, "GRIDCODE": 2 }, "geometry": { "type": "Polygon", "coordinates": [ [ [ -159.571283909734774, 22.082366035738051 ], [ -159.570928991221422, 22.082274491080391 ], [ -159.571183046935857, 22.082035944535082 ], [ -159.571283909734774, 22.082366035738051 ] ] ] } },
{ "type": "Feature", "properties": { "ID": 24, "GRIDCODE": 2 }, "geometry": { "type": "Polygon", "coordinates": [ [ [ -159.571225071830213, 22.067730900979537 ], [ -159.571126875760115, 22.068061687924594 ], [ -159.570870935399142, 22.067824921452328 ], [ -159.571225071830213, 22.067730900979537 ] ] ] } },
{ "type": "Feature", "properties": { "ID": 25, "GRIDCODE": 2 }, "geometry": { "type": "Polygon", "coordinates": [ [ [ -159.561917441809726, 22.066950057333464 ], [ -159.561819224437812, 22.067280839170181 ], [ -159.561563300664261, 22.067044057756441 ], [ -159.561917441809726, 22.066950057333464 ] ] ] } },
{ "type": "Feature", "properties": { "ID": 26, "GRIDCODE": 2 }, "geometry": { "type": "Polygon", "coordinates": [ [ [ -159.54793579688166, 22.06049285628994 ], [ -159.548290647048645, 22.060584452522964 ], [ -159.54803658953594, 22.060822964136893 ], [ -159.54793579688166, 22.06049285628994 ] ] ] } },
{ "type": "Feature", "properties": { "ID": 27, "GRIDCODE": 2 }, "geometry": { "type": "Polygon", "coordinates": [ [ [ -159.547644003996055, 22.060222806932206 ], [ -159.547934752536491, 22.060221833706805 ], [ -159.54793579688166, 22.06049285628994 ], [ -159.547645047787142, 22.060493829528518 ], [ -159.547644003996055, 22.060222806932206 ] ] ] } },
{ "type": "Feature", "properties": { "ID": 28, "GRIDCODE": 2 }, "geometry": { "type": "Polygon", "coordinates": [ [ [ -159.558033332791041, 22.040402806503334 ], [ -159.558388138519859, 22.040494381976238 ], [ -159.558134133382481, 22.0407329087482 ], [ -159.558033332791041, 22.040402806503334 ] ] ] } },
{ "type": "Feature", "properties": { "ID": 29, "GRIDCODE": 2 }, "geometry": { "type": "Polygon", "coordinates": [ [ [ -159.590035779441308, 22.046253186492525 ], [ -159.590136658257222, 22.046583267108531 ], [ -159.590390618719027, 22.046344691795092 ], [ -159.590035779441308, 22.046253186492525 ], [ -159.590319530417077, 22.045975712800097 ], [ -159.591046236023061, 22.045319745982017 ], [ -159.590466320755212, 22.0442162330237 ], [ -159.589883233355039, 22.043697970880565 ], [ -159.589862050996146, 22.042885500887511 ], [ -159.590266249086312, 22.042490227416401 ], [ -159.596330109680622, 22.04988038458513 ], [ -159.600405398340712, 22.058549819055173 ], [ -159.605605305567764, 22.069590833333613 ], [ -159.606585943110304, 22.07344971793373 ], [ -159.605689586829016, 22.074258798903287 ], [ -159.605134623242691, 22.075335882550856 ], [ -159.604691672957273, 22.076145165864691 ], [ -159.605353258322623, 22.075748076828496 ], [ -159.605986234552915, 22.074519658769159 ], [ -159.606976101223893, 22.074811163311601 ], [ -159.608424168021571, 22.081986265711482 ], [ -159.60794655814081, 22.082858826805225 ], [ -159.608915798629084, 22.083292639003165 ], [ -159.609172621023191, 22.093097410316702 ], [ -159.608113182193506, 22.09375036115544 ], [ -159.608701611382997, 22.094804422322451 ], [ -159.608127098691597, 22.095109476589812 ], [ -159.606370411607827, 22.095647941957136 ], [ -159.607506895010516, 22.097032200935178 ], [ -159.606974261685963, 22.097552967674915 ], [ -159.605224640359296, 22.097825053466181 ], [ -159.604359171893606, 22.098104704913755 ], [ -159.602609538051382, 22.098376762955169 ], [ -159.601482762719883, 22.098922959873654 ], [ -159.600865765141037, 22.098659632337686 ], [ -159.60038815293106, 22.097306272438608 ], [ -159.598553973530159, 22.098087526889671 ], [ -159.598254166076089, 22.098669213602701 ], [ -159.59652093791064, 22.09920035892884 ], [ -159.596217102341001, 22.09975532495422 ], [ -159.59567478997613, 22.100807550399789 ], [ -159.595083404990874, 22.101385596151633 ], [ -159.594588321973021, 22.100969598554201 ], [ -159.593898576429382, 22.10030581389297 ], [ -159.593309987257442, 22.100042354472947 ], [ -159.592204107563617, 22.09951651066466 ], [ -159.591271911241137, 22.099502153156958 ], [ -159.590991389407634, 22.100869450252599 ], [ -159.590117127384786, 22.100855968554747 ], [ -159.589554549636915, 22.101947352814346 ], [ -159.589103781671724, 22.101957555533833 ], [ -159.588379768978484, 22.101946392946168 ], [ -159.588372400281372, 22.102361192379156 ], [ -159.588388433578388, 22.102974295135859 ], [ -159.586925201891859, 22.103312265873988 ], [ -159.586586602163521, 22.104297587336383 ], [ -159.585767457084501, 22.104671537257119 ], [ -159.585170422061481, 22.104960869721339 ], [ -159.584314526491795, 22.104947655573881 ], [ -159.583888567687268, 22.105363951341168 ], [ -159.582878195037438, 22.106275489055999 ], [ -159.58286786616992, 22.106855114643999 ], [ -159.583318074346892, 22.108466199247321 ], [ -159.581806590532409, 22.108500330796765 ], [ -159.580546816860959, 22.108218901263267 ], [ -159.579238147069987, 22.107543274957525 ], [ -159.579137246553273, 22.107213190456868 ], [ -159.578883160526431, 22.107451757587935 ], [ -159.579238147069987, 22.107543274957525 ], [ -159.579424068455353, 22.108070419969327 ], [ -159.58062659010568, 22.108798984002082 ], [ -159.584199816650056, 22.109284546437117 ], [ -159.584636578400932, 22.108437310025547 ], [ -159.584615993747633, 22.107646604133723 ], [ -159.585231683281165, 22.107091121229605 ], [ -159.586652989838854, 22.107113045004763 ], [ -159.586976540938451, 22.107105729261576 ], [ -159.588102234106316, 22.106560205281301 ], [ -159.588683891727015, 22.106569177048932 ], [ -159.58924965287639, 22.106016183339062 ], [ -159.591184759588998, 22.105715457541937 ], [ -159.591873912710412, 22.104378507735824 ], [ -159.592031216751678, 22.104112340450037 ], [ -159.592457872142347, 22.104923863315719 ], [ -159.592773744824285, 22.105204459892189 ], [ -159.593627730401238, 22.105185115172937 ], [ -159.59478727269763, 22.10545754538105 ], [ -159.595105707211502, 22.105450331490623 ], [ -159.596240152532459, 22.10654198237507 ], [ -159.597574675744056, 22.106511731340401 ], [ -159.597987190972759, 22.105711362902415 ], [ -159.598864409583967, 22.105442552792589 ], [ -159.599148258197374, 22.105165063531501 ], [ -159.599472198489792, 22.104898278197659 ], [ -159.600626030087824, 22.105446830284293 ], [ -159.602351465491068, 22.105407659052116 ], [ -159.60351768193155, 22.105425538095457 ], [ -159.605010599928789, 22.104361160715651 ], [ -159.606087072983144, 22.105396921048694 ], [ -159.607329418184548, 22.105947925484983 ], [ -159.608500653664322, 22.105380133821992 ], [ -159.610204210755001, 22.105406177616366 ], [ -159.610631227734757, 22.104577578345495 ], [ -159.611288005893016, 22.104587611595765 ], [ -159.613884052407144, 22.106407948964023 ], [ -159.614439416243158, 22.105330167153529 ], [ -159.617887202032506, 22.10661821663393 ], [ -159.627912771022011, 22.110121197903521 ], [ -159.628548108347502, 22.110767318988326 ], [ -159.627728530787323, 22.111507186460972 ], [ -159.628562244389911, 22.112643159307218 ], [ -159.628850520693049, 22.113374423172804 ], [ -159.625851835387522, 22.11290967601391 ], [ -159.623679074022931, 22.112959308224529 ], [ -159.622680428118684, 22.112645068041786 ], [ -159.621587762508113, 22.114030383796656 ], [ -159.621187212703376, 22.11439192459282 ], [ -159.620421970924156, 22.114028282170981 ], [ -159.619519917458575, 22.114319807414134 ], [ -159.618674619181206, 22.114306932758922 ], [ -159.618391677025386, 22.114803730745056 ], [ -159.620138204784752, 22.1151145552641 ], [ -159.620715306360012, 22.115388810520884 ], [ -159.622310647434375, 22.115744766347866 ], [ -159.623442814463715, 22.11683378187233 ], [ -159.62398399108622, 22.115783441844432 ], [ -159.626458044649212, 22.117168497546562 ], [ -159.625962682528069, 22.118073573022212 ], [ -159.625680685780168, 22.118764282845564 ], [ -159.626958820607115, 22.119336012627379 ], [ -159.627426732973674, 22.120268010113556 ], [ -159.62684767838428, 22.121326065846304 ], [ -159.627445411025406, 22.121856764349349 ], [ -159.628161092190879, 22.122545113580173 ], [ -159.629318010506267, 22.12357221488924 ], [ -159.628894955491887, 22.125137063229175 ], [ -159.628319399986168, 22.125656583167238 ], [ -159.62884972151042, 22.125922096979206 ], [ -159.630986495912566, 22.124301365210496 ], [ -159.632105945066087, 22.124833196570997 ], [ -159.632388798320363, 22.124132084959157 ], [ -159.630931354498358, 22.123480244151501 ], [ -159.630936232846778, 22.123204142406941 ], [ -159.630635800071786, 22.122397359353393 ], [ -159.63034344773601, 22.120755877215267 ], [ -159.631215131849899, 22.120769084946208 ], [ -159.631791802060434, 22.12071362323395 ], [ -159.630996867907925, 22.117872570307529 ], [ -159.633318539813047, 22.117440915059987 ], [ -159.634185500234452, 22.116593099095393 ], [ -159.635257001315409, 22.115056343445641 ], [ -159.635564713100962, 22.115061002125859 ], [ -159.636127067897178, 22.114511022189514 ], [ -159.636990334717154, 22.113971041108254 ], [ -159.644344818420649, 22.117221869999646 ], [ -159.652567712269246, 22.119055115920858 ], [ -159.675131813380489, 22.119503824615609 ], [ -159.680162139050623, 22.120211877095901 ], [ -159.683422718191963, 22.121510193660558 ], [ -159.685907684385143, 22.123546220579346 ], [ -159.684161944785814, 22.123520354006644 ], [ -159.684186946613181, 22.124455524469756 ], [ -159.685339522086963, 22.125152702996633 ], [ -159.685625910174139, 22.125427945150967 ], [ -159.685935911070686, 22.125702963502587 ], [ -159.686891393002014, 22.125680775328249 ], [ -159.687832173323415, 22.12700459806468 ], [ -159.685920089753523, 22.127591609767808 ], [ -159.68765104256974, 22.128365053336935 ], [ -159.687968693049129, 22.12867031480905 ], [ -159.688266687340132, 22.128934651705993 ], [ -159.688554966016483, 22.129596210921427 ], [ -159.687290824155809, 22.130293856580618 ], [ -159.686773865016818, 22.128832169088483 ], [ -159.685337592421234, 22.12841036301382 ], [ -159.685362868024043, 22.12935610981166 ], [ -159.685355921656054, 22.129762667118751 ], [ -159.685377639865919, 22.130574805075582 ], [ -159.684471557216085, 22.130847739936208 ], [ -159.683687178438561, 22.130093914640209 ], [ -159.683247402972313, 22.131376098162288 ], [ -159.684207429530545, 22.131661903519806 ], [ -159.685369257338664, 22.132475618591165 ], [ -159.685947999297042, 22.132462178990217 ], [ -159.686941909396182, 22.133083803245253 ], [ -159.686524286976976, 22.133847585074207 ], [ -159.683356428218673, 22.133800650803412 ], [ -159.683056971848316, 22.134382334920623 ], [ -159.680725279216404, 22.134657669627749 ], [ -159.680149806357207, 22.134762379056458 ], [ -159.681319329169753, 22.135469793768522 ], [ -159.680384490402901, 22.136920593646963 ], [ -159.678395890111176, 22.137381022237182 ], [ -159.680482937252009, 22.137639886400972 ], [ -159.681609696655443, 22.137093146876314 ], [ -159.682439495381573, 22.136824086070291 ], [ -159.684233277762502, 22.1382193824365 ], [ -159.682773345978376, 22.139537978646885 ], [ -159.682798477503042, 22.140478622395413 ], [ -159.68278227670794, 22.141427254915076 ], [ -159.682807926733176, 22.14238689435825 ], [ -159.681861994320769, 22.141937906451133 ], [ -159.680786658617109, 22.140904539735665 ], [ -159.680264653908125, 22.140627427326557 ], [ -159.679892269818424, 22.141713053739021 ], [ -159.679213207028681, 22.142023474034524 ], [ -159.68052827678622, 22.142818900351109 ], [ -159.681350242421502, 22.143630560077249 ], [ -159.680771716552556, 22.144688398695074 ], [ -159.681703272829253, 22.14582153245507 ], [ -159.67807056625233, 22.145767609704155 ], [ -159.676990400175441, 22.144422742487073 ], [ -159.675832561186468, 22.144455936441776 ], [ -159.676422833274273, 22.144979589671191 ], [ -159.676411284522146, 22.145654578762517 ], [ -159.676422621510483, 22.146080032931454 ], [ -159.677006482925037, 22.146597962111116 ], [ -159.677253064266807, 22.146867957194779 ], [ -159.675517484464535, 22.1463225704181 ], [ -159.674384064819321, 22.146348813325137 ], [ -159.673693781879138, 22.146338539453218 ], [ -159.672722143721984, 22.1449712112261 ], [ -159.671032095367622, 22.145010303221667 ], [ -159.670301899554858, 22.144999426360084 ], [ -159.670018708916075, 22.145417340649093 ], [ -159.672000224972578, 22.145858727493401 ], [ -159.672348559562209, 22.147164688094822 ], [ -159.672833462176868, 22.148032102434378 ], [ -159.671769119357322, 22.148518562599133 ], [ -159.672107641516305, 22.148818888233652 ], [ -159.673284263962643, 22.149344676230758 ], [ -159.674900146864161, 22.149307281021642 ], [ -159.674047127064142, 22.150490832078916 ], [ -159.673200815626728, 22.151221026958734 ], [ -159.671497989407499, 22.150685909369539 ], [ -159.670293974124831, 22.150713755061098 ], [ -159.669192725438904, 22.1517909376992 ], [ -159.66858843804178, 22.151781927566041 ], [ -159.668293290105623, 22.152070647853982 ], [ -159.667425961521303, 22.152057707093505 ], [ -159.667143365330446, 22.152606433878741 ], [ -159.666712768649006, 22.152995203490189 ], [ -159.663941082117049, 22.153427131304444 ], [ -159.663132254772279, 22.15381944898056 ], [ -159.660988007626145, 22.153145469339432 ], [ -159.656269077555237, 22.152650549368502 ], [ -159.655476889009009, 22.153786733628355 ], [ -159.655534449348096, 22.155954514675795 ], [ -159.65669590610571, 22.156985029210059 ], [ -159.656684192857654, 22.157660018555951 ], [ -159.656695029367143, 22.158066503389282 ], [ -159.656685682690693, 22.158608578957026 ], [ -159.656702731204433, 22.159251526900157 ], [ -159.65797004467251, 22.160018228272587 ], [ -159.658446336734443, 22.160540040029495 ], [ -159.656118899742779, 22.160505180914598 ], [ -159.655252804808129, 22.16078520741792 ], [ -159.654329183908203, 22.161068487361273 ], [ -159.653021818001065, 22.161702469638353 ], [ -159.652443378882708, 22.161146437046561 ], [ -159.653533084689769, 22.160648568486383 ], [ -159.653492914820191, 22.159133634796195 ], [ -159.651102639536674, 22.15806520679725 ], [ -159.64970664370648, 22.158097315665724 ], [ -159.649149351332056, 22.157561623609233 ], [ -159.648538857178011, 22.157288740698259 ], [ -159.648548300439757, 22.156745415597225 ], [ -159.647369031522828, 22.155938349634663 ], [ -159.647081413293762, 22.155392026528038 ], [ -159.646634448710927, 22.154995400351019 ], [ -159.645929284698241, 22.154317527781327 ], [ -159.645032868369128, 22.154050469445288 ], [ -159.644746497686015, 22.15377515648483 ], [ -159.64444852877719, 22.153510740187549 ], [ -159.643914460277216, 22.152997268748241 ], [ -159.643527344346836, 22.154886943451899 ], [ -159.640674940021086, 22.155417318911837 ], [ -159.639488032177553, 22.15570564299658 ], [ -159.638938826725706, 22.156242614527855 ], [ -159.638519883311432, 22.156620745120399 ], [ -159.637465355184759, 22.155960918333339 ], [ -159.637481671950383, 22.155026014905435 ], [ -159.637470379435086, 22.154600555941304 ], [ -159.636886660405168, 22.154082482889315 ], [ -159.636600305110704, 22.153807155250156 ], [ -159.635429545298535, 22.153546126388278 ], [ -159.635139040464452, 22.152994209451137 ], [ -159.63410580079605, 22.153017872959033 ], [ -159.634559024801348, 22.15218976730479 ], [ -159.633091797711643, 22.151752538488171 ], [ -159.633105421663004, 22.150971326087191 ], [ -159.632198965063253, 22.150577459135135 ], [ -159.631642183367262, 22.151121763941262 ], [ -159.631057502734166, 22.151112910900981 ], [ -159.630330238033139, 22.151129551784638 ], [ -159.629861058558618, 22.151122439868388 ], [ -159.628719270121707, 22.150580056727058 ], [ -159.628145840678428, 22.150593166926257 ], [ -159.627854886579769, 22.150588762125302 ], [ -159.627418528940808, 22.150598736790251 ], [ -159.626982097722191, 22.150592119176839 ], [ -159.626521876635621, 22.150602638064498 ], [ -159.624183069933281, 22.152092572837049 ], [ -159.623729299025484, 22.15385809993321 ], [ -159.623228007664778, 22.156303409177482 ], [ -159.622408666948729, 22.15667754522547 ], [ -159.622070198017354, 22.157662931192974 ], [ -159.62177381395415, 22.158204307316556 ], [ -159.622557240273494, 22.158899736479146 ], [ -159.621484842538933, 22.159560535082193 ], [ -159.621506167904982, 22.160372571671179 ], [ -159.621496686437268, 22.160914648262406 ], [ -159.621510930065483, 22.161456634389832 ], [ -159.621489579106679, 22.162676306581364 ], [ -159.622390940666264, 22.163079398601784 ], [ -159.622379075428739, 22.163756994151264 ], [ -159.622390324062849, 22.164182454729776 ], [ -159.622974176620176, 22.164700686282135 ], [ -159.622965040232287, 22.165223026945938 ], [ -159.623273425530328, 22.166597071277966 ], [ -159.623263782157977, 22.167149180627735 ], [ -159.624450707185105, 22.168202656565224 ], [ -159.62443641961633, 22.169021171740656 ], [ -159.624929234158827, 22.170344433429197 ], [ -159.625619036663949, 22.170652887781767 ], [ -159.626283167151541, 22.171291445297719 ], [ -159.627368680373849, 22.172819741857484 ], [ -159.628477147820746, 22.174168700005499 ], [ -159.630300590514025, 22.175786935542035 ], [ -159.629953809870045, 22.176099806407379 ], [ -159.627674282074707, 22.176065274878539 ], [ -159.6270540712149, 22.176365888887851 ], [ -159.626426434815102, 22.176979366096067 ], [ -159.62511887721729, 22.179881317352432 ], [ -159.624426012737615, 22.179870806677858 ], [ -159.62274274901219, 22.178252458271405 ], [ -159.622435176693017, 22.177988031150196 ], [ -159.621874791491308, 22.179619038353326 ], [ -159.620417233209935, 22.178803367880029 ], [ -159.619915009163179, 22.17853967692362 ], [ -159.618967063550002, 22.179898378830011 ], [ -159.618671410201756, 22.1801651038794 ], [ -159.618387454166282, 22.180442618846598 ], [ -159.617800806486343, 22.180710446420751 ], [ -159.61703793622334, 22.182533502131186 ], [ -159.616066585623571, 22.182072111135462 ], [ -159.615477613354443, 22.18180873464005 ], [ -159.615041231712013, 22.180170409940391 ], [ -159.614309480638354, 22.180187081853383 ], [ -159.613997719172175, 22.180182330803813 ], [ -159.614016742363589, 22.179099118356003 ], [ -159.613865331356578, 22.178424359753304 ], [ -159.614219711455434, 22.178330245921469 ], [ -159.613963496941267, 22.178093556202644 ], [ -159.613865331356578, 22.178424359753304 ], [ -159.613423448573712, 22.178556496730963 ], [ -159.613473395886416, 22.179621423260585 ], [ -159.612859903421082, 22.180155126962198 ], [ -159.613433328395672, 22.180734820848905 ], [ -159.614309579747726, 22.181484859361841 ], [ -159.613637614362887, 22.182198942461337 ], [ -159.613127943190648, 22.182642343555855 ], [ -159.613165602451886, 22.183445931689889 ], [ -159.611905136107481, 22.18373056488451 ], [ -159.611122922573259, 22.184798470226252 ], [ -159.610845392418781, 22.185351880952791 ], [ -159.610272352179891, 22.185850363309822 ], [ -159.60997706582026, 22.18643921360464 ], [ -159.609385098207866, 22.18670211847726 ], [ -159.608557182479728, 22.187114079551378 ], [ -159.608224792251093, 22.186149779552082 ], [ -159.60765369263919, 22.187531975677505 ], [ -159.607352298514854, 22.187794153081281 ], [ -159.60738749580301, 22.188544520512476 ], [ -159.606801111821824, 22.189713646846105 ], [ -159.606199159542314, 22.190237262966058 ], [ -159.605916104941542, 22.190801632546847 ], [ -159.605328798442372, 22.190782142367304 ], [ -159.605049719880583, 22.191064926399328 ], [ -159.604748738164432, 22.191326733654869 ], [ -159.604384847647623, 22.192412163579831 ], [ -159.603596862478526, 22.191588362597063 ], [ -159.603873377033608, 22.190787941560984 ], [ -159.604178206812151, 22.190246251912463 ], [ -159.603171398956334, 22.189953497216141 ], [ -159.603700325953071, 22.187551537362868 ], [ -159.603278597793008, 22.187537538013601 ], [ -159.602263477036473, 22.187873117446276 ], [ -159.601531464538141, 22.187554697048842 ], [ -159.600980797917856, 22.185956893617977 ], [ -159.599869473152125, 22.184465490188852 ], [ -159.600899174170991, 22.183569838387037 ], [ -159.601242936375399, 22.182644721072101 ], [ -159.600134465489703, 22.182689731979373 ], [ -159.599179275022379, 22.181871940371444 ], [ -159.598897021739475, 22.181320607009848 ], [ -159.59800490573096, 22.180932472123068 ], [ -159.598032545437178, 22.180211265136109 ], [ -159.596620984064231, 22.179002756819436 ], [ -159.597401079781235, 22.177616480844947 ], [ -159.59770247935927, 22.176717644934282 ], [ -159.598282323874969, 22.176213288112109 ], [ -159.598000750692364, 22.175903092032975 ], [ -159.597704627643822, 22.175915112448312 ], [ -159.597151559392785, 22.175896723182479 ], [ -159.596543823702802, 22.176425325018155 ], [ -159.596161706143391, 22.177945875301344 ], [ -159.594689168405324, 22.177010019642516 ], [ -159.593924227677689, 22.177815540881046 ], [ -159.592488367798211, 22.17972824269177 ], [ -159.592187385824417, 22.179990027082219 ], [ -159.591641971114797, 22.182160173349502 ], [ -159.591322389855179, 22.181900643198201 ], [ -159.590779473815871, 22.18135915697771 ], [ -159.589852137623978, 22.181089424027864 ], [ -159.589880975444487, 22.180338905414416 ], [ -159.58954045850993, 22.179350524944642 ], [ -159.588201098478009, 22.181730216774984 ], [ -159.588908388157535, 22.182335874673075 ], [ -159.587834902798676, 22.18298701483716 ], [ -159.587556157032793, 22.183269371322812 ], [ -159.587254733560229, 22.183531512304299 ], [ -159.587291151983209, 22.184311148620203 ], [ -159.586710163563879, 22.184899702071331 ], [ -159.586095810018946, 22.184879238646783 ], [ -159.586120604673738, 22.18541009129024 ], [ -159.585211783940792, 22.185446913370981 ], [ -159.584558694415591, 22.183551173873681 ], [ -159.58416468913461, 22.18403613268497 ], [ -159.583570247058532, 22.185808421213999 ], [ -159.583204592013118, 22.186537255243614 ], [ -159.58275307089437, 22.186929902474837 ], [ -159.582250754347854, 22.188427481951344 ], [ -159.582035754811159, 22.18816705123114 ], [ -159.582066619195217, 22.187363621831661 ], [ -159.581589128676001, 22.186954730877527 ], [ -159.581167507407571, 22.186534204639628 ], [ -159.580863918692785, 22.186274232967968 ], [ -159.580905508517247, 22.185192052447324 ], [ -159.580033218909165, 22.185162961710361 ], [ -159.578846559822011, 22.186194812816474 ], [ -159.578551823590089, 22.187366907759124 ], [ -159.577950720969937, 22.188434622937475 ], [ -159.577988409735411, 22.189241604995377 ], [ -159.576824644516279, 22.189993489793757 ], [ -159.576803079134976, 22.18953185555473 ], [ -159.577391536936005, 22.188183177197207 ], [ -159.577378531578887, 22.187904138265562 ], [ -159.577936194549636, 22.185890644351122 ], [ -159.577265708260285, 22.18413056614995 ], [ -159.578537398673774, 22.18384368678424 ], [ -159.579644879684309, 22.18329287835337 ], [ -159.582149243980155, 22.182965011215931 ], [ -159.586115587048397, 22.180774143267513 ], [ -159.586926473462626, 22.180068950731382 ], [ -159.58752813199203, 22.179193830465923 ], [ -159.588117856040839, 22.178388971032476 ], [ -159.588394335152032, 22.177564580093513 ], [ -159.588693483967518, 22.176759717079438 ], [ -159.588680616460096, 22.176484627904617 ], [ -159.588690996594892, 22.176213569518303 ], [ -159.588659332745152, 22.175536131622565 ], [ -159.588690544160897, 22.17472295609263 ], [ -159.588659113936643, 22.174050318483872 ], [ -159.589273877521549, 22.173515653430893 ], [ -159.589235502727036, 22.172694330129538 ], [ -159.589834414182235, 22.172670051641795 ], [ -159.590421786739228, 22.172689603051605 ], [ -159.590699585601811, 22.172135823124847 ], [ -159.591594353650265, 22.171868401256869 ], [ -159.591553083510405, 22.170986335162308 ], [ -159.593020572962899, 22.170501265747578 ], [ -159.598191263265591, 22.170020707613102 ], [ -159.602414355289454, 22.168145263011521 ], [ -159.605981866905893, 22.165687603416753 ], [ -159.60958089013775, 22.162048881164775 ], [ -159.610720306362197, 22.160390769808537 ], [ -159.611018727052738, 22.160688396511965 ], [ -159.611893240307126, 22.161068828698408 ], [ -159.611033319651284, 22.161501403616928 ], [ -159.609871713151506, 22.16201737331583 ], [ -159.610395452010948, 22.162576883018904 ], [ -159.611880633543819, 22.16290053084364 ], [ -159.611321344463789, 22.163387129203688 ], [ -159.611043854965999, 22.163940549011976 ], [ -159.610592483702817, 22.164333271130729 ], [ -159.610313820204254, 22.164615665346496 ], [ -159.609830038061517, 22.164708521553667 ], [ -159.60944688434725, 22.165421101913168 ], [ -159.610203244483642, 22.165791207141826 ], [ -159.610313820204254, 22.164615665346496 ], [ -159.611141196383301, 22.164471878268927 ], [ -159.612475278014614, 22.163771993506106 ], [ -159.611540440300899, 22.165347624694473 ], [ -159.612030998036857, 22.166360778783794 ], [ -159.612222348398461, 22.166109204354946 ], [ -159.612488107945495, 22.16527498054699 ], [ -159.613620425393265, 22.164799232655486 ], [ -159.613670481534541, 22.164187759621385 ], [ -159.613331607259653, 22.163918014339195 ], [ -159.613376066205461, 22.163375202461232 ], [ -159.612540266311214, 22.163031587578693 ], [ -159.612449777175243, 22.162032961236914 ], [ -159.612527501153352, 22.161084097437993 ], [ -159.612459764461079, 22.160336216699932 ], [ -159.613526663442116, 22.158084649177265 ], [ -159.614526673649948, 22.158495817952353 ], [ -159.613950688407783, 22.159466699037665 ], [ -159.613839921301491, 22.160819696035968 ], [ -159.61470124648838, 22.161743386276477 ], [ -159.615157915665151, 22.161462736651945 ], [ -159.615062112390405, 22.160405780833354 ], [ -159.615919880952362, 22.159711725515354 ], [ -159.615996501990338, 22.158776130935667 ], [ -159.615659276061081, 22.158507690726228 ], [ -159.61538747818355, 22.15794651113216 ], [ -159.614942241285121, 22.157210154211537 ], [ -159.616245878399184, 22.157107628534973 ], [ -159.616911835031516, 22.158482792677439 ], [ -159.617211773635177, 22.157774794537943 ], [ -159.617081482876131, 22.156337492714012 ], [ -159.617415644478029, 22.156311208545706 ], [ -159.617687620217822, 22.156602877179992 ], [ -159.618058845890829, 22.156898395643779 ], [ -159.61766102917602, 22.158631305722878 ], [ -159.61772244942938, 22.159309327152435 ], [ -159.617282076481018, 22.160440624127506 ], [ -159.61823177585606, 22.161459018062143 ], [ -159.618811254053469, 22.161064399611391 ], [ -159.619094796068282, 22.157600320331749 ], [ -159.617994004301778, 22.155192977183749 ], [ -159.618841820998114, 22.154410173181713 ], [ -159.620060909973091, 22.154147317631892 ], [ -159.620582210065351, 22.153046894728995 ], [ -159.621179547567181, 22.153089325057323 ], [ -159.621490285186042, 22.151790686952104 ], [ -159.622921670217579, 22.149917577377167 ], [ -159.62434572973882, 22.148968788611988 ], [ -159.625216906768316, 22.148602649509957 ], [ -159.624053608576276, 22.148698885863158 ], [ -159.62320489781635, 22.149264335890102 ], [ -159.622602554537195, 22.149517492054741 ], [ -159.62217785066278, 22.149980528931639 ], [ -159.621449566529776, 22.150362707415603 ], [ -159.621014884708075, 22.149896602556225 ], [ -159.620591305393759, 22.150358382216812 ], [ -159.619985303780481, 22.150848776792092 ], [ -159.620037474605226, 22.151424406271865 ], [ -159.61970048373297, 22.151174830732842 ], [ -159.619196796071975, 22.150634702257907 ], [ -159.618827308697405, 22.151432136546951 ], [ -159.618853280178854, 22.151718781604004 ], [ -159.618540223372861, 22.151972132026387 ], [ -159.618262641074779, 22.152557969628354 ], [ -159.617680582663809, 22.152516628618482 ], [ -159.617113318417097, 22.152561246850237 ], [ -159.617004675922061, 22.151363122506528 ], [ -159.61760243724143, 22.149827684436001 ], [ -159.617019063846016, 22.150410889479634 ], [ -159.616403995388481, 22.151709198135698 ], [ -159.616210487254619, 22.15145907300835 ], [ -159.615931787674896, 22.150337367908168 ], [ -159.615095194037622, 22.151249339192599 ], [ -159.613043053735879, 22.150192847921893 ], [ -159.613005005118566, 22.150657385442564 ], [ -159.613611253814668, 22.150906665452005 ], [ -159.614229897520261, 22.151818478146026 ], [ -159.616377276117845, 22.152701384707061 ], [ -159.615924915482196, 22.153067418177042 ], [ -159.615953342144479, 22.153380868714567 ], [ -159.61479085388055, 22.153298269621395 ], [ -159.614753216467221, 22.153758165759424 ], [ -159.614815812576467, 22.154449078883889 ], [ -159.614488542801411, 22.154425830383431 ], [ -159.614187616109149, 22.154449493794139 ], [ -159.613900637339498, 22.153856872778327 ], [ -159.613624571030272, 22.155010601595283 ], [ -159.613325917073581, 22.154690334496699 ], [ -159.612816188561425, 22.155245987044974 ], [ -159.611979038853093, 22.153576647378426 ], [ -159.612436661036128, 22.153077732908276 ], [ -159.612747798639617, 22.153099846921144 ], [ -159.612877280617028, 22.151868080009645 ], [ -159.613231595382331, 22.151773973658401 ], [ -159.612975431713011, 22.151537272215315 ], [ -159.612877280617028, 22.151868080009645 ], [ -159.611712377039169, 22.151601431946254 ], [ -159.611711205817357, 22.151330415451607 ], [ -159.612065520087896, 22.151236311640272 ], [ -159.611809359317249, 22.15099960828373 ], [ -159.611711205817357, 22.151330415451607 ], [ -159.611339176477486, 22.151467320644173 ], [ -159.611712377039169, 22.151601431946254 ], [ -159.611468403753406, 22.152114249313286 ], [ -159.611738708005959, 22.152911344549697 ], [ -159.610983078334783, 22.152695196447421 ], [ -159.610677064993837, 22.151506267226917 ], [ -159.610554491880691, 22.152960874639753 ], [ -159.610356344855973, 22.152868427995031 ], [ -159.609774359159672, 22.15178866322282 ], [ -159.609673514022035, 22.151067023402394 ], [ -159.610157249874334, 22.15097416856085 ], [ -159.61092671857449, 22.150400058593274 ], [ -159.610156302304205, 22.150161109186435 ], [ -159.609673514022035, 22.151067023402394 ], [ -159.609183848510412, 22.150921018706807 ], [ -159.60807105169377, 22.14985069733644 ], [ -159.606026744199198, 22.148035553562913 ], [ -159.60719128952573, 22.148227847612958 ], [ -159.608183159997481, 22.148699192432321 ], [ -159.607713260663076, 22.14693408718929 ], [ -159.606307637491057, 22.146604080558827 ], [ -159.6052408886911, 22.147121036627166 ], [ -159.597693580701417, 22.142106419123142 ], [ -159.59057061786379, 22.139209332204103 ], [ -159.59085789061487, 22.138796490670163 ], [ -159.592042494655487, 22.138814719059795 ], [ -159.591725620113976, 22.138533316646409 ], [ -159.591581369388877, 22.138124593704468 ], [ -159.592506969593302, 22.138012448142881 ], [ -159.591686475024176, 22.137629503130182 ], [ -159.591581369388877, 22.138124593704468 ], [ -159.590062351575227, 22.137141269319113 ], [ -159.590548784596052, 22.136630086190458 ], [ -159.59176144567536, 22.135905369396891 ], [ -159.591409527684334, 22.135002689245159 ], [ -159.592892338041764, 22.134465430210348 ], [ -159.592281801485228, 22.133657814366767 ], [ -159.592004910597979, 22.133101522908053 ], [ -159.590814697432819, 22.132118442010668 ], [ -159.590841584697017, 22.131668603865482 ], [ -159.588217904714469, 22.131823813670938 ], [ -159.588779713424003, 22.130945009975356 ], [ -159.589085875671486, 22.130688134634791 ], [ -159.589359241595304, 22.130400873892924 ], [ -159.590230357785117, 22.1300245579489 ], [ -159.588873225958508, 22.129333789864397 ], [ -159.588216538373615, 22.129766792620973 ], [ -159.588185988426659, 22.130277220204093 ], [ -159.588223878541811, 22.130833561301664 ], [ -159.587326379797759, 22.13122126800242 ], [ -159.586812233670457, 22.131761531036602 ], [ -159.586458357168851, 22.131782462875943 ], [ -159.585444656170125, 22.131447695867493 ], [ -159.58371425717155, 22.132033165489098 ], [ -159.582915093355268, 22.130675441415658 ], [ -159.583834351879091, 22.130723196233667 ], [ -159.584123214965246, 22.130419694115552 ], [ -159.58456109554362, 22.130052343799719 ], [ -159.583683203428308, 22.128890951425035 ], [ -159.584522648189136, 22.128462059944894 ], [ -159.586097887250389, 22.128543869200673 ], [ -159.586165439242478, 22.127413955168816 ], [ -159.584991944772383, 22.127483347725033 ], [ -159.584119091573626, 22.127438005271593 ], [ -159.583544839823503, 22.127471959968478 ], [ -159.582746184664018, 22.126645550051382 ], [ -159.58264228107285, 22.127248890214275 ], [ -159.582691184781709, 22.127967652026204 ], [ -159.582085193053956, 22.128003476629672 ], [ -159.581786853594707, 22.127987973371244 ], [ -159.581271919669973, 22.128529082322633 ], [ -159.580640435635615, 22.128566406710334 ], [ -159.580349091240635, 22.12826497375352 ], [ -159.579197686898397, 22.12793819139328 ], [ -159.579164896061258, 22.127456391965161 ], [ -159.580296917480496, 22.127126306073688 ], [ -159.580341850785885, 22.126375465769495 ], [ -159.580305582471226, 22.125843035811357 ], [ -159.58062181553197, 22.125824343977932 ], [ -159.581073721776335, 22.125847830331764 ], [ -159.58163528544452, 22.124696266543026 ], [ -159.583708271208025, 22.124803967312221 ], [ -159.582934193735525, 22.124476291499533 ], [ -159.582950874216721, 22.124197988596791 ], [ -159.582907488878163, 22.123560386309972 ], [ -159.584100598914574, 22.122950746209266 ], [ -159.584966863987461, 22.12338533592715 ], [ -159.58556600600096, 22.123638959431808 ], [ -159.586134246124544, 22.123924013738115 ], [ -159.586674687354304, 22.123892049186853 ], [ -159.587892218095988, 22.124191189123824 ], [ -159.588412908916439, 22.123643976396192 ], [ -159.589058775729455, 22.12416844114647 ], [ -159.589456044475156, 22.124579454999989 ], [ -159.5904949319374, 22.123707813554454 ], [ -159.590199122143531, 22.123325648495626 ], [ -159.588455125052036, 22.12283075632201 ], [ -159.587877491305392, 22.12254098808193 ], [ -159.58759261199674, 22.12284041304726 ], [ -159.586722621346979, 22.122278858425219 ], [ -159.586424927721993, 22.122296469745962 ], [ -159.586129938430389, 22.122281144133424 ], [ -159.58411146231262, 22.12262282168863 ], [ -159.584034362499267, 22.121490736801409 ], [ -159.584951963348487, 22.120720891390317 ], [ -159.584971828082246, 22.120389220857057 ], [ -159.584371705105724, 22.120135193035715 ], [ -159.584084991148899, 22.119559071019101 ], [ -159.583487616936623, 22.121386525336177 ], [ -159.581605640527982, 22.12202328824765 ], [ -159.582065533296117, 22.121227521281398 ], [ -159.582199988745799, 22.120541858774796 ], [ -159.582554247773885, 22.12044781995349 ], [ -159.58229819212022, 22.120211067062481 ], [ -159.582199988745799, 22.120541858774796 ], [ -159.581421305480461, 22.120383258353417 ], [ -159.580906210678194, 22.120965539611621 ], [ -159.580589503522702, 22.12121261138746 ], [ -159.580168257528442, 22.122569223473878 ], [ -159.579624270841379, 22.122271738209534 ], [ -159.579146509450453, 22.12173995614182 ], [ -159.578853753580319, 22.122375517914389 ], [ -159.577392222410708, 22.121791071808726 ], [ -159.577010408630883, 22.120979352151405 ], [ -159.576809271257815, 22.121497031409106 ], [ -159.576428858284316, 22.123124513286626 ], [ -159.576233136362987, 22.122879258620113 ], [ -159.575878045532562, 22.122124354588038 ], [ -159.575065236556412, 22.12179928346298 ], [ -159.574683435943626, 22.120987558079651 ], [ -159.574478718120815, 22.121237160224634 ], [ -159.574525924391622, 22.121653131517554 ], [ -159.574468895364362, 22.122195378503719 ], [ -159.574550938410198, 22.122918791455486 ], [ -159.573927720228824, 22.122589110519382 ], [ -159.573380835432289, 22.122642990083452 ], [ -159.572883467999986, 22.121840789090154 ], [ -159.573657885804181, 22.12152460872386 ], [ -159.573045184468413, 22.121053999514121 ], [ -159.572751372344527, 22.120133900225145 ], [ -159.57226098437431, 22.12068820327827 ], [ -159.571873543965211, 22.119864390201013 ], [ -159.571288288164737, 22.120755982138689 ], [ -159.570856975824796, 22.119405400912662 ], [ -159.570109489100503, 22.119106427506264 ], [ -159.569842204977988, 22.11880891040261 ], [ -159.569527100467297, 22.118839942295349 ], [ -159.569391880581975, 22.11814781025949 ], [ -159.569867622014982, 22.118047734484524 ], [ -159.570117000384244, 22.11763659043606 ], [ -159.570369678066015, 22.118045981811406 ], [ -159.570765776967818, 22.118254556732516 ], [ -159.570477803575898, 22.118974542539991 ], [ -159.571597833800922, 22.11848216700141 ], [ -159.572097268974659, 22.119291255056503 ], [ -159.572408721489438, 22.118777727079088 ], [ -159.573360203166715, 22.118577556594492 ], [ -159.57375596687757, 22.118403559647756 ], [ -159.573876516361821, 22.118834483950511 ], [ -159.574221539687272, 22.119054668572531 ], [ -159.575142387672145, 22.120318541016236 ], [ -159.575952284253674, 22.118984845842977 ], [ -159.576708642061789, 22.119140036303055 ], [ -159.577106140939577, 22.119672117931621 ], [ -159.577368927742299, 22.11931459442556 ], [ -159.577722493960295, 22.11908529680322 ], [ -159.577572287727747, 22.118472122089418 ], [ -159.5779872104481, 22.118557242900557 ], [ -159.578901708337924, 22.117997739636888 ], [ -159.57852486140925, 22.11746296725445 ], [ -159.578404299151089, 22.117032046589706 ], [ -159.578887942213129, 22.116939286152558 ], [ -159.578887179289069, 22.116126219266039 ], [ -159.578404299151089, 22.117032046589706 ], [ -159.577965748199432, 22.117177009556613 ], [ -159.577681749846079, 22.116893534267181 ], [ -159.577380493343071, 22.116905724039928 ], [ -159.576489692533158, 22.115783042394376 ], [ -159.572729559694324, 22.114962440828805 ], [ -159.575198577729481, 22.114686297467465 ], [ -159.576210183526712, 22.115012661023449 ], [ -159.577071554278746, 22.114977801472094 ], [ -159.577671199386145, 22.115576237148034 ], [ -159.57849296020197, 22.11474353489703 ], [ -159.579989730262497, 22.114446195205339 ], [ -159.581661706406379, 22.114501992288652 ], [ -159.580568605076621, 22.114183793219308 ], [ -159.579704822614048, 22.113905135353463 ], [ -159.57828242278427, 22.11396272299875 ], [ -159.578100177123417, 22.113780844253615 ], [ -159.578454422311381, 22.113686814555024 ], [ -159.578198385834355, 22.113450054628849 ], [ -159.578100177123417, 22.113780844253615 ], [ -159.5773384121822, 22.113529189555745 ], [ -159.577401255521238, 22.114453248949356 ], [ -159.576197234562841, 22.113957925619644 ], [ -159.57548862130804, 22.113224488767145 ], [ -159.574167217578719, 22.113671520696357 ], [ -159.573887717094181, 22.113109629695533 ], [ -159.573583367113486, 22.113127612885943 ], [ -159.572092925915967, 22.112635199709025 ], [ -159.572162447883784, 22.113656753318342 ], [ -159.571838502052458, 22.113675885421653 ], [ -159.571301070592, 22.11259550795684 ], [ -159.570961498593221, 22.112577837430646 ], [ -159.570585405500736, 22.113348998252498 ], [ -159.570097733479884, 22.112844235643767 ], [ -159.569815451188532, 22.113140883511846 ], [ -159.569517143835355, 22.113125357108689 ], [ -159.569226352903883, 22.113142532253544 ], [ -159.568789971933342, 22.113119818433759 ], [ -159.568071158411016, 22.113162252255478 ], [ -159.568344470144154, 22.11285887288393 ], [ -159.569231253843157, 22.112328989314641 ], [ -159.569504626346401, 22.112041761067129 ], [ -159.570266268674033, 22.111402816931729 ], [ -159.568098748879379, 22.111842239128933 ], [ -159.567768318873021, 22.1115001833317 ], [ -159.567191476595411, 22.111794856226229 ], [ -159.566748565681621, 22.111771795619269 ], [ -159.566021593921107, 22.111814703527191 ], [ -159.565192379111551, 22.111771530154417 ], [ -159.564697883338084, 22.112186343295942 ], [ -159.564251814969566, 22.112654988988648 ], [ -159.562712104605424, 22.113319920380683 ], [ -159.5620008860609, 22.114777989097682 ], [ -159.56095409328401, 22.113015953982668 ], [ -159.560300987884347, 22.111339324188187 ], [ -159.561501204522614, 22.110821036570051 ], [ -159.561949156503943, 22.109643964424038 ], [ -159.562225063750617, 22.10823800437635 ], [ -159.563227345455601, 22.107397237665847 ], [ -159.562771882634479, 22.106622971088203 ], [ -159.565274383105134, 22.106779114871394 ], [ -159.565760612116378, 22.107430178730024 ], [ -159.566848868622429, 22.107143257298709 ], [ -159.566303466217278, 22.106878450515364 ], [ -159.566000946290785, 22.106942747138682 ], [ -159.565274383105134, 22.106779114871394 ], [ -159.565433856015346, 22.106099580449936 ], [ -159.565084472284553, 22.104951542474147 ], [ -159.565155423608701, 22.104278087475148 ], [ -159.56394090756595, 22.103950509237368 ], [ -159.56367358063153, 22.103113281578214 ], [ -159.563090122707621, 22.102665036491278 ], [ -159.563866330817831, 22.102533844977504 ], [ -159.564810195035022, 22.102620209734916 ], [ -159.565187735475178, 22.102193435791715 ], [ -159.567454441469522, 22.103100195078557 ], [ -159.568182513436255, 22.103910736966075 ], [ -159.571210648235621, 22.103630751368481 ], [ -159.570454014761793, 22.102855102474976 ], [ -159.570057445021661, 22.102818836909531 ], [ -159.569553788806559, 22.102868449223298 ], [ -159.569452868203456, 22.101978386936974 ], [ -159.57027114803023, 22.102053230985451 ], [ -159.570648280387871, 22.101759030187456 ], [ -159.57077968133899, 22.101610520447199 ], [ -159.571503763106335, 22.101445266094629 ], [ -159.572961347680007, 22.101708373599596 ], [ -159.574414424559251, 22.101435490532893 ], [ -159.574940031529678, 22.101530363036989 ], [ -159.575552670123017, 22.101164878297695 ], [ -159.576298212474853, 22.100935956412318 ], [ -159.576782803005614, 22.101561038798206 ], [ -159.577296553039247, 22.100887703034747 ], [ -159.577784490708183, 22.100659684285656 ], [ -159.578173643050434, 22.102013418213676 ], [ -159.578924616216199, 22.102280261136336 ], [ -159.578637668227884, 22.102938002060018 ], [ -159.577977200467586, 22.103048896294933 ], [ -159.578477356012144, 22.103290814414553 ], [ -159.578637668227884, 22.102938002060018 ], [ -159.579074744544471, 22.103138530384978 ], [ -159.579510171462886, 22.102934909984192 ], [ -159.579611069550936, 22.103264994473417 ], [ -159.579865147002494, 22.103026426277324 ], [ -159.579510171462886, 22.102934909984192 ], [ -159.579094104057702, 22.10200149904437 ], [ -159.579415292241094, 22.101592071521598 ], [ -159.580246520235505, 22.101742069068084 ], [ -159.581147906864658, 22.101095515567888 ], [ -159.581962861442605, 22.101242568188699 ], [ -159.583403380952973, 22.100718923717729 ], [ -159.582693326622632, 22.100197573054601 ], [ -159.581085056006202, 22.100659130323528 ], [ -159.580832295229641, 22.100333126493602 ], [ -159.579110860748642, 22.100017875039629 ], [ -159.578792070551913, 22.099256270420231 ], [ -159.578452323519002, 22.099031179084879 ], [ -159.578196922924036, 22.098421005610938 ], [ -159.576996907396364, 22.098720570853015 ], [ -159.576453131692148, 22.099044975810859 ], [ -159.576149510809444, 22.098990167693522 ], [ -159.575840880493502, 22.09904814336857 ], [ -159.575584779833179, 22.098717808856424 ], [ -159.574515996465067, 22.098918535093635 ], [ -159.575486178886365, 22.097725322584775 ], [ -159.575002535467803, 22.097101456500273 ], [ -159.574042634524233, 22.096465433211147 ], [ -159.574204076559369, 22.095688897702754 ], [ -159.573831574985235, 22.095208403773825 ], [ -159.571453934097548, 22.094448391117833 ], [ -159.571331888099365, 22.094290940890932 ], [ -159.572310321199978, 22.094088467995419 ], [ -159.572631715225299, 22.094433500258383 ], [ -159.5732131739544, 22.094387907047157 ], [ -159.573709068358284, 22.094920225608973 ], [ -159.574533705495384, 22.094979047179628 ], [ -159.57498009265197, 22.094944046093058 ], [ -159.575314818547923, 22.095966155914741 ], [ -159.576967941844657, 22.096084079129728 ], [ -159.576140078154737, 22.094007538795076 ], [ -159.57643138549173, 22.094127450239988 ], [ -159.577776112641772, 22.096282043874794 ], [ -159.579036839445905, 22.096371954197103 ], [ -159.579323495927866, 22.095472344734368 ], [ -159.579991044846992, 22.095191906509182 ], [ -159.580584387003285, 22.094545076145852 ], [ -159.581359795632437, 22.094944637519475 ], [ -159.581803980198117, 22.094909791079925 ], [ -159.582434941887101, 22.094954771241426 ], [ -159.583122469772547, 22.094665912011319 ], [ -159.583837189153627, 22.094290951065393 ], [ -159.58455767561378, 22.094662208029387 ], [ -159.585147221895738, 22.094615931433445 ], [ -159.586213336221391, 22.094691926261149 ], [ -159.587171121193649, 22.094360246006765 ], [ -159.588064115130265, 22.09410616011268 ], [ -159.588450037596459, 22.093291700345247 ], [ -159.58951585953659, 22.093538735322515 ], [ -159.590019227990922, 22.094078966204307 ], [ -159.590947549238962, 22.093341562935674 ], [ -159.59064388310594, 22.092949904635642 ], [ -159.589659002361685, 22.093027221102236 ], [ -159.588612478915366, 22.091662922375541 ], [ -159.588679049955402, 22.09085166279861 ], [ -159.588320908948674, 22.091103827705133 ], [ -159.587238424582296, 22.092728304146014 ], [ -159.586579116266392, 22.092780065763112 ], [ -159.58660419765701, 22.092475189871983 ], [ -159.586579273941226, 22.092199607294056 ], [ -159.587006181659063, 22.090341188298609 ], [ -159.58586613145448, 22.09093933365688 ], [ -159.584550054147542, 22.090845521058256 ], [ -159.583694148225078, 22.09091269616615 ], [ -159.583660898634918, 22.090544689556854 ], [ -159.585114801660836, 22.089368253493671 ], [ -159.584843844158371, 22.08894811374374 ], [ -159.584260311700319, 22.088483203402145 ], [ -159.584977965507193, 22.08803598846438 ], [ -159.587727393251868, 22.088231959386992 ], [ -159.587446020898625, 22.087560969182217 ], [ -159.586346834849735, 22.087647244514766 ], [ -159.585700944035722, 22.087314435588642 ], [ -159.584838345922151, 22.087613161966452 ], [ -159.583642366373624, 22.087953420258096 ], [ -159.5827637730427, 22.088664353170014 ], [ -159.581510001771932, 22.090031133404718 ], [ -159.580766383459547, 22.090089490326093 ], [ -159.579939003104954, 22.090030477846582 ], [ -159.578827803393096, 22.090415245957399 ], [ -159.577673329498253, 22.089658513513296 ], [ -159.577220375807286, 22.090152254512113 ], [ -159.576392277839318, 22.089811350885537 ], [ -159.575813705007391, 22.089513202081974 ], [ -159.575542536759713, 22.090085368914512 ], [ -159.57523116144182, 22.090337340896404 ], [ -159.574732249983811, 22.090881144088261 ], [ -159.574647497065968, 22.090079270630707 ], [ -159.574672671443153, 22.089773568587827 ], [ -159.574076611000606, 22.089820309719528 ], [ -159.573785715225597, 22.089799561711139 ], [ -159.5732628310883, 22.089840551077508 ], [ -159.572877914865472, 22.089533838567363 ], [ -159.57296548764657, 22.088468275797734 ], [ -159.572315982848721, 22.088993758150508 ], [ -159.572413043264078, 22.090069376883164 ], [ -159.572032608035244, 22.09009921043064 ], [ -159.571760855399646, 22.089807466775579 ], [ -159.57144745443415, 22.089557686436187 ], [ -159.571175968909586, 22.088996438320883 ], [ -159.570862570770686, 22.088746656775374 ], [ -159.570423561409655, 22.08783890754086 ], [ -159.569716063862586, 22.088210029971989 ], [ -159.569417075699391, 22.088188690260107 ], [ -159.568964391163377, 22.0882241774619 ], [ -159.567503690063489, 22.087819855922707 ], [ -159.567094938466113, 22.08657142492315 ], [ -159.566490751761961, 22.086322643050906 ], [ -159.566098237761366, 22.085510928662849 ], [ -159.565893484937249, 22.086669612725451 ], [ -159.566007278049966, 22.087930316910132 ], [ -159.565623746093479, 22.087680767876652 ], [ -159.565244834742799, 22.086897225196175 ], [ -159.5643219577629, 22.087903025789679 ], [ -159.563515314787281, 22.087966236187025 ], [ -159.562735062085352, 22.087128538739023 ], [ -159.561568157055746, 22.086198537875724 ], [ -159.561834637000658, 22.085505486881011 ], [ -159.561990331802718, 22.085379513506549 ], [ -159.562170879090388, 22.086007804635958 ], [ -159.563152587003628, 22.086301736235068 ], [ -159.563567255646802, 22.085758257979155 ], [ -159.564737874347031, 22.085120328024111 ], [ -159.565031376058528, 22.084067753331201 ], [ -159.566724506532239, 22.084373496011647 ], [ -159.565884114571247, 22.083355763069896 ], [ -159.565638762123882, 22.082716286248555 ], [ -159.566655085248385, 22.082899808251007 ], [ -159.566436214559616, 22.081887250992615 ], [ -159.567572956382804, 22.082092516550951 ], [ -159.567982653287942, 22.082621051163503 ], [ -159.569129585557022, 22.083028744797549 ], [ -159.570562708625459, 22.083895961884675 ], [ -159.571356598159156, 22.083422304450561 ], [ -159.571575793009885, 22.082636040301008 ], [ -159.572070685888121, 22.08277301454595 ], [ -159.571984327994841, 22.083823983313714 ], [ -159.573254068909534, 22.083290605548051 ], [ -159.573754585644906, 22.082744964947924 ], [ -159.57489531472595, 22.083492760014103 ], [ -159.574933947911632, 22.083022036848586 ], [ -159.574348833695723, 22.082555788507886 ], [ -159.574723934669919, 22.081686494188201 ], [ -159.576092187212765, 22.082203580264061 ], [ -159.576847104383631, 22.083013992054422 ], [ -159.577816255808756, 22.082418382715264 ], [ -159.576646528816326, 22.081366932694557 ], [ -159.574926161910128, 22.081501869118306 ], [ -159.576740237635534, 22.080771370760718 ], [ -159.578384817286491, 22.081327660021099 ], [ -159.580425464830398, 22.080470319106201 ], [ -159.58003419377394, 22.079821705504241 ], [ -159.578719594879033, 22.079280542495763 ], [ -159.578392731031045, 22.078929618520824 ], [ -159.577659582190449, 22.080029855538399 ], [ -159.576141283362631, 22.079429922512634 ], [ -159.577510970017585, 22.078854490906682 ], [ -159.576133983030815, 22.077944887960967 ], [ -159.575043644399415, 22.078516943990593 ], [ -159.574587675382219, 22.078153579839963 ], [ -159.575249576753748, 22.077617971115018 ], [ -159.575151910148833, 22.076535522951271 ], [ -159.575488644346677, 22.076785214881003 ], [ -159.575936140330981, 22.077265575135467 ], [ -159.576859926090123, 22.076258483074383 ], [ -159.577339791377909, 22.076580103803575 ], [ -159.57781167911665, 22.077086724175981 ], [ -159.578140886009663, 22.075711911021106 ], [ -159.579265481540915, 22.075958808322341 ], [ -159.579786557953184, 22.077036196579314 ], [ -159.581501173653294, 22.077158475357336 ], [ -159.582088569321712, 22.076518029434382 ], [ -159.583292934683897, 22.076012002831309 ], [ -159.583470471703549, 22.075818423525469 ], [ -159.58382461890838, 22.075724375615543 ], [ -159.583568643767336, 22.075487629987709 ], [ -159.583470471703549, 22.075818423525469 ], [ -159.583316393415174, 22.075691086783156 ], [ -159.583038557938181, 22.075403468857175 ], [ -159.580692413878978, 22.075800685070991 ], [ -159.580739861700209, 22.075007856015787 ], [ -159.579256416994355, 22.07437962290517 ], [ -159.579831483012867, 22.07428430487062 ], [ -159.58156325540088, 22.074374348588112 ], [ -159.58158225856252, 22.074056641110833 ], [ -159.58114354172281, 22.073694044304485 ], [ -159.581574400228106, 22.072171192566127 ], [ -159.581537689661872, 22.071631275525892 ], [ -159.582134579147123, 22.071130360763011 ], [ -159.581563379555575, 22.071074081778409 ], [ -159.580638892661995, 22.071128728801927 ], [ -159.581478261098738, 22.068922018014934 ], [ -159.580845698481255, 22.069238580292936 ], [ -159.57987023835156, 22.070263958003032 ], [ -159.578367687781679, 22.070352781295007 ], [ -159.578931466634316, 22.06999989744142 ], [ -159.579727271154866, 22.069656048672989 ], [ -159.580226191148995, 22.068632561093512 ], [ -159.580956111475871, 22.067369070579812 ], [ -159.579381081295764, 22.068198796737356 ], [ -159.578821887669079, 22.068786595885019 ], [ -159.578299430350881, 22.06835474430817 ], [ -159.579786087955711, 22.067107076154663 ], [ -159.579836263896681, 22.066268713122746 ], [ -159.578342590327566, 22.066191024862363 ], [ -159.578062328266526, 22.06676592499927 ], [ -159.577756280525904, 22.067022779120254 ], [ -159.577483009475458, 22.067310020523774 ], [ -159.57659653467627, 22.067839945078138 ], [ -159.57629972105471, 22.068151948249675 ], [ -159.575738691494593, 22.067571081044299 ], [ -159.575432735979035, 22.067589162652443 ], [ -159.575293554617247, 22.067174595563134 ], [ -159.575647686276795, 22.067080565606979 ], [ -159.575391740366967, 22.066843806302657 ], [ -159.575293554617247, 22.067174595563134 ], [ -159.57480168909359, 22.066860602770308 ], [ -159.575112056573829, 22.065547098777188 ], [ -159.574006923706918, 22.065984315205629 ], [ -159.572973015265489, 22.066235507566361 ], [ -159.572337682569724, 22.067100184455192 ], [ -159.571926608419034, 22.067015801762647 ], [ -159.571687390811348, 22.067618586716218 ], [ -159.571225071830213, 22.067730900979537 ], [ -159.571023039465587, 22.066847201643572 ], [ -159.571359993324307, 22.066505655886491 ], [ -159.571929943162388, 22.066009685603156 ], [ -159.57092668943767, 22.065834766787905 ], [ -159.571245565371669, 22.06544665227181 ], [ -159.572284619831919, 22.065046044968575 ], [ -159.57279137590578, 22.064213612215557 ], [ -159.570882556572599, 22.064920806415024 ], [ -159.570470612557756, 22.064865536981539 ], [ -159.570216488792795, 22.065327714789941 ], [ -159.57092668943767, 22.065834766787905 ], [ -159.570712180693675, 22.066563233504347 ], [ -159.570187514245589, 22.066492823614059 ], [ -159.569513722052733, 22.067312877586065 ], [ -159.569022967872513, 22.067078463741304 ], [ -159.568601702012558, 22.066113888297558 ], [ -159.568955835829968, 22.066019872776092 ], [ -159.568699902761864, 22.065783102693274 ], [ -159.568601702012558, 22.066113888297558 ], [ -159.568438053955134, 22.066232517653777 ], [ -159.568186693309997, 22.067086316180475 ], [ -159.56787851246051, 22.067044955747495 ], [ -159.567360523545204, 22.067118148385518 ], [ -159.566906908435641, 22.066423051603689 ], [ -159.567735350387039, 22.064437082745084 ], [ -159.566750384257205, 22.064304885427632 ], [ -159.566021580288123, 22.064718131312286 ], [ -159.565124186603526, 22.064597680428342 ], [ -159.564275918360323, 22.064924700342349 ], [ -159.564408056368478, 22.06573732070261 ], [ -159.563166826733578, 22.066215859026315 ], [ -159.562651890838083, 22.067401067327999 ], [ -159.562372791751415, 22.067066553612545 ], [ -159.561917441809726, 22.066950057333464 ], [ -159.562119615366271, 22.066465523616397 ], [ -159.561681269107709, 22.065477680306575 ], [ -159.561166913869187, 22.065715566879955 ], [ -159.560756166754544, 22.066215421133869 ], [ -159.560992827486274, 22.064683590490393 ], [ -159.560599850790197, 22.064630828196783 ], [ -159.55925100417025, 22.064821360491798 ], [ -159.558745683719764, 22.064215777140287 ], [ -159.558252009206484, 22.063863262920083 ], [ -159.557997533236289, 22.06355820146371 ], [ -159.557338517468821, 22.063309404626995 ], [ -159.557733615408097, 22.061967850990566 ], [ -159.558524082352363, 22.062304946096749 ], [ -159.558984936313379, 22.063825856947084 ], [ -159.559474417763738, 22.063166536751133 ], [ -159.559373518309883, 22.062545808894193 ], [ -159.559997365530023, 22.062192106099829 ], [ -159.560919669356821, 22.062315924310688 ], [ -159.560848010736635, 22.061875306697555 ], [ -159.561638352646099, 22.061981409895914 ], [ -159.563183464090741, 22.060971895660948 ], [ -159.562879837558256, 22.060481408694951 ], [ -159.562046773568795, 22.060016875171321 ], [ -159.561729934850007, 22.060061634141533 ], [ -159.561471607171683, 22.059751959394301 ], [ -159.560851702970297, 22.059517963170105 ], [ -159.560597229521449, 22.059212905549472 ], [ -159.559722521767014, 22.058588308816958 ], [ -159.560439151059342, 22.058691212970757 ], [ -159.561432125831288, 22.059244947339668 ], [ -159.562342776041305, 22.059477942587282 ], [ -159.562895399174863, 22.059786107697413 ], [ -159.563208689670546, 22.059741854960141 ], [ -159.563768714303137, 22.060054127109243 ], [ -159.564082005074965, 22.060009872694764 ], [ -159.564897147504865, 22.060464366933026 ], [ -159.564964483265982, 22.060028415969278 ], [ -159.564918135126703, 22.059743671626521 ], [ -159.5656804348653, 22.059190997584789 ], [ -159.565953579698999, 22.058263332495169 ], [ -159.566535066935444, 22.058261320640153 ], [ -159.566533987262602, 22.057990298843087 ], [ -159.566888102454413, 22.057896288104473 ], [ -159.566632187703988, 22.057659514170144 ], [ -159.566533987262602, 22.057990298843087 ], [ -159.565952501134149, 22.057992310670858 ], [ -159.565953579698999, 22.058263332495169 ], [ -159.565220825793915, 22.057836415602409 ], [ -159.564948904021151, 22.05814382975834 ], [ -159.563469329772289, 22.058394878254308 ], [ -159.56232237204577, 22.058698053032192 ], [ -159.560588457047572, 22.058338057186031 ], [ -159.561168168438314, 22.057885811142793 ], [ -159.561356180155769, 22.056801063446517 ], [ -159.560850624629495, 22.057372671948201 ], [ -159.560272544246573, 22.057319748648418 ], [ -159.559416972726183, 22.057622782046153 ], [ -159.558862111519289, 22.057571974507983 ], [ -159.558062261000174, 22.05800261490581 ], [ -159.557581690888185, 22.0564964399004 ], [ -159.556461237736016, 22.056606751208104 ], [ -159.556514465611912, 22.057076084909205 ], [ -159.556485855669933, 22.057347208088661 ], [ -159.556516586688673, 22.057618129488439 ], [ -159.556478804993475, 22.057976162982595 ], [ -159.55525686909553, 22.058422946914941 ], [ -159.554771718349542, 22.05788254032414 ], [ -159.554453184762366, 22.057637671635518 ], [ -159.553978590897231, 22.057108988221778 ], [ -159.553608842182939, 22.057911555829623 ], [ -159.552883171841046, 22.058858762033637 ], [ -159.550905144560261, 22.059666351994657 ], [ -159.55012506373356, 22.059253355429934 ], [ -159.549058516947696, 22.059010988885063 ], [ -159.549741811867221, 22.060113873903529 ], [ -159.549148385407079, 22.060059490746706 ], [ -159.548672377003413, 22.05952925822692 ], [ -159.548128019716131, 22.059110813224354 ], [ -159.547644003996055, 22.060222806932206 ], [ -159.54637730767837, 22.059969695125883 ], [ -159.545956020547095, 22.060858404047377 ], [ -159.545175280216256, 22.060919499825957 ], [ -159.544739029962813, 22.060888298423063 ], [ -159.544096383928064, 22.060938573954047 ], [ -159.543959828451506, 22.059422015586097 ], [ -159.544015655577738, 22.058744264394374 ], [ -159.54399067288287, 22.05846685319792 ], [ -159.544318519772247, 22.057625406349228 ], [ -159.543393203397699, 22.056887625111166 ], [ -159.543820513142634, 22.055029400711941 ], [ -159.543133161144681, 22.05448132595804 ], [ -159.543090241741226, 22.054004376477856 ], [ -159.543171914922738, 22.053012271709537 ], [ -159.542526645942615, 22.05167702872027 ], [ -159.542227429638444, 22.052003139456282 ], [ -159.54171278931949, 22.049925495022265 ], [ -159.540827612385499, 22.047985280734906 ], [ -159.541935964636735, 22.047898574125224 ], [ -159.542801724736449, 22.048466509661946 ], [ -159.543660934888464, 22.047894310968822 ], [ -159.544994511579205, 22.047607204986857 ], [ -159.546221205360837, 22.046270216839282 ], [ -159.547454695095524, 22.046004632004919 ], [ -159.548016127517172, 22.045710156348072 ], [ -159.548770468358185, 22.045764121300721 ], [ -159.549486591601266, 22.045184746098361 ], [ -159.550203348068038, 22.044403501884222 ], [ -159.551175706218629, 22.043995098054495 ], [ -159.551852112878009, 22.0425679786891 ], [ -159.554108197800844, 22.04303779944436 ], [ -159.553713923165986, 22.043383391643246 ], [ -159.55178647461986, 22.044072757636854 ], [ -159.551227748248579, 22.044365814301649 ], [ -159.550625710386157, 22.044618718075323 ], [ -159.550069074639538, 22.045453816829404 ], [ -159.549602014490603, 22.045831685951981 ], [ -159.549200057806871, 22.046269813489371 ], [ -159.548887101259226, 22.046523047927288 ], [ -159.548935894994344, 22.047064937329058 ], [ -159.548601142912275, 22.047335778980418 ], [ -159.548334164295341, 22.047898874633113 ], [ -159.547435038477573, 22.049252632220632 ], [ -159.548049627037528, 22.049505837765551 ], [ -159.548320942987658, 22.050067130434098 ], [ -159.548873798586243, 22.050507978482887 ], [ -159.54779480834236, 22.050961174773789 ], [ -159.548613949958082, 22.051614327378271 ], [ -159.547665877033666, 22.052870353668272 ], [ -159.547060777373815, 22.054146832688854 ], [ -159.546327810715979, 22.05538175237438 ], [ -159.546609507933226, 22.055780155476196 ], [ -159.547691909544056, 22.05415628509807 ], [ -159.54963953783863, 22.053652384594379 ], [ -159.55037348122346, 22.054440781040991 ], [ -159.551029596404902, 22.053056694009168 ], [ -159.552094269366648, 22.052973340468821 ], [ -159.552416303798168, 22.053319225077292 ], [ -159.553040066175583, 22.052383398663725 ], [ -159.553720174617723, 22.052613632168562 ], [ -159.553820974595567, 22.052943736607485 ], [ -159.554075008432562, 22.052705216276731 ], [ -159.553720174617723, 22.052613632168562 ], [ -159.554482305546713, 22.051578790859725 ], [ -159.555329925373087, 22.051918074884178 ], [ -159.556340618081009, 22.052590934541193 ], [ -159.556756138314597, 22.050813576490839 ], [ -159.557826181979948, 22.051525975925191 ], [ -159.55842536229008, 22.050848518463862 ], [ -159.559398029041574, 22.051362171818578 ], [ -159.559665305262456, 22.051930836305509 ], [ -159.560172546016105, 22.051880881077633 ], [ -159.561998704397638, 22.052253287233899 ], [ -159.562425610248681, 22.050878462199517 ], [ -159.56330725956866, 22.050791628518546 ], [ -159.565584687845245, 22.051000097179333 ], [ -159.566215357534986, 22.049630662689616 ], [ -159.567083985779078, 22.050090471061317 ], [ -159.568099360301147, 22.049543641991299 ], [ -159.568978165429513, 22.050008830709569 ], [ -159.569249497965188, 22.049702057178489 ], [ -159.569856794464897, 22.049453996514398 ], [ -159.570119503733707, 22.049156978341433 ], [ -159.570558977337015, 22.048814035020822 ], [ -159.569849647105826, 22.047669443307008 ], [ -159.57026912698862, 22.0470141728016 ], [ -159.573161912700215, 22.046437852222244 ], [ -159.574334641842484, 22.045111632388227 ], [ -159.575113073496937, 22.046278277180015 ], [ -159.576539356856046, 22.045313704117877 ], [ -159.577597800193359, 22.045410516610357 ], [ -159.578331708065747, 22.042827575164043 ], [ -159.579934220935172, 22.042259708218577 ], [ -159.58006018433943, 22.043369914419682 ], [ -159.579615162015273, 22.044100781251625 ], [ -159.579783383849559, 22.045583646777537 ], [ -159.577999493916053, 22.046869732207828 ], [ -159.577959105399884, 22.04725360150951 ], [ -159.578310192240195, 22.04782008605553 ], [ -159.577668711147481, 22.048873451113192 ], [ -159.578839804077603, 22.050378332672338 ], [ -159.578004807630634, 22.051322609791583 ], [ -159.57684379855894, 22.051796863923055 ], [ -159.577110188999711, 22.052409867604553 ], [ -159.577269468657533, 22.05253227977072 ], [ -159.577370322869143, 22.052862368551143 ], [ -159.577624316181954, 22.052623812512753 ], [ -159.577269468657533, 22.05253227977072 ], [ -159.577402354481819, 22.052115198942701 ], [ -159.578295103668978, 22.051861170473526 ], [ -159.579143427039639, 22.051295972549958 ], [ -159.57987149638879, 22.050989997040517 ], [ -159.580490721556629, 22.049946148183711 ], [ -159.579735876765852, 22.048696190846844 ], [ -159.580729808335718, 22.048492641477051 ], [ -159.581474804476358, 22.048876668163967 ], [ -159.582447887640882, 22.047603158474715 ], [ -159.583806474708069, 22.046686371806654 ], [ -159.583212336634858, 22.045702565034173 ], [ -159.583479904230444, 22.045318017570839 ], [ -159.584728824749021, 22.044475193413586 ], [ -159.584589180032111, 22.042929007846666 ], [ -159.585213056747477, 22.042601578735862 ], [ -159.585893030429133, 22.042315798044925 ], [ -159.586904071079772, 22.040181309943808 ], [ -159.587259394291635, 22.040153419962401 ], [ -159.58761093175292, 22.043248554103481 ], [ -159.588169789058128, 22.043693927980403 ], [ -159.588057888892081, 22.045057809840458 ], [ -159.588431742812134, 22.045028461024764 ], [ -159.588867951064572, 22.045059546872931 ], [ -159.58963261615753, 22.044999509895099 ], [ -159.589560793970094, 22.045874678211 ], [ -159.590035779441308, 22.046253186492525 ] ], [ [ -159.576161444727063, 22.066087441819501 ], [ -159.5762598511877, 22.066267072756752 ], [ -159.57664675476039, 22.066447804470965 ], [ -159.576891629243249, 22.066894784084646 ], [ -159.577276597363209, 22.066178776735839 ], [ -159.576161444727063, 22.066087441819501 ] ], [ [ -159.584792111756087, 22.114299068371931 ], [ -159.584951599694335, 22.114642619131583 ], [ -159.585461480472361, 22.114406525396074 ], [ -159.584792111756087, 22.114299068371931 ] ], [ [ -159.577528397466352, 22.116222076613596 ], [ -159.577629301193667, 22.116552161688666 ], [ -159.5778834053026, 22.116313596375193 ], [ -159.577528397466352, 22.116222076613596 ] ], [ [ -159.573479352273552, 22.121927833667844 ], [ -159.573580251024453, 22.12225792113065 ], [ -159.573834372092563, 22.122019361918127 ], [ -159.573479352273552, 22.121927833667844 ] ], [ [ -159.614044539860714, 22.152676752334163 ], [ -159.613943523963997, 22.152346693691637 ], [ -159.613689418941476, 22.152585314188737 ], [ -159.614044539860714, 22.152676752334163 ], [ -159.614145556247195, 22.153006810890087 ], [ -159.614399661220006, 22.152768189694871 ], [ -159.614044539860714, 22.152676752334163 ] ], [ [ -159.609770461728573, 22.173561370921444 ], [ -159.609500774928563, 22.174760557342413 ], [ -159.610200297099453, 22.173916183434635 ], [ -159.609770461728573, 22.173561370921444 ] ], [ [ -159.620810948258878, 22.169725413677543 ], [ -159.620941919343039, 22.170609740989981 ], [ -159.621705950830233, 22.170902040910882 ], [ -159.621286969775923, 22.169966077237451 ], [ -159.620810948258878, 22.169725413677543 ] ], [ [ -159.609158152492085, 22.166517130941056 ], [ -159.609512711634068, 22.167838850031554 ], [ -159.609278092073197, 22.168832465085355 ], [ -159.609855969948626, 22.16965183470413 ], [ -159.610734186900999, 22.169874176448356 ], [ -159.609850040190707, 22.16882037651391 ], [ -159.610219694775253, 22.168286902306122 ], [ -159.610150348987389, 22.168004032898029 ], [ -159.610246412483633, 22.167597142717185 ], [ -159.610031942451087, 22.166722521622802 ], [ -159.609158152492085, 22.166517130941056 ] ], [ [ -159.619926160548431, 22.167018580625882 ], [ -159.618879759347891, 22.168247332619089 ], [ -159.619804458089448, 22.16876568687784 ], [ -159.620064494376521, 22.169065691634351 ], [ -159.620745803734906, 22.169304144996847 ], [ -159.620234539069287, 22.167246676359877 ], [ -159.619926160548431, 22.167018580625882 ] ], [ [ -159.619337112677385, 22.16539469875767 ], [ -159.61944902828273, 22.166424171569403 ], [ -159.620319023697419, 22.166765593707485 ], [ -159.619813117028315, 22.165635367142244 ], [ -159.619337112677385, 22.16539469875767 ] ], [ [ -159.617286197068637, 22.162150233546836 ], [ -159.616831252401255, 22.162809606335284 ], [ -159.61658620561667, 22.163532358038037 ], [ -159.617967353127682, 22.163305477754989 ], [ -159.618664816397086, 22.163703879552237 ], [ -159.618579302661686, 22.16417798487986 ], [ -159.6186335483807, 22.16446448913468 ], [ -159.617423809023677, 22.165246545955554 ], [ -159.617179610764794, 22.16578951101577 ], [ -159.619158200642289, 22.164638526698837 ], [ -159.61870947096898, 22.162268447457279 ], [ -159.617286197068637, 22.162150233546836 ] ], [ [ -159.649493667834122, 22.14278274174762 ], [ -159.649933557739871, 22.142913787160005 ], [ -159.650500995567626, 22.143459313554665 ], [ -159.651088382341356, 22.14344579673535 ], [ -159.651812574962236, 22.143789694285079 ], [ -159.652554292846077, 22.143450791876642 ], [ -159.652941551019126, 22.143072049942386 ], [ -159.65457216904403, 22.143846360063232 ], [ -159.656038223591395, 22.143176479113443 ], [ -159.654663226150518, 22.141803638098295 ], [ -159.653692498528756, 22.141825990459463 ], [ -159.653715762218582, 22.140480368429053 ], [ -159.653123365654722, 22.139420157725947 ], [ -159.655164376585503, 22.139102207479105 ], [ -159.655142785262967, 22.138288333632495 ], [ -159.655147497491782, 22.13801729502859 ], [ -159.655133308208661, 22.137483136829701 ], [ -159.655439241032184, 22.136924022019851 ], [ -159.654843053043834, 22.136395003900862 ], [ -159.65484782486169, 22.13612135967103 ], [ -159.654840596481534, 22.135848235021399 ], [ -159.655173919276535, 22.133979062413829 ], [ -159.653990967966763, 22.133417309936746 ], [ -159.652712405243676, 22.133974798056311 ], [ -159.649605744698874, 22.136139596196625 ], [ -159.649125801980318, 22.136609016935658 ], [ -159.64728762170742, 22.136967391691034 ], [ -159.646991510960902, 22.136962933401822 ], [ -159.645837322692216, 22.137786098442739 ], [ -159.644741383210203, 22.138286792038013 ], [ -159.64256179919289, 22.139529957851845 ], [ -159.640359674627092, 22.140241854014878 ], [ -159.63828022234577, 22.140520607757331 ], [ -159.637996383194405, 22.140798163720447 ], [ -159.637119027352071, 22.141067186268234 ], [ -159.636835184803317, 22.141344740272899 ], [ -159.635813891258351, 22.141811255604679 ], [ -159.635099447444929, 22.143519667793612 ], [ -159.634804973292205, 22.144057635394351 ], [ -159.634819000393435, 22.144588257154872 ], [ -159.633718582427008, 22.145664218112682 ], [ -159.633068101377916, 22.145961319229873 ], [ -159.632778583837052, 22.1462444216038 ], [ -159.631398086289096, 22.146223526660602 ], [ -159.630435709424091, 22.146518565474786 ], [ -159.629878653585479, 22.147063171430187 ], [ -159.629583088268845, 22.14732990699089 ], [ -159.629293560866842, 22.147613003361933 ], [ -159.628711664894922, 22.147604180505482 ], [ -159.628421993586983, 22.147887383441219 ], [ -159.627842866742583, 22.14787860473573 ], [ -159.627406517451078, 22.147888579176758 ], [ -159.626705285918518, 22.147877941868945 ], [ -159.625811078055676, 22.148286342132501 ], [ -159.626563762765443, 22.148672192940385 ], [ -159.628905500077877, 22.148707704049638 ], [ -159.633318827260638, 22.148089461163224 ], [ -159.633666681872739, 22.148398177360175 ], [ -159.634166455312851, 22.148878750080225 ], [ -159.635422487932061, 22.149758912379703 ], [ -159.63616389259704, 22.149034016622771 ], [ -159.636583534837456, 22.151373467058427 ], [ -159.638516085825358, 22.151717069893841 ], [ -159.639220853664341, 22.152978429138475 ], [ -159.639864659061288, 22.154201523189791 ], [ -159.641200141499382, 22.15337840562875 ], [ -159.642044622105487, 22.151358969104574 ], [ -159.644550198560012, 22.151301447410408 ], [ -159.646776232436764, 22.151717013961228 ], [ -159.646765933189556, 22.151328390499874 ], [ -159.647057897074205, 22.150248174650617 ], [ -159.647476296533711, 22.147787959164987 ], [ -159.648786272969204, 22.147807658271521 ], [ -159.648791101479645, 22.147528381668518 ], [ -159.648755286784848, 22.146176138694756 ], [ -159.6491557515522, 22.146505214856788 ], [ -159.650211393839214, 22.147520014211704 ], [ -159.653726794957578, 22.14705478990707 ], [ -159.653737279483465, 22.146448932392385 ], [ -159.653285712328511, 22.145591241874904 ], [ -159.651406132110878, 22.145634495705359 ], [ -159.650566943709265, 22.144827721443406 ], [ -159.649935222204903, 22.144545324453414 ], [ -159.648633190693147, 22.143633051845562 ], [ -159.647608937698777, 22.144285779806069 ], [ -159.647079958795189, 22.143777185572304 ], [ -159.643535516121801, 22.143387924599317 ], [ -159.644111177251119, 22.142935560482108 ], [ -159.645817583762778, 22.143472170158574 ], [ -159.646446277633061, 22.143203052462024 ], [ -159.646061804833181, 22.142514966637517 ], [ -159.648596677601262, 22.143461146425267 ], [ -159.649645757870076, 22.143190915557685 ], [ -159.649493667834122, 22.14278274174762 ] ], [ [ -159.606742127790966, 22.14592855135044 ], [ -159.608102008018903, 22.145598044535951 ], [ -159.607996098944255, 22.145166036009293 ], [ -159.607466654118383, 22.145278681227737 ], [ -159.607154573671068, 22.145214734282877 ], [ -159.606742127790966, 22.14592855135044 ], [ -159.606387822872477, 22.146022643439043 ], [ -159.606643965576751, 22.14625935586221 ], [ -159.606742127790966, 22.14592855135044 ] ], [ [ -159.675682163764776, 22.144031488139817 ], [ -159.675783316070067, 22.144361505546744 ], [ -159.676037299354419, 22.144122790972595 ], [ -159.675682163764776, 22.144031488139817 ] ], [ [ -159.655005956708408, 22.139508471385241 ], [ -159.654869333386785, 22.139652155281553 ], [ -159.654334755999912, 22.140101033869936 ], [ -159.655006966442159, 22.141262469118296 ], [ -159.655727823580321, 22.140104142849015 ], [ -159.655005956708408, 22.139508471385241 ] ], [ [ -159.573177520999394, 22.119218660836669 ], [ -159.57327841696852, 22.119548748651113 ], [ -159.573532533811886, 22.119310189922587 ], [ -159.573177520999394, 22.119218660836669 ] ], [ [ -159.583627566598466, 22.114032210608716 ], [ -159.583728482744277, 22.114362291729623 ], [ -159.583982572522501, 22.114123717170418 ], [ -159.583627566598466, 22.114032210608716 ] ], [ [ -159.589432311423082, 22.111030113356698 ], [ -159.589533238676751, 22.111360190762692 ], [ -159.589787313210536, 22.111121607417797 ], [ -159.589432311423082, 22.111030113356698 ] ], [ [ -159.571370076036942, 22.103776648411806 ], [ -159.571568519430713, 22.104124609751107 ], [ -159.572343390799318, 22.103891045686634 ], [ -159.571370076036942, 22.103776648411806 ] ], [ [ -159.591394839646682, 22.093406510074697 ], [ -159.591495757859377, 22.093736587151817 ], [ -159.591749798246582, 22.093498009283053 ], [ -159.591394839646682, 22.093406510074697 ] ], [ [ -159.590508869582351, 22.090157429943542 ], [ -159.590690838201283, 22.091027326782338 ], [ -159.591521908702191, 22.090333876415894 ], [ -159.590508869582351, 22.090157429943542 ] ], [ [ -159.587293170581319, 22.086103656665308 ], [ -159.587394073701546, 22.08643373689177 ], [ -159.587648108386929, 22.086195165321399 ], [ -159.587293170581319, 22.086103656665308 ] ], [ [ -159.588744920751935, 22.0855563877364 ], [ -159.588845826802924, 22.085886467023215 ], [ -159.589099858036519, 22.085647893256311 ], [ -159.588744920751935, 22.0855563877364 ] ], [ [ -159.57012944205897, 22.084538261636936 ], [ -159.570288859625776, 22.08488182943432 ], [ -159.570798660239177, 22.084645782372114 ], [ -159.57012944205897, 22.084538261636936 ] ], [ [ -159.582296250691172, 22.073112363584542 ], [ -159.582116713792658, 22.07380513737327 ], [ -159.582352213671896, 22.074035937024703 ], [ -159.582706870022918, 22.073374448825799 ], [ -159.582296250691172, 22.073112363584542 ] ], [ [ -159.568009354334151, 22.063405693098179 ], [ -159.568110195525236, 22.063735787444259 ], [ -159.568364223699007, 22.063497245344436 ], [ -159.568009354334151, 22.063405693098179 ] ], [ [ -159.561608479109225, 22.062343684896085 ], [ -159.561748122316033, 22.06297630431698 ], [ -159.562870795987806, 22.062752023114435 ], [ -159.562344419975432, 22.06240648217544 ], [ -159.562044979495994, 22.062544065859029 ], [ -159.561608479109225, 22.062343684896085 ] ], [ [ -159.563347623010742, 22.060982579248726 ], [ -159.563448451592791, 22.061312676830241 ], [ -159.563702483533916, 22.061074141823475 ], [ -159.563347623010742, 22.060982579248726 ] ] ] } },
{ "type": "Feature", "properties": { "ID": 30, "GRIDCODE": 2 }, "geometry": { "type": "Polygon", "coordinates": [ [ [ -159.558902262834408, 22.039586764179528 ], [ -159.559257067030103, 22.039678337809754 ], [ -159.559003064804756, 22.03991686589216 ], [ -159.558902262834408, 22.039586764179528 ] ] ] } },
{ "type": "Feature", "properties": { "ID": 31, "GRIDCODE": 2 }, "geometry": { "type": "Polygon", "coordinates": [ [ [ -159.56006188702446, 22.038769723519181 ], [ -159.560730882359451, 22.038877290737872 ], [ -159.560221226504694, 22.039113304632931 ], [ -159.56006188702446, 22.038769723519181 ] ] ] } },
{ "type": "Feature", "properties": { "ID": 32, "GRIDCODE": 2 }, "geometry": { "type": "Polygon", "coordinates": [ [ [ -159.564411701454787, 22.036044527978433 ], [ -159.565409827616008, 22.036555893185966 ], [ -159.564858199465249, 22.036745103068363 ], [ -159.564559644956233, 22.036698259490734 ], [ -159.562850882094551, 22.036978591050165 ], [ -159.563366117169267, 22.036379946321638 ], [ -159.564059949124101, 22.036488853862206 ], [ -159.564411701454787, 22.036044527978433 ] ] ] } },
{ "type": "Feature", "properties": { "ID": 33, "GRIDCODE": 2 }, "geometry": { "type": "Polygon", "coordinates": [ [ [ -159.567601818683414, 22.034136320340238 ], [ -159.568270797106834, 22.034243857161545 ], [ -159.567761170724424, 22.034479894036551 ], [ -159.567601818683414, 22.034136320340238 ] ] ] } },
{ "type": "Feature", "properties": { "ID": 34, "GRIDCODE": 2 }, "geometry": { "type": "Polygon", "coordinates": [ [ [ -159.568472819333351, 22.033862273632963 ], [ -159.569141797034689, 22.033969806913898 ], [ -159.568632173132528, 22.034205846455091 ], [ -159.568472819333351, 22.033862273632963 ] ] ] } },
{ "type": "Feature", "properties": { "ID": 35, "GRIDCODE": 2 }, "geometry": { "type": "Polygon", "coordinates": [ [ [ -159.569561902794931, 22.015428686514056 ], [ -159.570398172195212, 22.015548604107728 ], [ -159.569203397118144, 22.016280000607388 ], [ -159.569090498963305, 22.01581870081198 ], [ -159.569443825741644, 22.015589423423833 ], [ -159.569561902794931, 22.015428686514056 ] ] ] } },
{ "type": "Feature", "properties": { "ID": 36, "GRIDCODE": 2 }, "geometry": { "type": "Polygon", "coordinates": [ [ [ -159.541641342870037, 22.010915852666301 ], [ -159.541756766180498, 22.010292193105187 ], [ -159.54200984084676, 22.010767375850481 ], [ -159.541641342870037, 22.010915852666301 ] ] ] } },
{ "type": "Feature", "properties": { "ID": 37, "GRIDCODE": 2 }, "geometry": { "type": "Polygon", "coordinates": [ [ [ -159.538245712630612, 22.035319521543496 ], [ -159.538144961999762, 22.034989405817509 ], [ -159.537890931807965, 22.035227901846209 ], [ -159.538245712630612, 22.035319521543496 ], [ -159.538531636768511, 22.035595034772797 ], [ -159.538977922433304, 22.035991968864174 ], [ -159.539263849339278, 22.036267480736843 ], [ -159.541292220530494, 22.037381026409445 ], [ -159.540433830575523, 22.038155388283947 ], [ -159.54014999547087, 22.038432777511353 ], [ -159.539270661824418, 22.038834077087483 ], [ -159.53840360153518, 22.039254107032885 ], [ -159.537818195959375, 22.036808862529472 ], [ -159.534427911451502, 22.023821375660617 ], [ -159.535132584654065, 22.022454938396749 ], [ -159.536600266029751, 22.022182800292455 ], [ -159.536893341050586, 22.021614458838584 ], [ -159.5377515822438, 22.020840148901968 ], [ -159.537756874482596, 22.02055012990175 ], [ -159.53773358279858, 22.019643510714694 ], [ -159.539473455186993, 22.019110757779032 ], [ -159.539494114273481, 22.017969657100409 ], [ -159.539477307011396, 22.017316509728435 ], [ -159.539771276742272, 22.016746406736093 ], [ -159.540067695349194, 22.016205177869779 ], [ -159.539074567531827, 22.015321668016846 ], [ -159.539478248540576, 22.014584574758711 ], [ -159.539761012155509, 22.01403616234812 ], [ -159.540522954893618, 22.013688365771529 ], [ -159.540925355595419, 22.012953638769563 ], [ -159.541391992681639, 22.011140840067576 ], [ -159.541641342870037, 22.010915852666301 ], [ -159.541782696870541, 22.011327088605636 ], [ -159.542086437592189, 22.011857817912656 ], [ -159.542368307666237, 22.012458658729571 ], [ -159.541786951380374, 22.013491906198539 ], [ -159.542513624906093, 22.014115245552453 ], [ -159.543252635435891, 22.013747479659653 ], [ -159.543775342296129, 22.014269804087682 ], [ -159.545276630389679, 22.01516671514489 ], [ -159.544265729698424, 22.016046349111207 ], [ -159.543987215179385, 22.016328640221726 ], [ -159.543633186414439, 22.016422600088653 ], [ -159.543888988010593, 22.016659413476905 ], [ -159.543987215179385, 22.016328640221726 ], [ -159.544143809852613, 22.016453560049154 ], [ -159.544422483465382, 22.017030255677607 ], [ -159.544972494987235, 22.016430641926888 ], [ -159.545830329406073, 22.015736538099343 ], [ -159.546580412697864, 22.014610971272734 ], [ -159.547869550184146, 22.014069409704955 ], [ -159.548267111806751, 22.013635948283568 ], [ -159.548756088691363, 22.01210174229648 ], [ -159.549068971294417, 22.01184850860248 ], [ -159.549019377973622, 22.011297852038346 ], [ -159.549064661788748, 22.010748101810947 ], [ -159.548748862972275, 22.010224721246992 ], [ -159.548477373574514, 22.009598084119705 ], [ -159.54977486571363, 22.009690923859594 ], [ -159.550598524323902, 22.009626440777541 ], [ -159.55127461156755, 22.008889330582679 ], [ -159.551653228746602, 22.009672918962959 ], [ -159.553128998990076, 22.009918825808402 ], [ -159.553400403724538, 22.010518259738845 ], [ -159.55223005564963, 22.011009986275187 ], [ -159.552555581867438, 22.011549455697569 ], [ -159.552532606472795, 22.011828103905053 ], [ -159.552572869625493, 22.012274822818597 ], [ -159.553499606331627, 22.012656683134566 ], [ -159.553380276609374, 22.014107324318353 ], [ -159.554217336616091, 22.013194675379275 ], [ -159.554884555429481, 22.012914343865837 ], [ -159.555232455303809, 22.012180296799922 ], [ -159.554847995428077, 22.0115432018221 ], [ -159.555459521792585, 22.011286232174378 ], [ -159.555735588992803, 22.010985237568214 ], [ -159.556651258772092, 22.011585970935883 ], [ -159.556597854983323, 22.010993726458981 ], [ -159.55700003183469, 22.01031578453642 ], [ -159.558069797052354, 22.011017605108123 ], [ -159.558628628620397, 22.009629151374728 ], [ -159.559254733308904, 22.009366063654351 ], [ -159.559179434458713, 22.008530972514304 ], [ -159.560388628730266, 22.008835124408336 ], [ -159.560658515370193, 22.008265514070938 ], [ -159.561221516107679, 22.008305770493546 ], [ -159.562074729274826, 22.007858044648181 ], [ -159.562397386342724, 22.007177020896787 ], [ -159.563288813873584, 22.006652054605507 ], [ -159.56384522489671, 22.005816911801286 ], [ -159.564156439658632, 22.005564962397901 ], [ -159.56442148273976, 22.004458204462622 ], [ -159.564984824008633, 22.00449846359766 ], [ -159.565670114454207, 22.004138806141459 ], [ -159.565528871230782, 22.002572052451548 ], [ -159.566468608794452, 22.002304663217966 ], [ -159.567055049292406, 21.999679788104778 ], [ -159.568599404705083, 22.002875422158681 ], [ -159.567617027171309, 22.004177734943465 ], [ -159.567351279588138, 22.005011884777247 ], [ -159.566680227061596, 22.005293917141067 ], [ -159.566777097785007, 22.006368642711561 ], [ -159.564997230995886, 22.006752178977319 ], [ -159.565069222675902, 22.007550207388864 ], [ -159.563571797852802, 22.007443205159806 ], [ -159.563201015201827, 22.007472270088758 ], [ -159.563297191965319, 22.00853914271541 ], [ -159.56327227513691, 22.008841834626459 ], [ -159.562036748916711, 22.008753537674483 ], [ -159.562165569135857, 22.010182788060664 ], [ -159.561557346989616, 22.010139315319552 ], [ -159.56126928215204, 22.010453362754376 ], [ -159.560329480773277, 22.010720723264797 ], [ -159.560403229844098, 22.011538565308843 ], [ -159.559319378635735, 22.012838810724613 ], [ -159.558933088168658, 22.013151468861611 ], [ -159.558512879033486, 22.013609614452399 ], [ -159.558957848547038, 22.013964466182244 ], [ -159.559230199433472, 22.014796767295362 ], [ -159.559544475708009, 22.015317600772274 ], [ -159.559822440766396, 22.016439435869692 ], [ -159.560107411529401, 22.016128759571419 ], [ -159.560442069229509, 22.01585789536362 ], [ -159.56035651883019, 22.014908980794075 ], [ -159.561301797001363, 22.014511777966703 ], [ -159.560632944369786, 22.013978414405369 ], [ -159.561464865675077, 22.013628875928017 ], [ -159.562152742671799, 22.013983680696295 ], [ -159.562419840126353, 22.012868516094553 ], [ -159.562789969048509, 22.012616367047194 ], [ -159.563301638499667, 22.013166092933698 ], [ -159.564551660802493, 22.012246331914358 ], [ -159.564409899962754, 22.013971226538853 ], [ -159.564769561691151, 22.013943024027427 ], [ -159.565142918088071, 22.014344158795225 ], [ -159.566377414125355, 22.013696341271292 ], [ -159.567507122494021, 22.013413185687188 ], [ -159.56678674989962, 22.015024917151649 ], [ -159.566816368761238, 22.015353077576492 ], [ -159.568231473440818, 22.015936003952586 ], [ -159.566802243669912, 22.015833908058053 ], [ -159.566221102771209, 22.015879472132582 ], [ -159.565632659415968, 22.015837418924598 ], [ -159.564775761184222, 22.01613422887343 ], [ -159.564469968954683, 22.016112371328443 ], [ -159.563905996217215, 22.016408333171416 ], [ -159.563461787651562, 22.016376594497 ], [ -159.562992090719973, 22.016413410232929 ], [ -159.563087682551924, 22.017474378204703 ], [ -159.562439092045793, 22.017746937389198 ], [ -159.562173290592284, 22.018581078634039 ], [ -159.561571381042086, 22.018834020743373 ], [ -159.561145552536061, 22.021056629946177 ], [ -159.559830063278355, 22.020962587307185 ], [ -159.559936245299099, 22.022141052845555 ], [ -159.558988308106365, 22.022073290061144 ], [ -159.558642623488225, 22.022450158156097 ], [ -159.557080448494872, 22.022338456806839 ], [ -159.556404045041091, 22.023765846792749 ], [ -159.555269430581944, 22.023381715205577 ], [ -159.554926771593074, 22.023755290025065 ], [ -159.553718802652583, 22.024015465833887 ], [ -159.553788667716191, 22.024790975233071 ], [ -159.553052699672861, 22.026680824173585 ], [ -159.552299965219362, 22.026997035993034 ], [ -159.55233912134463, 22.027431582773648 ], [ -159.550803170972728, 22.028076803446577 ], [ -159.55093026793304, 22.029487556093468 ], [ -159.550141725381991, 22.029431150325163 ], [ -159.549658784816728, 22.029468949053278 ], [ -159.549133068208988, 22.028904175451 ], [ -159.548190663746766, 22.028385425595811 ], [ -159.548263687084301, 22.029195731606066 ], [ -159.54779668649411, 22.029982666870865 ], [ -159.547396330391081, 22.030827325402221 ], [ -159.5470261268473, 22.031079440671149 ], [ -159.546502837287647, 22.030517247678542 ], [ -159.545785762194498, 22.030573367198585 ], [ -159.545052515619489, 22.030520904867537 ], [ -159.544782958633448, 22.031927093059302 ], [ -159.543392342695114, 22.031456190059355 ], [ -159.542443502796488, 22.033457746468301 ], [ -159.541473098456038, 22.03380816097302 ], [ -159.540281997263662, 22.033193713838816 ], [ -159.54045375208446, 22.035102181743294 ], [ -159.538245712630612, 22.035319521543496 ] ], [ [ -159.536473955058511, 22.028007594467415 ], [ -159.536828017517962, 22.027913649521466 ], [ -159.536572206758365, 22.027676825605852 ], [ -159.536473955058511, 22.028007594467415 ], [ -159.536119892115721, 22.028101538656511 ], [ -159.536375702918747, 22.028338363265945 ], [ -159.536473955058511, 22.028007594467415 ] ], [ [ -159.538214982039847, 22.027188802048649 ], [ -159.538685103593792, 22.027083934467573 ], [ -159.539451701028213, 22.026578314269749 ], [ -159.54046296432503, 22.026253268950892 ], [ -159.540089372017235, 22.025724174321514 ], [ -159.539263387882443, 22.02626894979414 ], [ -159.538372478572171, 22.026555297136465 ], [ -159.538214982039847, 22.027188802048649 ], [ -159.537860922355605, 22.027282749945474 ], [ -159.538116734488455, 22.027519571831306 ], [ -159.538214982039847, 22.027188802048649 ] ] ] } }
]
}
