{
"type": "FeatureCollection",
"name": "melkamo",
"crs": { "type": "name", "properties": { "name": "urn:ogc:def:crs:OGC:1.3:CRS84" } },
"features": [
{ "type": "Feature", "properties": { "ID": 1, "GRIDCODE": 1 }, "geometry": { "type": "Polygon", "coordinates": [ [ [ -156.660552582810482, 20.939197870599976 ], [ -156.66126195851561, 20.939414347190887 ], [ -156.660842280714405, 20.940126720524315 ], [ -156.660552582810482, 20.939197870599976 ] ] ] } },
{ "type": "Feature", "properties": { "ID": 2, "GRIDCODE": 1 }, "geometry": { "type": "Polygon", "coordinates": [ [ [ -156.664786221012008, 20.92652345542751 ], [ -156.665136122050143, 20.926620969443718 ], [ -156.664879915548141, 20.926855032884301 ], [ -156.664786221012008, 20.92652345542751 ] ] ] } },
{ "type": "Feature", "properties": { "ID": 3, "GRIDCODE": 1 }, "geometry": { "type": "Polygon", "coordinates": [ [ [ -156.513916371193773, 20.878613254011746 ], [ -156.514288435379484, 20.878769315965016 ], [ -156.514021613059811, 20.879230352601361 ], [ -156.513916371193773, 20.878613254011746 ] ] ] } },
{ "type": "Feature", "properties": { "ID": 4, "GRIDCODE": 1 }, "geometry": { "type": "Polygon", "coordinates": [ [ [ -156.664786221012008, 20.92652345542751 ], [ -156.664342992459154, 20.926651914928875 ], [ -156.664351130349246, 20.927961169880447 ], [ -156.663745943268452, 20.929090861875778 ], [ -156.663140909413016, 20.930155605111494 ], [ -156.663144068452993, 20.930659754815327 ], [ -156.661747171985553, 20.933267232195291 ], [ -156.660775097375506, 20.934573363848695 ], [ -156.660759149632071, 20.93500172088644 ], [ -156.660765604614028, 20.936072454974411 ], [ -156.66043472763559, 20.936362364518015 ], [ -156.661586455028015, 20.937432665273359 ], [ -156.660737450230357, 20.939062309632359 ], [ -156.660325642533792, 20.93763760012644 ], [ -156.656930455903677, 20.918790304254752 ], [ -156.654988458984633, 20.908658518865156 ], [ -156.65294313840343, 20.903568867400121 ], [ -156.65023375739176, 20.897922972859035 ], [ -156.649574277910148, 20.894481069671158 ], [ -156.647707947585587, 20.891167663038633 ], [ -156.646737490698115, 20.887742901813738 ], [ -156.64203372885035, 20.878935828147327 ], [ -156.639964911748251, 20.876658726451691 ], [ -156.638073960723062, 20.873739349861097 ], [ -156.633347452497077, 20.864859168179603 ], [ -156.630302368696533, 20.859489625221446 ], [ -156.625916432114536, 20.85388676346783 ], [ -156.622916440147861, 20.848595922747702 ], [ -156.620102791296091, 20.844566889814878 ], [ -156.619745206737122, 20.843093801327129 ], [ -156.618634844998752, 20.842568176429744 ], [ -156.615053127463597, 20.838434478042842 ], [ -156.616161947288305, 20.837947672365303 ], [ -156.616736865631736, 20.837679486012313 ], [ -156.617173916540821, 20.837552764758396 ], [ -156.617267469458227, 20.837884356246754 ], [ -156.617523576164871, 20.837650354645849 ], [ -156.617173916540821, 20.837552764758396 ], [ -156.616592070637864, 20.836599168490775 ], [ -156.615866695774855, 20.836861556289247 ], [ -156.614749674977162, 20.837922714226128 ], [ -156.614125710567606, 20.837392595688918 ], [ -156.612449223359164, 20.835457865238716 ], [ -156.612489028007985, 20.834397315876409 ], [ -156.612166605075629, 20.834072320014506 ], [ -156.610012032542926, 20.834083534735328 ], [ -156.608453056956989, 20.832962970951286 ], [ -156.609055982889799, 20.831384232633113 ], [ -156.60818812196581, 20.831600552552626 ], [ -156.606845545258551, 20.83252887952197 ], [ -156.605592423275027, 20.832106077725467 ], [ -156.602401389039898, 20.831520833954919 ], [ -156.603325366541299, 20.830710759185358 ], [ -156.604183641683306, 20.829108630226397 ], [ -156.605355664305989, 20.828857297005047 ], [ -156.605647927254694, 20.82831204920284 ], [ -156.606223578235557, 20.828601176739596 ], [ -156.606582322400698, 20.827000780820782 ], [ -156.60825792982024, 20.827538068664456 ], [ -156.610255934533001, 20.828383937484812 ], [ -156.613073735760707, 20.829474542657984 ], [ -156.616465794248285, 20.831912642002806 ], [ -156.620248735951208, 20.836128597478201 ], [ -156.626018683849139, 20.843194931634127 ], [ -156.628694089501607, 20.847326989976292 ], [ -156.63139572116134, 20.851554353490698 ], [ -156.636853378357046, 20.859635659820864 ], [ -156.64333859058334, 20.869201375541969 ], [ -156.643896535427388, 20.870027058340536 ], [ -156.649530039693616, 20.87835796620794 ], [ -156.654230841468916, 20.886786251357677 ], [ -156.656097560893414, 20.891803324337584 ], [ -156.655365980359221, 20.892124640554325 ], [ -156.656616597707142, 20.893022759281767 ], [ -156.657631926853298, 20.895948886265757 ], [ -156.656347185826036, 20.896321351029371 ], [ -156.655870263575679, 20.896739548091919 ], [ -156.658364083344821, 20.897060656118047 ], [ -156.661623634234559, 20.901724282182489 ], [ -156.66448217213005, 20.908405951025564 ], [ -156.665431895119923, 20.912583417546333 ], [ -156.665729794288922, 20.913746105614578 ], [ -156.665662265148256, 20.915561214123247 ], [ -156.666517577863488, 20.915965638023369 ], [ -156.666526310747713, 20.917383767886616 ], [ -156.66535198477473, 20.917724197784217 ], [ -156.665354657980799, 20.918133234827273 ], [ -156.66533931469678, 20.918542025440992 ], [ -156.667056963702777, 20.919354145533347 ], [ -156.666765569491105, 20.919916043973586 ], [ -156.666463083663189, 20.920448556842647 ], [ -156.666465004485502, 20.920724513016236 ], [ -156.664973668205505, 20.923077429840244 ], [ -156.66497869864105, 20.923879228964548 ], [ -156.664786221012008, 20.92652345542751 ] ] ] } },
{ "type": "Feature", "properties": { "ID": 5, "GRIDCODE": 1 }, "geometry": { "type": "Polygon", "coordinates": [ [ [ -156.583511705068531, 20.816222215421554 ], [ -156.583615707687812, 20.81589339765803 ], [ -156.583864244471329, 20.81613446312484 ], [ -156.583511705068531, 20.816222215421554 ] ] ] } },
{ "type": "Feature", "properties": { "ID": 6, "GRIDCODE": 1 }, "geometry": { "type": "Polygon", "coordinates": [ [ [ -156.598159404010488, 20.81913709258999 ], [ -156.597806862459521, 20.819224874422645 ], [ -156.598055429007729, 20.819465921942296 ], [ -156.598159404010488, 20.81913709258999 ], [ -156.599141043087627, 20.818821355790064 ], [ -156.603570833339774, 20.822170764748012 ], [ -156.605471545214556, 20.825337521833653 ], [ -156.604438275162181, 20.826815918582717 ], [ -156.603145793113868, 20.82786978544647 ], [ -156.602480146853651, 20.828822099580158 ], [ -156.602154314217046, 20.829087641380973 ], [ -156.602190585795086, 20.829853351960001 ], [ -156.601635425301652, 20.830420307967515 ], [ -156.601041470430403, 20.829972445141493 ], [ -156.600435893167855, 20.826671675172047 ], [ -156.601299289845258, 20.825545685126752 ], [ -156.600235863126301, 20.824982782663572 ], [ -156.599359386721545, 20.824714950602743 ], [ -156.598621077282189, 20.82391440188352 ], [ -156.597940335751645, 20.823866631822202 ], [ -156.597644973066167, 20.82387902457819 ], [ -156.594247360849181, 20.821326360192227 ], [ -156.592243123185256, 20.82026541989427 ], [ -156.591637150301437, 20.819993680567563 ], [ -156.591709256554822, 20.819086375536568 ], [ -156.590358525080148, 20.818371366629364 ], [ -156.58970089634559, 20.819666857082616 ], [ -156.587046061360269, 20.819921418177266 ], [ -156.584835590391975, 20.820258786981334 ], [ -156.584468103036414, 20.818513165981056 ], [ -156.585934633562175, 20.818616105981214 ], [ -156.585879265972494, 20.817446962407626 ], [ -156.587103523125535, 20.817532854300261 ], [ -156.587080100476982, 20.817042586561826 ], [ -156.587573237676736, 20.815617280471599 ], [ -156.587987396344857, 20.815599962194291 ], [ -156.588282496772365, 20.815620649336186 ], [ -156.588703505661698, 20.815190602297147 ], [ -156.590099020931973, 20.814502967947661 ], [ -156.59364102526817, 20.815586054351265 ], [ -156.596180189266704, 20.817155000858765 ], [ -156.59687502708357, 20.817908519243932 ], [ -156.597721380157026, 20.817873032130457 ], [ -156.598030096103201, 20.818721264204392 ], [ -156.598159404010488, 20.81913709258999 ] ] ] } },
{ "type": "Feature", "properties": { "ID": 7, "GRIDCODE": 1 }, "geometry": { "type": "Polygon", "coordinates": [ [ [ -156.531756478425478, 20.809796008372643 ], [ -156.532106001363985, 20.809893761296884 ], [ -156.531849828552225, 20.810127627393705 ], [ -156.531756478425478, 20.809796008372643 ] ] ] } },
{ "type": "Feature", "properties": { "ID": 8, "GRIDCODE": 1 }, "geometry": { "type": "Polygon", "coordinates": [ [ [ -156.583511705068531, 20.816222215421554 ], [ -156.582782292338266, 20.817305556466291 ], [ -156.582426369718291, 20.820055635403584 ], [ -156.580681941480236, 20.819452984795515 ], [ -156.578073704214773, 20.817849113050983 ], [ -156.5738443779872, 20.813008854300747 ], [ -156.571535384190526, 20.811248158079838 ], [ -156.572365046812621, 20.809125574961808 ], [ -156.570809185186533, 20.809161468950091 ], [ -156.570436674894694, 20.808389676100909 ], [ -156.569611477261049, 20.808039496072187 ], [ -156.568278905008611, 20.808678516468692 ], [ -156.566761825788888, 20.809628786285959 ], [ -156.56622143334755, 20.809063459134656 ], [ -156.564867656374304, 20.809094760826937 ], [ -156.562715506320046, 20.8083509695476 ], [ -156.562816974206385, 20.806607360857885 ], [ -156.562486944144069, 20.806311011227347 ], [ -156.56280705994115, 20.805229220433844 ], [ -156.562746644820606, 20.804962232288094 ], [ -156.561375518411268, 20.805619697833208 ], [ -156.561052556266418, 20.8038876456739 ], [ -156.559127211389182, 20.803513565105295 ], [ -156.558205260891157, 20.804091026395746 ], [ -156.557944517533315, 20.802987349700054 ], [ -156.557502189370922, 20.802590189380805 ], [ -156.557093551684972, 20.802162556766501 ], [ -156.556316384640695, 20.801804007739253 ], [ -156.555869374010513, 20.80087756254219 ], [ -156.555048934322429, 20.800498947964616 ], [ -156.554517026125637, 20.800511203669522 ], [ -156.553873358806982, 20.800179150820799 ], [ -156.553388104500158, 20.799671320054163 ], [ -156.553094852605255, 20.799678114299503 ], [ -156.552744049273912, 20.799660013518452 ], [ -156.551669335168242, 20.799105406811272 ], [ -156.549378636964036, 20.798557627097662 ], [ -156.547500511753242, 20.796592493611676 ], [ -156.54634695328204, 20.796618981500615 ], [ -156.54593497907365, 20.797408822566165 ], [ -156.545353974014063, 20.797378815346317 ], [ -156.544880739473541, 20.79828562871807 ], [ -156.543915005871042, 20.79764008009214 ], [ -156.542877139897939, 20.797314643941739 ], [ -156.541556943275054, 20.797728642028439 ], [ -156.541589130104057, 20.798970849868851 ], [ -156.54128096402539, 20.799498551969748 ], [ -156.54086663653851, 20.80029257656874 ], [ -156.540436973139833, 20.79894467311258 ], [ -156.540150727545921, 20.798138221003377 ], [ -156.539815370948475, 20.796717598521425 ], [ -156.537932367645908, 20.796760679231991 ], [ -156.537528623774676, 20.798253757705783 ], [ -156.537582132143456, 20.800329036608705 ], [ -156.53700482254996, 20.799724740525232 ], [ -156.536178859639023, 20.799343579765015 ], [ -156.535715421371975, 20.799799730122206 ], [ -156.534718615054459, 20.799285293319741 ], [ -156.533882348683051, 20.800887346841822 ], [ -156.53315465303038, 20.801849849403474 ], [ -156.533175230438445, 20.802642700462908 ], [ -156.532597593433763, 20.80313092607831 ], [ -156.532274693773417, 20.803749000416289 ], [ -156.531697337311101, 20.804236829560701 ], [ -156.531390099937653, 20.804825631216303 ], [ -156.531409640263746, 20.805577860087158 ], [ -156.531079140233629, 20.806143707869893 ], [ -156.531099689706963, 20.806937483453112 ], [ -156.530377405341682, 20.807547551795579 ], [ -156.530820971300159, 20.808365541541967 ], [ -156.531492823408911, 20.80896923617178 ], [ -156.531756478425478, 20.809796008372643 ], [ -156.52929145514554, 20.809893822340445 ], [ -156.529295851747975, 20.810711304856742 ], [ -156.528709559104641, 20.810968447829328 ], [ -156.527842177698773, 20.811503001716503 ], [ -156.526957746807426, 20.812030294429796 ], [ -156.526960701770633, 20.812590493188321 ], [ -156.528686052222781, 20.812582312532108 ], [ -156.529558594351471, 20.812611557271445 ], [ -156.529527925397701, 20.813422714440062 ], [ -156.532955792728785, 20.813998123776525 ], [ -156.531094645993988, 20.816019236737311 ], [ -156.529773367450105, 20.816401498655186 ], [ -156.528871847483174, 20.81695725504218 ], [ -156.527180709593068, 20.816900321949944 ], [ -156.526595637162075, 20.817270562058663 ], [ -156.527736486463482, 20.817997437888753 ], [ -156.527720353687016, 20.818417024565747 ], [ -156.52684724050431, 20.818799907032567 ], [ -156.527550818292639, 20.819133456291112 ], [ -156.524341992827885, 20.824775043982424 ], [ -156.521521594107952, 20.832060303702004 ], [ -156.517581702415697, 20.844701028131499 ], [ -156.514397031755323, 20.86207752772517 ], [ -156.513062753793008, 20.872165017759141 ], [ -156.513799675650148, 20.877119062173286 ], [ -156.513916371193773, 20.878613254011746 ], [ -156.513654679272065, 20.878369516772022 ], [ -156.512341987688501, 20.875392282590138 ], [ -156.512421652046498, 20.873306806978263 ], [ -156.511428997479584, 20.871424893892879 ], [ -156.510476886505614, 20.869116479115114 ], [ -156.510471683004198, 20.868134193640099 ], [ -156.510512886924317, 20.867051267577878 ], [ -156.51050738098084, 20.865967661464083 ], [ -156.510538211753556, 20.865155465655402 ], [ -156.510529287668248, 20.863407964578556 ], [ -156.510981436741105, 20.861774969757903 ], [ -156.512619044379676, 20.858427181977898 ], [ -156.513544200843938, 20.857617137802393 ], [ -156.513831228292048, 20.857345136024836 ], [ -156.515009405901992, 20.856550266295677 ], [ -156.511839429317007, 20.856139405551424 ], [ -156.512133748494335, 20.855424287232236 ], [ -156.512737783838276, 20.854083948819962 ], [ -156.513519189121524, 20.851625885064699 ], [ -156.514295186908356, 20.850179842369524 ], [ -156.515691724494445, 20.849347924527507 ], [ -156.515340792600483, 20.848868917703594 ], [ -156.514015099789503, 20.847633869950851 ], [ -156.513989082493595, 20.842710386403116 ], [ -156.514530789280769, 20.841219535202104 ], [ -156.515367883643023, 20.840486625774304 ], [ -156.514886496135091, 20.839573609861162 ], [ -156.515601005269758, 20.837325518857362 ], [ -156.516545957384778, 20.836191280112605 ], [ -156.516037288983853, 20.834197513759062 ], [ -156.517124897421695, 20.832170021413496 ], [ -156.518301644239955, 20.831139652020951 ], [ -156.518293201606667, 20.829560653819648 ], [ -156.518915817033673, 20.828466166557465 ], [ -156.518363601057558, 20.82734288784394 ], [ -156.517798721511497, 20.826271670058954 ], [ -156.51780964244108, 20.825983088552135 ], [ -156.517802792901961, 20.82466732528794 ], [ -156.518160883415106, 20.824037629626289 ], [ -156.517871832706135, 20.822188972312411 ], [ -156.517166442127689, 20.82117722258722 ], [ -156.518503038235082, 20.818129434110151 ], [ -156.519108499609274, 20.817065246195313 ], [ -156.519106798652558, 20.816773968266123 ], [ -156.519706461458696, 20.815719613396208 ], [ -156.520277149786864, 20.814148727634276 ], [ -156.523853264961645, 20.807181893078774 ], [ -156.527450390904562, 20.798007428460114 ], [ -156.530389639582182, 20.793704488705568 ], [ -156.53432552946299, 20.79098425687997 ], [ -156.536727730885673, 20.790249490761752 ], [ -156.539872704162008, 20.790234306892707 ], [ -156.543018243491588, 20.790601332831422 ], [ -156.553353887948958, 20.795044012333626 ], [ -156.556897883378895, 20.796723709202013 ], [ -156.562013138023673, 20.800609743265401 ], [ -156.564818031536277, 20.802954689665444 ], [ -156.566297288697371, 20.803655699248292 ], [ -156.566245921638341, 20.805015248105249 ], [ -156.567357322637321, 20.804675078936555 ], [ -156.567986067235381, 20.805309245783263 ], [ -156.56833339620556, 20.804352426753645 ], [ -156.572302532127566, 20.804930882914409 ], [ -156.575399607396122, 20.806719376222624 ], [ -156.576256758725293, 20.807517456802692 ], [ -156.576704778816918, 20.810905985531353 ], [ -156.577955368125259, 20.813054564051473 ], [ -156.578514817351191, 20.813575552344162 ], [ -156.578790403075885, 20.814130358993577 ], [ -156.57936750296102, 20.813582174156597 ], [ -156.579963604415525, 20.813059519276948 ], [ -156.581198511141508, 20.811541402241556 ], [ -156.582276960839664, 20.812545088968783 ], [ -156.582223842104611, 20.81395211436412 ], [ -156.583078935306531, 20.81608331105463 ], [ -156.583511705068531, 20.816222215421554 ] ], [ [ -156.565822404163669, 20.805407107541889 ], [ -156.565915829362126, 20.805738715287863 ], [ -156.566171947091448, 20.805504792161223 ], [ -156.565822404163669, 20.805407107541889 ] ] ] } },
{ "type": "Feature", "properties": { "ID": 9, "GRIDCODE": 2 }, "geometry": { "type": "Polygon", "coordinates": [ [ [ -156.35644664009061, 20.7857841730481 ], [ -156.356097326529664, 20.785686079106977 ], [ -156.356353693918635, 20.785452499183833 ], [ -156.35644664009061, 20.7857841730481 ] ] ] } },
{ "type": "Feature", "properties": { "ID": 10, "GRIDCODE": 2 }, "geometry": { "type": "Polygon", "coordinates": [ [ [ -156.369480208476517, 20.748334753456142 ], [ -156.369768082124324, 20.748339160681326 ], [ -156.369763397079367, 20.748609951050266 ], [ -156.369475522920254, 20.748605543762388 ], [ -156.369480208476517, 20.748334753456142 ] ] ] } },
{ "type": "Feature", "properties": { "ID": 11, "GRIDCODE": 2 }, "geometry": { "type": "Polygon", "coordinates": [ [ [ -156.369197020896308, 20.748059555496752 ], [ -156.36948489395769, 20.748063963140357 ], [ -156.369480208476517, 20.748334753456142 ], [ -156.369192334903829, 20.748330345749846 ], [ -156.369197020896308, 20.748059555496752 ] ] ] } },
{ "type": "Feature", "properties": { "ID": 12, "GRIDCODE": 2 }, "geometry": { "type": "Polygon", "coordinates": [ [ [ -156.368913834338741, 20.747784357172133 ], [ -156.369201706813669, 20.747788765234137 ], [ -156.369197020896308, 20.748059555496752 ], [ -156.368909147910102, 20.748055147372053 ], [ -156.368913834338741, 20.747784357172133 ] ] ] } },
{ "type": "Feature", "properties": { "ID": 13, "GRIDCODE": 2 }, "geometry": { "type": "Polygon", "coordinates": [ [ [ -156.368913834338741, 20.747784357172133 ], [ -156.368564594152559, 20.747686296754193 ], [ -156.368820873303491, 20.747452688330231 ], [ -156.368913834338741, 20.747784357172133 ] ] ] } },
{ "type": "Feature", "properties": { "ID": 14, "GRIDCODE": 2 }, "geometry": { "type": "Polygon", "coordinates": [ [ [ -156.200411719439245, 20.641391677694099 ], [ -156.200782826919777, 20.641548325481136 ], [ -156.200515616895302, 20.642008827977719 ], [ -156.200411719439245, 20.641391677694099 ] ] ] } },
{ "type": "Feature", "properties": { "ID": 15, "GRIDCODE": 2 }, "geometry": { "type": "Polygon", "coordinates": [ [ [ -156.196994897462105, 20.639440349987886 ], [ -156.198396855662821, 20.639598009152305 ], [ -156.199378427309455, 20.641323331925246 ], [ -156.199426500285682, 20.642042726586975 ], [ -156.188783257092894, 20.641612938484016 ], [ -156.188443472027643, 20.641327574910211 ], [ -156.189350946674864, 20.641086470733804 ], [ -156.190221416184841, 20.640168069853917 ], [ -156.192144991601367, 20.639705985361129 ], [ -156.193247898003023, 20.63980750863832 ], [ -156.193967964642951, 20.639764736672628 ], [ -156.194973261709123, 20.639857255880749 ], [ -156.195922285510932, 20.639801006203431 ], [ -156.196288490936269, 20.641450086913178 ], [ -156.196551604801073, 20.640661957579947 ], [ -156.196994897462105, 20.639440349987886 ] ] ] } },
{ "type": "Feature", "properties": { "ID": 16, "GRIDCODE": 2 }, "geometry": { "type": "Polygon", "coordinates": [ [ [ -156.408126287818249, 20.626218055086397 ], [ -156.408475294188236, 20.626316009458282 ], [ -156.408219294800404, 20.626549708092693 ], [ -156.408126287818249, 20.626218055086397 ] ] ] } },
{ "type": "Feature", "properties": { "ID": 17, "GRIDCODE": 2 }, "geometry": { "type": "Polygon", "coordinates": [ [ [ -156.410450422408843, 20.624898571645637 ], [ -156.411448536544157, 20.625093546861006 ], [ -156.410523799440597, 20.62584256520239 ], [ -156.410001123090069, 20.62529774314757 ], [ -156.410309836705892, 20.625037057135913 ], [ -156.410450422408843, 20.624898571645637 ] ] ] } },
{ "type": "Feature", "properties": { "ID": 18, "GRIDCODE": 2 }, "geometry": { "type": "Polygon", "coordinates": [ [ [ -156.35644664009061, 20.7857841730481 ], [ -156.357167231403565, 20.785946707629169 ], [ -156.358193110166894, 20.785602244194809 ], [ -156.358687427287464, 20.784108358062362 ], [ -156.358275518700907, 20.78340529409703 ], [ -156.358740027561936, 20.782298324471395 ], [ -156.35835840251363, 20.781293787713313 ], [ -156.3584370698496, 20.780668504112441 ], [ -156.358377854599354, 20.780014646709336 ], [ -156.359022604420915, 20.779200353803777 ], [ -156.359709467274712, 20.777775552040413 ], [ -156.359089301402662, 20.776142835585645 ], [ -156.360413677149921, 20.77629043979514 ], [ -156.360794812059311, 20.775139591780903 ], [ -156.361579568552173, 20.774148364064835 ], [ -156.363510035615576, 20.773776895829908 ], [ -156.364237388513573, 20.772267518005112 ], [ -156.363729323626927, 20.771400712232843 ], [ -156.364575146312177, 20.770761544906495 ], [ -156.365121585551577, 20.769627768334413 ], [ -156.36436635592267, 20.767883486379976 ], [ -156.365705860710989, 20.767625513461851 ], [ -156.365551653580098, 20.765928282464994 ], [ -156.364583713563491, 20.765146605932678 ], [ -156.366454036028443, 20.764100852381976 ], [ -156.366783355035949, 20.761959380582365 ], [ -156.367106632780377, 20.761447743616685 ], [ -156.367391999516371, 20.760072682937977 ], [ -156.367998474089347, 20.759836246160891 ], [ -156.368274447681301, 20.759002762022497 ], [ -156.368597713233896, 20.758491120876901 ], [ -156.368973135127959, 20.757711929046248 ], [ -156.36828726849339, 20.756541397722025 ], [ -156.369868813509669, 20.755924839214472 ], [ -156.369770324876669, 20.754839883373425 ], [ -156.369873703916141, 20.754017374122316 ], [ -156.368943570434254, 20.753620907809662 ], [ -156.368402792741193, 20.753117983905597 ], [ -156.369559824170324, 20.752817759879942 ], [ -156.370165214453095, 20.75215450279514 ], [ -156.370103103851079, 20.751469783946476 ], [ -156.371425755102791, 20.750470061046638 ], [ -156.371307836827867, 20.749174518961578 ], [ -156.369891561458417, 20.748759908520409 ], [ -156.369763397079367, 20.748609951050266 ], [ -156.371059347332789, 20.748762571790614 ], [ -156.372443480994519, 20.749784270345938 ], [ -156.3727903341981, 20.748247324550654 ], [ -156.373115439102236, 20.747398972275256 ], [ -156.373109641825806, 20.746123263252329 ], [ -156.373452458259806, 20.743890976266076 ], [ -156.373449013150861, 20.743113647838118 ], [ -156.373492410996874, 20.742001101857863 ], [ -156.374780882705181, 20.740873720887521 ], [ -156.374084233433877, 20.739872470778835 ], [ -156.374384864285616, 20.739609374814169 ], [ -156.374688890370805, 20.738514166586274 ], [ -156.375000873976688, 20.739808838122897 ], [ -156.376017023566419, 20.740170737232006 ], [ -156.376995595155307, 20.738815089535763 ], [ -156.376988474816017, 20.737206067361985 ], [ -156.377901179667873, 20.736407401650105 ], [ -156.377898185376011, 20.735732841805635 ], [ -156.377914323084497, 20.735318592371438 ], [ -156.378929900107607, 20.735353522303612 ], [ -156.379693466820356, 20.732601106345115 ], [ -156.379690590919438, 20.731968076351283 ], [ -156.379719273384069, 20.731233159690099 ], [ -156.380649964243901, 20.729598878021264 ], [ -156.381921429287615, 20.728486245943575 ], [ -156.382369318002475, 20.728061771144684 ], [ -156.38297411940647, 20.725379258205844 ], [ -156.384074060518913, 20.723904516617715 ], [ -156.384469121352737, 20.722151621365011 ], [ -156.385065419638778, 20.721629670881583 ], [ -156.385648333142768, 20.72054435786141 ], [ -156.386495834352786, 20.719407910501996 ], [ -156.386874721000765, 20.717726576059896 ], [ -156.386866727176056, 20.715947840603711 ], [ -156.38776155145581, 20.71516443935359 ], [ -156.388076358057333, 20.714299882328376 ], [ -156.389993951525327, 20.711728244417067 ], [ -156.390704655707736, 20.711416972924411 ], [ -156.390996210065737, 20.710874370662118 ], [ -156.391294467111237, 20.710613316576413 ], [ -156.391293247536652, 20.710339786357967 ], [ -156.391308916431228, 20.709933724068236 ], [ -156.391306923625251, 20.709524748822719 ], [ -156.392013929477201, 20.709215266220003 ], [ -156.39248623820356, 20.707917290200655 ], [ -156.392779285825839, 20.707927285141469 ], [ -156.393657625634376, 20.707659142410026 ], [ -156.394263121424217, 20.705476245397829 ], [ -156.39515753493248, 20.703905052285076 ], [ -156.395153751573162, 20.70309027682989 ], [ -156.395754793113355, 20.702283991944075 ], [ -156.396100969120425, 20.700746950585227 ], [ -156.395789737823833, 20.699844067843255 ], [ -156.396115752992671, 20.69899301556833 ], [ -156.396110342192742, 20.697812252407587 ], [ -156.397003366059238, 20.696614523040918 ], [ -156.396999546819416, 20.695817468451096 ], [ -156.397320061169495, 20.695254655200383 ], [ -156.39731496054776, 20.694186713072472 ], [ -156.397909952335255, 20.693666005426142 ], [ -156.398510396791693, 20.69229825339761 ], [ -156.398917262163138, 20.691583186587518 ], [ -156.398236596673001, 20.690947711535781 ], [ -156.398763085596158, 20.690486936174246 ], [ -156.399145988653288, 20.688786566456486 ], [ -156.399731672164194, 20.688529832380873 ], [ -156.400035954739224, 20.68824147035885 ], [ -156.400022650917435, 20.68536117496539 ], [ -156.400371825339988, 20.684747335884076 ], [ -156.400667899088631, 20.683933907539799 ], [ -156.400965802238517, 20.6836728243347 ], [ -156.401270071936523, 20.68338445870555 ], [ -156.401266199859464, 20.682588723039608 ], [ -156.401870585549659, 20.681248652985918 ], [ -156.402182269971917, 20.680392338993613 ], [ -156.402789583235318, 20.679325028888147 ], [ -156.402783588607122, 20.678009344778634 ], [ -156.402806160744632, 20.677426284559054 ], [ -156.403416065600538, 20.676354248160326 ], [ -156.403977012466129, 20.675863020478918 ], [ -156.404291467210584, 20.673966380608459 ], [ -156.404881794166613, 20.673449139238702 ], [ -156.404879421104056, 20.672894402602097 ], [ -156.404905542967867, 20.672217621722258 ], [ -156.404902049829161, 20.671480745293714 ], [ -156.404355094127595, 20.669894110554257 ], [ -156.404393836411288, 20.668888323165056 ], [ -156.404109333009359, 20.666826195897944 ], [ -156.404157950861645, 20.665570055459771 ], [ -156.404155637814029, 20.665028281107436 ], [ -156.404167209602406, 20.664727826948525 ], [ -156.405042793255291, 20.663960803738611 ], [ -156.405343390316006, 20.662876557905882 ], [ -156.405958062057891, 20.661270506695814 ], [ -156.40595188961754, 20.659962618797262 ], [ -156.40697785686578, 20.656658699020827 ], [ -156.407860178642267, 20.652426252579456 ], [ -156.40895239058122, 20.642638272695034 ], [ -156.408923973639162, 20.636620749708939 ], [ -156.406330347926399, 20.628533034323329 ], [ -156.406878592951415, 20.627569017675583 ], [ -156.408256823967832, 20.627170709788725 ], [ -156.408819118967557, 20.626637010486458 ], [ -156.411363493605535, 20.625901845566364 ], [ -156.412018286022032, 20.62559661453583 ], [ -156.413466653119315, 20.625352737039819 ], [ -156.413753353084417, 20.625080869067162 ], [ -156.414361971720894, 20.624813953967628 ], [ -156.415055030306945, 20.624837689925499 ], [ -156.415755565487103, 20.62483468582564 ], [ -156.417112710209409, 20.625183797116964 ], [ -156.418350547585419, 20.626809164175562 ], [ -156.418309726235606, 20.627862948039443 ], [ -156.419365321302479, 20.62921656349134 ], [ -156.420634636634276, 20.629528098268928 ], [ -156.421149622141854, 20.630098965652966 ], [ -156.420405406668749, 20.631407691791829 ], [ -156.419868403937727, 20.63240869466825 ], [ -156.420525143882827, 20.63302202333972 ], [ -156.420837218259948, 20.63397857886245 ], [ -156.421943399379046, 20.634685250618247 ], [ -156.421636727129624, 20.635224664609904 ], [ -156.422216855708484, 20.635766347968644 ], [ -156.422181829536413, 20.636677377263851 ], [ -156.423333906645638, 20.637413428771481 ], [ -156.423592795483557, 20.638792823905217 ], [ -156.422805306047195, 20.639482716813561 ], [ -156.423283710558593, 20.640392287863598 ], [ -156.423901141745745, 20.641640144941526 ], [ -156.422399448238821, 20.655051596672614 ], [ -156.420531293297898, 20.664909585400032 ], [ -156.416900257707965, 20.681954646310178 ], [ -156.408646003535239, 20.707203556619401 ], [ -156.405579619855104, 20.714851195858245 ], [ -156.40471416763026, 20.716770065187838 ], [ -156.400231283068905, 20.726729772692288 ], [ -156.399237097185221, 20.728933524355291 ], [ -156.394026779229307, 20.737911071861944 ], [ -156.392314093472407, 20.741928247976436 ], [ -156.391152947547113, 20.747080483047771 ], [ -156.389431566783912, 20.757452890320099 ], [ -156.385985110173095, 20.767950823952386 ], [ -156.384317629118669, 20.773567807800131 ], [ -156.382896782521271, 20.780368789124509 ], [ -156.381741950509934, 20.785029249586312 ], [ -156.379840223416721, 20.791286137158579 ], [ -156.379365847206543, 20.794500937646706 ], [ -156.378681019829799, 20.807656254603017 ], [ -156.378749128725815, 20.823149062191952 ], [ -156.380350794966716, 20.835392365837826 ], [ -156.381482529278344, 20.839127149074368 ], [ -156.382652326168909, 20.842518643006159 ], [ -156.382948216969794, 20.843777886996492 ], [ -156.381327129569343, 20.84519495619432 ], [ -156.381982237857216, 20.847094131922564 ], [ -156.381433467685611, 20.848056764646476 ], [ -156.38037482610568, 20.850025601462587 ], [ -156.379372225707925, 20.850464022573401 ], [ -156.379659086906912, 20.851009079593755 ], [ -156.379930375905587, 20.851657190136962 ], [ -156.378765776382693, 20.852349703250106 ], [ -156.377005408775005, 20.853693298530459 ], [ -156.375631882002097, 20.853645918172731 ], [ -156.375262725362319, 20.855280759520404 ], [ -156.374633519010985, 20.855555852841459 ], [ -156.372928302659176, 20.857170708380938 ], [ -156.373810830722164, 20.85799419297156 ], [ -156.375213044393604, 20.858660460611077 ], [ -156.375154780098569, 20.860151942905183 ], [ -156.37516129069121, 20.861688989125888 ], [ -156.373731305068503, 20.862101103064216 ], [ -156.373331334803538, 20.86419425730249 ], [ -156.372797242956551, 20.864175870408804 ], [ -156.371939999009925, 20.864987578822419 ], [ -156.371064322078325, 20.864690829302166 ], [ -156.370488322319659, 20.864703399935411 ], [ -156.371344844655823, 20.865502561404252 ], [ -156.37192229410698, 20.866086351046199 ], [ -156.371869636019341, 20.867430978168077 ], [ -156.370714609864081, 20.867936029728625 ], [ -156.370314459346133, 20.869033416484957 ], [ -156.368661234487433, 20.868976243639874 ], [ -156.368671436931123, 20.871379347438243 ], [ -156.368249054215482, 20.872119824500285 ], [ -156.367150846781556, 20.87302751308297 ], [ -156.366336936525869, 20.872204782926268 ], [ -156.364887007101004, 20.871930364965909 ], [ -156.365743532809205, 20.872729555127716 ], [ -156.366437416801915, 20.873430880640903 ], [ -156.367015639540142, 20.873970658459076 ], [ -156.367782272300417, 20.874745443442169 ], [ -156.368272427789861, 20.875785109126987 ], [ -156.367394472702614, 20.876552425812299 ], [ -156.36653798485608, 20.877363182967777 ], [ -156.365792899974167, 20.877337287296093 ], [ -156.365354844427912, 20.878151442977714 ], [ -156.36490727670369, 20.878542763712737 ], [ -156.364476307165461, 20.878950474058509 ], [ -156.363298591445158, 20.879201185556546 ], [ -156.36244606883281, 20.880008408869966 ], [ -156.360623970571822, 20.879945367413615 ], [ -156.359487869921992, 20.881517122308221 ], [ -156.358565818117739, 20.867970863889564 ], [ -156.357455330825275, 20.857961350323851 ], [ -156.356495729067944, 20.852716387510139 ], [ -156.354355463097676, 20.846507820706485 ], [ -156.346160897614567, 20.829338582326436 ], [ -156.343314456998286, 20.820378162537232 ], [ -156.344455403905755, 20.820417673029155 ], [ -156.345046718031995, 20.819842406883499 ], [ -156.344204366954841, 20.818240848984061 ], [ -156.344226232243074, 20.81768373733096 ], [ -156.345088534304097, 20.817713632418876 ], [ -156.345394074602353, 20.816460365471361 ], [ -156.343989110542111, 20.814440632495796 ], [ -156.343875983540499, 20.813897166663157 ], [ -156.345534580103703, 20.814992273073912 ], [ -156.346304079245897, 20.813927377583145 ], [ -156.346873786536293, 20.814214461703948 ], [ -156.34824835790323, 20.814501304342659 ], [ -156.348621445818765, 20.813115628748225 ], [ -156.347487699774859, 20.812057110703712 ], [ -156.347212798624611, 20.811626467873779 ], [ -156.348685497298135, 20.810982562365894 ], [ -156.349515614258308, 20.810196849282836 ], [ -156.35012311598976, 20.809931021076405 ], [ -156.350419773650259, 20.809117744943805 ], [ -156.350718024312755, 20.80885678788243 ], [ -156.351019409281463, 20.807772725666165 ], [ -156.351623493951877, 20.807508557433309 ], [ -156.351618751829676, 20.806427698610879 ], [ -156.353650319599524, 20.805059684761403 ], [ -156.352227344606661, 20.803731167148989 ], [ -156.353710201729569, 20.803482675722687 ], [ -156.353704444620746, 20.8021366283762 ], [ -156.354013772917227, 20.801594396008781 ], [ -156.354012312922322, 20.801291245069603 ], [ -156.352570545399146, 20.7999451174258 ], [ -156.354889993749026, 20.799676992514971 ], [ -156.353808044737775, 20.7986669311287 ], [ -156.353496799059911, 20.798191299917303 ], [ -156.354698313984727, 20.798797052152612 ], [ -156.355225973368789, 20.797815923381965 ], [ -156.355530654987689, 20.797281153620556 ], [ -156.354961534542014, 20.796462842537718 ], [ -156.354446929161725, 20.795422256735289 ], [ -156.356115526688228, 20.795066829820591 ], [ -156.357303532568494, 20.794300337653294 ], [ -156.356740218470208, 20.793229514273833 ], [ -156.356761050455447, 20.792695920684988 ], [ -156.356759213318696, 20.792252572586257 ], [ -156.358484255172471, 20.793273048439044 ], [ -156.359059112432703, 20.792728676565979 ], [ -156.359416149712672, 20.792416496106174 ], [ -156.359402260431153, 20.789191098716067 ], [ -156.358305677951392, 20.788167221364343 ], [ -156.357440786688073, 20.786744850894785 ], [ -156.356862619006307, 20.786204938536354 ], [ -156.35644664009061, 20.7857841730481 ] ] ] } },
{ "type": "Feature", "properties": { "ID": 19, "GRIDCODE": 2 }, "geometry": { "type": "Polygon", "coordinates": [ [ [ -156.409331912643239, 20.622985690963993 ], [ -156.408981308040808, 20.623613169387511 ], [ -156.407790010730253, 20.623378247707148 ], [ -156.408276417891898, 20.623060847438126 ], [ -156.409331912643239, 20.622985690963993 ] ] ] } },
{ "type": "Feature", "properties": { "ID": 20, "GRIDCODE": 2 }, "geometry": { "type": "Polygon", "coordinates": [ [ [ -156.387372844429564, 20.61154923308489 ], [ -156.38772180009272, 20.611647224593842 ], [ -156.387465799960751, 20.611880892019055 ], [ -156.387372844429564, 20.61154923308489 ] ] ] } },
{ "type": "Feature", "properties": { "ID": 21, "GRIDCODE": 2 }, "geometry": { "type": "Polygon", "coordinates": [ [ [ -156.387377464581391, 20.611278434589199 ], [ -156.387372844429564, 20.61154923308489 ], [ -156.387006641830681, 20.611408260077923 ], [ -156.387377464581391, 20.611278434589199 ] ] ] } },
{ "type": "Feature", "properties": { "ID": 22, "GRIDCODE": 2 }, "geometry": { "type": "Polygon", "coordinates": [ [ [ -156.387377464581391, 20.611278434589199 ], [ -156.387481685646662, 20.61094975766515 ], [ -156.387729582021933, 20.611191045359615 ], [ -156.387377464581391, 20.611278434589199 ] ] ] } },
{ "type": "Feature", "properties": { "ID": 23, "GRIDCODE": 2 }, "geometry": { "type": "Polygon", "coordinates": [ [ [ -156.393449753843129, 20.609474078603277 ], [ -156.3935876598878, 20.609823078409182 ], [ -156.393737371340166, 20.609478417813566 ], [ -156.394024988911383, 20.60948275654621 ], [ -156.39367941795274, 20.610671591000756 ], [ -156.392340199409745, 20.6104197931977 ], [ -156.392745163932176, 20.610165484785266 ], [ -156.393105566131226, 20.609690156994937 ], [ -156.393449753843129, 20.609474078603277 ] ] ] } },
{ "type": "Feature", "properties": { "ID": 24, "GRIDCODE": 2 }, "geometry": { "type": "Polygon", "coordinates": [ [ [ -156.393741979739474, 20.609207617875096 ], [ -156.393737371340166, 20.609478417813566 ], [ -156.393449753843129, 20.609474078603277 ], [ -156.393454362749594, 20.609203278726884 ], [ -156.393741979739474, 20.609207617875096 ] ] ] } },
{ "type": "Feature", "properties": { "ID": 25, "GRIDCODE": 2 }, "geometry": { "type": "Polygon", "coordinates": [ [ [ -156.395193882947154, 20.608416905648898 ], [ -156.395542838629012, 20.608514881144753 ], [ -156.395286854862405, 20.608748562090387 ], [ -156.395193882947154, 20.608416905648898 ] ] ] } },
{ "type": "Feature", "properties": { "ID": 26, "GRIDCODE": 2 }, "geometry": { "type": "Polygon", "coordinates": [ [ [ -156.394024988911383, 20.60948275654621 ], [ -156.394029596803563, 20.609211956545685 ], [ -156.393741979739474, 20.609207617875096 ], [ -156.394009348957582, 20.608288472785322 ], [ -156.395014669988342, 20.608943642726334 ], [ -156.394484698450924, 20.609379120496367 ], [ -156.394024988911383, 20.60948275654621 ] ] ] } },
{ "type": "Feature", "properties": { "ID": 27, "GRIDCODE": 2 }, "geometry": { "type": "Polygon", "coordinates": [ [ [ -156.374202764684924, 20.607828284879613 ], [ -156.375458133986911, 20.607968905656374 ], [ -156.374420798539404, 20.608187507292577 ], [ -156.374202764684924, 20.607828284879613 ] ] ] } },
{ "type": "Feature", "properties": { "ID": 28, "GRIDCODE": 2 }, "geometry": { "type": "Polygon", "coordinates": [ [ [ -156.374202764684924, 20.607828284879613 ], [ -156.373245271084102, 20.607699722963858 ], [ -156.373466557076796, 20.607328530015803 ], [ -156.374109228766031, 20.607646991136281 ], [ -156.374202764684924, 20.607828284879613 ] ] ] } },
{ "type": "Feature", "properties": { "ID": 29, "GRIDCODE": 2 }, "geometry": { "type": "Polygon", "coordinates": [ [ [ -156.411459931743792, 20.616245803729697 ], [ -156.411172297486274, 20.616241492654343 ], [ -156.411167718182128, 20.616512296129677 ], [ -156.410880083490952, 20.616507984514836 ], [ -156.410875503605666, 20.61677878791906 ], [ -156.410523380451707, 20.616866224374892 ], [ -156.41077132563359, 20.617107483719476 ], [ -156.410875503605666, 20.61677878791906 ], [ -156.411163138804255, 20.616783099595548 ], [ -156.411167718182128, 20.616512296129677 ], [ -156.41145535294703, 20.616516607266671 ], [ -156.411459931743792, 20.616245803729697 ], [ -156.411880407394733, 20.616419548454409 ], [ -156.412190208823603, 20.616359117680762 ], [ -156.412720597866468, 20.616695866781555 ], [ -156.413549610688506, 20.617002037352545 ], [ -156.413149130755215, 20.618438091136476 ], [ -156.412573853310647, 20.618429473256157 ], [ -156.412569275954041, 20.618700276964049 ], [ -156.412117284045422, 20.61881148206405 ], [ -156.410821305810941, 20.619268860541045 ], [ -156.411595384057193, 20.619849983521672 ], [ -156.412569275954041, 20.618700276964049 ], [ -156.413144554413549, 20.61870889496759 ], [ -156.413149130755215, 20.618438091136476 ], [ -156.41525436543165, 20.61962320176346 ], [ -156.415570543273702, 20.620782978481603 ], [ -156.415252477149977, 20.621032822416243 ], [ -156.414210940548372, 20.622544325942719 ], [ -156.412056342590802, 20.622881057706024 ], [ -156.410528329793351, 20.623250173047452 ], [ -156.409331912643239, 20.622985690963993 ], [ -156.408926938821111, 20.622575952278833 ], [ -156.408020660190658, 20.622832692981206 ], [ -156.407187091787307, 20.623623666068202 ], [ -156.406580448433346, 20.623889791221789 ], [ -156.406041004591941, 20.624401739229608 ], [ -156.404969313913909, 20.624901189454132 ], [ -156.402656515875606, 20.621461352655771 ], [ -156.394492060075322, 20.615402507013247 ], [ -156.396131783180039, 20.614425360542505 ], [ -156.397278654694787, 20.612408872874664 ], [ -156.397631235113693, 20.611136942749653 ], [ -156.398728944121359, 20.610655645651896 ], [ -156.399638609255817, 20.60943455258095 ], [ -156.400406952190792, 20.607683208618383 ], [ -156.401666487311388, 20.606487733467997 ], [ -156.403414478520062, 20.607319085582343 ], [ -156.403979413080947, 20.607603736415399 ], [ -156.404555764198193, 20.607877976175395 ], [ -156.404828497087692, 20.608429106058558 ], [ -156.405419123410383, 20.609552543740485 ], [ -156.40533105852893, 20.611831804147595 ], [ -156.406576366309537, 20.613467268367039 ], [ -156.408180210051455, 20.614704179382226 ], [ -156.408580918883587, 20.615514077593158 ], [ -156.409314085805477, 20.615539228079573 ], [ -156.410123597274492, 20.615535761353165 ], [ -156.411054693120491, 20.615835670150613 ], [ -156.411459931743792, 20.616245803729697 ] ] ] } },
{ "type": "Feature", "properties": { "ID": 30, "GRIDCODE": 2 }, "geometry": { "type": "Polygon", "coordinates": [ [ [ -156.374249186432621, 20.605120326955419 ], [ -156.374536791333384, 20.605124697228305 ], [ -156.374387044095982, 20.605469337129026 ], [ -156.374249186432621, 20.605120326955419 ] ] ] } },
{ "type": "Feature", "properties": { "ID": 31, "GRIDCODE": 2 }, "geometry": { "type": "Polygon", "coordinates": [ [ [ -156.374249186432621, 20.605120326955419 ], [ -156.37387640011616, 20.604807953109486 ], [ -156.373285668678989, 20.603214115525393 ], [ -156.374057670401839, 20.603017673105217 ], [ -156.374249186432621, 20.605120326955419 ] ] ] } },
{ "type": "Feature", "properties": { "ID": 32, "GRIDCODE": 2 }, "geometry": { "type": "Polygon", "coordinates": [ [ [ -156.375645455264106, 20.607579338532133 ], [ -156.376256798360714, 20.607299769638306 ], [ -156.37578198720314, 20.606677818367757 ], [ -156.375645455264106, 20.607579338532133 ], [ -156.375277835869156, 20.607292835962923 ], [ -156.374694538631189, 20.605247582015714 ], [ -156.374536791333384, 20.605124697228305 ], [ -156.374750197691498, 20.603655500018284 ], [ -156.374149757233283, 20.603152257242147 ], [ -156.374431220578145, 20.60226894375997 ], [ -156.375064034833571, 20.601456434809364 ], [ -156.375010624352342, 20.600671327168385 ], [ -156.376173004306423, 20.5997587999458 ], [ -156.376756790903926, 20.598034668974208 ], [ -156.37768857952392, 20.596838503378631 ], [ -156.37742248344847, 20.595742268567339 ], [ -156.376722648696358, 20.597157271870049 ], [ -156.376874706843125, 20.594493761233917 ], [ -156.3776449376698, 20.594447253339677 ], [ -156.378321093449443, 20.594743718775188 ], [ -156.378869947130397, 20.595043012851104 ], [ -156.379749766885823, 20.595307115725113 ], [ -156.380864547094149, 20.596156717000579 ], [ -156.384010733489362, 20.596592940401599 ], [ -156.384287895046867, 20.597833764691632 ], [ -156.385744612140911, 20.598106833467309 ], [ -156.385714945538695, 20.598396695387368 ], [ -156.386650143123063, 20.598677210141808 ], [ -156.387142124122931, 20.599232866461403 ], [ -156.387669410482886, 20.599200894602657 ], [ -156.388172943922399, 20.599623008053157 ], [ -156.38858445313096, 20.600087640180902 ], [ -156.389315064519906, 20.600043393490214 ], [ -156.389919948157257, 20.601376851898102 ], [ -156.390553191044091, 20.60172209140098 ], [ -156.391342304252305, 20.601674355544471 ], [ -156.391717894295539, 20.601988985021212 ], [ -156.392109853119536, 20.602431359892716 ], [ -156.393964007872285, 20.603984956881227 ], [ -156.39311390754915, 20.604198431876849 ], [ -156.392628633943218, 20.604154341781069 ], [ -156.391542108142943, 20.604591332155174 ], [ -156.391082394350178, 20.605520794901818 ], [ -156.390481558639721, 20.605762487347771 ], [ -156.390205724810357, 20.606320162821902 ], [ -156.389892495940529, 20.60656619673178 ], [ -156.389621273379845, 20.606853071712116 ], [ -156.388728201817685, 20.60736121057155 ], [ -156.388452358348786, 20.60791888215623 ], [ -156.387825887584768, 20.608410941539599 ], [ -156.386910050515752, 20.609379783440218 ], [ -156.386119101611882, 20.609779675424775 ], [ -156.385518242611425, 20.610021347847283 ], [ -156.385151295560462, 20.610763458671915 ], [ -156.381505955848866, 20.609368189513763 ], [ -156.375771168874195, 20.608293066298224 ], [ -156.375645455264106, 20.607579338532133 ] ] ] } },
{ "type": "Feature", "properties": { "ID": 33, "GRIDCODE": 2 }, "geometry": { "type": "Polygon", "coordinates": [ [ [ -156.203337566749298, 20.638730765516765 ], [ -156.203430119563905, 20.63906248002176 ], [ -156.203686417428088, 20.638829122900813 ], [ -156.203337566749298, 20.638730765516765 ], [ -156.203630657845849, 20.637868256611437 ], [ -156.204063662735393, 20.638358098176958 ], [ -156.20458021460945, 20.637813024200934 ], [ -156.204942748597347, 20.638069632877105 ], [ -156.205209022569676, 20.638658334898615 ], [ -156.20573206727363, 20.637604088175099 ], [ -156.206413510780891, 20.637260441741716 ], [ -156.206969733401309, 20.637311632030304 ], [ -156.207341066669954, 20.6365635823723 ], [ -156.208803954529401, 20.636476826909593 ], [ -156.210045484437444, 20.637881377866002 ], [ -156.210425708227007, 20.637630969902563 ], [ -156.209599467379718, 20.636178917036375 ], [ -156.210165837630512, 20.635735399810724 ], [ -156.210098916387267, 20.634737190152162 ], [ -156.211636803017456, 20.633864629990899 ], [ -156.213307247349746, 20.632608699526372 ], [ -156.214880639019754, 20.632515208819317 ], [ -156.215653378820349, 20.63338938926535 ], [ -156.215959960583831, 20.633371060049875 ], [ -156.216437041398763, 20.63391091193547 ], [ -156.216572320662323, 20.632606639277991 ], [ -156.216126377755046, 20.631822635942296 ], [ -156.217312348237499, 20.63143418015343 ], [ -156.21830466339938, 20.631976514420906 ], [ -156.21823967153145, 20.631008221187408 ], [ -156.218598793612529, 20.630726903123779 ], [ -156.218875274116499, 20.630169577934243 ], [ -156.219188792337974, 20.629923891123013 ], [ -156.219687789230022, 20.629397259369533 ], [ -156.220354010988785, 20.629130140521482 ], [ -156.221205706581742, 20.628582072487205 ], [ -156.222113073464755, 20.628340780889655 ], [ -156.221528056658627, 20.627849724934862 ], [ -156.222467137031657, 20.627285070492785 ], [ -156.222966645271327, 20.627255416773444 ], [ -156.223261714539177, 20.627282513000154 ], [ -156.224073506519488, 20.626873174430397 ], [ -156.224388733923064, 20.627570023916508 ], [ -156.224709194986758, 20.62813338836639 ], [ -156.224572941941204, 20.629449164902976 ], [ -156.225961429720883, 20.629867298982774 ], [ -156.226346412229219, 20.631149399963927 ], [ -156.226635995470247, 20.630565291900098 ], [ -156.227009120452607, 20.629960175599653 ], [ -156.225779269497707, 20.628927801889184 ], [ -156.225862374387304, 20.628125343471527 ], [ -156.225789607168451, 20.627040810867726 ], [ -156.225873710523018, 20.626229639981506 ], [ -156.225854916297664, 20.625949107627175 ], [ -156.226993733561358, 20.625492506756174 ], [ -156.227309377809235, 20.625159289706264 ], [ -156.228050567835396, 20.624861999392174 ], [ -156.230009688357114, 20.623601127955833 ], [ -156.230507719985923, 20.624164687005887 ], [ -156.230802691621221, 20.623296588709092 ], [ -156.231971169966101, 20.623403931834709 ], [ -156.231930912586421, 20.622802752550637 ], [ -156.232399537195306, 20.622678018010419 ], [ -156.23249214988553, 20.623009723539873 ], [ -156.232748378825534, 20.622776314691883 ], [ -156.232399537195306, 20.622678018010419 ], [ -156.23258734261762, 20.621847210303056 ], [ -156.233430940247473, 20.621478402798285 ], [ -156.233995465034468, 20.62094377876198 ], [ -156.235407847896994, 20.620643450244732 ], [ -156.236618382735912, 20.619898966300035 ], [ -156.236908691041663, 20.61990916636697 ], [ -156.237198919062195, 20.619908255870808 ], [ -156.237767413845575, 20.620195599767445 ], [ -156.238320770840204, 20.619671625200922 ], [ -156.240044817092894, 20.619146658689537 ], [ -156.242385768716645, 20.619449612264543 ], [ -156.242809555207486, 20.619879176340937 ], [ -156.243393824120233, 20.618277458751525 ], [ -156.244122363827529, 20.617587246073597 ], [ -156.244574138798299, 20.617585726705691 ], [ -156.245290076801894, 20.617610902382534 ], [ -156.245748229285368, 20.617176897546813 ], [ -156.248458516743284, 20.617656654175946 ], [ -156.249027834788649, 20.617117554084913 ], [ -156.249472839035121, 20.617133238430352 ], [ -156.251037473324715, 20.617128130930034 ], [ -156.251335458313406, 20.617696385914986 ], [ -156.251739634165432, 20.618515355028386 ], [ -156.252140171985786, 20.617862733239413 ], [ -156.251478177985433, 20.616600992733535 ], [ -156.252798873517634, 20.61664739848144 ], [ -156.252796899526174, 20.616084251334485 ], [ -156.253387427258019, 20.615567557648127 ], [ -156.253674358371683, 20.615295984739866 ], [ -156.255712465314105, 20.614250286728179 ], [ -156.255999392390066, 20.61397857696009 ], [ -156.256314681406252, 20.613989669205306 ], [ -156.257164317135704, 20.613184673122344 ], [ -156.258845902903062, 20.612184451629659 ], [ -156.259207222267719, 20.611868157780673 ], [ -156.259726758525318, 20.611376100704415 ], [ -156.261902902126394, 20.610036931530193 ], [ -156.2641349716001, 20.609779495263993 ], [ -156.265822126023352, 20.609265436716136 ], [ -156.266442728993809, 20.60926335556433 ], [ -156.267564047399532, 20.609302652120917 ], [ -156.268499060360142, 20.608746382186563 ], [ -156.269318599575314, 20.607969935963833 ], [ -156.269925355490358, 20.607704312301603 ], [ -156.270499828889797, 20.607437250509165 ], [ -156.27277494622416, 20.606952906097558 ], [ -156.273688068086074, 20.606409484179647 ], [ -156.274424704836093, 20.605711581070935 ], [ -156.276002478569183, 20.605357300097491 ], [ -156.277163143960763, 20.60511003495143 ], [ -156.277450015891645, 20.604838415268869 ], [ -156.27852559344845, 20.604367749863435 ], [ -156.27949265624153, 20.603521626528426 ], [ -156.280610409948366, 20.602462430752453 ], [ -156.281234645063961, 20.602460218527327 ], [ -156.282370809494125, 20.602499912351721 ], [ -156.282685956172429, 20.602201351131114 ], [ -156.283542501713384, 20.602231217487226 ], [ -156.284117218484852, 20.60196397745479 ], [ -156.284702696275758, 20.601707616784257 ], [ -156.285277126245745, 20.60144050023154 ], [ -156.287026423117027, 20.601200426554637 ], [ -156.287866981090701, 20.600403577283135 ], [ -156.288174882307203, 20.600402457859186 ], [ -156.288465168197348, 20.600412567419827 ], [ -156.289027725574186, 20.599879159735341 ], [ -156.289963440881792, 20.599609493510815 ], [ -156.29163570632187, 20.598831217896436 ], [ -156.292214867680883, 20.598851534498781 ], [ -156.292524733582439, 20.598580113877905 ], [ -156.293080695002232, 20.598053200165353 ], [ -156.293681879992107, 20.598051109083123 ], [ -156.293972162968402, 20.598061208928627 ], [ -156.294379844889818, 20.597674801466194 ], [ -156.296682208560981, 20.596972725891963 ], [ -156.300393108976891, 20.59652115621877 ], [ -156.30174822462422, 20.596568370281133 ], [ -156.302676859123324, 20.595996718357796 ], [ -156.304090037302018, 20.59537799812831 ], [ -156.304951607558053, 20.594977083638721 ], [ -156.308960143261686, 20.594513563241495 ], [ -156.309854843654335, 20.594240763282539 ], [ -156.31127536388226, 20.594290108931705 ], [ -156.311590441868844, 20.593991486549498 ], [ -156.312162579913178, 20.594011360874799 ], [ -156.31245277428502, 20.594010318252458 ], [ -156.313309492770742, 20.594301369728527 ], [ -156.313597717363024, 20.59402811549591 ], [ -156.314151890457083, 20.594047307298247 ], [ -156.316238744450231, 20.59367845975726 ], [ -156.317048744846545, 20.594087267833423 ], [ -156.317338940351732, 20.594086217010489 ], [ -156.317905467559086, 20.594105853041253 ], [ -156.319017363788191, 20.593588263898784 ], [ -156.319939078491984, 20.593584834399888 ], [ -156.320504888517036, 20.593870414941183 ], [ -156.323317606013063, 20.593613640329483 ], [ -156.325058181042948, 20.594205048105714 ], [ -156.325393384840879, 20.594216583178596 ], [ -156.326739725579642, 20.593913780808872 ], [ -156.327401064193054, 20.594247503451324 ], [ -156.327977199435253, 20.594521978923382 ], [ -156.32839291486826, 20.59494276065065 ], [ -156.328825763869588, 20.59534767118819 ], [ -156.329104843098122, 20.595630116901503 ], [ -156.329685708987938, 20.595359503394608 ], [ -156.330816549994012, 20.595930326848784 ], [ -156.33229905305086, 20.595390598035074 ], [ -156.333280248931288, 20.595424651011438 ], [ -156.333855596544936, 20.595422416873117 ], [ -156.334842408518256, 20.595456679886887 ], [ -156.335450449297468, 20.59517363609184 ], [ -156.336532715992917, 20.595211080049197 ], [ -156.338412535624883, 20.594938888140035 ], [ -156.339734277890358, 20.59498462808833 ], [ -156.340342867764321, 20.594717974230338 ], [ -156.34063162141851, 20.59444414942125 ], [ -156.342055824830737, 20.595287631649651 ], [ -156.342920435332957, 20.594884977527506 ], [ -156.344091463178103, 20.594371963548976 ], [ -156.344087411286637, 20.593406163037116 ], [ -156.34646378845332, 20.594744064661718 ], [ -156.347011859378711, 20.594224243107099 ], [ -156.348399842570132, 20.594565601515313 ], [ -156.348680613585429, 20.594849896357285 ], [ -156.349113690639427, 20.594043157390711 ], [ -156.349556718790609, 20.594041486272406 ], [ -156.349987942367051, 20.594056429707983 ], [ -156.350563291452545, 20.594054139303314 ], [ -156.35101332480275, 20.594069765249511 ], [ -156.352438345581476, 20.593405974502396 ], [ -156.352439943988003, 20.593817583876874 ], [ -156.35239139230157, 20.595067068926372 ], [ -156.353731648194128, 20.595522057841745 ], [ -156.354942014594513, 20.594958253524648 ], [ -156.356223186326673, 20.594669957394686 ], [ -156.357455670477208, 20.594712477180529 ], [ -156.359005304563112, 20.594706401832962 ], [ -156.359790462970437, 20.595440259693589 ], [ -156.360733168378687, 20.59665040069509 ], [ -156.361090164532953, 20.597746451015805 ], [ -156.361846217466535, 20.598834308881919 ], [ -156.362114114322793, 20.599656281834339 ], [ -156.362402752821509, 20.599926261391587 ], [ -156.36267802577035, 20.600483168930445 ], [ -156.36381417128905, 20.600478680725114 ], [ -156.364725148227677, 20.601789366481139 ], [ -156.364058280801061, 20.60268397413504 ], [ -156.364063275506822, 20.603748860918831 ], [ -156.363737084315943, 20.604321852830076 ], [ -156.363742816404795, 20.605637511916999 ], [ -156.363732219065042, 20.605910463248485 ], [ -156.364015955402408, 20.607331276782951 ], [ -156.355232051109766, 20.607774606627807 ], [ -156.345193162490034, 20.60854379004315 ], [ -156.323950157650074, 20.610680353362152 ], [ -156.316051307409538, 20.611401195184079 ], [ -156.311491487241284, 20.611059960347781 ], [ -156.308096393132303, 20.609811647156235 ], [ -156.306179677644991, 20.608544274125212 ], [ -156.305352024865215, 20.60921643892242 ], [ -156.302188854443216, 20.612525769006872 ], [ -156.300905726322213, 20.61253045500813 ], [ -156.299538679513006, 20.612482769900712 ], [ -156.298160973220519, 20.612880069869544 ], [ -156.29686787963999, 20.613274185724187 ], [ -156.295994768049781, 20.613526082526739 ], [ -156.29429827285341, 20.614315512600303 ], [ -156.291894201912072, 20.614827475205075 ], [ -156.289054707460224, 20.615860253771707 ], [ -156.287026353577858, 20.616364816388856 ], [ -156.286164260825643, 20.616627413258627 ], [ -156.28312170473265, 20.617384061116137 ], [ -156.280095690168366, 20.618157047431048 ], [ -156.277110675232592, 20.618566405111107 ], [ -156.276336826020383, 20.618905062989668 ], [ -156.275151286205215, 20.619722845896085 ], [ -156.269119647765905, 20.622289230049574 ], [ -156.261296137095087, 20.625438753064529 ], [ -156.253560901409799, 20.627629960039261 ], [ -156.24186252433617, 20.630117890195962 ], [ -156.229881211342189, 20.633566905558752 ], [ -156.226973447796468, 20.634531232554576 ], [ -156.218940198841437, 20.637507357886463 ], [ -156.212027654567294, 20.639610783204564 ], [ -156.205703491082232, 20.64102783575601 ], [ -156.202067385466478, 20.641551309930474 ], [ -156.201656303146962, 20.639203654405513 ], [ -156.202313067559516, 20.638581912476113 ], [ -156.202623273894034, 20.638580991009935 ], [ -156.203337566749298, 20.638730765516765 ] ] ] } }
]
}
