{
"type": "FeatureCollection",
"name": "melmunr",
"crs": { "type": "name", "properties": { "name": "urn:ogc:def:crs:OGC:1.3:CRS84" } },
"features": [
{ "type": "Feature", "properties": { "ID": 1, "GRIDCODE": 2 }, "geometry": { "type": "Polygon", "coordinates": [ [ [ -156.859849818744436, 20.794699209184632 ], [ -156.862816255566287, 20.794896927668429 ], [ -156.865725609671728, 20.797072711160041 ], [ -156.870719571019976, 20.801604939221686 ], [ -156.883127075147399, 20.811972233077459 ], [ -156.888514878778579, 20.815778481849932 ], [ -156.888793513673022, 20.816058142685328 ], [ -156.890336626219948, 20.817036932078295 ], [ -156.899061336698765, 20.823496461596747 ], [ -156.900490060019592, 20.82520574913995 ], [ -156.902644217813986, 20.829016537024497 ], [ -156.903569138630672, 20.831141124580888 ], [ -156.904119616371133, 20.832178828933991 ], [ -156.904429764979142, 20.833703477046004 ], [ -156.904012542366075, 20.835582636812418 ], [ -156.902090007448322, 20.837003086641758 ], [ -156.89903509278696, 20.838124662582082 ], [ -156.895658360987113, 20.837814646832349 ], [ -156.894295773579529, 20.836446123723828 ], [ -156.894252904214767, 20.836877402450799 ], [ -156.894262259992161, 20.838066041739637 ], [ -156.89361857318741, 20.837480665013356 ], [ -156.892843823575561, 20.835615455177614 ], [ -156.891339370460145, 20.831887567040191 ], [ -156.890024934856143, 20.831230420210531 ], [ -156.889721360021156, 20.832596709245188 ], [ -156.88942388717777, 20.832858688844819 ], [ -156.889049676657351, 20.834223840813863 ], [ -156.887969983005689, 20.834189892750413 ], [ -156.888360866846824, 20.835382836612457 ], [ -156.888811164972054, 20.836674938382149 ], [ -156.888783022039547, 20.837461735362499 ], [ -156.889152423657094, 20.838520929530191 ], [ -156.883729528955058, 20.838558114335832 ], [ -156.881431988270776, 20.837237207274608 ], [ -156.878822878471453, 20.834373719656551 ], [ -156.879620037180814, 20.832275243804727 ], [ -156.879669201794172, 20.830894850132168 ], [ -156.879241845835594, 20.829598913470363 ], [ -156.876282880670658, 20.827291986496885 ], [ -156.874815134483242, 20.826918978029269 ], [ -156.875069978266708, 20.828893427108859 ], [ -156.875698699831304, 20.830698019228773 ], [ -156.875032034761375, 20.831597011112002 ], [ -156.874068407989881, 20.832939726508474 ], [ -156.870070463716416, 20.832510513119257 ], [ -156.868690438515529, 20.831521795712131 ], [ -156.861964771239514, 20.824745486259932 ], [ -156.857709080739937, 20.818821506210135 ], [ -156.856204890320981, 20.814928282541089 ], [ -156.85524311693095, 20.808561772030064 ], [ -156.855216201782611, 20.805014704759156 ], [ -156.855991133529585, 20.800258200111973 ], [ -156.858571316199061, 20.795834588454049 ], [ -156.859706651176595, 20.794835535581221 ], [ -156.859849818744436, 20.794699209184632 ] ], [ [ -156.866591899448224, 20.806975235414242 ], [ -156.866311350199965, 20.807635453581049 ], [ -156.866472995471298, 20.809005761698923 ], [ -156.866384604610175, 20.809607913326708 ], [ -156.867462143749549, 20.81044139872732 ], [ -156.867801560520263, 20.812017515086158 ], [ -156.868270739756326, 20.812791173498905 ], [ -156.868661534234235, 20.813696280719686 ], [ -156.869149286466097, 20.812169078632678 ], [ -156.868959928373783, 20.810566518772596 ], [ -156.870305747404359, 20.810152102367635 ], [ -156.872119249944632, 20.812342099243565 ], [ -156.872436040920775, 20.812587067987195 ], [ -156.872687846102394, 20.812891025912407 ], [ -156.873004639162644, 20.813135993768292 ], [ -156.873256446372437, 20.813439951016733 ], [ -156.873573241516851, 20.813684917984798 ], [ -156.873825050754846, 20.813988874556379 ], [ -156.874631399919764, 20.814320212970479 ], [ -156.875089555599033, 20.815381322826852 ], [ -156.875601896044799, 20.815327877403824 ], [ -156.875457010272896, 20.814100920432232 ], [ -156.873567354796506, 20.811818198628586 ], [ -156.872502478120566, 20.810119448841476 ], [ -156.868988236120458, 20.809593861669569 ], [ -156.868420595800586, 20.808278435528116 ], [ -156.868531113541763, 20.807522833670621 ], [ -156.866591899448224, 20.806975235414242 ] ] ] } }
]
}
