{
"type": "FeatureCollection",
"name": "melneal",
"crs": { "type": "name", "properties": { "name": "urn:ogc:def:crs:OGC:1.3:CRS84" } },
"features": [
{ "type": "Feature", "properties": { "ID": 1, "GRIDCODE": 2 }, "geometry": { "type": "Polygon", "coordinates": [ [ [ -159.651415418866918, 22.117841232613774 ], [ -159.651513457927194, 22.11751040295924 ], [ -159.651769621267789, 22.117747044825759 ], [ -159.651415418866918, 22.117841232613774 ] ] ] } },
{ "type": "Feature", "properties": { "ID": 2, "GRIDCODE": 2 }, "geometry": { "type": "Polygon", "coordinates": [ [ [ -159.661586690661466, 22.115903203739581 ], [ -159.661218090484994, 22.116051959460002 ], [ -159.661471721666487, 22.116526929759907 ], [ -159.661586690661466, 22.115903203739581 ], [ -159.662355665727432, 22.115750036685665 ], [ -159.66290036927478, 22.115767941507659 ], [ -159.663250630362796, 22.114370883287954 ], [ -159.664598154154675, 22.114415163330385 ], [ -159.664908820833688, 22.112225772098245 ], [ -159.665425255502385, 22.111306651963954 ], [ -159.666104648646296, 22.112277654721748 ], [ -159.666070694473632, 22.113174778034661 ], [ -159.666165548933833, 22.1151821544222 ], [ -159.665505779887326, 22.115475581910424 ], [ -159.665089999273619, 22.116305835274098 ], [ -159.664640835704716, 22.117105224222488 ], [ -159.664225045456675, 22.117935475463515 ], [ -159.663635865113577, 22.11898399570218 ], [ -159.659793276273547, 22.119293041592371 ], [ -159.660303489702073, 22.117917633191656 ], [ -159.660259841595973, 22.116992653951129 ], [ -159.660305148229696, 22.115795831584094 ], [ -159.659128161793575, 22.117679945065124 ], [ -159.65824571353059, 22.117944185883282 ], [ -159.657965466677211, 22.119061900658288 ], [ -159.657674840481889, 22.117897100438888 ], [ -159.658251806480507, 22.116870418949752 ], [ -159.658388526993349, 22.116187147866146 ], [ -159.658742720234812, 22.116092945149013 ], [ -159.658486548630037, 22.115856314384455 ], [ -159.658388526993349, 22.116187147866146 ], [ -159.657944668375819, 22.116316820969008 ], [ -159.657194956073511, 22.117425706234776 ], [ -159.656500861057424, 22.11738996384716 ], [ -159.656224705979412, 22.118236134703452 ], [ -159.655610044439186, 22.118501998010199 ], [ -159.655665252327537, 22.119307211498981 ], [ -159.653876987409149, 22.11905743008181 ], [ -159.654189925200967, 22.118515318783395 ], [ -159.654460631476638, 22.117685921517349 ], [ -159.654772585247571, 22.117423914879776 ], [ -159.654450292820769, 22.116876822157749 ], [ -159.655373237076844, 22.116324645564646 ], [ -159.65657844804312, 22.113365518764212 ], [ -159.65756881442573, 22.11438943212714 ], [ -159.658323503622199, 22.112536261131293 ], [ -159.659109314570856, 22.113059881363842 ], [ -159.659576140743553, 22.113542472246223 ], [ -159.659969409660192, 22.111935885551333 ], [ -159.660821806529697, 22.111220001934466 ], [ -159.66121832254251, 22.110405625818501 ], [ -159.663446360462416, 22.111036832761926 ], [ -159.662823374617915, 22.112383570327779 ], [ -159.661436878662585, 22.11321314422845 ], [ -159.661713753279628, 22.113336425116845 ], [ -159.662584305546517, 22.113284536163334 ], [ -159.662313805724153, 22.114146251409913 ], [ -159.661722020093976, 22.115488499493441 ], [ -159.661586690661466, 22.115903203739581 ] ], [ [ -159.661016348690453, 22.118344694394423 ], [ -159.661135714353634, 22.118960110307601 ], [ -159.661395079443054, 22.118493897705193 ], [ -159.661016348690453, 22.118344694394423 ] ], [ [ -159.662755183166468, 22.116982546611993 ], [ -159.662532544851501, 22.118703874850034 ], [ -159.663622464622165, 22.118100927599084 ], [ -159.663047697932171, 22.117198866787117 ], [ -159.662755183166468, 22.116982546611993 ] ], [ [ -159.66420566730767, 22.1161635938168 ], [ -159.664306771329052, 22.116493620615952 ], [ -159.6645607258599, 22.116254923854076 ], [ -159.66420566730767, 22.1161635938168 ] ], [ [ -159.660123576908376, 22.114011982227858 ], [ -159.660477763498108, 22.113917775884882 ], [ -159.660221593107508, 22.113681147753841 ], [ -159.660123576908376, 22.114011982227858 ], [ -159.659769389828028, 22.114106187813235 ], [ -159.660025560272118, 22.114342816641006 ], [ -159.660123576908376, 22.114011982227858 ] ] ] } },
{ "type": "Feature", "properties": { "ID": 3, "GRIDCODE": 2 }, "geometry": { "type": "Polygon", "coordinates": [ [ [ -159.620537796641685, 22.107391626788974 ], [ -159.620892807561233, 22.107483053043183 ], [ -159.620638792970254, 22.107721683540706 ], [ -159.620537796641685, 22.107391626788974 ] ] ] } },
{ "type": "Feature", "properties": { "ID": 4, "GRIDCODE": 2 }, "geometry": { "type": "Polygon", "coordinates": [ [ [ -159.651415418866918, 22.117841232613774 ], [ -159.651416664020587, 22.118112248139216 ], [ -159.650756190660587, 22.118223436759781 ], [ -159.65125651860734, 22.118465127474174 ], [ -159.651416664020587, 22.118112248139216 ], [ -159.652117959141037, 22.118276959566376 ], [ -159.651187861596952, 22.11874608213683 ], [ -159.649209306634475, 22.118281361000321 ], [ -159.648387273194913, 22.117692960234418 ], [ -159.647636061014964, 22.117434448417033 ], [ -159.649086048812592, 22.117308466212574 ], [ -159.649187118794799, 22.117638503166667 ], [ -159.649441101438754, 22.117399829278256 ], [ -159.649086048812592, 22.117308466212574 ], [ -159.649221416324622, 22.116893771471499 ], [ -159.649527436326565, 22.116636785604381 ], [ -159.64980595092959, 22.116343830984015 ], [ -159.650523041137632, 22.116703224805828 ], [ -159.651052202387206, 22.115616645210316 ], [ -159.652122059217305, 22.115153946311295 ], [ -159.651727838446533, 22.114913687259893 ], [ -159.650521011886781, 22.114403387159296 ], [ -159.650071711660502, 22.113640779953766 ], [ -159.651595819368254, 22.11308786853736 ], [ -159.65244799727256, 22.11047659600251 ], [ -159.653285720916273, 22.110114258018253 ], [ -159.652652636020264, 22.109039636729072 ], [ -159.653255009448543, 22.108533787891503 ], [ -159.652835191241422, 22.108035449014483 ], [ -159.652190579762646, 22.108713565785234 ], [ -159.651082949079637, 22.108779519452089 ], [ -159.650057354770098, 22.108726658568887 ], [ -159.64821532156401, 22.110664290506715 ], [ -159.64711541191906, 22.110403130700156 ], [ -159.646577043344337, 22.10984645552379 ], [ -159.646299582108867, 22.110416111899831 ], [ -159.645977824060111, 22.110973453926871 ], [ -159.646741828969283, 22.11227036835265 ], [ -159.645711359514593, 22.112571353953498 ], [ -159.64538802432628, 22.113891534487383 ], [ -159.644848292707707, 22.112286993982952 ], [ -159.644256516784054, 22.112322197695512 ], [ -159.64351111928454, 22.111240183536843 ], [ -159.643082202754613, 22.111501620462946 ], [ -159.643760239151646, 22.112652583661475 ], [ -159.642444088684471, 22.113439829210826 ], [ -159.641952835845217, 22.113956525241171 ], [ -159.64134383405306, 22.114219864717633 ], [ -159.641959025149362, 22.114727679984664 ], [ -159.641925174976677, 22.115297264710446 ], [ -159.643110456107223, 22.116275689427539 ], [ -159.64141420112739, 22.116055704191314 ], [ -159.6410838815913, 22.114757749666929 ], [ -159.640036892581719, 22.114143043211907 ], [ -159.640480942676305, 22.113676031007689 ], [ -159.641411439931176, 22.113404294784669 ], [ -159.642068139404273, 22.112713608451081 ], [ -159.642528095325474, 22.112327359856344 ], [ -159.642441106706144, 22.111057158534887 ], [ -159.643038355650617, 22.110428982143858 ], [ -159.643879177008472, 22.110759194375493 ], [ -159.644379381565642, 22.111763551141323 ], [ -159.645165061561926, 22.111333704352184 ], [ -159.645102465611757, 22.11042006634997 ], [ -159.645426730114764, 22.110147764500969 ], [ -159.64539402195328, 22.109669860278924 ], [ -159.646230255315118, 22.10879026037119 ], [ -159.646788074463672, 22.109191168379237 ], [ -159.647686591541856, 22.110120243615206 ], [ -159.648602513122199, 22.108765607497702 ], [ -159.649217146848741, 22.108499770955198 ], [ -159.649126372779563, 22.107175025664834 ], [ -159.65006270786813, 22.106857736248195 ], [ -159.650517096686741, 22.108208451446366 ], [ -159.65094153775587, 22.108230332863236 ], [ -159.651508832954477, 22.107940161484585 ], [ -159.65218782390852, 22.107975159307035 ], [ -159.652661838226095, 22.106039232467648 ], [ -159.653549501288325, 22.105779914796976 ], [ -159.654427177102178, 22.105203393798462 ], [ -159.654993015925498, 22.105232547527105 ], [ -159.656185800007506, 22.105161494996519 ], [ -159.656135273183878, 22.106012276839184 ], [ -159.656468710459222, 22.106578229809049 ], [ -159.655864799948262, 22.106839468130669 ], [ -159.655300777115627, 22.107128003642288 ], [ -159.653848511398735, 22.107552263522152 ], [ -159.654124839441806, 22.107945778351979 ], [ -159.654976195251948, 22.108648486668997 ], [ -159.653531724591005, 22.109273248866646 ], [ -159.654318045708749, 22.110607852143893 ], [ -159.653248035961042, 22.110920440456987 ], [ -159.65330253842356, 22.111715063622704 ], [ -159.652981369010291, 22.112271432271864 ], [ -159.652713158147918, 22.113642858806884 ], [ -159.652004890881841, 22.113949204557343 ], [ -159.653306408480887, 22.114713238063565 ], [ -159.652995095863133, 22.115252603653399 ], [ -159.652723137666101, 22.115810983309064 ], [ -159.651836656542031, 22.116341313299063 ], [ -159.651565937141129, 22.117170706661998 ], [ -159.65093091084421, 22.117703948885413 ], [ -159.651415418866918, 22.117841232613774 ] ], [ [ -159.649669010659068, 22.117577168788511 ], [ -159.64977008219725, 22.11790720533352 ], [ -159.650024064303267, 22.117668530558323 ], [ -159.649669010659068, 22.117577168788511 ] ], [ [ -159.651105891188934, 22.113777158339033 ], [ -159.651206963091028, 22.114107194131829 ], [ -159.651460936087943, 22.113868517235566 ], [ -159.651105891188934, 22.113777158339033 ] ] ] } },
{ "type": "Feature", "properties": { "ID": 5, "GRIDCODE": 2 }, "geometry": { "type": "Polygon", "coordinates": [ [ [ -159.674036830773701, 22.103927422033891 ], [ -159.674708757032562, 22.104122612158818 ], [ -159.674140358369954, 22.10525787796254 ], [ -159.672690444989769, 22.106520911315805 ], [ -159.671723068154563, 22.108743313898973 ], [ -159.672289141748536, 22.110384159527523 ], [ -159.67275534998609, 22.110848882691869 ], [ -159.673372480984796, 22.111117169523546 ], [ -159.673322707488438, 22.112434171455916 ], [ -159.673920120048905, 22.113475019700594 ], [ -159.672276586895265, 22.113967333926531 ], [ -159.671900740045288, 22.11463633952761 ], [ -159.67162871490072, 22.116273915606659 ], [ -159.671091635861899, 22.117229812201302 ], [ -159.671045947603574, 22.118439299737428 ], [ -159.67108406389687, 22.119245775715001 ], [ -159.668622064945367, 22.119346821093814 ], [ -159.669092720086326, 22.117642608269374 ], [ -159.668393960284504, 22.11761967277285 ], [ -159.667071389968697, 22.11896146271873 ], [ -159.665319459812054, 22.119541640445341 ], [ -159.664080042574852, 22.119209870632794 ], [ -159.666097675437015, 22.117641328713788 ], [ -159.667060981088355, 22.117352820999468 ], [ -159.668113287745655, 22.114515522764407 ], [ -159.668128407452258, 22.114114943907055 ], [ -159.668096421422632, 22.11343752481093 ], [ -159.668157922829181, 22.111811153183361 ], [ -159.668051922405198, 22.109568252128501 ], [ -159.668663394423675, 22.108947874515206 ], [ -159.669264772021222, 22.108424040627298 ], [ -159.669821642395988, 22.107859049229887 ], [ -159.671026532313249, 22.106809526101955 ], [ -159.670986727507568, 22.105967615048417 ], [ -159.672616708220659, 22.105368412000878 ], [ -159.674036830773701, 22.103927422033891 ] ], [ [ -159.669115706418609, 22.108826012095669 ], [ -159.668806473471051, 22.109640338666321 ], [ -159.669545944927364, 22.111534449665132 ], [ -159.668966361034137, 22.113060592163368 ], [ -159.66909746575152, 22.114968864845668 ], [ -159.6687011766426, 22.116012435588818 ], [ -159.669352610977967, 22.11681250453114 ], [ -159.669977707326041, 22.116154797634053 ], [ -159.6694782962646, 22.11530735282355 ], [ -159.670166824004241, 22.114114218568737 ], [ -159.670551274332468, 22.112147026860956 ], [ -159.669402685023357, 22.109744152567107 ], [ -159.669859681023212, 22.108952253506278 ], [ -159.669115706418609, 22.108826012095669 ] ] ] } },
{ "type": "Feature", "properties": { "ID": 6, "GRIDCODE": 2 }, "geometry": { "type": "Polygon", "coordinates": [ [ [ -159.616743897790258, 22.104424748922927 ], [ -159.616058674047139, 22.104290094216569 ], [ -159.616377453851896, 22.103807696746621 ], [ -159.616743897790258, 22.104424748922927 ] ] ] } },
{ "type": "Feature", "properties": { "ID": 7, "GRIDCODE": 2 }, "geometry": { "type": "Polygon", "coordinates": [ [ [ -159.616743897790258, 22.104424748922927 ], [ -159.617754023030784, 22.105108570680866 ], [ -159.618672573448521, 22.105355952706653 ], [ -159.618601407635055, 22.104570251287807 ], [ -159.619802921448382, 22.10312859728143 ], [ -159.620849523678089, 22.102281335472686 ], [ -159.622051144689749, 22.100970899949502 ], [ -159.622900071985725, 22.101408077097901 ], [ -159.621846059372814, 22.102261335047093 ], [ -159.621381406189897, 22.10372107894668 ], [ -159.62351662522741, 22.103982428462103 ], [ -159.626135071284665, 22.103075010835852 ], [ -159.625601741066674, 22.103974458219838 ], [ -159.625334970186799, 22.10453768782283 ], [ -159.623809532990407, 22.105567262084772 ], [ -159.622519325002941, 22.105934615460349 ], [ -159.623311322074755, 22.106966512901618 ], [ -159.62328773719554, 22.107255026839276 ], [ -159.623903489791559, 22.107508256569435 ], [ -159.623357089436155, 22.108429672896655 ], [ -159.621109919729093, 22.107865775808808 ], [ -159.621864962548045, 22.107254601137093 ], [ -159.621243263225665, 22.106226085301973 ], [ -159.621270088160543, 22.105898222654222 ], [ -159.621244797530096, 22.105619753692007 ], [ -159.621624292813436, 22.104979893242408 ], [ -159.619703455537461, 22.105131062981467 ], [ -159.619188625507974, 22.105692535600213 ], [ -159.618049494560125, 22.106171377331915 ], [ -159.617761367894047, 22.10648553036334 ], [ -159.616865977689258, 22.106421894109239 ], [ -159.616907579265927, 22.105913735855779 ], [ -159.616743897790258, 22.104424748922927 ] ] ] } },
{ "type": "Feature", "properties": { "ID": 8, "GRIDCODE": 2 }, "geometry": { "type": "Polygon", "coordinates": [ [ [ -159.674577268144532, 22.095252545963866 ], [ -159.676151908242019, 22.095622199057058 ], [ -159.67587467313669, 22.096984004944105 ], [ -159.674990203279265, 22.095953204512767 ], [ -159.674577268144532, 22.095252545963866 ] ] ] } },
{ "type": "Feature", "properties": { "ID": 9, "GRIDCODE": 2 }, "geometry": { "type": "Polygon", "coordinates": [ [ [ -159.67223022707762, 22.090925888303847 ], [ -159.672956284639838, 22.091111096751519 ], [ -159.673242912823213, 22.09378488719004 ], [ -159.674327610591661, 22.095024373442591 ], [ -159.672147565332892, 22.09446830273561 ], [ -159.672005276651305, 22.09359758282547 ], [ -159.672651919699462, 22.092588488213146 ], [ -159.67223022707762, 22.090925888303847 ] ] ] } },
{ "type": "Feature", "properties": { "ID": 10, "GRIDCODE": 2 }, "geometry": { "type": "Polygon", "coordinates": [ [ [ -159.611159666923157, 22.090894598562041 ], [ -159.611779674541395, 22.091036309901639 ], [ -159.61206761828052, 22.092083526657497 ], [ -159.610492117169002, 22.091402911954582 ], [ -159.611044214702389, 22.091057819241364 ], [ -159.611159666923157, 22.090894598562041 ] ] ] } },
{ "type": "Feature", "properties": { "ID": 11, "GRIDCODE": 2 }, "geometry": { "type": "Polygon", "coordinates": [ [ [ -159.669885888830208, 22.08714122216918 ], [ -159.670240877570848, 22.087232550174285 ], [ -159.669986983348338, 22.087471246803087 ], [ -159.669885888830208, 22.08714122216918 ] ] ] } },
{ "type": "Feature", "properties": { "ID": 12, "GRIDCODE": 2 }, "geometry": { "type": "Polygon", "coordinates": [ [ [ -159.669885888830208, 22.08714122216918 ], [ -159.669530900525672, 22.087049893380794 ], [ -159.669784794802297, 22.086811197447783 ], [ -159.669885888830208, 22.08714122216918 ] ] ] } },
{ "type": "Feature", "properties": { "ID": 13, "GRIDCODE": 2 }, "geometry": { "type": "Polygon", "coordinates": [ [ [ -159.607912051334324, 22.079523733802041 ], [ -159.608893153273669, 22.079649524590703 ], [ -159.608070815719543, 22.080159314002266 ], [ -159.607912051334324, 22.079523733802041 ] ] ] } },
{ "type": "Feature", "properties": { "ID": 14, "GRIDCODE": 2 }, "geometry": { "type": "Polygon", "coordinates": [ [ [ -159.666063584938428, 22.07821314367003 ], [ -159.666387653433162, 22.078452870928384 ], [ -159.666781519321432, 22.079715821439571 ], [ -159.667106865216681, 22.080226563038629 ], [ -159.667394624471143, 22.081440368590744 ], [ -159.669103258123954, 22.083600445505006 ], [ -159.669162278892799, 22.084027445680352 ], [ -159.669073690457253, 22.084716013368922 ], [ -159.669684794236588, 22.086178486353706 ], [ -159.668542462413285, 22.085680389898155 ], [ -159.667672195987052, 22.084314317716753 ], [ -159.667709318694847, 22.084025726644018 ], [ -159.667321297245707, 22.083097049030108 ], [ -159.667426503890738, 22.082279586548587 ], [ -159.66682244336036, 22.081582828558076 ], [ -159.665690011632108, 22.081286034085782 ], [ -159.665553293219062, 22.080296926679321 ], [ -159.665934980349959, 22.078364164891578 ], [ -159.666063584938428, 22.07821314367003 ] ] ] } },
{ "type": "Feature", "properties": { "ID": 15, "GRIDCODE": 2 }, "geometry": { "type": "Polygon", "coordinates": [ [ [ -159.665182365776104, 22.076319581273271 ], [ -159.665537324539542, 22.076410920359834 ], [ -159.665283441024513, 22.076649609713282 ], [ -159.665182365776104, 22.076319581273271 ] ] ] } },
{ "type": "Feature", "properties": { "ID": 16, "GRIDCODE": 2 }, "geometry": { "type": "Polygon", "coordinates": [ [ [ -159.607316578824879, 22.076273664761651 ], [ -159.607761457244521, 22.076399898127729 ], [ -159.608039452706663, 22.077227186962983 ], [ -159.608625286232865, 22.078222504445705 ], [ -159.607692713512051, 22.078817628518465 ], [ -159.607316578824879, 22.076273664761651 ] ] ] } },
{ "type": "Feature", "properties": { "ID": 17, "GRIDCODE": 2 }, "geometry": { "type": "Polygon", "coordinates": [ [ [ -159.665182365776104, 22.076319581273271 ], [ -159.664803745124431, 22.076170391558097 ], [ -159.665063023779879, 22.075704164674889 ], [ -159.665182365776104, 22.076319581273271 ] ] ] } },
{ "type": "Feature", "properties": { "ID": 18, "GRIDCODE": 2 }, "geometry": { "type": "Polygon", "coordinates": [ [ [ -159.607285307399195, 22.068956142791635 ], [ -159.607867121749251, 22.069419622094376 ], [ -159.607425068120165, 22.070165156644133 ], [ -159.606910706045255, 22.071251160532697 ], [ -159.605705296404977, 22.070932530364438 ], [ -159.60597239438286, 22.070441567829114 ], [ -159.607285307399195, 22.068956142791635 ] ] ] } },
{ "type": "Feature", "properties": { "ID": 19, "GRIDCODE": 2 }, "geometry": { "type": "Polygon", "coordinates": [ [ [ -159.604346564351943, 22.061649377759515 ], [ -159.604460457901524, 22.06235870802945 ], [ -159.605301823572944, 22.062837664730687 ], [ -159.604463640843562, 22.06310738699931 ], [ -159.603116628138679, 22.064196453666607 ], [ -159.602320963382738, 22.062709115814663 ], [ -159.603160744430625, 22.062949553825867 ], [ -159.603808192852284, 22.06196134566488 ], [ -159.604346564351943, 22.061649377759515 ] ] ] } },
{ "type": "Feature", "properties": { "ID": 20, "GRIDCODE": 2 }, "geometry": { "type": "Polygon", "coordinates": [ [ [ -159.604346564351943, 22.061649377759515 ], [ -159.604449910667824, 22.060478765413475 ], [ -159.605888583348644, 22.060671122075529 ], [ -159.605691950182376, 22.061336027676045 ], [ -159.60510144850042, 22.061023384940036 ], [ -159.604835274489545, 22.06156143798486 ], [ -159.604346564351943, 22.061649377759515 ] ] ] } },
{ "type": "Feature", "properties": { "ID": 21, "GRIDCODE": 2 }, "geometry": { "type": "Polygon", "coordinates": [ [ [ -159.599963608348929, 22.056516043404287 ], [ -159.600382244545642, 22.056814828606807 ], [ -159.599698615424074, 22.057151781419368 ], [ -159.599963608348929, 22.056516043404287 ] ] ] } }
]
}
