{
"type": "FeatureCollection",
"name": "meloval",
"crs": { "type": "name", "properties": { "name": "urn:ogc:def:crs:OGC:1.3:CRS84" } },
"features": [
{ "type": "Feature", "properties": { "ID": 1, "GRIDCODE": 1 }, "geometry": { "type": "Polygon", "coordinates": [ [ [ -156.599003487193812, 20.947282007906558 ], [ -156.599353377818602, 20.947379657307554 ], [ -156.599097040785949, 20.947613608187297 ], [ -156.599003487193812, 20.947282007906558 ] ] ] } },
{ "type": "Feature", "properties": { "ID": 2, "GRIDCODE": 1 }, "geometry": { "type": "Polygon", "coordinates": [ [ [ -156.579184791699589, 20.942396640923835 ], [ -156.579044935551792, 20.943300840564245 ], [ -156.578811059981319, 20.942574926546456 ], [ -156.579184791699589, 20.942396640923835 ] ] ] } },
{ "type": "Feature", "properties": { "ID": 3, "GRIDCODE": 1 }, "geometry": { "type": "Polygon", "coordinates": [ [ [ -156.579184791699589, 20.942396640923835 ], [ -156.57928892089916, 20.942067839626894 ], [ -156.579537635740138, 20.942308927784026 ], [ -156.579184791699589, 20.942396640923835 ] ] ] } },
{ "type": "Feature", "properties": { "ID": 4, "GRIDCODE": 1 }, "geometry": { "type": "Polygon", "coordinates": [ [ [ -156.603409998437854, 20.942197026539855 ], [ -156.603305920251131, 20.942525847670545 ], [ -156.603057163173133, 20.942284790495695 ], [ -156.603409998437854, 20.942197026539855 ] ] ] } },
{ "type": "Feature", "properties": { "ID": 5, "GRIDCODE": 1 }, "geometry": { "type": "Polygon", "coordinates": [ [ [ -156.579503570439499, 20.940504935586429 ], [ -156.57985342871126, 20.94060262235093 ], [ -156.579597077270677, 20.940836542236781 ], [ -156.579503570439499, 20.940504935586429 ] ] ] } },
{ "type": "Feature", "properties": { "ID": 6, "GRIDCODE": 1 }, "geometry": { "type": "Polygon", "coordinates": [ [ [ -156.589353051217188, 20.937664635202708 ], [ -156.589470064290708, 20.938358464671936 ], [ -156.589792422795199, 20.93860864812304 ], [ -156.589401296432982, 20.940120536654891 ], [ -156.589769346357798, 20.941403875894686 ], [ -156.58970023805972, 20.941868361779051 ], [ -156.589747505201558, 20.942275367170122 ], [ -156.589687225855187, 20.942680852506413 ], [ -156.589767919352795, 20.943374433063784 ], [ -156.589206025092039, 20.944013561036446 ], [ -156.588673283121608, 20.942938467799792 ], [ -156.588323637855723, 20.939926999575778 ], [ -156.589190933492034, 20.937782842994267 ], [ -156.589353051217188, 20.937664635202708 ] ] ] } },
{ "type": "Feature", "properties": { "ID": 7, "GRIDCODE": 1 }, "geometry": { "type": "Polygon", "coordinates": [ [ [ -156.570405203906489, 20.932519786439379 ], [ -156.570265311515953, 20.933423975572001 ], [ -156.570031489746583, 20.932698054372342 ], [ -156.570405203906489, 20.932519786439379 ] ] ] } },
{ "type": "Feature", "properties": { "ID": 8, "GRIDCODE": 1 }, "geometry": { "type": "Polygon", "coordinates": [ [ [ -156.582576302611557, 20.910750517570357 ], [ -156.582943426058137, 20.910891160710143 ], [ -156.582571959538058, 20.911021347380757 ], [ -156.582576302611557, 20.910750517570357 ] ] ] } },
{ "type": "Feature", "properties": { "ID": 9, "GRIDCODE": 1 }, "geometry": { "type": "Polygon", "coordinates": [ [ [ -156.605738138157562, 20.922725347289344 ], [ -156.605644579012079, 20.922393749854425 ], [ -156.605388297553617, 20.92262771586941 ], [ -156.605738138157562, 20.922725347289344 ], [ -156.607003352127123, 20.924240684528549 ], [ -156.608127891895009, 20.924934876958623 ], [ -156.606964632240221, 20.931320963820422 ], [ -156.606076111901444, 20.930851100003594 ], [ -156.606002844213577, 20.931775715492954 ], [ -156.606662367815346, 20.933330971305249 ], [ -156.605972381295487, 20.935940815224274 ], [ -156.605052982335764, 20.938596505599861 ], [ -156.603876893968334, 20.939083680284508 ], [ -156.604532611405176, 20.940258872105886 ], [ -156.60364565638173, 20.942005104276472 ], [ -156.603409998437854, 20.942197026539855 ], [ -156.603257388494796, 20.942019091971403 ], [ -156.602674845904232, 20.942066590440064 ], [ -156.6016490747391, 20.939710024541405 ], [ -156.601194386267252, 20.937637009974228 ], [ -156.600544999534691, 20.936879612497492 ], [ -156.600036834190547, 20.936731725750487 ], [ -156.599943282615897, 20.936400126053964 ], [ -156.599686966989566, 20.936634079990252 ], [ -156.600036834190547, 20.936731725750487 ], [ -156.600750437474744, 20.939095811722538 ], [ -156.600618185290188, 20.940396963593663 ], [ -156.600712309151959, 20.941752753859873 ], [ -156.600643800089358, 20.94242902294814 ], [ -156.600707938108911, 20.943351729292978 ], [ -156.600348620903929, 20.943633835938627 ], [ -156.599999741442502, 20.944002991308441 ], [ -156.600347832130495, 20.945272675033848 ], [ -156.599771356015907, 20.946210173488335 ], [ -156.599479206816056, 20.945246956918393 ], [ -156.599288942624753, 20.944993490688269 ], [ -156.599003487193812, 20.947282007906558 ], [ -156.597729235150268, 20.946257073998829 ], [ -156.596734014024548, 20.944689121174218 ], [ -156.596197278544651, 20.94622265315628 ], [ -156.59687519380924, 20.947998036493125 ], [ -156.596528345602934, 20.949049733537574 ], [ -156.595641136248872, 20.948952173153856 ], [ -156.595694211841902, 20.949525393182917 ], [ -156.595062698956582, 20.949269667268986 ], [ -156.59511791471229, 20.94882799774027 ], [ -156.594821377189589, 20.948158620966829 ], [ -156.594357338652912, 20.947785285177012 ], [ -156.593725948040287, 20.946712515750324 ], [ -156.59401895629756, 20.944361555927546 ], [ -156.593527695795558, 20.942609565448649 ], [ -156.594053895776966, 20.942211313222607 ], [ -156.594026764856125, 20.94191794889792 ], [ -156.595147766009404, 20.941480068792309 ], [ -156.594627421236709, 20.940596033963843 ], [ -156.59431701336527, 20.939544461204889 ], [ -156.59278646442641, 20.9393384790217 ], [ -156.592680879829743, 20.93872139708995 ], [ -156.592414157145413, 20.939182566578342 ], [ -156.59278646442641, 20.9393384790217 ], [ -156.592456260933716, 20.939807217855581 ], [ -156.592059858202589, 20.939696465822244 ], [ -156.591573579608308, 20.939817506027495 ], [ -156.590990651903809, 20.938182864075362 ], [ -156.590373770403716, 20.937772971035418 ], [ -156.589837741172119, 20.937906266434169 ], [ -156.590201066531478, 20.936758258334745 ], [ -156.589765261387242, 20.936963470361171 ], [ -156.589530415466157, 20.937561457089853 ], [ -156.589353051217188, 20.937664635202708 ], [ -156.589070029266537, 20.936030920384997 ], [ -156.588295489763794, 20.934987197271983 ], [ -156.588730283838316, 20.933948136135257 ], [ -156.588667398708367, 20.93326816639458 ], [ -156.587550405047864, 20.932369331328207 ], [ -156.587307423029017, 20.931190533046294 ], [ -156.588190449505106, 20.930522482538152 ], [ -156.588160445051159, 20.930198258233823 ], [ -156.588274505300518, 20.929282568982959 ], [ -156.587903747003708, 20.928310953721958 ], [ -156.587659365230365, 20.927219567342942 ], [ -156.588681149846423, 20.924776804112089 ], [ -156.588544643976093, 20.923295948541352 ], [ -156.588739428716593, 20.921733797314133 ], [ -156.588309083756712, 20.921002604787862 ], [ -156.587801484125492, 20.919856310144461 ], [ -156.587510220957284, 20.918528156866952 ], [ -156.587190079444156, 20.917386097832466 ], [ -156.587271149585462, 20.916736468407937 ], [ -156.587163204256939, 20.916110357076082 ], [ -156.585828575128318, 20.917574513576124 ], [ -156.585451974262583, 20.916723841177255 ], [ -156.585549887473405, 20.915937153753628 ], [ -156.586952100558648, 20.914875794078807 ], [ -156.585363983156213, 20.914413404404069 ], [ -156.586510456571006, 20.91275942535496 ], [ -156.586121076570834, 20.911370890865829 ], [ -156.58529526408708, 20.910706454562007 ], [ -156.585335633781085, 20.910383225216897 ], [ -156.58528548170284, 20.909840732506915 ], [ -156.585366548078525, 20.909191368352275 ], [ -156.583647671044474, 20.908161262286228 ], [ -156.582787741946731, 20.908608072621703 ], [ -156.58353539830506, 20.909878935062199 ], [ -156.582722910863907, 20.90978939463405 ], [ -156.582576302611557, 20.910750517570357 ], [ -156.582204836222587, 20.910880703446299 ], [ -156.582571959538058, 20.911021347380757 ], [ -156.58271611229776, 20.911705775157937 ], [ -156.582236291191549, 20.912096720373455 ], [ -156.581673756398317, 20.918589874029166 ], [ -156.582430858244521, 20.920203988287611 ], [ -156.582975490364248, 20.920794355779627 ], [ -156.583729177913483, 20.921446542303379 ], [ -156.583684344411409, 20.922012424632424 ], [ -156.584044620267122, 20.923723028592935 ], [ -156.58238948784296, 20.922396190890613 ], [ -156.582295981668153, 20.922064585637123 ], [ -156.582039668385619, 20.92229851310195 ], [ -156.58238948784296, 20.922396190890613 ], [ -156.582238189726297, 20.923349837560643 ], [ -156.581657906406576, 20.923822420326204 ], [ -156.581582441698572, 20.924769865531086 ], [ -156.581868395317315, 20.927407960464535 ], [ -156.582415239720945, 20.928388032782092 ], [ -156.581558636132513, 20.928742680471007 ], [ -156.581010356881706, 20.930814866314954 ], [ -156.580296792538519, 20.932360118817829 ], [ -156.580579163889098, 20.937550060628393 ], [ -156.579887906618666, 20.940367273188009 ], [ -156.579654668207695, 20.939566636338562 ], [ -156.579400111103865, 20.938463326254681 ], [ -156.579095791241144, 20.93847593763001 ], [ -156.578845595062262, 20.93710179893456 ], [ -156.578545096759257, 20.936841986532873 ], [ -156.578223505177334, 20.936493120691992 ], [ -156.578290305135852, 20.937906982541755 ], [ -156.577573672589921, 20.938203805636128 ], [ -156.577662150348317, 20.940072456105515 ], [ -156.576898165053223, 20.940388840113805 ], [ -156.576020806220924, 20.941642463476597 ], [ -156.574782927319518, 20.941694041279469 ], [ -156.575566912091546, 20.939734626424954 ], [ -156.574389912295118, 20.939783761331793 ], [ -156.574520881385325, 20.938139256831118 ], [ -156.573906701385653, 20.938386067601964 ], [ -156.57322245042559, 20.939084110467267 ], [ -156.573364739514147, 20.937297049345993 ], [ -156.573072175162451, 20.936493313914934 ], [ -156.572502488019637, 20.934662128602053 ], [ -156.571407144651744, 20.933474492910559 ], [ -156.570977538058997, 20.933102782010206 ], [ -156.571871747949075, 20.931938043778651 ], [ -156.570405203906489, 20.932519786439379 ], [ -156.570189710002893, 20.931844653596347 ], [ -156.569355641022383, 20.933138011584436 ], [ -156.569383794718874, 20.934219719052596 ], [ -156.569076375297556, 20.934808568746778 ], [ -156.56850542737206, 20.935290623212339 ], [ -156.568436515265972, 20.936471471467193 ], [ -156.568719982678687, 20.938325040694629 ], [ -156.569055229940659, 20.939605561452726 ], [ -156.568124136671457, 20.940521482216152 ], [ -156.567546492457268, 20.93991776622326 ], [ -156.567143036853253, 20.940314507923983 ], [ -156.563035058081596, 20.934182179759677 ], [ -156.562132876957804, 20.931243093679466 ], [ -156.564243507272721, 20.929853327075495 ], [ -156.565988620230627, 20.92882959802807 ], [ -156.566115496936618, 20.926658480956462 ], [ -156.564899041063853, 20.925566963622508 ], [ -156.56462355322293, 20.924703543971145 ], [ -156.564051044373855, 20.925266512692975 ], [ -156.563065070883226, 20.924758143807011 ], [ -156.559509690171353, 20.924173759802208 ], [ -156.560333276879106, 20.922764037265832 ], [ -156.560319038723037, 20.922217561258602 ], [ -156.560358714563364, 20.92154090923998 ], [ -156.560334959570667, 20.920625794629487 ], [ -156.560665081475889, 20.920060564245205 ], [ -156.560950999893151, 20.919512557695175 ], [ -156.561551724790263, 20.918718794243411 ], [ -156.5621252096077, 20.917102319188459 ], [ -156.563759891637687, 20.916143290553084 ], [ -156.564649040586801, 20.915392384512366 ], [ -156.565494436548619, 20.914560825835238 ], [ -156.565949704877852, 20.914176460138716 ], [ -156.566235591488947, 20.91362844140237 ], [ -156.567324196371658, 20.913164610354244 ], [ -156.569075638417729, 20.910460031206298 ], [ -156.570614384391746, 20.909804179021616 ], [ -156.570670821409237, 20.908835176221903 ], [ -156.570081373608815, 20.908306041079449 ], [ -156.570938632066628, 20.90666380059038 ], [ -156.571398819874418, 20.906653282945349 ], [ -156.571835672465312, 20.906675764392283 ], [ -156.573023299995072, 20.905932620902473 ], [ -156.575042936747394, 20.906460633105855 ], [ -156.575877931164968, 20.905638918054127 ], [ -156.579030571371845, 20.903616773930946 ], [ -156.578010276116117, 20.903146634743674 ], [ -156.579153845741558, 20.90218073561249 ], [ -156.578241151420173, 20.901760005640671 ], [ -156.576339746953806, 20.900779759728675 ], [ -156.574637124459883, 20.901689952186874 ], [ -156.573671426617352, 20.902640092547493 ], [ -156.573333600428413, 20.902622595059352 ], [ -156.571969338236642, 20.902937850419455 ], [ -156.571598026527198, 20.902604672947081 ], [ -156.572486273794311, 20.901429907480935 ], [ -156.572209610387944, 20.900970832408529 ], [ -156.571490065211776, 20.900987322122372 ], [ -156.57105407353248, 20.900964853403597 ], [ -156.56777172692793, 20.901723406191959 ], [ -156.565619129158023, 20.900979803931701 ], [ -156.56163423531919, 20.901433656808251 ], [ -156.560089680621644, 20.902173737312772 ], [ -156.558437493970075, 20.902518629911498 ], [ -156.556601615192875, 20.906989532238871 ], [ -156.556326456446186, 20.905710651383579 ], [ -156.557192000077748, 20.900366653931201 ], [ -156.558045655223083, 20.897960709451485 ], [ -156.559186115592894, 20.896199701970612 ], [ -156.560925085050741, 20.894731080720366 ], [ -156.561058707641195, 20.89487610420327 ], [ -156.561140725266455, 20.896611331613119 ], [ -156.560268154362888, 20.898066933564859 ], [ -156.563654341207524, 20.89755113061317 ], [ -156.569315765425586, 20.898008353432076 ], [ -156.569949409096523, 20.897696348168747 ], [ -156.572391085856538, 20.897303962251399 ], [ -156.573698038898414, 20.897765636573574 ], [ -156.573998330955447, 20.897753235313889 ], [ -156.575006895042492, 20.898109475297293 ], [ -156.576761138049875, 20.89745290944871 ], [ -156.579155461868822, 20.897887902205735 ], [ -156.580311457582951, 20.898671452843345 ], [ -156.581437028883101, 20.899176134920531 ], [ -156.581739464627447, 20.899504348967483 ], [ -156.583029498370792, 20.900463056200206 ], [ -156.583135033168531, 20.90108014017521 ], [ -156.583401702337596, 20.900618979532744 ], [ -156.583029498370792, 20.900463056200206 ], [ -156.583229588876264, 20.899571336364058 ], [ -156.583759389238253, 20.900064399538653 ], [ -156.584315422596546, 20.900624761662861 ], [ -156.585017213845845, 20.901277656851189 ], [ -156.58547116425899, 20.90258787442956 ], [ -156.585391554732524, 20.904693965312493 ], [ -156.586563479237469, 20.904980099872731 ], [ -156.587673917726136, 20.905537573150781 ], [ -156.588275924268487, 20.905056273928288 ], [ -156.58867997541256, 20.903943490127318 ], [ -156.589142192839262, 20.905848378878353 ], [ -156.590240995865685, 20.906870739933495 ], [ -156.591023710745816, 20.908030299298364 ], [ -156.591716062005588, 20.908026705647213 ], [ -156.591675022806953, 20.909115385431868 ], [ -156.592245394179372, 20.909134407608043 ], [ -156.592555485778462, 20.90886246386 ], [ -156.59314138311035, 20.908049975873734 ], [ -156.594580315967221, 20.909108322454593 ], [ -156.594574493480792, 20.908061571720637 ], [ -156.595456920071484, 20.908090930575121 ], [ -156.595453543868558, 20.907543540995864 ], [ -156.595893534602425, 20.907158078103112 ], [ -156.594598271913782, 20.905035653865095 ], [ -156.592656195678785, 20.902554379688304 ], [ -156.594110916600727, 20.902760984214417 ], [ -156.595666885138968, 20.903751259721677 ], [ -156.597349398968305, 20.904857850765307 ], [ -156.596967192793414, 20.902960450570294 ], [ -156.597665549944082, 20.902348727040078 ], [ -156.597275573173533, 20.901610585049625 ], [ -156.597867530075405, 20.90135092732169 ], [ -156.597295017315616, 20.90053138399642 ], [ -156.597311574358656, 20.900092869502661 ], [ -156.595458216936407, 20.899375535317084 ], [ -156.595890359027294, 20.898615364609768 ], [ -156.595888445273033, 20.89831150826749 ], [ -156.598224367771962, 20.898389074875098 ], [ -156.596844959014646, 20.897397737871046 ], [ -156.59593687518435, 20.895678780730531 ], [ -156.596377120067501, 20.895610638110576 ], [ -156.597229540806865, 20.895787307925836 ], [ -156.597323070806993, 20.896118907529058 ], [ -156.597579313858688, 20.895884949820882 ], [ -156.597229540806865, 20.895787307925836 ], [ -156.597097620039989, 20.895373953087848 ], [ -156.596806622103315, 20.894838389596529 ], [ -156.596521020312537, 20.894246950449546 ], [ -156.595401979485899, 20.893242601515158 ], [ -156.5968895163615, 20.893628337226094 ], [ -156.599274605228601, 20.894857610942736 ], [ -156.600304657484287, 20.894910573175075 ], [ -156.599127718769381, 20.893509144464847 ], [ -156.599976030745495, 20.893147260234969 ], [ -156.599286283053118, 20.891876615540458 ], [ -156.59988568234553, 20.891907390133955 ], [ -156.602446642473637, 20.89184797480322 ], [ -156.603817318307534, 20.894824691975181 ], [ -156.605092167371993, 20.899691032249169 ], [ -156.606972820996759, 20.908360900943258 ], [ -156.608253457538012, 20.918302226370844 ], [ -156.607890204411746, 20.923714106343862 ], [ -156.606331259781001, 20.922911044908858 ], [ -156.605738138157562, 20.922725347289344 ] ], [ [ -156.578287665672519, 20.908522618235789 ], [ -156.578077979320113, 20.908869632931495 ], [ -156.577280217687331, 20.909265974421778 ], [ -156.577009070801211, 20.90996845283766 ], [ -156.577806570468056, 20.910237034644346 ], [ -156.578087022155984, 20.90942834093682 ], [ -156.578669809611824, 20.908726576069032 ], [ -156.578287665672519, 20.908522618235789 ] ] ] } },
{ "type": "Feature", "properties": { "ID": 10, "GRIDCODE": 1 }, "geometry": { "type": "Polygon", "coordinates": [ [ [ -156.6005031583571, 20.88933185052549 ], [ -156.600852919745194, 20.889429484534922 ], [ -156.60059669330667, 20.889663448872486 ], [ -156.6005031583571, 20.88933185052549 ] ] ] } },
{ "type": "Feature", "properties": { "ID": 11, "GRIDCODE": 1 }, "geometry": { "type": "Polygon", "coordinates": [ [ [ -156.6005031583571, 20.88933185052549 ], [ -156.599624067105907, 20.889506538053947 ], [ -156.598066233018159, 20.888587179216618 ], [ -156.596949374573626, 20.887235261091906 ], [ -156.595807104251264, 20.886561008099338 ], [ -156.59620545749948, 20.885922312355198 ], [ -156.597032996874958, 20.885837258317625 ], [ -156.599189555318702, 20.887428118589515 ], [ -156.600097915487595, 20.88863397679938 ], [ -156.6005031583571, 20.88933185052549 ] ] ] } },
{ "type": "Feature", "properties": { "ID": 12, "GRIDCODE": 1 }, "geometry": { "type": "Polygon", "coordinates": [ [ [ -156.5939610854291, 20.88382199212958 ], [ -156.594310828722428, 20.8839196379481 ], [ -156.594054603511751, 20.884153592528861 ], [ -156.5939610854291, 20.88382199212958 ] ] ] } },
{ "type": "Feature", "properties": { "ID": 13, "GRIDCODE": 1 }, "geometry": { "type": "Polygon", "coordinates": [ [ [ -156.593389041214181, 20.883543044998522 ], [ -156.593965401904143, 20.883551159179859 ], [ -156.5939610854291, 20.88382199212958 ], [ -156.593384723707601, 20.883813877833422 ], [ -156.593389041214181, 20.883543044998522 ] ] ] } },
{ "type": "Feature", "properties": { "ID": 14, "GRIDCODE": 1 }, "geometry": { "type": "Polygon", "coordinates": [ [ [ -156.593389041214181, 20.883543044998522 ], [ -156.593039299571757, 20.883445397430862 ], [ -156.593295524865965, 20.883211444392046 ], [ -156.593389041214181, 20.883543044998522 ] ] ] } },
{ "type": "Feature", "properties": { "ID": 15, "GRIDCODE": 1 }, "geometry": { "type": "Polygon", "coordinates": [ [ [ -156.560925085050741, 20.894731080720366 ], [ -156.561436550229331, 20.8942278204015 ], [ -156.563397625498908, 20.893000425638402 ], [ -156.564565856018305, 20.892756509698334 ], [ -156.565136369424749, 20.892483037780703 ], [ -156.565667965111061, 20.892510452953172 ], [ -156.566303743642834, 20.892239493950552 ], [ -156.566589578545489, 20.89169146913429 ], [ -156.566896940704709, 20.891431834759068 ], [ -156.566597872549835, 20.89088037399361 ], [ -156.567482703034983, 20.890630945124226 ], [ -156.568650290849462, 20.889481995890254 ], [ -156.56987873863531, 20.888712989743819 ], [ -156.574433543866377, 20.8860551701841 ], [ -156.575382046177566, 20.887482208442627 ], [ -156.575896743699161, 20.8872289362373 ], [ -156.576278077647373, 20.8864982567959 ], [ -156.577386012049232, 20.886025885498462 ], [ -156.577347580149478, 20.884561893425666 ], [ -156.579073543253458, 20.88348148783874 ], [ -156.579654813509677, 20.883937987202835 ], [ -156.579963484650023, 20.884577656918918 ], [ -156.580406094364037, 20.884974785086534 ], [ -156.58106777019114, 20.885666538972984 ], [ -156.581145991827356, 20.885229431029902 ], [ -156.580836443221813, 20.884046908909585 ], [ -156.580852383114063, 20.883772406904061 ], [ -156.580832147522244, 20.882997539382693 ], [ -156.581157609988367, 20.882677286873587 ], [ -156.581872558911101, 20.88271398929605 ], [ -156.582309586589844, 20.882703901972093 ], [ -156.584402182419581, 20.88354656143823 ], [ -156.584323608269926, 20.883003666396686 ], [ -156.582898624947859, 20.88199003001554 ], [ -156.583367763618867, 20.881398134401699 ], [ -156.586248122365419, 20.880874030690201 ], [ -156.589744190043319, 20.881488426810758 ], [ -156.590084393295911, 20.882553516230988 ], [ -156.59062019453026, 20.88406209312555 ], [ -156.590658184016718, 20.885509023673642 ], [ -156.58915504724493, 20.886229608294794 ], [ -156.5880134988858, 20.886587698563062 ], [ -156.586104218395491, 20.886845919733876 ], [ -156.585431369107624, 20.888135322360291 ], [ -156.584178258747727, 20.888919707050619 ], [ -156.582781511651461, 20.888952070605246 ], [ -156.579969982989809, 20.888807387014225 ], [ -156.578737077791402, 20.889155123398876 ], [ -156.5781674479488, 20.889428259760081 ], [ -156.576661392405811, 20.889676344684474 ], [ -156.575037592496159, 20.890454606114414 ], [ -156.574408490412537, 20.890469089105729 ], [ -156.573149077896318, 20.889627954152662 ], [ -156.572297292693321, 20.890081315489308 ], [ -156.571670093809331, 20.891849459096555 ], [ -156.570963594214419, 20.892544683458919 ], [ -156.569261867907983, 20.893543461892726 ], [ -156.567115926024428, 20.895134419014433 ], [ -156.564047491317297, 20.895204977224065 ], [ -156.562225486007776, 20.894879926596463 ], [ -156.560925085050741, 20.894731080720366 ] ] ] } },
{ "type": "Feature", "properties": { "ID": 16, "GRIDCODE": 2 }, "geometry": { "type": "Polygon", "coordinates": [ [ [ -156.257575845235323, 20.838129702050001 ], [ -156.257925186900223, 20.838228002760047 ], [ -156.257668586346881, 20.83846140757781 ], [ -156.257575845235323, 20.838129702050001 ] ] ] } },
{ "type": "Feature", "properties": { "ID": 17, "GRIDCODE": 2 }, "geometry": { "type": "Polygon", "coordinates": [ [ [ -156.257297644301445, 20.837583563058626 ], [ -156.257585660682423, 20.837588176948795 ], [ -156.257575845235323, 20.838129702050001 ], [ -156.257287827826644, 20.838125088029045 ], [ -156.257297644301445, 20.837583563058626 ] ] ] } },
{ "type": "Feature", "properties": { "ID": 18, "GRIDCODE": 2 }, "geometry": { "type": "Polygon", "coordinates": [ [ [ -156.257297644301445, 20.837583563058626 ], [ -156.256443414873331, 20.837028193872296 ], [ -156.256588038054304, 20.83625171120126 ], [ -156.257187888163713, 20.837150680652435 ], [ -156.257297644301445, 20.837583563058626 ] ] ] } },
{ "type": "Feature", "properties": { "ID": 19, "GRIDCODE": 2 }, "geometry": { "type": "Polygon", "coordinates": [ [ [ -156.21790983749699, 20.833156343095975 ], [ -156.218197835856301, 20.83316102225087 ], [ -156.218421529254272, 20.833603043299657 ], [ -156.217713037967087, 20.833914206023078 ], [ -156.217616861229487, 20.833422416994168 ], [ -156.217904860022827, 20.833427096698419 ], [ -156.21790983749699, 20.833156343095975 ] ] ] } },
{ "type": "Feature", "properties": { "ID": 20, "GRIDCODE": 2 }, "geometry": { "type": "Polygon", "coordinates": [ [ [ -156.213038807408736, 20.831722961045212 ], [ -156.213326801845596, 20.831727648079305 ], [ -156.213176419300765, 20.832072074129275 ], [ -156.213038807408736, 20.831722961045212 ] ] ] } },
{ "type": "Feature", "properties": { "ID": 21, "GRIDCODE": 2 }, "geometry": { "type": "Polygon", "coordinates": [ [ [ -156.201083287224264, 20.82394467322942 ], [ -156.200978473800348, 20.824273168946831 ], [ -156.200730602335824, 20.824031611487001 ], [ -156.201083287224264, 20.82394467322942 ] ] ] } },
{ "type": "Feature", "properties": { "ID": 22, "GRIDCODE": 2 }, "geometry": { "type": "Polygon", "coordinates": [ [ [ -156.192867507894334, 20.816497803889256 ], [ -156.192739264485454, 20.81711855999739 ], [ -156.192499205796338, 20.816638954031411 ], [ -156.192867507894334, 20.816497803889256 ] ] ] } },
{ "type": "Feature", "properties": { "ID": 23, "GRIDCODE": 2 }, "geometry": { "type": "Polygon", "coordinates": [ [ [ -156.163855733666225, 20.796791400852605 ], [ -156.164227151888582, 20.796948164442334 ], [ -156.163959504114985, 20.797408558603809 ], [ -156.163855733666225, 20.796791400852605 ] ] ] } },
{ "type": "Feature", "properties": { "ID": 24, "GRIDCODE": 2 }, "geometry": { "type": "Polygon", "coordinates": [ [ [ -156.050415873255645, 20.765630478684663 ], [ -156.051075690746131, 20.765751565241757 ], [ -156.050565479674418, 20.765976846239433 ], [ -156.050415873255645, 20.765630478684663 ] ] ] } },
{ "type": "Feature", "properties": { "ID": 25, "GRIDCODE": 2 }, "geometry": { "type": "Polygon", "coordinates": [ [ [ -156.028782708966446, 20.738177148547678 ], [ -156.029512944432923, 20.738312612526968 ], [ -156.030056292171082, 20.738617930287962 ], [ -156.031303476219733, 20.738985786186024 ], [ -156.033181721383215, 20.738838393386544 ], [ -156.033779163256014, 20.739613780625138 ], [ -156.03233254110927, 20.739986149344016 ], [ -156.031483498552689, 20.740593353167274 ], [ -156.032345624930088, 20.740525734457162 ], [ -156.033172094165565, 20.74121939541477 ], [ -156.031749086144629, 20.741058095393925 ], [ -156.030335667078504, 20.741168942756307 ], [ -156.03092214285752, 20.740245150337699 ], [ -156.030508410676617, 20.739535473053326 ], [ -156.029182401322771, 20.739144430759961 ], [ -156.028252263196833, 20.738621650421351 ], [ -156.028649142062022, 20.738322802237839 ], [ -156.028782708966446, 20.738177148547678 ] ] ] } },
{ "type": "Feature", "properties": { "ID": 26, "GRIDCODE": 2 }, "geometry": { "type": "Polygon", "coordinates": [ [ [ -156.256443414873331, 20.837028193872296 ], [ -156.256564278663632, 20.83771728393036 ], [ -156.257949086647841, 20.840790135895652 ], [ -156.257386555909136, 20.840982138876996 ], [ -156.255798629182294, 20.840809631678162 ], [ -156.255694469677906, 20.840192486750865 ], [ -156.255426988748894, 20.840653044734974 ], [ -156.255798629182294, 20.840809631678162 ], [ -156.256027173822787, 20.841906180381404 ], [ -156.255387963629772, 20.842555841995473 ], [ -156.25426738451543, 20.842226826829897 ], [ -156.252969353440136, 20.840483625149776 ], [ -156.252475903657029, 20.840884082073902 ], [ -156.252194080988858, 20.841436579296111 ], [ -156.251309059058997, 20.841677869514982 ], [ -156.250562140993992, 20.842741695321994 ], [ -156.24886320646894, 20.842809481647581 ], [ -156.248324861785022, 20.841655578995105 ], [ -156.247854213360597, 20.841621563307896 ], [ -156.246242905360162, 20.84264144759484 ], [ -156.245265379124845, 20.842121597961405 ], [ -156.244826147722904, 20.842139126242397 ], [ -156.243239241062867, 20.841834273374737 ], [ -156.242366227304558, 20.841369915573644 ], [ -156.241252264667651, 20.840973744422946 ], [ -156.240813883671933, 20.840991144110401 ], [ -156.240382296879858, 20.840959985963657 ], [ -156.239506095496267, 20.840994921006121 ], [ -156.239571244150795, 20.84019998818534 ], [ -156.238978963477535, 20.839554734056861 ], [ -156.23820628125651, 20.840654450510925 ], [ -156.237741791575417, 20.840360645422756 ], [ -156.237864285228511, 20.838860054328567 ], [ -156.237549416605276, 20.838184359352326 ], [ -156.237080098041304, 20.83994252007944 ], [ -156.23662515186615, 20.840404910418858 ], [ -156.235783903322044, 20.840344116590568 ], [ -156.235488834620583, 20.840355882169536 ], [ -156.233645914944617, 20.83909887931415 ], [ -156.233553227997191, 20.838767166614865 ], [ -156.233296593392168, 20.839000530542506 ], [ -156.233645914944617, 20.83909887931415 ], [ -156.23348374806659, 20.839289600326584 ], [ -156.232915354423596, 20.839201331435291 ], [ -156.231983176381618, 20.83952850991578 ], [ -156.231478749295746, 20.839450130922305 ], [ -156.230946939023255, 20.839515189477886 ], [ -156.229938500915296, 20.838920966489241 ], [ -156.229160992500425, 20.839144307424846 ], [ -156.22889617219252, 20.839455555626241 ], [ -156.227088742452878, 20.839136673333851 ], [ -156.225709112234171, 20.838579657945804 ], [ -156.225777886261511, 20.838189197988925 ], [ -156.224833550003694, 20.838304681497004 ], [ -156.223420449348424, 20.837242199644351 ], [ -156.223482351497722, 20.83688918687298 ], [ -156.223156831499978, 20.83664441383608 ], [ -156.222911561042849, 20.836334687869989 ], [ -156.221804262543031, 20.836025390215557 ], [ -156.221677806981376, 20.835113369353824 ], [ -156.221815354981459, 20.834333247533497 ], [ -156.220911082631005, 20.834443807236731 ], [ -156.220612593562436, 20.834397437628528 ], [ -156.219980007117471, 20.834742241647966 ], [ -156.219119597914386, 20.834394751043423 ], [ -156.219238349042996, 20.833719593003117 ], [ -156.219181968248591, 20.833312425299358 ], [ -156.219229710179832, 20.833041440240493 ], [ -156.21908173229437, 20.832092041249705 ], [ -156.219455505520187, 20.831914557056596 ], [ -156.219223528524822, 20.831188343622376 ], [ -156.21908173229437, 20.832092041249705 ], [ -156.218888813151978, 20.832179891567424 ], [ -156.218390756625979, 20.833073172907707 ], [ -156.218197835856301, 20.83316102225087 ], [ -156.218060211179846, 20.832811911827953 ], [ -156.21790983749699, 20.833156343095975 ], [ -156.217621839217287, 20.833151663458054 ], [ -156.217616861229487, 20.833422416994168 ], [ -156.216823496545459, 20.833896971882531 ], [ -156.215574828967618, 20.833199585287169 ], [ -156.215208224987293, 20.832681313242265 ], [ -156.21400743344833, 20.832440669535458 ], [ -156.213614796362151, 20.831732334630413 ], [ -156.213967495770703, 20.831645371066735 ], [ -156.213719590563073, 20.831403828901667 ], [ -156.213614796362151, 20.831732334630413 ], [ -156.213326801845596, 20.831727648079305 ], [ -156.213189189802847, 20.831378535100086 ], [ -156.213038807408736, 20.831722961045212 ], [ -156.212657434698741, 20.83153372928351 ], [ -156.212900273628037, 20.829773957004292 ], [ -156.213817769449889, 20.82935618751759 ], [ -156.213957612627951, 20.828758740121327 ], [ -156.214245601655051, 20.828763424975865 ], [ -156.214250584451378, 20.82849267207158 ], [ -156.214826561717643, 20.828502040199108 ], [ -156.214831543407342, 20.828231287152324 ], [ -156.215184234010337, 20.828144320048086 ], [ -156.214936331661391, 20.827902779988044 ], [ -156.214831543407342, 20.828231287152324 ], [ -156.214255567168038, 20.828221919157606 ], [ -156.214250584451378, 20.82849267207158 ], [ -156.213962595937829, 20.828487987283456 ], [ -156.213957612627951, 20.828758740121327 ], [ -156.213328722583725, 20.828995141296314 ], [ -156.212659730069561, 20.828842621787466 ], [ -156.212370621331559, 20.8288987477926 ], [ -156.211994945605568, 20.828813021992573 ], [ -156.211502359062735, 20.829988311547606 ], [ -156.210929817630785, 20.829624312313985 ], [ -156.210451828942013, 20.829716899140447 ], [ -156.210258515576697, 20.828833938728376 ], [ -156.210432420468948, 20.828159688300552 ], [ -156.210313030613833, 20.827616076982956 ], [ -156.210550242267118, 20.82669688565742 ], [ -156.209778260408086, 20.827447087080625 ], [ -156.209506657928699, 20.828095015437047 ], [ -156.208774667795382, 20.829055731801343 ], [ -156.2085273459017, 20.828737492016142 ], [ -156.209011694968325, 20.827353796241322 ], [ -156.207793448681656, 20.827589696155655 ], [ -156.207542234563448, 20.82659814481962 ], [ -156.207146969510319, 20.825668646627449 ], [ -156.207821097427853, 20.824229729411201 ], [ -156.207469658281667, 20.824127198530945 ], [ -156.206867129341248, 20.824917706276636 ], [ -156.20639282305828, 20.825009681811306 ], [ -156.206081593449255, 20.824938616316995 ], [ -156.205777836881111, 20.826566062123828 ], [ -156.205047739198363, 20.82670741813077 ], [ -156.20487130706141, 20.825902356561979 ], [ -156.204980382773442, 20.825479770761035 ], [ -156.204609719450133, 20.825229998925774 ], [ -156.203944276742902, 20.824231815978816 ], [ -156.204537643274165, 20.822536367767331 ], [ -156.203815593078332, 20.822745691973733 ], [ -156.203543977282436, 20.823393609239922 ], [ -156.202608148152422, 20.82462180205852 ], [ -156.20175679680213, 20.824383480728621 ], [ -156.201952221091886, 20.823688037926171 ], [ -156.202304904774223, 20.823601096976468 ], [ -156.202057031908367, 20.823359541306719 ], [ -156.201952221091886, 20.823688037926171 ], [ -156.201564179610386, 20.823861548010072 ], [ -156.201083287224264, 20.82394467322942 ], [ -156.200927822919141, 20.823543555180905 ], [ -156.20110732796573, 20.822354987112195 ], [ -156.200375774306337, 20.822743461319355 ], [ -156.200124218473263, 20.8221536498239 ], [ -156.19942547504948, 20.821863196893599 ], [ -156.200446678009371, 20.820292984627368 ], [ -156.200587421753482, 20.819603261741833 ], [ -156.200940096032355, 20.819516322578419 ], [ -156.200692231458532, 20.81927476583607 ], [ -156.200587421753482, 20.819603261741833 ], [ -156.200414959910205, 20.819710997892784 ], [ -156.199734566810662, 20.820604148633105 ], [ -156.199261714857244, 20.820496443681471 ], [ -156.198091954808604, 20.821185602746862 ], [ -156.197514317579106, 20.820796619779404 ], [ -156.197273635540853, 20.820455994578893 ], [ -156.195895780729415, 20.820973786053695 ], [ -156.195784520757996, 20.820465082479402 ], [ -156.195969913077505, 20.820069408415243 ], [ -156.196626316166999, 20.819971712893725 ], [ -156.196136723554645, 20.819720111243733 ], [ -156.195969913077505, 20.820069408415243 ], [ -156.195430878746492, 20.819692688406477 ], [ -156.196088313039212, 20.819265729842094 ], [ -156.195583756859406, 20.817969040476896 ], [ -156.195134115654781, 20.818537724380811 ], [ -156.194730225469328, 20.817987862936512 ], [ -156.19406484134214, 20.818100083626874 ], [ -156.193802762062376, 20.816728678077567 ], [ -156.194024366186255, 20.816245922971479 ], [ -156.194377034423866, 20.816158996845306 ], [ -156.194129186365245, 20.815917432327357 ], [ -156.194024366186255, 20.816245922971479 ], [ -156.192867507894334, 20.816497803889256 ], [ -156.195026711446161, 20.814129806114877 ], [ -156.195427158218564, 20.812981229351475 ], [ -156.196870710235089, 20.8107481418022 ], [ -156.197615828010925, 20.80928873940459 ], [ -156.19817999623865, 20.808715437359204 ], [ -156.198643466405116, 20.808339643702123 ], [ -156.198930401102217, 20.807516497875632 ], [ -156.199239376064384, 20.807266055271405 ], [ -156.199521301545815, 20.806713657943217 ], [ -156.200065397900971, 20.805809943412346 ], [ -156.200877143467153, 20.803145955994157 ], [ -156.201092746814055, 20.80051785367549 ], [ -156.201040519638696, 20.799355251885835 ], [ -156.201506998265728, 20.797823961524266 ], [ -156.19933764293998, 20.798050777400448 ], [ -156.197054987133356, 20.799902554432954 ], [ -156.196490563741463, 20.800476248545095 ], [ -156.194050681901814, 20.802020060644068 ], [ -156.194192255287419, 20.799370798054969 ], [ -156.195529782740124, 20.798011547062551 ], [ -156.197357850572246, 20.797258432539543 ], [ -156.197827640248704, 20.79647781539974 ], [ -156.196665101243184, 20.795858963425257 ], [ -156.194383759942554, 20.796393730278233 ], [ -156.19337791944173, 20.796320802514039 ], [ -156.193054859107349, 20.796649292515145 ], [ -156.191940597929602, 20.796568498205211 ], [ -156.191075934671318, 20.796602736356 ], [ -156.190069253370268, 20.796529775364423 ], [ -156.189631012681247, 20.796547057881345 ], [ -156.188786622686848, 20.79624638483654 ], [ -156.187911288846124, 20.795976541662576 ], [ -156.187357063060261, 20.795681281651397 ], [ -156.186481735846542, 20.795411431818032 ], [ -156.185637360150508, 20.795110744645935 ], [ -156.185199124546926, 20.795128016234596 ], [ -156.184731462695225, 20.795094155269503 ], [ -156.184173903696745, 20.795660513338838 ], [ -156.183069211886874, 20.795580348452038 ], [ -156.182162754846019, 20.79615379447397 ], [ -156.180480015393073, 20.796031713500817 ], [ -156.180094728840288, 20.798116763047897 ], [ -156.17920653785211, 20.80032220669051 ], [ -156.179549463071595, 20.802389742657528 ], [ -156.180006530742332, 20.802888271092456 ], [ -156.181361849301055, 20.803847485965605 ], [ -156.180565586815305, 20.806129690621262 ], [ -156.179726769966891, 20.80616283621854 ], [ -156.179375242842667, 20.805856998281008 ], [ -156.17910893985993, 20.805566447564551 ], [ -156.177976565229898, 20.805217207309902 ], [ -156.177955305617417, 20.80474264345866 ], [ -156.177998953098523, 20.804211226892061 ], [ -156.177686321634866, 20.804188491860103 ], [ -156.177390769781738, 20.804200155500457 ], [ -156.177123644732092, 20.803908795327306 ], [ -156.176340426489105, 20.803555112708345 ], [ -156.175991545079739, 20.802806043465552 ], [ -156.173981529372753, 20.802885455734053 ], [ -156.173964616662829, 20.802510276464638 ], [ -156.173987507018467, 20.80223294976313 ], [ -156.173537468923996, 20.801841373146146 ], [ -156.173041831733173, 20.801300934886587 ], [ -156.171141091209535, 20.800288626557265 ], [ -156.170601230595594, 20.800310000740808 ], [ -156.169981554425533, 20.799770549489114 ], [ -156.170023084822134, 20.799263434496858 ], [ -156.169725625237362, 20.798624567195244 ], [ -156.169168336149113, 20.799715203998083 ], [ -156.168072187508415, 20.799387925397667 ], [ -156.167735708289797, 20.797510913323325 ], [ -156.16744499534002, 20.797806294668135 ], [ -156.167135996526127, 20.798056676328784 ], [ -156.166611334057535, 20.798589659655246 ], [ -156.165989095135302, 20.797782236576204 ], [ -156.165727893940868, 20.797220926797749 ], [ -156.165417726752707, 20.796661187621861 ], [ -156.165504027953034, 20.795610385615873 ], [ -156.165167544532352, 20.795585912915246 ], [ -156.163403367926406, 20.796571673961623 ], [ -156.160857276212909, 20.794989082971821 ], [ -156.160580555129684, 20.794687095666198 ], [ -156.160163069977955, 20.795503898526913 ], [ -156.159574217919527, 20.79516883771619 ], [ -156.158868636719262, 20.794399155733736 ], [ -156.157726311345954, 20.793883140305525 ], [ -156.158188245968972, 20.793366204835287 ], [ -156.158898783847462, 20.792790044169841 ], [ -156.159042335173808, 20.792378514705113 ], [ -156.159394956781938, 20.792291656362888 ], [ -156.159147205256176, 20.792050051483137 ], [ -156.159042335173808, 20.792378514705113 ], [ -156.157983519480439, 20.79274975320843 ], [ -156.156982279630029, 20.792449902206126 ], [ -156.157254199620695, 20.790906820230457 ], [ -156.1563099814731, 20.791421443816144 ], [ -156.155972196476853, 20.789772248884464 ], [ -156.155463340707939, 20.790002104150478 ], [ -156.155526732788275, 20.790460965469446 ], [ -156.155020885188662, 20.791055053904827 ], [ -156.154583394275477, 20.791108493499983 ], [ -156.152861439676428, 20.790803934358255 ], [ -156.152526279610072, 20.790380232506603 ], [ -156.151429174321265, 20.790514220372451 ], [ -156.151169297892892, 20.789885871780399 ], [ -156.149885308081195, 20.790042532096184 ], [ -156.149169614642659, 20.789620302717537 ], [ -156.148836989329368, 20.789660924652807 ], [ -156.147421872829028, 20.789088607114611 ], [ -156.146888939509495, 20.788774008857924 ], [ -156.146280472267506, 20.788527974003721 ], [ -156.145740310881536, 20.788209152951922 ], [ -156.145143002041323, 20.788281992998588 ], [ -156.144800193890717, 20.786607579504775 ], [ -156.144251342001013, 20.786855512816114 ], [ -156.14435923348546, 20.787637775623892 ], [ -156.142900777626778, 20.787815679448578 ], [ -156.142309361793735, 20.787068206528673 ], [ -156.141473021664808, 20.78717024316003 ], [ -156.141166745530057, 20.786782972762314 ], [ -156.140846188403088, 20.786541718431156 ], [ -156.140597320836747, 20.78622720902958 ], [ -156.140279359768527, 20.786266075720736 ], [ -156.139953028698983, 20.78585387312739 ], [ -156.139169804840577, 20.785391470519304 ], [ -156.138626909398141, 20.785457658549067 ], [ -156.138030593122323, 20.785105745421095 ], [ -156.136875965649807, 20.784638723366538 ], [ -156.136556461348306, 20.783865490171781 ], [ -156.135993606971738, 20.784259284783939 ], [ -156.135733038738692, 20.784565294435243 ], [ -156.135431327736967, 20.784518205200641 ], [ -156.134916905239322, 20.784580889952746 ], [ -156.134558636765064, 20.783999411212388 ], [ -156.134322549138659, 20.78314320129498 ], [ -156.133771770017518, 20.78321030071228 ], [ -156.131348161918595, 20.782229721514753 ], [ -156.131568938972549, 20.780979148809816 ], [ -156.130860276228162, 20.781811497410761 ], [ -156.130300609542275, 20.781724249603691 ], [ -156.129938124127904, 20.781768435875755 ], [ -156.129433315682206, 20.781130148194382 ], [ -156.128870706411305, 20.781198621247064 ], [ -156.127221448791602, 20.780941186853315 ], [ -156.126509024926008, 20.781777948103013 ], [ -156.124824281249772, 20.781983383238689 ], [ -156.124250041319158, 20.781893755901336 ], [ -156.122662544412606, 20.782087179057161 ], [ -156.121083392548883, 20.781840646750084 ], [ -156.120319805711119, 20.781933620074497 ], [ -156.11966765603205, 20.781548577998798 ], [ -156.117907773163267, 20.781283114842662 ], [ -156.117108522115018, 20.780811094337391 ], [ -156.115683033382084, 20.780234260213408 ], [ -156.115228546830622, 20.779659594678854 ], [ -156.113939044669877, 20.779282328799582 ], [ -156.113384050020386, 20.779349953320963 ], [ -156.111674153808536, 20.777893569649816 ], [ -156.110318919310203, 20.77751398222712 ], [ -156.109813146159894, 20.776237597119572 ], [ -156.110001618676108, 20.775170859765407 ], [ -156.109693723390365, 20.77381092901404 ], [ -156.110039074420769, 20.773026245287916 ], [ -156.110473196517546, 20.771655006582012 ], [ -156.111432392967288, 20.769687760502162 ], [ -156.111561617992777, 20.76895523754408 ], [ -156.109220875089704, 20.768679396444668 ], [ -156.10878676235663, 20.768130451340589 ], [ -156.10807530166116, 20.76835437319076 ], [ -156.107690455506457, 20.768806478818227 ], [ -156.10670210970045, 20.769497673805581 ], [ -156.105851583629033, 20.770496383266401 ], [ -156.105315099177631, 20.770627240230091 ], [ -156.105222724883134, 20.770295492928703 ], [ -156.104966047283853, 20.770528656706606 ], [ -156.105315099177631, 20.770627240230091 ], [ -156.105122211610649, 20.771821105112597 ], [ -156.103038430239678, 20.773138304207251 ], [ -156.101078975602462, 20.773391635902463 ], [ -156.099431844281128, 20.773693596241298 ], [ -156.098914058683704, 20.773242521853401 ], [ -156.098442483823447, 20.772727829612126 ], [ -156.096987704142009, 20.773191170064553 ], [ -156.092458607026884, 20.772448703498757 ], [ -156.0916146008623, 20.772147588857088 ], [ -156.090079249914993, 20.772207515058266 ], [ -156.089031374141285, 20.771833641454553 ], [ -156.085925681296118, 20.771506290021303 ], [ -156.084031001393555, 20.770920716547089 ], [ -156.08273561213494, 20.770229739487611 ], [ -156.081854987760664, 20.769831427809635 ], [ -156.081018464273427, 20.769260241038506 ], [ -156.080143544490937, 20.768989887121197 ], [ -156.079876679623226, 20.768698403365274 ], [ -156.079308819845096, 20.768720477458963 ], [ -156.078133156356728, 20.767917919288841 ], [ -156.076144100376951, 20.76755042880179 ], [ -156.075544872713806, 20.767843692894932 ], [ -156.07499171940745, 20.767803193374956 ], [ -156.074458193342025, 20.767823985443524 ], [ -156.072419760966966, 20.767218123244739 ], [ -156.070969202273091, 20.766937906740925 ], [ -156.069548207225807, 20.766626844346341 ], [ -156.069247961782025, 20.766638511866255 ], [ -156.068986083136224, 20.766075495715 ], [ -156.068546269016878, 20.766092580665831 ], [ -156.068114986040683, 20.766061016872015 ], [ -156.06782684145773, 20.766072227518912 ], [ -156.067539319738131, 20.766051183917632 ], [ -156.067035630369674, 20.76607074404146 ], [ -156.066384762539485, 20.765776383434961 ], [ -156.065518661430474, 20.765314375120315 ], [ -156.065563809014179, 20.766339275715346 ], [ -156.064496557960496, 20.766260995572534 ], [ -156.063828521553745, 20.767567382635431 ], [ -156.062468410070522, 20.76842675177517 ], [ -156.062023365788377, 20.768394143182828 ], [ -156.060245795228354, 20.768463277840066 ], [ -156.060331685162367, 20.767425417288621 ], [ -156.060302787376173, 20.76676853026618 ], [ -156.060663878704133, 20.76617002352878 ], [ -156.059762303605709, 20.766205095633055 ], [ -156.05947478458117, 20.766184038608557 ], [ -156.058564767176534, 20.766219488668654 ], [ -156.058635579425641, 20.765365303894885 ], [ -156.058623252854147, 20.76508714448061 ], [ -156.061272951779671, 20.763784962067771 ], [ -156.060658345889181, 20.763506805673966 ], [ -156.061027124623763, 20.763207930975589 ], [ -156.059240181467715, 20.762399287521703 ], [ -156.059605246730428, 20.76210339356609 ], [ -156.058547621836539, 20.76118148237752 ], [ -156.058147822919523, 20.760744751705115 ], [ -156.057845058766446, 20.760756489389792 ], [ -156.057578253790922, 20.760464977515344 ], [ -156.056991259757211, 20.760199448300355 ], [ -156.056725285288763, 20.75990874296668 ], [ -156.055831427346959, 20.759504132832895 ], [ -156.054719373279084, 20.75853485597154 ], [ -156.054744346969358, 20.758232874120662 ], [ -156.054150647589495, 20.758255879662777 ], [ -156.053883854239672, 20.757964363342609 ], [ -156.053584691071848, 20.75770376202923 ], [ -156.053064318611717, 20.757135499766857 ], [ -156.052658581819685, 20.757151147702881 ], [ -156.051308455606261, 20.756310657119865 ], [ -156.051042499030615, 20.756019944978959 ], [ -156.050347956057948, 20.75570560739375 ], [ -156.049292183518475, 20.753795925199213 ], [ -156.049395720526491, 20.752546943607808 ], [ -156.049106692434151, 20.75192459778653 ], [ -156.0488075491036, 20.751663990393368 ], [ -156.048408630429719, 20.751228050562418 ], [ -156.046890278746162, 20.750758322197079 ], [ -156.046546442056382, 20.749455900612997 ], [ -156.046569918418129, 20.749173729913807 ], [ -156.046269957088697, 20.74891231158901 ], [ -156.045303940075428, 20.747856904219482 ], [ -156.044245162468513, 20.74940375533388 ], [ -156.04383308518473, 20.750209080325888 ], [ -156.042951927127888, 20.749893620744082 ], [ -156.042523360252574, 20.749118652465274 ], [ -156.042262701077163, 20.748557215584679 ], [ -156.041963576972961, 20.748296598377607 ], [ -156.041713192625764, 20.747192934379086 ], [ -156.040829747515232, 20.747227172282017 ], [ -156.040856192063757, 20.746908559306071 ], [ -156.039695482270218, 20.746383050716847 ], [ -156.039720426221464, 20.746083849911436 ], [ -156.039703651922537, 20.745703667296951 ], [ -156.041399438617333, 20.74524297098343 ], [ -156.040305343526057, 20.74474757285703 ], [ -156.040044698319406, 20.744186134250967 ], [ -156.039745586142089, 20.743925514557652 ], [ -156.03948494411884, 20.743364075474222 ], [ -156.03903628259809, 20.742973012568296 ], [ -156.038637414524459, 20.742537055758071 ], [ -156.038068234742525, 20.742040775133692 ], [ -156.037800441953323, 20.741168605751316 ], [ -156.037268732645117, 20.740206862932013 ], [ -156.037215785041468, 20.738999759580473 ], [ -156.037305037173581, 20.737924956383015 ], [ -156.036983278175711, 20.737644373204038 ], [ -156.03748062028086, 20.736819773991787 ], [ -156.036750563996378, 20.736848046228193 ], [ -156.03643991481033, 20.736286006790586 ], [ -156.036312242185858, 20.735869929383767 ], [ -156.036664764645963, 20.735783315731343 ], [ -156.036417312577811, 20.735541566171147 ], [ -156.036312242185858, 20.735869929383767 ], [ -156.035288855952928, 20.736236534937348 ], [ -156.034035195287089, 20.736417477965833 ], [ -156.034263125151512, 20.735295882435835 ], [ -156.03304612363732, 20.735471368996354 ], [ -156.032955244171063, 20.734913383034893 ], [ -156.033618926105959, 20.732767135001858 ], [ -156.035744275464765, 20.733149182411733 ], [ -156.035552923582287, 20.731976319825019 ], [ -156.035983044674879, 20.731686619342305 ], [ -156.036395084002635, 20.731185039865821 ], [ -156.037655114172651, 20.730515863289412 ], [ -156.03774527120413, 20.730072334534295 ], [ -156.037699833177754, 20.72979281306095 ], [ -156.038055359844407, 20.729002392208109 ], [ -156.038008172939982, 20.728711601175004 ], [ -156.038353633563446, 20.728207017008309 ], [ -156.038627606011431, 20.726811299379712 ], [ -156.039952863100581, 20.727049522730312 ], [ -156.038981788721628, 20.725511373542876 ], [ -156.039824750452624, 20.724401412325829 ], [ -156.041517913425167, 20.723860513275085 ], [ -156.041645060898674, 20.723233950573412 ], [ -156.041542586166997, 20.7226056850566 ], [ -156.043774274359151, 20.723006772115781 ], [ -156.045433003438973, 20.72257313865811 ], [ -156.046332936114908, 20.722927636192459 ], [ -156.04692911680479, 20.723711155653874 ], [ -156.048231835388719, 20.723502386120835 ], [ -156.048508389372785, 20.722345096768681 ], [ -156.050685941068338, 20.722030726673523 ], [ -156.051689890993742, 20.722211114842423 ], [ -156.051978538281674, 20.722169518564243 ], [ -156.052675480432185, 20.722294654549206 ], [ -156.053778847255074, 20.72189915244309 ], [ -156.054308731669494, 20.722595299664302 ], [ -156.055498154223017, 20.723316492932426 ], [ -156.056066585638831, 20.722776146552071 ], [ -156.056370458864563, 20.721278679694731 ], [ -156.055973153457103, 20.719933175476562 ], [ -156.056942817561463, 20.719589575981406 ], [ -156.057194410220944, 20.71928340355143 ], [ -156.057535317903358, 20.719053601402084 ], [ -156.057486067807076, 20.718751272584399 ], [ -156.057833523608394, 20.718517085848958 ], [ -156.057745076842281, 20.717973955353795 ], [ -156.058130408512994, 20.717714234016356 ], [ -156.058567257206249, 20.716301017000731 ], [ -156.059143170960823, 20.7164044845284 ], [ -156.059606690434805, 20.71490484356929 ], [ -156.060516872995777, 20.714291509159729 ], [ -156.060299723926505, 20.712959933615171 ], [ -156.061225935717886, 20.712826073581773 ], [ -156.061736852054452, 20.712917974579202 ], [ -156.061590582392625, 20.712020403011394 ], [ -156.062111730186047, 20.711669238186143 ], [ -156.062437152924019, 20.712066067770241 ], [ -156.06367653921771, 20.71178335938805 ], [ -156.063421835991647, 20.711537953928474 ], [ -156.062111730186047, 20.711669238186143 ], [ -156.061973337975985, 20.711528825271333 ], [ -156.061395990833944, 20.711252782694658 ], [ -156.062303756487779, 20.70848984208725 ], [ -156.062334447013171, 20.707743788000428 ], [ -156.061768669899351, 20.706926855089165 ], [ -156.061370811770672, 20.706118474671602 ], [ -156.058542726918404, 20.704982420211309 ], [ -156.054684885644122, 20.706986105619475 ], [ -156.053094288872728, 20.707322107995005 ], [ -156.051970907636473, 20.707842496173313 ], [ -156.05030866545161, 20.708118401054065 ], [ -156.048651754594914, 20.709134340281228 ], [ -156.047628523865797, 20.708851266503689 ], [ -156.047351774032222, 20.708570421007622 ], [ -156.045171729428745, 20.707951183135933 ], [ -156.044788565991979, 20.707172380483922 ], [ -156.044240620766516, 20.706658511956228 ], [ -156.043111917020752, 20.704165102378511 ], [ -156.044566588827934, 20.703923781443908 ], [ -156.044169013353923, 20.703164036540556 ], [ -156.044866967661818, 20.702840820878656 ], [ -156.045453149569283, 20.702585368278669 ], [ -156.046315761745518, 20.701771094044886 ], [ -156.047336121563461, 20.70180817348869 ], [ -156.047767842602042, 20.701807249518808 ], [ -156.048627270884083, 20.701838519255542 ], [ -156.048644674379119, 20.701418854664759 ], [ -156.048642567315028, 20.700468347940674 ], [ -156.049389000767519, 20.699817615115123 ], [ -156.048968661474248, 20.699390709644604 ], [ -156.048080060369216, 20.69882036925716 ], [ -156.047551130382516, 20.698283169831679 ], [ -156.046740144366936, 20.697522553632133 ], [ -156.048155434630047, 20.697206999271785 ], [ -156.049243615826811, 20.698312193439584 ], [ -156.049570169704566, 20.698052272991308 ], [ -156.049858454061223, 20.697780191838653 ], [ -156.051577377772787, 20.698142204690654 ], [ -156.051024487420847, 20.697259483033683 ], [ -156.050733266556989, 20.696986330151724 ], [ -156.05104086364895, 20.696718147685669 ], [ -156.051039769209581, 20.696179157606938 ], [ -156.051050953069563, 20.695906161076511 ], [ -156.050677212859625, 20.69481414610215 ], [ -156.052215692347687, 20.694870117468483 ], [ -156.052227589215391, 20.694574653613724 ], [ -156.052225714802518, 20.693770527325771 ], [ -156.053106321688546, 20.693503688062215 ], [ -156.053677280020906, 20.693524435850918 ], [ -156.055231582643273, 20.692673545995632 ], [ -156.063333232754957, 20.691255699830862 ], [ -156.067749409138315, 20.691246076238688 ], [ -156.069804499468347, 20.696649690189567 ], [ -156.070237523015436, 20.700571793608514 ], [ -156.070510135527229, 20.701654390478271 ], [ -156.070771308793582, 20.702747371073684 ], [ -156.07119585245178, 20.703558965179813 ], [ -156.072101762411307, 20.705399714722216 ], [ -156.072722891727892, 20.706030319510777 ], [ -156.073586575486445, 20.706310533019966 ], [ -156.074716145690303, 20.707147465729744 ], [ -156.075604909708289, 20.707717685692639 ], [ -156.076682344835035, 20.708811839447094 ], [ -156.07742132493857, 20.708810112701947 ], [ -156.07785556620351, 20.708825819115024 ], [ -156.078821903039056, 20.707492131877931 ], [ -156.080460349776956, 20.70748846953191 ], [ -156.08319515044181, 20.710265070571285 ], [ -156.083303135932312, 20.709998203506487 ], [ -156.082818303674998, 20.709072153136717 ], [ -156.084488533080389, 20.707849669628128 ], [ -156.085074968143431, 20.707594081092118 ], [ -156.085073798039218, 20.707185195702429 ], [ -156.085122835736797, 20.705988520961547 ], [ -156.084274930622115, 20.704765013977756 ], [ -156.084271220114488, 20.70326992104614 ], [ -156.084581789762296, 20.702976599812342 ], [ -156.085573207399221, 20.702692297016188 ], [ -156.082650881020015, 20.700817963999274 ], [ -156.080258757257724, 20.6987648122347 ], [ -156.077483636443645, 20.698205973510863 ], [ -156.077785598227422, 20.697174262695516 ], [ -156.078391332454828, 20.695602113925904 ], [ -156.078161954563484, 20.692847644159038 ], [ -156.077769120315423, 20.691700468013128 ], [ -156.082938072848464, 20.692582449497799 ], [ -156.088445604338801, 20.693781947299978 ], [ -156.094572136781835, 20.695452429783181 ], [ -156.099692201539568, 20.69817976245454 ], [ -156.103282744499154, 20.701077989742068 ], [ -156.105815070894607, 20.704337611710319 ], [ -156.106941586873972, 20.707624617701356 ], [ -156.106942754547106, 20.708095923915767 ], [ -156.106883165294192, 20.709561014458107 ], [ -156.10763261940653, 20.710992103682262 ], [ -156.108146496824787, 20.718966994500299 ], [ -156.108158117907635, 20.723341796348155 ], [ -156.107792580789862, 20.723687129732955 ], [ -156.10694197475712, 20.723123648274385 ], [ -156.106032573865861, 20.722828933230222 ], [ -156.104189120398814, 20.721895792815442 ], [ -156.101766961990563, 20.722494871440286 ], [ -156.100377472559046, 20.723807412932981 ], [ -156.097909239704876, 20.723813245625532 ], [ -156.095447448435436, 20.723393357749533 ], [ -156.093635698780702, 20.722231616014362 ], [ -156.092894516431755, 20.720725770148373 ], [ -156.092291630546697, 20.721251653636077 ], [ -156.091413190789183, 20.722325478989102 ], [ -156.090978905151275, 20.722309802124268 ], [ -156.090273023771601, 20.722311479548193 ], [ -156.089057032262332, 20.721896843683222 ], [ -156.088247876663218, 20.722271778886608 ], [ -156.086519732096008, 20.722767342280441 ], [ -156.084465573666591, 20.72437420069679 ], [ -156.08157813841089, 20.724853883967565 ], [ -156.081560180559336, 20.725291931072757 ], [ -156.084133828819859, 20.726371641963343 ], [ -156.083529085199586, 20.726815737490782 ], [ -156.081251053485772, 20.727808099002125 ], [ -156.08092906279515, 20.728371100890914 ], [ -156.080631233846475, 20.72918377089389 ], [ -156.080327274717689, 20.729715076952747 ], [ -156.080331318570444, 20.731306169265498 ], [ -156.080008938786222, 20.731610514499788 ], [ -156.078818147841048, 20.732648671755783 ], [ -156.079276975391309, 20.733525104364318 ], [ -156.078514217328632, 20.735607497381466 ], [ -156.077331000438363, 20.737053837465652 ], [ -156.075718047985049, 20.73754276658256 ], [ -156.074717051023043, 20.737201365513105 ], [ -156.073851192574182, 20.737463651275 ], [ -156.072971187088882, 20.737715906231475 ], [ -156.072972948368459, 20.738515410551713 ], [ -156.072375080240306, 20.739080038317194 ], [ -156.070946249749937, 20.739028186112268 ], [ -156.0704292736919, 20.740369591526772 ], [ -156.075136094096194, 20.740540218362941 ], [ -156.075525817294988, 20.740200271044266 ], [ -156.076104780749063, 20.7396535579668 ], [ -156.077822488821141, 20.740239342150293 ], [ -156.078686371367951, 20.740519553333652 ], [ -156.07946787210804, 20.741312744691573 ], [ -156.080516994719801, 20.741843899752055 ], [ -156.082097740894966, 20.742478492050417 ], [ -156.083825025677442, 20.742773339605566 ], [ -156.085091567278056, 20.743711469654908 ], [ -156.086116567253413, 20.743082897608698 ], [ -156.086550909843879, 20.743098593727382 ], [ -156.087969888455689, 20.743095408598311 ], [ -156.088408990185712, 20.743934332665617 ], [ -156.08867111002661, 20.745030492195013 ], [ -156.089544190948089, 20.744495193942818 ], [ -156.090993881670187, 20.744254220612941 ], [ -156.093814480485349, 20.743760324457284 ], [ -156.094703402305925, 20.744528164840034 ], [ -156.095154291253749, 20.745443970641045 ], [ -156.097654295607896, 20.746855241019347 ], [ -156.098707721107701, 20.747358333751372 ], [ -156.099272444372815, 20.747643975006667 ], [ -156.101474034960603, 20.74835738179841 ], [ -156.102402754160806, 20.749858042017095 ], [ -156.103702956097692, 20.752108253316496 ], [ -156.105495931673801, 20.75343609643792 ], [ -156.106072136135936, 20.753711333398783 ], [ -156.106636898538255, 20.753996954644307 ], [ -156.109434507421099, 20.755089776053921 ], [ -156.111711707939236, 20.756242169627029 ], [ -156.115390832425163, 20.756374753244707 ], [ -156.116197578713297, 20.756000852135177 ], [ -156.117853128480021, 20.756429715161069 ], [ -156.120134247146552, 20.756119541795684 ], [ -156.121127992797881, 20.755818175700369 ], [ -156.12387822109784, 20.755917150827099 ], [ -156.125026860816661, 20.755914300057263 ], [ -156.126710437430916, 20.756766044501589 ], [ -156.12761779633172, 20.75624487194295 ], [ -156.127958473137738, 20.755923151867723 ], [ -156.142457846478209, 20.763257725951757 ], [ -156.14656097203644, 20.765067808315901 ], [ -156.160517297262629, 20.770701314330072 ], [ -156.172969563896174, 20.774982111166956 ], [ -156.184190554781793, 20.778384547916691 ], [ -156.193698572696292, 20.781634905030618 ], [ -156.199800724143586, 20.784349304449869 ], [ -156.20892222933, 20.789099086336154 ], [ -156.212619353067112, 20.79146553359184 ], [ -156.213040733338516, 20.792319268698865 ], [ -156.213473733992089, 20.792724489790253 ], [ -156.213961152079065, 20.794224777011685 ], [ -156.214168193835235, 20.793962595512824 ], [ -156.214943319013798, 20.792891845898822 ], [ -156.222508258885625, 20.797685133183549 ], [ -156.223163911586312, 20.798298389634741 ], [ -156.223579791131556, 20.798719445694438 ], [ -156.224701275468107, 20.79925375196904 ], [ -156.226141479278965, 20.800385928143644 ], [ -156.229117415224721, 20.802290369243018 ], [ -156.231385522796927, 20.803928763453396 ], [ -156.238875033645655, 20.81093095312405 ], [ -156.243994197582992, 20.817107372555547 ], [ -156.251760166669868, 20.827544289217101 ], [ -156.256330390039892, 20.835658556256099 ], [ -156.256281846136403, 20.83687722400461 ], [ -156.256443414873331, 20.837028193872296 ] ] ] } }
]
}
