{
"type": "FeatureCollection",
"name": "melwaim",
"crs": { "type": "name", "properties": { "name": "urn:ogc:def:crs:OGC:1.3:CRS84" } },
"features": [
{ "type": "Feature", "properties": { "ID": 1, "GRIDCODE": 2 }, "geometry": { "type": "Polygon", "coordinates": [ [ [ -159.742882380002698, 22.088180918242109 ], [ -159.743563334857583, 22.088498084470555 ], [ -159.74299380205079, 22.088973333699617 ], [ -159.742882380002698, 22.088180918242109 ] ] ] } },
{ "type": "Feature", "properties": { "ID": 2, "GRIDCODE": 2 }, "geometry": { "type": "Polygon", "coordinates": [ [ [ -159.742273876506204, 22.083034344473404 ], [ -159.742628896639417, 22.083125514381127 ], [ -159.742375134667782, 22.083364320112889 ], [ -159.742273876506204, 22.083034344473404 ] ] ] } },
{ "type": "Feature", "properties": { "ID": 3, "GRIDCODE": 2 }, "geometry": { "type": "Polygon", "coordinates": [ [ [ -159.746611418701121, 22.078407294802261 ], [ -159.747000838050951, 22.078588681799754 ], [ -159.74674324272155, 22.079310791363202 ], [ -159.746274375210817, 22.07904707484764 ], [ -159.746611418701121, 22.078407294802261 ] ] ] } },
{ "type": "Feature", "properties": { "ID": 4, "GRIDCODE": 2 }, "geometry": { "type": "Polygon", "coordinates": [ [ [ -159.747178714405123, 22.075694525558095 ], [ -159.747890554308469, 22.07588070666737 ], [ -159.747513456698016, 22.077439625236593 ], [ -159.747020208637935, 22.076926111381272 ], [ -159.747178714405123, 22.075694525558095 ] ] ] } },
{ "type": "Feature", "properties": { "ID": 5, "GRIDCODE": 2 }, "geometry": { "type": "Polygon", "coordinates": [ [ [ -159.746859457754908, 22.070275624053163 ], [ -159.747285534314699, 22.070419261118104 ], [ -159.749016855845639, 22.070777558047499 ], [ -159.749113272664289, 22.071830950212693 ], [ -159.748485917563016, 22.073394970602934 ], [ -159.747884058910444, 22.073648593807064 ], [ -159.747606690417598, 22.074813052001172 ], [ -159.747318480067179, 22.072567107005714 ], [ -159.746859457754908, 22.070275624053163 ] ] ] } },
{ "type": "Feature", "properties": { "ID": 6, "GRIDCODE": 2 }, "geometry": { "type": "Polygon", "coordinates": [ [ [ -159.746565852912681, 22.069734928058871 ], [ -159.746920841994552, 22.069826089644817 ], [ -159.746667110489312, 22.070064901558919 ], [ -159.746565852912681, 22.069734928058871 ] ] ] } },
{ "type": "Feature", "properties": { "ID": 7, "GRIDCODE": 2 }, "geometry": { "type": "Polygon", "coordinates": [ [ [ -159.744792912599536, 22.064322644107744 ], [ -159.745504692272135, 22.064508837532635 ], [ -159.744995312707431, 22.064970502597831 ], [ -159.744792912599536, 22.064322644107744 ] ] ] } },
{ "type": "Feature", "properties": { "ID": 8, "GRIDCODE": 2 }, "geometry": { "type": "Polygon", "coordinates": [ [ [ -159.746761242034864, 22.051575804186207 ], [ -159.747917498497685, 22.051762441828707 ], [ -159.748541428034088, 22.052766530505163 ], [ -159.746064282814103, 22.054703884891886 ], [ -159.746330974968828, 22.055249056708213 ], [ -159.747479490221508, 22.055557544745749 ], [ -159.748375320902284, 22.05699917515609 ], [ -159.748113641437811, 22.057409066120268 ], [ -159.747264903061222, 22.057756794930761 ], [ -159.74721649163132, 22.058222431937999 ], [ -159.747805260887674, 22.059169928228535 ], [ -159.747058993479754, 22.060338778575129 ], [ -159.745414595190255, 22.060775450362325 ], [ -159.745761027072035, 22.057446005156969 ], [ -159.745156046491161, 22.05550023563039 ], [ -159.743276374025641, 22.0534875224741 ], [ -159.744572295029741, 22.052521802286098 ], [ -159.745179349861274, 22.052273098338073 ], [ -159.745732339288082, 22.05197448414895 ], [ -159.746630109374678, 22.051724450269049 ], [ -159.746761242034864, 22.051575804186207 ] ] ] } },
{ "type": "Feature", "properties": { "ID": 9, "GRIDCODE": 2 }, "geometry": { "type": "Polygon", "coordinates": [ [ [ -159.742078630548292, 22.04563468081308 ], [ -159.742829979094751, 22.045744418934966 ], [ -159.743367897496228, 22.046599763338733 ], [ -159.744124631809086, 22.047514273451213 ], [ -159.742824192313492, 22.048449474234726 ], [ -159.74206084581752, 22.048593689185399 ], [ -159.741672798254427, 22.046833741163248 ], [ -159.741274233699414, 22.046254734258959 ], [ -159.74195808896431, 22.04579310100819 ], [ -159.742078630548292, 22.04563468081308 ] ] ] } },
{ "type": "Feature", "properties": { "ID": 10, "GRIDCODE": 2 }, "geometry": { "type": "Polygon", "coordinates": [ [ [ -159.737079056812945, 22.034545464950256 ], [ -159.738964626069418, 22.035873755283365 ], [ -159.737390724916594, 22.037108674570231 ], [ -159.737182423820911, 22.036793218732516 ], [ -159.737243893460118, 22.036034322064776 ], [ -159.737079056812945, 22.034545464950256 ] ] ] } },
{ "type": "Feature", "properties": { "ID": 11, "GRIDCODE": 2 }, "geometry": { "type": "Polygon", "coordinates": [ [ [ -159.647540845263961, 22.033568791942262 ], [ -159.647895686321334, 22.033660172657033 ], [ -159.647641846705881, 22.033898834736618 ], [ -159.647540845263961, 22.033568791942262 ] ] ] } },
{ "type": "Feature", "properties": { "ID": 12, "GRIDCODE": 2 }, "geometry": { "type": "Polygon", "coordinates": [ [ [ -159.736191587367358, 22.031568238800634 ], [ -159.736979891365166, 22.031689451993326 ], [ -159.738358754339629, 22.032671859300279 ], [ -159.737926011815432, 22.03382699932056 ], [ -159.737219287592609, 22.033927628906294 ], [ -159.736651122681508, 22.032497290645992 ], [ -159.736191587367358, 22.031568238800634 ] ] ] } },
{ "type": "Feature", "properties": { "ID": 13, "GRIDCODE": 2 }, "geometry": { "type": "Polygon", "coordinates": [ [ [ -159.735311153213104, 22.029946073928805 ], [ -159.736019010715552, 22.030432100648643 ], [ -159.735662102508627, 22.031130458365791 ], [ -159.735311153213104, 22.029946073928805 ] ] ] } },
{ "type": "Feature", "properties": { "ID": 14, "GRIDCODE": 2 }, "geometry": { "type": "Polygon", "coordinates": [ [ [ -159.735311153213104, 22.029946073928805 ], [ -159.73495627108727, 22.029854883762564 ], [ -159.735209953272886, 22.029616090280836 ], [ -159.735311153213104, 22.029946073928805 ] ] ] } },
{ "type": "Feature", "properties": { "ID": 15, "GRIDCODE": 2 }, "geometry": { "type": "Polygon", "coordinates": [ [ [ -159.73381588595376, 22.021822175695462 ], [ -159.734612275511807, 22.022455729947808 ], [ -159.731596070289243, 22.025751820709147 ], [ -159.730574677281055, 22.02424601578004 ], [ -159.731365196242336, 22.0236048373663 ], [ -159.731900279178461, 22.023020095463352 ], [ -159.733682127579868, 22.021968358652636 ], [ -159.73381588595376, 22.021822175695462 ] ] ] } },
{ "type": "Feature", "properties": { "ID": 16, "GRIDCODE": 2 }, "geometry": { "type": "Polygon", "coordinates": [ [ [ -159.727418604154025, 22.0213086565842 ], [ -159.728103517601966, 22.021442862064838 ], [ -159.727785299673286, 22.021925459393071 ], [ -159.727418604154025, 22.0213086565842 ] ] ] } },
{ "type": "Feature", "properties": { "ID": 17, "GRIDCODE": 2 }, "geometry": { "type": "Polygon", "coordinates": [ [ [ -159.664336292393557, 22.019679365154715 ], [ -159.664691108340094, 22.019770710234432 ], [ -159.66443732170012, 22.020009397433849 ], [ -159.664336292393557, 22.019679365154715 ] ] ] } },
{ "type": "Feature", "properties": { "ID": 18, "GRIDCODE": 2 }, "geometry": { "type": "Polygon", "coordinates": [ [ [ -159.665203209747887, 22.018591755986055 ], [ -159.665872142319074, 22.018698894621593 ], [ -159.665362740786492, 22.018935230440722 ], [ -159.665203209747887, 22.018591755986055 ] ] ] } },
{ "type": "Feature", "properties": { "ID": 19, "GRIDCODE": 2 }, "geometry": { "type": "Polygon", "coordinates": [ [ [ -159.724191052639014, 22.015360494724909 ], [ -159.724646320941901, 22.015476541447821 ], [ -159.725191776622694, 22.015780053080011 ], [ -159.726575371825703, 22.01604590586583 ], [ -159.726941051219939, 22.016828696172965 ], [ -159.725828543741244, 22.018567007812383 ], [ -159.726668867760708, 22.018447408898407 ], [ -159.728681348599906, 22.017303277177238 ], [ -159.728979899881949, 22.017660393477069 ], [ -159.729989366494124, 22.017917657608475 ], [ -159.728672884910566, 22.018874536051339 ], [ -159.728789572999858, 22.019587298768833 ], [ -159.72753891854174, 22.020071078496752 ], [ -159.726798583440427, 22.020491960772457 ], [ -159.723780745253634, 22.017914392274506 ], [ -159.723200886412826, 22.017020287226604 ], [ -159.724060740778469, 22.016395362969959 ], [ -159.724191052639014, 22.015360494724909 ] ] ] } },
{ "type": "Feature", "properties": { "ID": 20, "GRIDCODE": 2 }, "geometry": { "type": "Polygon", "coordinates": [ [ [ -159.708479920134096, 22.012176897650097 ], [ -159.70947392681191, 22.012322335482473 ], [ -159.70791036620713, 22.013376590956387 ], [ -159.707532732615505, 22.012893181280663 ], [ -159.708359367560519, 22.012335294008498 ], [ -159.708479920134096, 22.012176897650097 ] ] ] } },
{ "type": "Feature", "properties": { "ID": 21, "GRIDCODE": 2 }, "geometry": { "type": "Polygon", "coordinates": [ [ [ -159.669823151042408, 22.012068384787209 ], [ -159.669573248171474, 22.012993174052188 ], [ -159.667673074459316, 22.012747898836444 ], [ -159.667909146572327, 22.012457916227262 ], [ -159.669414547748488, 22.012230378363377 ], [ -159.669823151042408, 22.012068384787209 ] ] ] } },
{ "type": "Feature", "properties": { "ID": 22, "GRIDCODE": 2 }, "geometry": { "type": "Polygon", "coordinates": [ [ [ -159.719518808385061, 22.011044733007743 ], [ -159.720632612722198, 22.011200842248243 ], [ -159.721405605656969, 22.011139496505635 ], [ -159.721690637355749, 22.011600502978897 ], [ -159.720824610958829, 22.013064111869262 ], [ -159.720872952869456, 22.013593932058882 ], [ -159.720251651008198, 22.01441920482285 ], [ -159.719974780967675, 22.015005207315294 ], [ -159.717370929941268, 22.01482159577181 ], [ -159.718319148237214, 22.013219238842666 ], [ -159.718811967332101, 22.012819545561829 ], [ -159.719518808385061, 22.011044733007743 ] ] ] } },
{ "type": "Feature", "properties": { "ID": 23, "GRIDCODE": 2 }, "geometry": { "type": "Polygon", "coordinates": [ [ [ -159.669823151042408, 22.012068384787209 ], [ -159.669974365114456, 22.011147422637809 ], [ -159.670702310463895, 22.010992127847558 ], [ -159.669994561745881, 22.011956985622543 ], [ -159.669823151042408, 22.012068384787209 ] ] ] } },
{ "type": "Feature", "properties": { "ID": 24, "GRIDCODE": 2 }, "geometry": { "type": "Polygon", "coordinates": [ [ [ -159.672127854103366, 22.007722580332988 ], [ -159.672482644568817, 22.007813909300655 ], [ -159.672228892039385, 22.008052608047272 ], [ -159.672127854103366, 22.007722580332988 ] ] ] } },
{ "type": "Feature", "properties": { "ID": 25, "GRIDCODE": 2 }, "geometry": { "type": "Polygon", "coordinates": [ [ [ -159.648581454776775, 22.006733318863834 ], [ -159.648857341666599, 22.006953079642649 ], [ -159.648086651730551, 22.010989977951454 ], [ -159.64655784897505, 22.012728276350099 ], [ -159.647221239152572, 22.01325665661707 ], [ -159.646642154201373, 22.015263120616012 ], [ -159.647826525478905, 22.01620648198708 ], [ -159.647923192842427, 22.017271701693826 ], [ -159.647629862196993, 22.018807725752364 ], [ -159.647317144697581, 22.019061143739805 ], [ -159.647377429545827, 22.019725347505947 ], [ -159.645996010622952, 22.021233240848115 ], [ -159.645837806924845, 22.01956828492116 ], [ -159.646199453540333, 22.018054375762862 ], [ -159.646814751618194, 22.016471427698995 ], [ -159.645269520648071, 22.015835771551998 ], [ -159.644985357280433, 22.014417090254376 ], [ -159.643546715635097, 22.014530582014746 ], [ -159.643501310982913, 22.014029918025543 ], [ -159.644229604277541, 22.013234893910969 ], [ -159.644921271382714, 22.012674477104856 ], [ -159.645451830781468, 22.011309526353806 ], [ -159.642908376403369, 22.012191847060159 ], [ -159.641592216793271, 22.011513818365625 ], [ -159.641090079614969, 22.011822868757246 ], [ -159.640394186820998, 22.012582452035602 ], [ -159.63992054730295, 22.011922472115824 ], [ -159.640720240182617, 22.01104958588974 ], [ -159.642338473721878, 22.010406650524175 ], [ -159.645265326526044, 22.010144280679661 ], [ -159.645735303027521, 22.009631282209245 ], [ -159.646713613995388, 22.009054477113313 ], [ -159.648581454776775, 22.006733318863834 ] ] ] } },
{ "type": "Feature", "properties": { "ID": 26, "GRIDCODE": 2 }, "geometry": { "type": "Polygon", "coordinates": [ [ [ -159.704088171192296, 22.005691293143663 ], [ -159.704841897447778, 22.005798753073698 ], [ -159.705083576436351, 22.006660405507002 ], [ -159.706249163030634, 22.007274170531801 ], [ -159.70564386628547, 22.008126714209748 ], [ -159.704209007941301, 22.006122120049518 ], [ -159.704088171192296, 22.005691293143663 ] ] ] } },
{ "type": "Feature", "properties": { "ID": 27, "GRIDCODE": 2 }, "geometry": { "type": "Polygon", "coordinates": [ [ [ -159.698552948842092, 22.003004745155284 ], [ -159.698907742706922, 22.003096016859967 ], [ -159.698654043794392, 22.003334755280886 ], [ -159.698552948842092, 22.003004745155284 ] ] ] } },
{ "type": "Feature", "properties": { "ID": 28, "GRIDCODE": 2 }, "geometry": { "type": "Polygon", "coordinates": [ [ [ -159.698552948842092, 22.003004745155284 ], [ -159.697884069643578, 22.002897738414351 ], [ -159.698393357743072, 22.002661303935255 ], [ -159.698552948842092, 22.003004745155284 ] ] ] } },
{ "type": "Feature", "properties": { "ID": 29, "GRIDCODE": 2 }, "geometry": { "type": "Polygon", "coordinates": [ [ [ -159.69446970233318, 22.000040840193005 ], [ -159.695431256690455, 22.000149779957859 ], [ -159.694875316150643, 22.001186270167057 ], [ -159.694249581654503, 22.0004585455114 ], [ -159.69446970233318, 22.000040840193005 ] ] ] } },
{ "type": "Feature", "properties": { "ID": 30, "GRIDCODE": 2 }, "geometry": { "type": "Polygon", "coordinates": [ [ [ -159.688642953109309, 21.997084158198028 ], [ -159.690505938013416, 21.99720318583007 ], [ -159.69010647509046, 21.99818472786529 ], [ -159.6888819008756, 21.997403803510796 ], [ -159.688642953109309, 21.997084158198028 ] ] ] } },
{ "type": "Feature", "properties": { "ID": 31, "GRIDCODE": 2 }, "geometry": { "type": "Polygon", "coordinates": [ [ [ -159.675558978365927, 21.995783452281774 ], [ -159.675461071425445, 21.996114297743954 ], [ -159.675205094563694, 21.995877693267282 ], [ -159.675558978365927, 21.995783452281774 ] ] ] } },
{ "type": "Feature", "properties": { "ID": 32, "GRIDCODE": 2 }, "geometry": { "type": "Polygon", "coordinates": [ [ [ -159.682524538307007, 21.993857453396597 ], [ -159.683193365250077, 21.99396452429572 ], [ -159.682684081172056, 21.994200911669189 ], [ -159.682524538307007, 21.993857453396597 ] ] ] } },
{ "type": "Feature", "properties": { "ID": 33, "GRIDCODE": 2 }, "geometry": { "type": "Polygon", "coordinates": [ [ [ -159.681942031388758, 21.9935888526879 ], [ -159.682523241792239, 21.993586435481038 ], [ -159.682524538307007, 21.993857453396597 ], [ -159.681943326799654, 21.993859870636285 ], [ -159.681942031388758, 21.9935888526879 ] ] ] } },
{ "type": "Feature", "properties": { "ID": 34, "GRIDCODE": 2 }, "geometry": { "type": "Polygon", "coordinates": [ [ [ -159.681942031388758, 21.9935888526879 ], [ -159.680359085317463, 21.993451378238813 ], [ -159.681373818922481, 21.992933125296698 ], [ -159.681942031388758, 21.9935888526879 ] ] ] } },
{ "type": "Feature", "properties": { "ID": 35, "GRIDCODE": 2 }, "geometry": { "type": "Polygon", "coordinates": [ [ [ -159.625561874061589, 21.993271493461219 ], [ -159.626022361700421, 21.993389187202727 ], [ -159.625978071855599, 21.993676444109685 ], [ -159.626148108651847, 21.994720030747345 ], [ -159.625292402384957, 21.994841289565837 ], [ -159.625561874061589, 21.993271493461219 ] ] ] } },
{ "type": "Feature", "properties": { "ID": 36, "GRIDCODE": 2 }, "geometry": { "type": "Polygon", "coordinates": [ [ [ -159.640131161543195, 22.001888083861942 ], [ -159.639777237135974, 22.001982249277969 ], [ -159.640033168031835, 22.002218910054196 ], [ -159.640131161543195, 22.001888083861942 ], [ -159.640574683618411, 22.001758465537961 ], [ -159.641442445799584, 22.001188178174374 ], [ -159.64175044022943, 22.002981816777911 ], [ -159.643440161973956, 22.000480971810312 ], [ -159.644679173349942, 21.999574184942951 ], [ -159.645479015616644, 22.000401944993165 ], [ -159.646726683659352, 22.000327668951563 ], [ -159.646656546606692, 22.001509310614189 ], [ -159.64581581577184, 22.002215775355598 ], [ -159.645448634526531, 22.002970246889106 ], [ -159.644346206145428, 22.003896634708422 ], [ -159.643091701035843, 22.006474092019211 ], [ -159.640576277786579, 22.007562610864671 ], [ -159.639730775950142, 22.007995326434518 ], [ -159.63884369081407, 22.008254558107659 ], [ -159.637319660220328, 22.009365414164023 ], [ -159.636541480334785, 22.011276709124559 ], [ -159.635898867324585, 22.011243488788558 ], [ -159.635967974882419, 22.010080895087338 ], [ -159.636603528568827, 22.008979376016939 ], [ -159.637648574405603, 22.008101300256765 ], [ -159.637968139584189, 22.007444893490231 ], [ -159.639143427054336, 22.006642494212418 ], [ -159.639545627856847, 22.006219203443095 ], [ -159.639992641859635, 22.005220355403917 ], [ -159.638265176934993, 22.005323115169652 ], [ -159.637714288427105, 22.004216032358059 ], [ -159.635482527051721, 22.005682695432384 ], [ -159.635071621751365, 22.006942011738481 ], [ -159.634589874729613, 22.006443430643358 ], [ -159.634131899563926, 22.006119903241263 ], [ -159.63425879019988, 22.007974701440681 ], [ -159.633869127318093, 22.008302053438808 ], [ -159.633940463653062, 22.009344637251203 ], [ -159.63358514474092, 22.009960381991313 ], [ -159.632459277056398, 22.010447508535051 ], [ -159.632105141946852, 22.010820193454041 ], [ -159.629539128447107, 22.011271822416205 ], [ -159.629600492417268, 22.010240008422496 ], [ -159.631020052896673, 22.009926256651013 ], [ -159.631583747343456, 22.009637809492563 ], [ -159.632859400750135, 22.009085878130406 ], [ -159.633310737662811, 22.005836800349478 ], [ -159.633616553833349, 22.005579845809645 ], [ -159.633884774783269, 22.004208433064061 ], [ -159.635114589486676, 22.003175156283877 ], [ -159.634999609562357, 22.001494648348874 ], [ -159.635910939151273, 22.00072895879212 ], [ -159.636189258260174, 21.999592085757946 ], [ -159.636492637203929, 21.99879308558263 ], [ -159.63677625804263, 21.997923791659129 ], [ -159.637613546419544, 21.997220247663794 ], [ -159.638819714309193, 21.995187796726107 ], [ -159.639951942657774, 21.994236384056801 ], [ -159.640663751520805, 21.99277393493934 ], [ -159.641688861999341, 21.992826899116579 ], [ -159.642276950751807, 21.992791894043673 ], [ -159.642844873739051, 21.993210085658131 ], [ -159.640619730259147, 21.995911141223001 ], [ -159.63964983253652, 21.997479837128672 ], [ -159.638821976375311, 21.999764641758052 ], [ -159.640544906822043, 21.998762057751396 ], [ -159.642226207601169, 21.998462606042288 ], [ -159.642676777493278, 21.997081152411752 ], [ -159.643444338500302, 21.997254464695253 ], [ -159.642127383720947, 21.999537299044377 ], [ -159.640606262826509, 22.000195582876362 ], [ -159.640131161543195, 22.001888083861942 ] ], [ [ -159.635770582401108, 22.001634022136898 ], [ -159.635930369684445, 22.003097456290561 ], [ -159.636483404712237, 22.002161843211077 ], [ -159.635770582401108, 22.001634022136898 ] ] ] } },
{ "type": "Feature", "properties": { "ID": 37, "GRIDCODE": 2 }, "geometry": { "type": "Polygon", "coordinates": [ [ [ -159.675558978365927, 21.995783452281774 ], [ -159.674809353514263, 21.994855407217884 ], [ -159.67454956350835, 21.993466454098218 ], [ -159.67389130679021, 21.992996902798119 ], [ -159.673000075876956, 21.991929849044279 ], [ -159.671821303981346, 21.991088971811955 ], [ -159.67225688561345, 21.988632340654327 ], [ -159.672785484544022, 21.989137318077347 ], [ -159.673231407858765, 21.990140811253951 ], [ -159.673944611883456, 21.990538050039468 ], [ -159.674644521618291, 21.98943561160652 ], [ -159.675404702267627, 21.989939627843789 ], [ -159.675786653681115, 21.990396929355221 ], [ -159.676548342381835, 21.990940254091164 ], [ -159.676829468083355, 21.991865825243206 ], [ -159.678574393534149, 21.992134851132469 ], [ -159.678305366595424, 21.993607520133619 ], [ -159.676763026692527, 21.994476471123981 ], [ -159.675885895663669, 21.995545969010891 ], [ -159.675558978365927, 21.995783452281774 ] ], [ [ -159.675261954198447, 21.994429557525361 ], [ -159.675362989018083, 21.994759583894318 ], [ -159.675616713156074, 21.994520880645712 ], [ -159.675261954198447, 21.994429557525361 ] ] ] } }
]
}
