{
"type": "FeatureCollection",
"name": "melwaia",
"crs": { "type": "name", "properties": { "name": "urn:ogc:def:crs:OGC:1.3:CRS84" } },
"features": [
{ "type": "Feature", "properties": { "ID": 1, "GRIDCODE": 2 }, "geometry": { "type": "Polygon", "coordinates": [ [ [ -159.487506907704301, 22.159066582968663 ], [ -159.487761011795527, 22.159276700980634 ], [ -159.487646086292358, 22.161175284238084 ], [ -159.488528801506391, 22.162458958354673 ], [ -159.489401714761641, 22.163615076324959 ], [ -159.488072410910803, 22.164728567534748 ], [ -159.487669111001622, 22.166514972732461 ], [ -159.487687677583949, 22.166790242560747 ], [ -159.487671278870494, 22.16706131604893 ], [ -159.487689996410467, 22.167339132876666 ], [ -159.487116522488748, 22.167819490710453 ], [ -159.486819893991537, 22.168426608640303 ], [ -159.486224351451852, 22.169226207501545 ], [ -159.485826485706781, 22.170040466923748 ], [ -159.483967480748333, 22.169595334299693 ], [ -159.48359869942712, 22.168967980832701 ], [ -159.483912008719983, 22.168705513448852 ], [ -159.483865385485871, 22.168014021610791 ], [ -159.484831791815623, 22.167597401302356 ], [ -159.48475926897612, 22.166521839552534 ], [ -159.485082143394095, 22.165964273145608 ], [ -159.485046519430142, 22.165436465196599 ], [ -159.485996251816005, 22.164287398585621 ], [ -159.48451932832134, 22.163418648015277 ], [ -159.486113004792202, 22.1629550698879 ], [ -159.486536891944695, 22.161843471457836 ], [ -159.486486443174641, 22.161095889062516 ], [ -159.487330560516142, 22.15996251382861 ], [ -159.487506907704301, 22.159066582968663 ] ] ] } },
{ "type": "Feature", "properties": { "ID": 2, "GRIDCODE": 2 }, "geometry": { "type": "Polygon", "coordinates": [ [ [ -159.48279063261478, 22.141192955556264 ], [ -159.482435618862155, 22.141101229286573 ], [ -159.482689929657397, 22.140862808891647 ], [ -159.48279063261478, 22.141192955556264 ] ] ] } },
{ "type": "Feature", "properties": { "ID": 3, "GRIDCODE": 2 }, "geometry": { "type": "Polygon", "coordinates": [ [ [ -159.5205410720516, 22.122376199634036 ], [ -159.520442722309866, 22.122706957081324 ], [ -159.520186763939478, 22.122470104824519 ], [ -159.5205410720516, 22.122376199634036 ] ] ] } },
{ "type": "Feature", "properties": { "ID": 4, "GRIDCODE": 2 }, "geometry": { "type": "Polygon", "coordinates": [ [ [ -159.437625435372439, 22.117740981355148 ], [ -159.438676161900304, 22.118132023917358 ], [ -159.438337582259095, 22.118941251039669 ], [ -159.437936774899526, 22.120297463176051 ], [ -159.437759290054771, 22.120061799198727 ], [ -159.437625435372439, 22.117740981355148 ] ] ] } },
{ "type": "Feature", "properties": { "ID": 5, "GRIDCODE": 2 }, "geometry": { "type": "Polygon", "coordinates": [ [ [ -159.534484765242468, 22.117452711269173 ], [ -159.534583078663928, 22.117121945870224 ], [ -159.534839050715533, 22.117358775431924 ], [ -159.534484765242468, 22.117452711269173 ] ] ] } },
{ "type": "Feature", "properties": { "ID": 6, "GRIDCODE": 2 }, "geometry": { "type": "Polygon", "coordinates": [ [ [ -159.440532462335483, 22.117191110983939 ], [ -159.44152461526096, 22.117425497972846 ], [ -159.441193804016962, 22.118078146231571 ], [ -159.440532462335483, 22.117191110983939 ] ] ] } },
{ "type": "Feature", "properties": { "ID": 7, "GRIDCODE": 2 }, "geometry": { "type": "Polygon", "coordinates": [ [ [ -159.438202989780507, 22.116384295495461 ], [ -159.438565591032415, 22.116616153723378 ], [ -159.4387282161249, 22.11728310380045 ], [ -159.437924723006148, 22.117453213258155 ], [ -159.438202989780507, 22.116384295495461 ] ] ] } },
{ "type": "Feature", "properties": { "ID": 8, "GRIDCODE": 2 }, "geometry": { "type": "Polygon", "coordinates": [ [ [ -159.441973296449447, 22.112850779599071 ], [ -159.442328214623814, 22.112942595832962 ], [ -159.442073883859024, 22.11318095447055 ], [ -159.441973296449447, 22.112850779599071 ] ] ] } },
{ "type": "Feature", "properties": { "ID": 9, "GRIDCODE": 2 }, "geometry": { "type": "Polygon", "coordinates": [ [ [ -159.478329898825109, 22.112477333969341 ], [ -159.477974960069304, 22.112385596340076 ], [ -159.478229227983604, 22.112147182845835 ], [ -159.478329898825109, 22.112477333969341 ] ] ] } },
{ "type": "Feature", "properties": { "ID": 10, "GRIDCODE": 2 }, "geometry": { "type": "Polygon", "coordinates": [ [ [ -159.444873404515391, 22.110132632298377 ], [ -159.445626843174779, 22.108918580975267 ], [ -159.446166549966335, 22.109967877004941 ], [ -159.444873404515391, 22.110132632298377 ] ] ] } },
{ "type": "Feature", "properties": { "ID": 11, "GRIDCODE": 2 }, "geometry": { "type": "Polygon", "coordinates": [ [ [ -159.442825572507672, 22.106343809723707 ], [ -159.443500476962697, 22.108810135136601 ], [ -159.444577473985618, 22.108582068357446 ], [ -159.444103519722773, 22.110021719005317 ], [ -159.444873404515391, 22.110132632298377 ], [ -159.444776259672039, 22.110312876016366 ], [ -159.44380882537817, 22.110497603791863 ], [ -159.44342023811879, 22.111218575859684 ], [ -159.442554266702757, 22.111629740051416 ], [ -159.443858575457824, 22.112235839278071 ], [ -159.444312466627821, 22.112027753335678 ], [ -159.444978161059566, 22.112378711984075 ], [ -159.444595937827557, 22.113113391090856 ], [ -159.444154970499852, 22.112914198528731 ], [ -159.443602865892814, 22.113167305735669 ], [ -159.443329327461583, 22.112667125679852 ], [ -159.442168726005463, 22.112488174915764 ], [ -159.441973296449447, 22.112850779599071 ], [ -159.441379343530514, 22.113006625150462 ], [ -159.442623703434208, 22.114561053627739 ], [ -159.442302745727346, 22.115136177290815 ], [ -159.441679195945994, 22.114387923992073 ], [ -159.440605714626827, 22.11382051426278 ], [ -159.440848627859395, 22.115322039734117 ], [ -159.439438859774981, 22.115131798753897 ], [ -159.439540726485234, 22.115761493109169 ], [ -159.440532462335483, 22.117191110983939 ], [ -159.439948899970517, 22.117383473482924 ], [ -159.439217604747, 22.117064308094012 ], [ -159.438918098389223, 22.116477344049063 ], [ -159.438301486249543, 22.115948077955576 ], [ -159.439285261587656, 22.113023452808395 ], [ -159.442501445413995, 22.10662529352668 ], [ -159.442825572507672, 22.106343809723707 ] ] ] } },
{ "type": "Feature", "properties": { "ID": 12, "GRIDCODE": 2 }, "geometry": { "type": "Polygon", "coordinates": [ [ [ -159.442825572507672, 22.106343809723707 ], [ -159.443132648981987, 22.104855037776471 ], [ -159.443541026119249, 22.105699485144886 ], [ -159.442825572507672, 22.106343809723707 ] ] ] } },
{ "type": "Feature", "properties": { "ID": 13, "GRIDCODE": 2 }, "geometry": { "type": "Polygon", "coordinates": [ [ [ -159.450084721680497, 22.102529587880809 ], [ -159.450831802093063, 22.10291662600293 ], [ -159.451086123718028, 22.103221839203155 ], [ -159.45166913726834, 22.103638630745433 ], [ -159.451394856731099, 22.104068716871101 ], [ -159.450213601059318, 22.103224245579653 ], [ -159.450084721680497, 22.102529587880809 ] ] ] } },
{ "type": "Feature", "properties": { "ID": 14, "GRIDCODE": 2 }, "geometry": { "type": "Polygon", "coordinates": [ [ [ -159.473043834193589, 22.097315221619972 ], [ -159.4723746212739, 22.097207300563994 ], [ -159.472884635236369, 22.096971555256943 ], [ -159.473043834193589, 22.097315221619972 ] ] ] } },
{ "type": "Feature", "properties": { "ID": 15, "GRIDCODE": 2 }, "geometry": { "type": "Polygon", "coordinates": [ [ [ -159.473909078602361, 22.095144497713171 ], [ -159.473239875364982, 22.095036580002361 ], [ -159.473749880108983, 22.094800832096045 ], [ -159.473909078602361, 22.095144497713171 ] ] ] } },
{ "type": "Feature", "properties": { "ID": 16, "GRIDCODE": 2 }, "geometry": { "type": "Polygon", "coordinates": [ [ [ -159.459065674937733, 22.091663502046345 ], [ -159.459487641421759, 22.092039048971067 ], [ -159.459512250316607, 22.093017385747945 ], [ -159.459504620072067, 22.093423948682755 ], [ -159.459511540683195, 22.093697504374088 ], [ -159.458359994366901, 22.095290990306459 ], [ -159.458344195983869, 22.096137483071153 ], [ -159.458364563473509, 22.096947795765772 ], [ -159.458061092139303, 22.096683044848223 ], [ -159.457626688084247, 22.095448062193604 ], [ -159.456765643133309, 22.096288251201372 ], [ -159.455739773829606, 22.097212284726531 ], [ -159.455454687335049, 22.098316494675444 ], [ -159.454002637022029, 22.098977972095422 ], [ -159.454289880070235, 22.099674874733317 ], [ -159.454975095938693, 22.100610895188751 ], [ -159.453715395739891, 22.10021300080669 ], [ -159.453407112731099, 22.100219712380461 ], [ -159.45343246297378, 22.09886450397461 ], [ -159.453112855175192, 22.098859319437135 ], [ -159.452549837131187, 22.099408674938267 ], [ -159.452254028177322, 22.099675095624733 ], [ -159.451719176092553, 22.100196943359826 ], [ -159.451099117945574, 22.10049679648737 ], [ -159.449930796413042, 22.10076561920954 ], [ -159.449647517642205, 22.101313880097656 ], [ -159.447618452068184, 22.101627417218673 ], [ -159.448484242404618, 22.103182385343334 ], [ -159.447189322968256, 22.102831318886619 ], [ -159.446742542753327, 22.102400532713276 ], [ -159.446445045292336, 22.102135743924713 ], [ -159.446157455467983, 22.101318020340681 ], [ -159.445757426631332, 22.100961982005956 ], [ -159.446154064190694, 22.100239344376032 ], [ -159.446438483554488, 22.099688852997815 ], [ -159.448139410912717, 22.100499513910236 ], [ -159.448962894275553, 22.100151256537085 ], [ -159.449344833884965, 22.099412092966883 ], [ -159.450470194872764, 22.098899461398737 ], [ -159.450802256284277, 22.098600421893533 ], [ -159.451252812743149, 22.097293385259846 ], [ -159.451960403532212, 22.096971056854496 ], [ -159.452525266733375, 22.095332343296771 ], [ -159.454233072820472, 22.096146247398089 ], [ -159.455698257681291, 22.094896589499857 ], [ -159.456016647901492, 22.093972960007928 ], [ -159.456598397847557, 22.093982386165496 ], [ -159.457459500661486, 22.093142065489239 ], [ -159.457867680007325, 22.093535570333046 ], [ -159.458924500400599, 22.09207315294498 ], [ -159.459065674937733, 22.091663502046345 ] ] ] } },
{ "type": "Feature", "properties": { "ID": 17, "GRIDCODE": 2 }, "geometry": { "type": "Polygon", "coordinates": [ [ [ -159.468943593774981, 22.088654161009476 ], [ -159.469298467453854, 22.088745927942732 ], [ -159.469044225353429, 22.08898431947426 ], [ -159.468943593774981, 22.088654161009476 ] ] ] } },
{ "type": "Feature", "properties": { "ID": 18, "GRIDCODE": 2 }, "geometry": { "type": "Polygon", "coordinates": [ [ [ -159.517568675888469, 22.025087096880412 ], [ -159.517923419224019, 22.025178761458495 ], [ -159.517669371581434, 22.025417226737339 ], [ -159.517568675888469, 22.025087096880412 ] ] ] } },
{ "type": "Feature", "properties": { "ID": 19, "GRIDCODE": 2 }, "geometry": { "type": "Polygon", "coordinates": [ [ [ -159.486755775775691, 22.02491049749846 ], [ -159.486401051714267, 22.024818765050156 ], [ -159.486655151702251, 22.024580347273826 ], [ -159.486755775775691, 22.02491049749846 ] ] ] } },
{ "type": "Feature", "properties": { "ID": 20, "GRIDCODE": 2 }, "geometry": { "type": "Polygon", "coordinates": [ [ [ -159.478868264518354, 22.013279467348688 ], [ -159.479222955188902, 22.013371216837324 ], [ -159.478968862123537, 22.013609623278455 ], [ -159.478868264518354, 22.013279467348688 ] ] ] } },
{ "type": "Feature", "properties": { "ID": 21, "GRIDCODE": 2 }, "geometry": { "type": "Polygon", "coordinates": [ [ [ -159.480028149516187, 22.012462985818669 ], [ -159.479929775532781, 22.012793723672932 ], [ -159.479674085110275, 22.01255680820594 ], [ -159.480028149516187, 22.012462985818669 ] ] ] } },
{ "type": "Feature", "properties": { "ID": 22, "GRIDCODE": 2 }, "geometry": { "type": "Polygon", "coordinates": [ [ [ -159.52243866597351, 22.005557599222794 ], [ -159.522562705457631, 22.004862180120266 ], [ -159.522893321499936, 22.00434710792841 ], [ -159.5228146974259, 22.003862190071771 ], [ -159.523810269701556, 22.003721745112976 ], [ -159.523086520423306, 22.005387149958782 ], [ -159.52243866597351, 22.005557599222794 ] ] ] } },
{ "type": "Feature", "properties": { "ID": 23, "GRIDCODE": 2 }, "geometry": { "type": "Polygon", "coordinates": [ [ [ -159.510774302687537, 21.994753179296858 ], [ -159.511128966069037, 21.994844860454847 ], [ -159.510874959755228, 21.995083315259421 ], [ -159.510774302687537, 21.994753179296858 ] ] ] } },
{ "type": "Feature", "properties": { "ID": 24, "GRIDCODE": 2 }, "geometry": { "type": "Polygon", "coordinates": [ [ [ -159.512158335123786, 21.975505756743587 ], [ -159.511804384524027, 21.975599646789686 ], [ -159.512060059675889, 21.9758365134774 ], [ -159.512158335123786, 21.975505756743587 ], [ -159.513741930335243, 21.975648184070977 ], [ -159.515608932606966, 21.976396446429138 ], [ -159.518181787382787, 21.978224925073484 ], [ -159.520118551795889, 21.980717022641564 ], [ -159.520279761724424, 21.982144362954099 ], [ -159.519542601397745, 21.982076641527318 ], [ -159.519682034734785, 21.983311266912942 ], [ -159.518421464685701, 21.98319545444129 ], [ -159.517876559951844, 21.984378148458823 ], [ -159.515944971542808, 21.985166701822273 ], [ -159.516659884440429, 21.985963893589158 ], [ -159.517369709450179, 21.986510051737973 ], [ -159.516774028991762, 21.987802941610539 ], [ -159.51631430341294, 21.987848110263588 ], [ -159.515552866003901, 21.98699900477412 ], [ -159.515240946281381, 21.987029644931933 ], [ -159.514044227413166, 21.98623207129641 ], [ -159.514132977627526, 21.987018348046544 ], [ -159.5140745918645, 21.987571160626718 ], [ -159.51495139568695, 21.988245786437705 ], [ -159.51438119680202, 21.988545800103871 ], [ -159.513476574622956, 21.988066358562332 ], [ -159.512918759381506, 21.988121154545968 ], [ -159.512649351925688, 21.987820760648692 ], [ -159.511331255080989, 21.987975706646129 ], [ -159.511230602340845, 21.987645570602794 ], [ -159.510976608750411, 21.987884025523595 ], [ -159.511331255080989, 21.987975706646129 ], [ -159.511463677927082, 21.988123347801427 ], [ -159.512324106076875, 21.988468184711568 ], [ -159.511404340027781, 21.989185600173776 ], [ -159.51294926663013, 21.989719809171174 ], [ -159.513213923058032, 21.989960549126927 ], [ -159.511689652026575, 21.990280755801148 ], [ -159.51237450772814, 21.990807691675268 ], [ -159.512314192774625, 21.991378739179343 ], [ -159.513198064847046, 21.991291925114822 ], [ -159.513686959919511, 21.991837085739686 ], [ -159.514095803970406, 21.992750248012218 ], [ -159.513091726816157, 21.992657975393787 ], [ -159.511535679138603, 21.992810805894599 ], [ -159.509524749051764, 21.991470568025107 ], [ -159.510556852089394, 21.993707289600994 ], [ -159.508578214603972, 21.993525415723365 ], [ -159.508314692368884, 21.993981146532899 ], [ -159.510059672495856, 21.994336319699539 ], [ -159.510614762603097, 21.994524018924785 ], [ -159.509744173809594, 21.994879359279384 ], [ -159.509481433892489, 21.995176283132459 ], [ -159.508833305363936, 21.99544083812922 ], [ -159.51022605210116, 21.995724315210534 ], [ -159.509739615032089, 21.996522538846182 ], [ -159.510087034572393, 21.996789891037285 ], [ -159.50822027991839, 21.997871730600231 ], [ -159.509371371817537, 21.998132870027408 ], [ -159.510926765045042, 21.997582301242545 ], [ -159.511788895013268, 21.997772711865252 ], [ -159.510918289633764, 21.998128058636198 ], [ -159.510075009103645, 21.998625645949289 ], [ -159.511270110758005, 21.998948652129535 ], [ -159.511161269498359, 21.999978899180771 ], [ -159.510224036359546, 22.000298453990879 ], [ -159.509203121497166, 21.999757401310479 ], [ -159.508694129322436, 21.999807383629779 ], [ -159.509515915674342, 22.001135215116786 ], [ -159.508604897988647, 22.001387600281344 ], [ -159.508474487402253, 22.001807087619557 ], [ -159.508120469343794, 22.001900970715504 ], [ -159.508376186596564, 22.002137841602291 ], [ -159.508474487402253, 22.001807087619557 ], [ -159.509214002173906, 22.001930514622845 ], [ -159.509169181804765, 22.002473737830414 ], [ -159.509505834445207, 22.002742414574715 ], [ -159.50978113772689, 22.003038361080421 ], [ -159.510977892316532, 22.002624288001201 ], [ -159.511519098505914, 22.002848717531528 ], [ -159.51067541068511, 22.004269998514619 ], [ -159.510365133706642, 22.005563497305058 ], [ -159.50922692799341, 22.006484108166546 ], [ -159.508940685225951, 22.007259871362333 ], [ -159.510032215825845, 22.007709986731825 ], [ -159.509495506985644, 22.009562705309854 ], [ -159.510405733990495, 22.009491653717173 ], [ -159.510355200219351, 22.010103148002532 ], [ -159.510965371853445, 22.009783205348864 ], [ -159.511298045206189, 22.009807097427391 ], [ -159.511182232052676, 22.011210128949504 ], [ -159.511853034145588, 22.010858381615101 ], [ -159.512362509384019, 22.011406027154919 ], [ -159.512708513520892, 22.010321243698005 ], [ -159.513060773847258, 22.010069261367011 ], [ -159.513583460295052, 22.011151740020217 ], [ -159.513794546471445, 22.011401958875485 ], [ -159.51416495108262, 22.009471520583581 ], [ -159.514660404336695, 22.010497638917641 ], [ -159.514937237373772, 22.010856316148011 ], [ -159.515324071910015, 22.010040442884566 ], [ -159.515755122064888, 22.01007137796001 ], [ -159.516989932487178, 22.010708700582953 ], [ -159.517360227285309, 22.010305108446691 ], [ -159.517670686404387, 22.010327386883809 ], [ -159.51794024289967, 22.009482085289488 ], [ -159.518558964011248, 22.009801397076139 ], [ -159.519191814080187, 22.009751950938412 ], [ -159.519068453247144, 22.008378588082422 ], [ -159.519811231735645, 22.008431866527147 ], [ -159.520253496155476, 22.007045130667937 ], [ -159.52074490841531, 22.006217085325723 ], [ -159.52243866597351, 22.005557599222794 ], [ -159.522151507409404, 22.006392459765049 ], [ -159.521423964367131, 22.007048773951301 ], [ -159.521141142728311, 22.007597156323669 ], [ -159.520699391135707, 22.008403507005294 ], [ -159.519986823641432, 22.0097851296062 ], [ -159.520572795535628, 22.010306535243735 ], [ -159.520272276705896, 22.010577607974469 ], [ -159.520572703567467, 22.011116908344491 ], [ -159.521149298206524, 22.012215617023568 ], [ -159.519995197007347, 22.012197330278806 ], [ -159.519694260383176, 22.012491430135952 ], [ -159.519707925015013, 22.013027918778594 ], [ -159.519120616629209, 22.013018613649308 ], [ -159.518837704111917, 22.01356709153178 ], [ -159.517927784270512, 22.013845596283566 ], [ -159.517080455468147, 22.014673548644524 ], [ -159.517100800237046, 22.01546956464869 ], [ -159.516646947042886, 22.016297844552764 ], [ -159.515647378462717, 22.016281968551475 ], [ -159.514677820284021, 22.016303460465817 ], [ -159.51511674257091, 22.017486160783253 ], [ -159.514781159021055, 22.018724394790855 ], [ -159.514801984394239, 22.019538837462903 ], [ -159.513052935267552, 22.020074137866128 ], [ -159.512610817687744, 22.020506033839503 ], [ -159.513054990980294, 22.020901244749229 ], [ -159.512458797748764, 22.021173245329528 ], [ -159.513412195686357, 22.021600856398088 ], [ -159.513919035285625, 22.020618311521009 ], [ -159.515106915257689, 22.020637195461916 ], [ -159.516379494817471, 22.019393827918886 ], [ -159.517694775640933, 22.018991274742348 ], [ -159.518593899752801, 22.018701142781925 ], [ -159.520238513073167, 22.017094127308731 ], [ -159.521719611813182, 22.016752470342656 ], [ -159.52233468019773, 22.01763247830576 ], [ -159.521462985890992, 22.017618662083173 ], [ -159.520539421127268, 22.017916695185562 ], [ -159.518759592943468, 22.019049891670459 ], [ -159.517988397120916, 22.019803432140378 ], [ -159.517692875673475, 22.020069968405693 ], [ -159.517412967497307, 22.021431419955817 ], [ -159.517117441641403, 22.021697955217203 ], [ -159.516574633537829, 22.022228324592852 ], [ -159.515668008751959, 22.022786635911636 ], [ -159.515224830487824, 22.023219633930928 ], [ -159.514810641399549, 22.02523401237951 ], [ -159.514515102839908, 22.025500543071232 ], [ -159.51408930950501, 22.025916560753377 ], [ -159.513452104637651, 22.026491218499164 ], [ -159.51297792565029, 22.028331722505641 ], [ -159.511917964559728, 22.029287639916252 ], [ -159.511630699217676, 22.030122481739571 ], [ -159.511044455318114, 22.030389913885372 ], [ -159.510760576944705, 22.03066725326574 ], [ -159.510465019594278, 22.030933776837809 ], [ -159.510182204809212, 22.031508607742389 ], [ -159.510784719830497, 22.032590148190284 ], [ -159.510765307692395, 22.033648234188757 ], [ -159.511148068479088, 22.034679474705868 ], [ -159.512090800307647, 22.035807208722254 ], [ -159.511514813980995, 22.033740434372248 ], [ -159.512224285765313, 22.033100596673918 ], [ -159.511663148494705, 22.03158866873834 ], [ -159.512506666874856, 22.031203856482421 ], [ -159.513379584965662, 22.030648165670314 ], [ -159.513958094397481, 22.030657352366038 ], [ -159.514528880056787, 22.029294795641558 ], [ -159.51482526479279, 22.029299488921882 ], [ -159.515686650441239, 22.027936114028517 ], [ -159.516272285128167, 22.027407961613086 ], [ -159.516264929943304, 22.027121307652283 ], [ -159.516560610028421, 22.026854674155214 ], [ -159.517311130773578, 22.026121354038033 ], [ -159.517720473394547, 22.027664097742001 ], [ -159.518023903465604, 22.02792874090861 ], [ -159.518010090324083, 22.027389441300524 ], [ -159.51802193180373, 22.026742684838112 ], [ -159.519173782605833, 22.02603333047308 ], [ -159.519474889872754, 22.025739131774504 ], [ -159.519447489252798, 22.024666784904902 ], [ -159.520038896701891, 22.024133390154699 ], [ -159.520320764131725, 22.023313985033521 ], [ -159.520718199149627, 22.022505063931021 ], [ -159.521605386654926, 22.02375738526759 ], [ -159.522070467615862, 22.023302894865143 ], [ -159.522651856841577, 22.023312091797695 ], [ -159.522935980393555, 22.023034532889984 ], [ -159.524426639219797, 22.0230581225753 ], [ -159.523741064149391, 22.022448152967051 ], [ -159.523228329978593, 22.021944061392077 ], [ -159.524961055053893, 22.021971488637423 ], [ -159.525458373854946, 22.021007268691701 ], [ -159.526714075424053, 22.02140352679849 ], [ -159.526994801058038, 22.020037790288097 ], [ -159.527588615441488, 22.020320621318735 ], [ -159.527561070876999, 22.01924452146492 ], [ -159.527895449225213, 22.018687708182654 ], [ -159.529048949165997, 22.019237095092002 ], [ -159.529824474664338, 22.020714441686355 ], [ -159.530219406156675, 22.021385060285571 ], [ -159.530777856451351, 22.020839327403372 ], [ -159.531658606342319, 22.021258779081389 ], [ -159.53164739667551, 22.020822117121629 ], [ -159.531016769307257, 22.020261080668622 ], [ -159.530511430635613, 22.018679261428169 ], [ -159.531645816795759, 22.019219510821802 ], [ -159.532251838061597, 22.018627234265828 ], [ -159.534560937529761, 22.024360251150924 ], [ -159.538332163576939, 22.038756091380144 ], [ -159.538705708868406, 22.042415630339846 ], [ -159.537540936667057, 22.041685117650417 ], [ -159.537255750983746, 22.04279260933551 ], [ -159.536430835275496, 22.043536684423845 ], [ -159.535200186030664, 22.042764833517108 ], [ -159.535238862812463, 22.04427327101649 ], [ -159.535226345037046, 22.044964642540595 ], [ -159.534069423456202, 22.044946419039416 ], [ -159.533779905081786, 22.045229341058025 ], [ -159.533193643009241, 22.045496852401538 ], [ -159.532907905063041, 22.04605085380333 ], [ -159.532303141039961, 22.04604130766301 ], [ -159.531448096759078, 22.044412645595237 ], [ -159.53116256411073, 22.045003912972323 ], [ -159.532113507878677, 22.047564747277921 ], [ -159.53146147501937, 22.048754808391003 ], [ -159.531158036232426, 22.049343089960686 ], [ -159.530303622266416, 22.050113697937419 ], [ -159.529927966026037, 22.051572246765392 ], [ -159.529432553886352, 22.052019032689401 ], [ -159.529447251043791, 22.052592303736425 ], [ -159.528281604675698, 22.053643586186663 ], [ -159.527549277249022, 22.054692686998337 ], [ -159.525094812484696, 22.055812511145987 ], [ -159.524950562009707, 22.05623177204162 ], [ -159.524659820529337, 22.056232704273729 ], [ -159.524660820314693, 22.056503728024548 ], [ -159.524306678520617, 22.056597647906454 ], [ -159.524562522394831, 22.056834489524665 ], [ -159.524660820314693, 22.056503728024548 ], [ -159.524951562349003, 22.05650279577981 ], [ -159.524950562009707, 22.05623177204162 ], [ -159.526261317357609, 22.056094762288982 ], [ -159.527130169596319, 22.055814405334409 ], [ -159.527713895397824, 22.056092318596079 ], [ -159.528018489747268, 22.055501806496402 ], [ -159.528873089656315, 22.05473111035473 ], [ -159.528862463074404, 22.054316680665011 ], [ -159.529763463732024, 22.053905589107128 ], [ -159.530315746058903, 22.0533659818181 ], [ -159.530611311071311, 22.053099422959804 ], [ -159.53187618124602, 22.050647242590017 ], [ -159.532346521098589, 22.050654646576373 ], [ -159.533336944085505, 22.048734499789088 ], [ -159.534380607596432, 22.048750947178313 ], [ -159.534359727547297, 22.047935006628808 ], [ -159.534952090943477, 22.047664708579212 ], [ -159.534932804611714, 22.046914766105942 ], [ -159.537536701618421, 22.046313962241875 ], [ -159.53813812862856, 22.046022631059692 ], [ -159.538434335082258, 22.046027281600271 ], [ -159.538718329979275, 22.04574979551024 ], [ -159.539474357488359, 22.045481705301526 ], [ -159.541662761803394, 22.04964924118104 ], [ -159.54392563146061, 22.059704916936884 ], [ -159.54570422202741, 22.06671698938802 ], [ -159.547309397290519, 22.072469139348609 ], [ -159.552428564459575, 22.089803419790773 ], [ -159.55926718781302, 22.108952449145033 ], [ -159.563158373063175, 22.118138946164752 ], [ -159.568846188328507, 22.125450155755914 ], [ -159.576135603289231, 22.131554412904638 ], [ -159.587675854212449, 22.138049270871999 ], [ -159.597674991214092, 22.14209410563932 ], [ -159.604919714299569, 22.146907647274688 ], [ -159.609319104384213, 22.151139270668903 ], [ -159.6108185099271, 22.153470730021851 ], [ -159.611617790959457, 22.156472560185893 ], [ -159.611575081879465, 22.158900625038839 ], [ -159.609762704232338, 22.161859426492363 ], [ -159.606036422384364, 22.165637692561258 ], [ -159.602508121101977, 22.168094215902116 ], [ -159.598522561095081, 22.169913384173846 ], [ -159.595630064251282, 22.170300304904398 ], [ -159.591537376717298, 22.170237412187316 ], [ -159.590164877507959, 22.16958513953039 ], [ -159.590695329222598, 22.168616812436941 ], [ -159.590395430220894, 22.168350508693496 ], [ -159.590108002876633, 22.16780408146165 ], [ -159.58951673474283, 22.166998425777152 ], [ -159.589531751536953, 22.166152943854275 ], [ -159.590099121443245, 22.16564126253995 ], [ -159.590091175409981, 22.165337178187993 ], [ -159.589476668058779, 22.164236665299157 ], [ -159.589507109367759, 22.162524054354986 ], [ -159.589496383211809, 22.162114955810477 ], [ -159.589792339369609, 22.161848074911116 ], [ -159.589784654165925, 22.16155517999276 ], [ -159.588320764288824, 22.161588299997273 ], [ -159.589500334904898, 22.160216294955127 ], [ -159.589479030438383, 22.15939928808465 ], [ -159.587458310290259, 22.159444998653164 ], [ -159.587159222352739, 22.158597611760896 ], [ -159.586579334103192, 22.158878536212733 ], [ -159.585108000752143, 22.159149417871014 ], [ -159.585122801986302, 22.158314059467493 ], [ -159.586339011058499, 22.156628808068092 ], [ -159.584816615158303, 22.156174650795496 ], [ -159.584216992491207, 22.155889608490515 ], [ -159.582784693918455, 22.155921960824429 ], [ -159.58248601038548, 22.155353971433509 ], [ -159.581319726828411, 22.154832043555668 ], [ -159.581034012636877, 22.154687435383899 ], [ -159.582778023206032, 22.154284795656803 ], [ -159.583932580162838, 22.153462175064867 ], [ -159.585464777485981, 22.152395596790072 ], [ -159.584474745671429, 22.152100244238927 ], [ -159.583784468300649, 22.152115842188728 ], [ -159.583348031430461, 22.152109107881401 ], [ -159.582476217588606, 22.152128798413624 ], [ -159.582183859109648, 22.151300251060754 ], [ -159.581867901815855, 22.15101963735513 ], [ -159.580327554380403, 22.151054412098976 ], [ -159.577517558343743, 22.151961533659144 ], [ -159.577548250424258, 22.150239812631025 ], [ -159.576644796762395, 22.149970241519185 ], [ -159.576357461025964, 22.149423786867231 ], [ -159.575477767116695, 22.149161296089748 ], [ -159.575166270932584, 22.14827849550618 ], [ -159.573721980568735, 22.148628736063422 ], [ -159.57295201652525, 22.147887809647884 ], [ -159.573727518690305, 22.146472365198516 ], [ -159.573713033499672, 22.145912530903733 ], [ -159.573727495502737, 22.145099412780667 ], [ -159.573705192751618, 22.144240346399208 ], [ -159.572544360364333, 22.143209124294536 ], [ -159.572257054640772, 22.142662661338896 ], [ -159.571959241637472, 22.142398108712577 ], [ -159.571670845841254, 22.141580625805474 ], [ -159.57020334041971, 22.141319063560264 ], [ -159.570217952920586, 22.140502991687903 ], [ -159.568996870259809, 22.140230176980296 ], [ -159.568459975031772, 22.140242254551996 ], [ -159.567300192435084, 22.139969643573973 ], [ -159.566997869707876, 22.139976442622643 ], [ -159.567017250324085, 22.138892002670527 ], [ -159.56641666447112, 22.138623123357693 ], [ -159.566053315787514, 22.137931922514493 ], [ -159.566422851106466, 22.137257450083872 ], [ -159.566408914678021, 22.13672060536269 ], [ -159.567286529723589, 22.136451918624569 ], [ -159.567569371928045, 22.135892405331674 ], [ -159.564647711603243, 22.13595809562468 ], [ -159.564663053794646, 22.135103188446106 ], [ -159.564636451703791, 22.134077457094691 ], [ -159.563061363785152, 22.133725476633266 ], [ -159.563779991335792, 22.132413850212853 ], [ -159.563772521213622, 22.132125012334299 ], [ -159.563777408437062, 22.131853972251104 ], [ -159.563770364457071, 22.131582973367468 ], [ -159.563781001318176, 22.130989899631743 ], [ -159.561271501023498, 22.131397605609905 ], [ -159.561741519846265, 22.12966215250805 ], [ -159.559393482323003, 22.129714870515702 ], [ -159.559698667748705, 22.128873906556912 ], [ -159.559679046198283, 22.128113498621126 ], [ -159.557646737600692, 22.127812392328835 ], [ -159.557359521375275, 22.12726590025996 ], [ -159.557061626142485, 22.127001211653024 ], [ -159.557071426383459, 22.126459131013284 ], [ -159.556583466867409, 22.126025559495048 ], [ -159.557770059990844, 22.125294937111491 ], [ -159.558504763301869, 22.124095895282963 ], [ -159.556460363964987, 22.123485479450306 ], [ -159.555883027695387, 22.122386924760633 ], [ -159.554727991358021, 22.122412820568773 ], [ -159.55435681621222, 22.122055467497059 ], [ -159.55326313752883, 22.12240841947412 ], [ -159.552975091103463, 22.121860333633975 ], [ -159.552247501089283, 22.120556020234048 ], [ -159.550641331655839, 22.121333831147165 ], [ -159.550338559470447, 22.12075765209714 ], [ -159.548216184549148, 22.120805153587774 ], [ -159.547424604869008, 22.119688908270657 ], [ -159.545837432227188, 22.119724401992123 ], [ -159.545386322693645, 22.119717332173696 ], [ -159.545420687108248, 22.117814282803675 ], [ -159.54394764308168, 22.117847209614144 ], [ -159.543649893273937, 22.117405040534496 ], [ -159.544517884582802, 22.116202670942069 ], [ -159.544801316670402, 22.115783113530146 ], [ -159.54392721615045, 22.11539156599267 ], [ -159.543495146517557, 22.114975541697842 ], [ -159.542006017791067, 22.115456015327947 ], [ -159.541599974108635, 22.114304176553283 ], [ -159.541002462878595, 22.114317521123954 ], [ -159.541017305578663, 22.11349884020121 ], [ -159.540654658146963, 22.112848591111582 ], [ -159.539848821320902, 22.113238769986303 ], [ -159.539560810525245, 22.112961401970612 ], [ -159.538390551590197, 22.11269966457392 ], [ -159.538104469061437, 22.112424156799808 ], [ -159.53780678321769, 22.112159538275439 ], [ -159.537401371416365, 22.111387763926256 ], [ -159.53608221613402, 22.112026460839068 ], [ -159.535190635813876, 22.111036200261676 ], [ -159.536117809494868, 22.109344482072576 ], [ -159.535561049982221, 22.107845903269219 ], [ -159.533406406014649, 22.107363919648613 ], [ -159.533427411957632, 22.106208636678453 ], [ -159.533419931007728, 22.105918662317425 ], [ -159.532836788145346, 22.105400201627251 ], [ -159.532539186351613, 22.10511356338306 ], [ -159.532563426432461, 22.103777547526846 ], [ -159.531957149844601, 22.103505891922236 ], [ -159.531670002751696, 22.102937936615536 ], [ -159.532830028407147, 22.10133109130426 ], [ -159.531945922304658, 22.100795031107499 ], [ -159.532299769648063, 22.099156131183161 ], [ -159.531353790668078, 22.099177190921043 ], [ -159.530779428968401, 22.098623971510136 ], [ -159.530002632024235, 22.099000078843567 ], [ -159.52961804105783, 22.098629608632329 ], [ -159.529008164862205, 22.098356323728368 ], [ -159.528451701450621, 22.097820307872425 ], [ -159.528125663506643, 22.097555762102868 ], [ -159.526987184516145, 22.09810696357043 ], [ -159.525251251489607, 22.097559500344456 ], [ -159.524955263066005, 22.097566075658623 ], [ -159.522882893429397, 22.096738385512484 ], [ -159.522338358770043, 22.09621380684462 ], [ -159.52189192559544, 22.095816833094663 ], [ -159.521309063505015, 22.095255368518821 ], [ -159.519567178320557, 22.094734710617747 ], [ -159.51956618634415, 22.094463687912292 ], [ -159.519275366376121, 22.094464612095134 ], [ -159.519116059796659, 22.094120992674537 ], [ -159.518606135856885, 22.094356880707274 ], [ -159.519275366376121, 22.094464612095134 ], [ -159.519276357797338, 22.094735634813095 ], [ -159.519567178320557, 22.094734710617747 ], [ -159.519988340793617, 22.095155409995883 ], [ -159.521108660397289, 22.096116163724435 ], [ -159.521889398591583, 22.097234432739828 ], [ -159.523293452152444, 22.098438508429375 ], [ -159.528013482070889, 22.100495817729151 ], [ -159.529912148897751, 22.101769862884314 ], [ -159.527823407743909, 22.103207942596082 ], [ -159.528771402308507, 22.104863476398457 ], [ -159.52905322598707, 22.105414953321585 ], [ -159.529700273074866, 22.10654494606235 ], [ -159.529332495845694, 22.108212097308005 ], [ -159.528140532428381, 22.10782712558251 ], [ -159.527037155324081, 22.107871448446424 ], [ -159.526177609401259, 22.107012997702764 ], [ -159.524975687248116, 22.108230134036919 ], [ -159.522579162180932, 22.10784917804629 ], [ -159.521425402018792, 22.107284983314415 ], [ -159.520925659761787, 22.106785857085324 ], [ -159.519526221395751, 22.10625860101905 ], [ -159.520637798539155, 22.107599850901973 ], [ -159.521211440329807, 22.108421436712675 ], [ -159.521665766923661, 22.108811024672622 ], [ -159.522086978214674, 22.109231716986901 ], [ -159.522389865643675, 22.109491435213538 ], [ -159.522924474870905, 22.110025414884969 ], [ -159.524112033799355, 22.110542998470084 ], [ -159.524440887434196, 22.110871444418489 ], [ -159.526170290358777, 22.110801997659983 ], [ -159.52733386254053, 22.1108412136089 ], [ -159.527629432692947, 22.110829341435633 ], [ -159.528201891809061, 22.111109235711346 ], [ -159.528795648451108, 22.111368000956354 ], [ -159.529076474719091, 22.111648455421761 ], [ -159.529670235164417, 22.11190721739462 ], [ -159.529954102368151, 22.11300073525295 ], [ -159.531107727605132, 22.113336935620524 ], [ -159.530540848051942, 22.114343616193924 ], [ -159.530137457907955, 22.115946443999967 ], [ -159.531140751913824, 22.116238840197692 ], [ -159.532324262334214, 22.116621036821062 ], [ -159.532277449579993, 22.117827641430317 ], [ -159.532428430050061, 22.118131820463407 ], [ -159.534484765242468, 22.117452711269173 ], [ -159.534795616335344, 22.120584910793863 ], [ -159.536746723519883, 22.120541405543779 ], [ -159.538153921011968, 22.119860064961358 ], [ -159.53808236215275, 22.12381392515017 ], [ -159.53858106756033, 22.123802794066101 ], [ -159.539584943300554, 22.123818569128769 ], [ -159.540466956147014, 22.123257226880686 ], [ -159.540781007864865, 22.123262158722337 ], [ -159.541341539292148, 22.123801911381058 ], [ -159.542528157815667, 22.124156330560108 ], [ -159.542490532279942, 22.126237877536493 ], [ -159.542808166436799, 22.126230783970392 ], [ -159.54328195268954, 22.126238215191485 ], [ -159.543979782873123, 22.127869587112208 ], [ -159.54514147155416, 22.127843620294371 ], [ -159.545723288497726, 22.127852734768503 ], [ -159.546016852826767, 22.127846170264515 ], [ -159.546725068650517, 22.128183092723582 ], [ -159.548584849368808, 22.127472951101776 ], [ -159.549064777042986, 22.128386233355034 ], [ -159.549514968250037, 22.129193290528129 ], [ -159.549069460523384, 22.12959498965747 ], [ -159.548632003538586, 22.130022284061436 ], [ -159.54865256851312, 22.130821415763343 ], [ -159.548633401613586, 22.131887420268075 ], [ -159.549102196721833, 22.132727855152581 ], [ -159.549960052283609, 22.132708648368556 ], [ -159.550416814096138, 22.132715793290163 ], [ -159.550977419689929, 22.13325551073136 ], [ -159.551626333314232, 22.133546120018998 ], [ -159.550983543112068, 22.136254316532558 ], [ -159.550997927870611, 22.136811913993341 ], [ -159.553030349716948, 22.136766397536096 ], [ -159.553347911582506, 22.136771358945989 ], [ -159.553319498513588, 22.138352138198279 ], [ -159.555652484582424, 22.138697836821521 ], [ -159.553898985666592, 22.140278889178074 ], [ -159.554619550223975, 22.140919162456271 ], [ -159.553261916309594, 22.141538494751433 ], [ -159.552766850403856, 22.143043388764521 ], [ -159.553645877248783, 22.1454077337089 ], [ -159.556297729115727, 22.146796440231757 ], [ -159.556850784748804, 22.147328783270389 ], [ -159.557730435083386, 22.147591375522687 ], [ -159.558018764069573, 22.148408883905379 ], [ -159.558316564555412, 22.148673462067276 ], [ -159.558886176715106, 22.149221728923557 ], [ -159.561154867019724, 22.148780732631877 ], [ -159.559523816554105, 22.151040129825187 ], [ -159.560384513412458, 22.152213594594595 ], [ -159.560347671442685, 22.154264677888339 ], [ -159.560735978027139, 22.155998059679291 ], [ -159.562582439226503, 22.155956598830691 ], [ -159.56212510976286, 22.156791060316468 ], [ -159.561555175256018, 22.158338392585094 ], [ -159.562901294568491, 22.158740161138823 ], [ -159.561790598254674, 22.160114147955756 ], [ -159.562731149193439, 22.161396350191822 ], [ -159.563119740070704, 22.162135489613142 ], [ -159.56448228728712, 22.16274540840508 ], [ -159.56505948249989, 22.163019857015787 ], [ -159.565939245241793, 22.163282402132012 ], [ -159.566809313985203, 22.164032299729037 ], [ -159.563582720849013, 22.164410904778311 ], [ -159.563038305945867, 22.165466048527431 ], [ -159.562492792984614, 22.166461436723289 ], [ -159.560420229100373, 22.167095776361521 ], [ -159.560139401878587, 22.168186255842301 ], [ -159.558470084594376, 22.168495741683191 ], [ -159.558107892928774, 22.169548441924306 ], [ -159.557814057111671, 22.169543864789624 ], [ -159.557214682030718, 22.16955730379129 ], [ -159.556598500338254, 22.170751516126835 ], [ -159.555783358960099, 22.17036391733118 ], [ -159.55447807137449, 22.170072246277527 ], [ -159.552869666852899, 22.170108278782976 ], [ -159.552578671583319, 22.17010374048979 ], [ -159.552267332941852, 22.170110709317854 ], [ -159.551710799094678, 22.170654200207881 ], [ -159.550544218678766, 22.171465789928295 ], [ -159.549697687439277, 22.173106112199175 ], [ -159.548973451787049, 22.173094786131401 ], [ -159.548511104907334, 22.17093059523814 ], [ -159.548210506963215, 22.170391902265624 ], [ -159.548796842754797, 22.169579947014018 ], [ -159.549091075778222, 22.169009823896655 ], [ -159.549076944841659, 22.168462392517466 ], [ -159.548201718284901, 22.167684791888586 ], [ -159.547597684793061, 22.166273216857469 ], [ -159.547618681229892, 22.165109323816822 ], [ -159.547604648805276, 22.164567325633843 ], [ -159.547614484465697, 22.164025247248325 ], [ -159.547603623714195, 22.163605201862772 ], [ -159.546438105613646, 22.163083327392325 ], [ -159.546146672431405, 22.161452741344142 ], [ -159.545557911039509, 22.161189115178956 ], [ -159.545266162254023, 22.16063410046716 ], [ -159.543259616233684, 22.160034957942667 ], [ -159.542874074794383, 22.157877528140279 ], [ -159.542342711466119, 22.157405411036869 ], [ -159.542363517621055, 22.156254618557778 ], [ -159.542922256457018, 22.155235405491904 ], [ -159.543203108819398, 22.154122827190228 ], [ -159.541749005319957, 22.154155313398519 ], [ -159.540032651143775, 22.153833764252408 ], [ -159.541981825989211, 22.151423092498408 ], [ -159.540580094433494, 22.151454393022753 ], [ -159.540288224275628, 22.151173377654356 ], [ -159.539408581675531, 22.150910691252211 ], [ -159.538831484018971, 22.150636149420272 ], [ -159.538231468103277, 22.150367421180285 ], [ -159.537662599762342, 22.149284889000636 ], [ -159.537340350010822, 22.148707238511257 ], [ -159.536761788438127, 22.148193042172618 ], [ -159.535907244800796, 22.148212104093908 ], [ -159.535395538665767, 22.147719493711673 ], [ -159.535907502684694, 22.146309950551537 ], [ -159.535026120368741, 22.146046699549096 ], [ -159.534617045331771, 22.145268127813821 ], [ -159.533276486696508, 22.144968332856905 ], [ -159.532974735868578, 22.144677791288416 ], [ -159.531622596760627, 22.144072117777256 ], [ -159.531084565369042, 22.143048051811604 ], [ -159.528352420261797, 22.14310887183111 ], [ -159.527162595041204, 22.142213174899659 ], [ -159.529196221421756, 22.141458306823804 ], [ -159.530061096041408, 22.140908025878343 ], [ -159.531053464677314, 22.14045551055229 ], [ -159.530193048901765, 22.139690701977706 ], [ -159.531543554194542, 22.138473408263792 ], [ -159.529794131285115, 22.137950811749942 ], [ -159.529181965312773, 22.137642759471081 ], [ -159.530351536821399, 22.136588545869266 ], [ -159.530042717621086, 22.136034870986215 ], [ -159.530047791969736, 22.135758636144534 ], [ -159.528447301895369, 22.135472943244668 ], [ -159.528889811318123, 22.134665847984742 ], [ -159.527998303510969, 22.133873402864722 ], [ -159.528003381557568, 22.133597085227755 ], [ -159.527123585763292, 22.133334247624724 ], [ -159.527128604194161, 22.13306053552893 ], [ -159.527100860039894, 22.131979132985705 ], [ -159.527704425915942, 22.131435134081574 ], [ -159.52769687223622, 22.131142232472563 ], [ -159.525945803170799, 22.131181182897979 ], [ -159.525965806011129, 22.130083910997893 ], [ -159.525043163530825, 22.129808255559837 ], [ -159.526387605352539, 22.128596440887307 ], [ -159.52695568179152, 22.128041724120479 ], [ -159.527399267002806, 22.127641885322969 ], [ -159.527683219476643, 22.127342392502069 ], [ -159.525405711633823, 22.127393053292742 ], [ -159.524437313254623, 22.127087691187239 ], [ -159.523612699828647, 22.126293524791087 ], [ -159.522157554881403, 22.125967939940896 ], [ -159.523314803896511, 22.123857052066793 ], [ -159.523015125495874, 22.123590618459254 ], [ -159.522313530233959, 22.122600978563259 ], [ -159.5205410720516, 22.122376199634036 ], [ -159.521375130282422, 22.121327593224649 ], [ -159.520990593331931, 22.120866685307455 ], [ -159.5206613565758, 22.120631597616587 ], [ -159.520333886651713, 22.120239097706413 ], [ -159.518659634542729, 22.119790005364184 ], [ -159.51675558346318, 22.119494827286751 ], [ -159.516329697592482, 22.118984313362894 ], [ -159.515418732943829, 22.118751053057409 ], [ -159.515287549690129, 22.117514409948804 ], [ -159.51564184897137, 22.117420515508037 ], [ -159.515385908195356, 22.117183655234555 ], [ -159.515287549690129, 22.117514409948804 ], [ -159.51429577994378, 22.117711012178564 ], [ -159.513670729981442, 22.117086679988393 ], [ -159.51278461407415, 22.117122193103278 ], [ -159.512827432082645, 22.116021812219692 ], [ -159.511034081684443, 22.116377306601734 ], [ -159.511068396439157, 22.115494977084381 ], [ -159.51100138312492, 22.114042883014008 ], [ -159.508989713942867, 22.114820182534725 ], [ -159.509037176833999, 22.113601089659443 ], [ -159.507558574945364, 22.113342804067134 ], [ -159.507576654992448, 22.112878676067247 ], [ -159.50584793776963, 22.112374575350042 ], [ -159.505525686120592, 22.1114369909332 ], [ -159.504705404555892, 22.111844701317171 ], [ -159.50436287954409, 22.111174240992678 ], [ -159.504126627518218, 22.110914283290725 ], [ -159.50378505709736, 22.112270465957273 ], [ -159.503452377224818, 22.1125321786059 ], [ -159.502399179039514, 22.111480010360605 ], [ -159.502013537714674, 22.112628184057471 ], [ -159.501148554883457, 22.113352340518894 ], [ -159.501169517480577, 22.112813805946161 ], [ -159.501124593826262, 22.112278649565461 ], [ -159.500312714741995, 22.113100584540142 ], [ -159.498421574571296, 22.112645031544332 ], [ -159.497970765393433, 22.11310137239419 ], [ -159.497640788011296, 22.11338814297407 ], [ -159.498556685742358, 22.11417372194002 ], [ -159.498545938563296, 22.114449577802279 ], [ -159.498574617416978, 22.115072879453091 ], [ -159.499144658679199, 22.116068734610092 ], [ -159.499648490220125, 22.11705508816441 ], [ -159.500894636377183, 22.117418505517584 ], [ -159.501175831781694, 22.11781528995936 ], [ -159.50001817719351, 22.119590025213704 ], [ -159.500037096433317, 22.120001046522734 ], [ -159.500021273863496, 22.120407633386787 ], [ -159.50003496413035, 22.120705216745073 ], [ -159.500926361494777, 22.120669565994294 ], [ -159.501582302667828, 22.1213248854027 ], [ -159.502073692565801, 22.123680539270453 ], [ -159.503523644497733, 22.123622519357738 ], [ -159.503817925050726, 22.124198590932146 ], [ -159.504718637914095, 22.123901327141077 ], [ -159.505325477335532, 22.123921856417823 ], [ -159.505855600778915, 22.125051651207365 ], [ -159.505014183938641, 22.126545126564729 ], [ -159.506446773233137, 22.126072308573221 ], [ -159.506732268832593, 22.126172842130728 ], [ -159.50615508105588, 22.128253382898553 ], [ -159.509078835834714, 22.128505234493872 ], [ -159.510490519952469, 22.12940379904591 ], [ -159.509504868342475, 22.1302604069385 ], [ -159.509086662281163, 22.130683749101877 ], [ -159.508494303875977, 22.130946471849924 ], [ -159.508518950399974, 22.131481480853537 ], [ -159.507494919792435, 22.133051489638948 ], [ -159.508551986024344, 22.133957888193269 ], [ -159.510554933613179, 22.133877659196965 ], [ -159.510540177818314, 22.134256749732696 ], [ -159.509964390108564, 22.135278813345277 ], [ -159.509977329417012, 22.13555869734353 ], [ -159.509676411264849, 22.13609278732724 ], [ -159.509689121037667, 22.136368222236513 ], [ -159.509678395777684, 22.136644350649476 ], [ -159.510854469447054, 22.136901458806602 ], [ -159.512450328345324, 22.137285697988155 ], [ -159.514066645197317, 22.136885690292054 ], [ -159.514039882191469, 22.137574187728028 ], [ -159.514058847406517, 22.137985701950221 ], [ -159.512262467529297, 22.138521779079689 ], [ -159.511445128864494, 22.139349169719384 ], [ -159.51114407755594, 22.139610798832333 ], [ -159.510521617529918, 22.14024090619089 ], [ -159.510580402406958, 22.141514905179317 ], [ -159.510564609052466, 22.141921491473347 ], [ -159.510595196773011, 22.142584515988283 ], [ -159.510265048841177, 22.143170524433554 ], [ -159.511562099390204, 22.144282594620726 ], [ -159.509117276015019, 22.144833192293536 ], [ -159.509145700215953, 22.145449244349166 ], [ -159.509119495535828, 22.146122090173101 ], [ -159.509564436781261, 22.146503566153882 ], [ -159.508557006766182, 22.148291668019592 ], [ -159.508280432749388, 22.149205136560003 ], [ -159.508914695110604, 22.151429556989385 ], [ -159.510772703461527, 22.153022509672361 ], [ -159.511194017389613, 22.153443225924931 ], [ -159.512965067531809, 22.153959433369675 ], [ -159.512943362500579, 22.154516660946474 ], [ -159.512968412273466, 22.155058630325833 ], [ -159.512946313218521, 22.155624750392917 ], [ -159.513565939261383, 22.156155890988206 ], [ -159.514695266424781, 22.156110628504134 ], [ -159.515082023822629, 22.156867402808928 ], [ -159.516286600284701, 22.157392317128373 ], [ -159.516734727188691, 22.156938739210688 ], [ -159.517360353666618, 22.156405046693688 ], [ -159.517307174623681, 22.157771947217071 ], [ -159.519055194702787, 22.157701837893899 ], [ -159.519693212851706, 22.158338839113306 ], [ -159.519630386209514, 22.159954694100296 ], [ -159.521459470004345, 22.159881314442995 ], [ -159.521400039164945, 22.161410900542638 ], [ -159.522291830412144, 22.161799462505503 ], [ -159.522573747400912, 22.16235094506629 ], [ -159.522876751488411, 22.162610658479242 ], [ -159.523157670167308, 22.162891119618553 ], [ -159.524042597992349, 22.163148962622337 ], [ -159.524334286239679, 22.163440139319651 ], [ -159.524916413237804, 22.163416769983737 ], [ -159.525288711803739, 22.164850792361481 ], [ -159.526985296890786, 22.165863499192998 ], [ -159.52695405417137, 22.166668051634392 ], [ -159.526966571916887, 22.166939034425365 ], [ -159.526943498821566, 22.1675339573729 ], [ -159.528439312766693, 22.168815929708718 ], [ -159.529034069918254, 22.169409642741087 ], [ -159.529004006967455, 22.170184713491988 ], [ -159.529022790190368, 22.170591187138943 ], [ -159.529007048485909, 22.170997772811614 ], [ -159.529019570732686, 22.171268755216978 ], [ -159.529009076243142, 22.17153981231278 ], [ -159.529033806540582, 22.172073693225613 ], [ -159.528798978968126, 22.172348397893646 ], [ -159.527552233217762, 22.170563745923843 ], [ -159.526093480496769, 22.169928279093746 ], [ -159.525812541819164, 22.169647823640364 ], [ -159.525218543584032, 22.169389054064847 ], [ -159.523792519972403, 22.168377751712104 ], [ -159.521720861507589, 22.167774145720582 ], [ -159.521142326679382, 22.167196556263377 ], [ -159.520568061818551, 22.167777830947266 ], [ -159.520266968433248, 22.16803947682989 ], [ -159.519987558819594, 22.168595855479886 ], [ -159.519054848682913, 22.168294695758252 ], [ -159.518091277737284, 22.168333342679624 ], [ -159.517628970951336, 22.168317748246434 ], [ -159.516702074064483, 22.169255946466407 ], [ -159.516181092553836, 22.17029318163204 ], [ -159.516228909556304, 22.171326546981579 ], [ -159.515334543526251, 22.171296359241992 ], [ -159.515057388330575, 22.172673753648503 ], [ -159.511047540211848, 22.172947068425518 ], [ -159.509525784327508, 22.171867738217259 ], [ -159.50884236688583, 22.171569917554095 ], [ -159.50751665676782, 22.171623002490769 ], [ -159.505908902488585, 22.171235955601837 ], [ -159.506899658713309, 22.169717442289059 ], [ -159.506880709805699, 22.169306424767694 ], [ -159.506896515093842, 22.168899839931466 ], [ -159.506870865041378, 22.168343472273822 ], [ -159.507474377324797, 22.167819116221075 ], [ -159.507753079138467, 22.167487499772143 ], [ -159.506255111467709, 22.166203347545615 ], [ -159.507456794335553, 22.165670541016194 ], [ -159.507775817345305, 22.165035410710846 ], [ -159.50772898449901, 22.164020672561126 ], [ -159.508744869474441, 22.163405129792505 ], [ -159.507017803227001, 22.1629017274307 ], [ -159.507758327282033, 22.161587568655378 ], [ -159.507387660924991, 22.161269825911386 ], [ -159.508900957361021, 22.159954975926397 ], [ -159.509178395903149, 22.159277451310317 ], [ -159.50564059340573, 22.158838285363011 ], [ -159.505691930172731, 22.157520572118937 ], [ -159.505678225549673, 22.157223760056006 ], [ -159.504513955482992, 22.15671631716798 ], [ -159.504233085584474, 22.156435822761324 ], [ -159.503639181101818, 22.156176972340067 ], [ -159.503355422123747, 22.155083412235847 ], [ -159.503019826219429, 22.154552737618292 ], [ -159.502482623458775, 22.155096442325942 ], [ -159.501547601765679, 22.155631030396329 ], [ -159.500453957330876, 22.154538778881754 ], [ -159.498545452759942, 22.154615092772293 ], [ -159.497470297399843, 22.154267734320332 ], [ -159.496922923524153, 22.1537209933398 ], [ -159.495437017759116, 22.153073286095957 ], [ -159.493978999147487, 22.153797658964233 ], [ -159.492289168089854, 22.153740379753341 ], [ -159.490787410449684, 22.15380036269304 ], [ -159.489681959572977, 22.155406402180933 ], [ -159.488801748130669, 22.156482802858953 ], [ -159.488135952441752, 22.157449991816023 ], [ -159.488233082549414, 22.154966575551271 ], [ -159.486466741298329, 22.154331924503197 ], [ -159.48532091925378, 22.153771477468442 ], [ -159.484447276598075, 22.153806331668054 ], [ -159.48356490367604, 22.153323523536585 ], [ -159.486587520397478, 22.151983668599563 ], [ -159.485887510218106, 22.151383318555887 ], [ -159.488628709247422, 22.150968137911985 ], [ -159.489115766048911, 22.150475271836093 ], [ -159.489067922218169, 22.149435548917797 ], [ -159.489704578387716, 22.14915331737334 ], [ -159.490241481861972, 22.149171530404949 ], [ -159.49086801867594, 22.148860276935533 ], [ -159.490806414531136, 22.147522260008522 ], [ -159.490201973642428, 22.147546392567726 ], [ -159.490244453278109, 22.146460518923362 ], [ -159.489556566463818, 22.145870602194069 ], [ -159.48762267463627, 22.145947813999907 ], [ -159.487287906011687, 22.145613407365232 ], [ -159.487337779553769, 22.144337435216762 ], [ -159.485267659757596, 22.144036543132639 ], [ -159.484397683806691, 22.143755365577977 ], [ -159.483527393211205, 22.144317077278316 ], [ -159.482970632719258, 22.143760844888718 ], [ -159.48234120791119, 22.143785948418959 ], [ -159.483055470393168, 22.14281235241425 ], [ -159.48279063261478, 22.141192955556264 ], [ -159.484619027791211, 22.141354982844248 ], [ -159.485294599393256, 22.14080922879473 ], [ -159.486355940812132, 22.139654128477922 ], [ -159.487284036744285, 22.139720819945534 ], [ -159.487012705742643, 22.139137636779974 ], [ -159.485395132775153, 22.137979481763946 ], [ -159.486047040961779, 22.137269978813794 ], [ -159.486413566249013, 22.137241443499004 ], [ -159.486936925459531, 22.137279046182691 ], [ -159.488014902609137, 22.13640815291788 ], [ -159.487001524009258, 22.135885365076742 ], [ -159.485479984114477, 22.135258246865732 ], [ -159.484533228764093, 22.134503234103626 ], [ -159.485850661573608, 22.133728977574464 ], [ -159.485214545286453, 22.133466775354051 ], [ -159.485924805363339, 22.132527098104362 ], [ -159.484602516596397, 22.131982096311255 ], [ -159.484672221710809, 22.131140674193336 ], [ -159.48291014405325, 22.130414380075511 ], [ -159.483468709056382, 22.129933303591596 ], [ -159.485861879481831, 22.12925422527633 ], [ -159.487534285001487, 22.127903109639924 ], [ -159.487208011061767, 22.127072826668012 ], [ -159.483999429062607, 22.12575029237631 ], [ -159.484094778751938, 22.124598736802945 ], [ -159.483487343946791, 22.123945981839341 ], [ -159.481697198834866, 22.124085330165787 ], [ -159.480600229613373, 22.123633141684628 ], [ -159.480534983695122, 22.122905372955596 ], [ -159.480597546580924, 22.122150553834402 ], [ -159.479671273074075, 22.122083949408498 ], [ -159.478701734246613, 22.122159397985936 ], [ -159.477613472324009, 22.121291319163138 ], [ -159.477974456137105, 22.120683985669356 ], [ -159.477894909480625, 22.11979631967144 ], [ -159.477988122622889, 22.118671239812635 ], [ -159.477610704752863, 22.118045562578878 ], [ -159.47714122726569, 22.117073512878441 ], [ -159.475013495137603, 22.116196265626854 ], [ -159.474965322575798, 22.115658554472898 ], [ -159.475591287223352, 22.114977206482401 ], [ -159.477310747891579, 22.115410309264671 ], [ -159.479092355333222, 22.114477269258067 ], [ -159.481021444009485, 22.114615995748938 ], [ -159.480214768055561, 22.113972531308256 ], [ -159.479944508285485, 22.113682134382394 ], [ -159.478650968381857, 22.112822355848476 ], [ -159.478329898825109, 22.112477333969341 ], [ -159.479649980677692, 22.112598893791525 ], [ -159.482538222571918, 22.112955050280082 ], [ -159.481975930453615, 22.112321020859817 ], [ -159.481111446386677, 22.111631437911619 ], [ -159.481033879587329, 22.110766164914814 ], [ -159.482476070882427, 22.110653899811552 ], [ -159.483596594721348, 22.111232125353435 ], [ -159.483423755193513, 22.110419557728438 ], [ -159.482816191609515, 22.109626380588136 ], [ -159.482845790842987, 22.109268279780217 ], [ -159.481928916712064, 22.108536871553689 ], [ -159.482288867271734, 22.108246024010022 ], [ -159.48108627221913, 22.107286717453114 ], [ -159.48135423222044, 22.106902323992522 ], [ -159.482246585910417, 22.106377804177228 ], [ -159.482521859246731, 22.106078207120728 ], [ -159.483569577404694, 22.106618891266674 ], [ -159.48294044493619, 22.105575850750252 ], [ -159.483541720074669, 22.105529036376442 ], [ -159.483987544190995, 22.105561090135133 ], [ -159.484358175543832, 22.105157570975262 ], [ -159.485145261479431, 22.105563735841294 ], [ -159.485420527048973, 22.105264134010227 ], [ -159.485767928478452, 22.104983398639202 ], [ -159.484900410074601, 22.104291354159319 ], [ -159.484514799998607, 22.103322482872649 ], [ -159.486831248043757, 22.10348900072885 ], [ -159.486013588429444, 22.102281078776326 ], [ -159.484845508754319, 22.10090027645953 ], [ -159.486486325780618, 22.100618186518155 ], [ -159.487802731887228, 22.101064208786838 ], [ -159.48976680369168, 22.100506736097259 ], [ -159.489497092973778, 22.100373503181473 ], [ -159.487844995012551, 22.100097772826732 ], [ -159.487456819557991, 22.099293923778173 ], [ -159.48676165849335, 22.099348053992003 ], [ -159.485843957267775, 22.098361778790558 ], [ -159.486198229814846, 22.098267940242895 ], [ -159.485942372481617, 22.098031040002649 ], [ -159.485843957267775, 22.098361778790558 ], [ -159.485394785846978, 22.098237194557221 ], [ -159.485418787145704, 22.097947122644594 ], [ -159.484312695863451, 22.097491111021753 ], [ -159.482419284480216, 22.09604093389115 ], [ -159.481901384392302, 22.09608125311172 ], [ -159.480840016371445, 22.095384645119246 ], [ -159.479862419030468, 22.09579462113409 ], [ -159.479534314582793, 22.096151720605242 ], [ -159.47813803381581, 22.096634244163329 ], [ -159.477491535180775, 22.096587731801595 ], [ -159.47583317173266, 22.096943924269411 ], [ -159.474608247692032, 22.097758664904301 ], [ -159.473178941035513, 22.097460418270998 ], [ -159.473043834193589, 22.097315221619972 ], [ -159.473431761700454, 22.097134119384876 ], [ -159.474689890223146, 22.096948373718238 ], [ -159.475465006065491, 22.096367690155546 ], [ -159.474422038151801, 22.096090479800313 ], [ -159.473909078602361, 22.095144497713171 ], [ -159.47493469765314, 22.095013633112764 ], [ -159.475403016610642, 22.09452214322852 ], [ -159.476404416295111, 22.095025484532002 ], [ -159.476953033988963, 22.094449589590322 ], [ -159.478062212545581, 22.094507952307499 ], [ -159.478986179317985, 22.093902450224626 ], [ -159.479583286697761, 22.093644924184325 ], [ -159.480604656860748, 22.093123806679863 ], [ -159.481586766675775, 22.093066360008628 ], [ -159.482689314407395, 22.093620529624168 ], [ -159.483364016261561, 22.093362396798728 ], [ -159.483327450015281, 22.092820037388222 ], [ -159.484951215507465, 22.091459282652892 ], [ -159.482157870028914, 22.091196336575852 ], [ -159.482207415516626, 22.090377253202043 ], [ -159.482155376695488, 22.089604886745562 ], [ -159.482460368508669, 22.089284772420704 ], [ -159.484493556715989, 22.088549431277158 ], [ -159.484171457238403, 22.088452207656868 ], [ -159.482564144909105, 22.088546254600669 ], [ -159.482011924740902, 22.08808935079691 ], [ -159.48135265585617, 22.08740609917891 ], [ -159.480999884193778, 22.087663590997778 ], [ -159.481061637414598, 22.088581103766309 ], [ -159.480317819397897, 22.090104162969411 ], [ -159.477941920720951, 22.089315380888095 ], [ -159.477526886441041, 22.088479542201252 ], [ -159.476894374155307, 22.088802290524772 ], [ -159.47604692425881, 22.087679163129472 ], [ -159.47756184562661, 22.087411078950975 ], [ -159.477506472933953, 22.086589457413837 ], [ -159.478300853608744, 22.086246845897303 ], [ -159.478682501376426, 22.085245720045389 ], [ -159.478952353665335, 22.083874540897682 ], [ -159.479390798201678, 22.082119203661762 ], [ -159.479759547017068, 22.081970863515583 ], [ -159.479506546281527, 22.081495587122397 ], [ -159.479390798201678, 22.082119203661762 ], [ -159.478582946603012, 22.082354302273735 ], [ -159.476932223007935, 22.083624670093911 ], [ -159.476045260574921, 22.084154057834272 ], [ -159.475191051947405, 22.084713849468272 ], [ -159.474593973497804, 22.084971359218866 ], [ -159.471224823896875, 22.087420351856629 ], [ -159.470820778422222, 22.087165740292928 ], [ -159.470148912326977, 22.085812535799839 ], [ -159.468785077602178, 22.087156338002167 ], [ -159.467835543590951, 22.088557222146182 ], [ -159.466548175451663, 22.088489389061291 ], [ -159.464454023007335, 22.089196394396598 ], [ -159.465161283196267, 22.088122911182015 ], [ -159.465515544915377, 22.088029117556079 ], [ -159.465259740238594, 22.087792183707588 ], [ -159.465161283196267, 22.088122911182015 ], [ -159.463885655937275, 22.087952891987083 ], [ -159.463565193699935, 22.088265671406123 ], [ -159.462081445672652, 22.089092218657353 ], [ -159.46053153236312, 22.090604779438998 ], [ -159.45921328244421, 22.09144297668518 ], [ -159.459502247560238, 22.090694638309213 ], [ -159.46008162328539, 22.090172706286737 ], [ -159.460364840009419, 22.089624427633748 ], [ -159.460956384637655, 22.08909155695958 ], [ -159.461799596983241, 22.088268633489424 ], [ -159.463220926319792, 22.087941460256836 ], [ -159.464135658481808, 22.086632460707126 ], [ -159.464722223802966, 22.086365192626534 ], [ -159.465349462349053, 22.085467614275245 ], [ -159.466462938509807, 22.085819288549143 ], [ -159.46704015600767, 22.08554007888295 ], [ -159.467822229076688, 22.085183707271668 ], [ -159.468199797936165, 22.084452651557545 ], [ -159.468517446066585, 22.083873591152322 ], [ -159.468471126165269, 22.082034840969335 ], [ -159.468772456402178, 22.081740733448523 ], [ -159.4696602412846, 22.080940850957422 ], [ -159.46961252589503, 22.079049004105837 ], [ -159.469972813869958, 22.078724386642925 ], [ -159.468618095579245, 22.076656640834816 ], [ -159.47234148174536, 22.076080698861684 ], [ -159.471660639092335, 22.0757752428568 ], [ -159.471109677369896, 22.075244038554512 ], [ -159.4696205311418, 22.074425907171307 ], [ -159.469628434796704, 22.074003412302666 ], [ -159.468163195847637, 22.073346038779004 ], [ -159.4676302745859, 22.072832206159347 ], [ -159.464391211917103, 22.07406756167666 ], [ -159.465110915082533, 22.072935433289942 ], [ -159.46611842974184, 22.072027621889138 ], [ -159.466411387852446, 22.07117739209637 ], [ -159.466894092734293, 22.069849773433695 ], [ -159.464952212516806, 22.069560802209164 ], [ -159.464660661281243, 22.069279651283598 ], [ -159.46335504201241, 22.069308184278761 ], [ -159.464762516876391, 22.066582990555005 ], [ -159.465315909002413, 22.068156157862663 ], [ -159.466699084178316, 22.068466289300154 ], [ -159.467567371175534, 22.069011292439559 ], [ -159.468737148606124, 22.06927354738788 ], [ -159.47001249691786, 22.070073990319514 ], [ -159.473269407899977, 22.070126551345307 ], [ -159.473972843339624, 22.069805944415798 ], [ -159.474841049682681, 22.069253728193861 ], [ -159.475709854458728, 22.070091334698994 ], [ -159.476565181269706, 22.069256357377633 ], [ -159.476879630065781, 22.069521043185645 ], [ -159.477441775796137, 22.070592465047543 ], [ -159.478595513730909, 22.071142199708319 ], [ -159.479208555620232, 22.070332747347109 ], [ -159.479520133363707, 22.067892583345365 ], [ -159.481688230555278, 22.068173106296022 ], [ -159.482386808165245, 22.06950456643639 ], [ -159.483537541541551, 22.069523054668419 ], [ -159.484005064103002, 22.069101714789895 ], [ -159.484709842881756, 22.068413605747576 ], [ -159.485890384402865, 22.068432551680036 ], [ -159.48587233647882, 22.067721554474247 ], [ -159.486766691289915, 22.068147637265156 ], [ -159.487921309397279, 22.068122229846164 ], [ -159.488793668755363, 22.068136217718077 ], [ -159.489229791384872, 22.068126626509194 ], [ -159.490226601108418, 22.068142600081575 ], [ -159.490845967974565, 22.067584362276335 ], [ -159.487630381381223, 22.06722786546063 ], [ -159.487993991552003, 22.066651029407613 ], [ -159.491393000104466, 22.066021945835413 ], [ -159.491409316767317, 22.0651358461336 ], [ -159.490283774221751, 22.065680599780418 ], [ -159.486794994105765, 22.065757384067499 ], [ -159.4861618007495, 22.06462064875819 ], [ -159.485855139560812, 22.063749172120541 ], [ -159.483042529566092, 22.064822289642983 ], [ -159.482669914867188, 22.063817902638302 ], [ -159.482526056898763, 22.063409072017876 ], [ -159.482880245104752, 22.063315241796293 ], [ -159.482624457360316, 22.063078334117296 ], [ -159.482526056898763, 22.063409072017876 ], [ -159.481606733103774, 22.063248276889265 ], [ -159.481127421237261, 22.061986339499349 ], [ -159.482074138366244, 22.061163504812143 ], [ -159.482086939796687, 22.060835599876906 ], [ -159.482064176945642, 22.060339978643317 ], [ -159.482362711062564, 22.059745513685783 ], [ -159.483218299972862, 22.058578597701722 ], [ -159.48115647015544, 22.056809076918789 ], [ -159.479780432333001, 22.055433343396309 ], [ -159.47914896561872, 22.055157796016427 ], [ -159.478847268547327, 22.054856203696389 ], [ -159.477696657172487, 22.054902079317898 ], [ -159.477395453160909, 22.053456204822631 ], [ -159.475740182184182, 22.053865680877013 ], [ -159.475090254643391, 22.053307811231999 ], [ -159.47455388969405, 22.05225678236074 ], [ -159.474206201292219, 22.051909128434009 ], [ -159.473688606355125, 22.051929749846593 ], [ -159.472710676468012, 22.051644228273744 ], [ -159.472147634146467, 22.051081265212044 ], [ -159.471005495773881, 22.051126771197005 ], [ -159.470639943599735, 22.050761262124563 ], [ -159.469196071112918, 22.05123767237848 ], [ -159.468095305199711, 22.050698683264812 ], [ -159.465779459554795, 22.051271431972186 ], [ -159.465756981576817, 22.050779759826213 ], [ -159.467221829178271, 22.049771700375842 ], [ -159.467521697018213, 22.048879347216911 ], [ -159.469050958044761, 22.049248249782533 ], [ -159.469998458334146, 22.04787114957977 ], [ -159.470844060451668, 22.047837471575445 ], [ -159.472437858365424, 22.047891770865121 ], [ -159.472732839371588, 22.047013648964008 ], [ -159.473608528739106, 22.047043458429616 ], [ -159.474122099768806, 22.046523470711605 ], [ -159.475055125913229, 22.046486275618864 ], [ -159.475607682856122, 22.046505084669747 ], [ -159.475936137793013, 22.046219619550964 ], [ -159.474607954897976, 22.044100156647485 ], [ -159.476332611688292, 22.044944545453859 ], [ -159.476845690885, 22.043922889439219 ], [ -159.477680686420882, 22.044331680351711 ], [ -159.478388827655124, 22.043614655591309 ], [ -159.478820825618385, 22.044046585679872 ], [ -159.479123494238735, 22.044306406689017 ], [ -159.479405001861352, 22.044857962528361 ], [ -159.480570818976474, 22.045366710498495 ], [ -159.480862266290927, 22.045937803981555 ], [ -159.482377974423713, 22.046202968079328 ], [ -159.485304099806427, 22.047635367503919 ], [ -159.486110969136291, 22.047277447569112 ], [ -159.486628879990548, 22.046752991638222 ], [ -159.487047214929333, 22.048367297913153 ], [ -159.487738030141799, 22.048339716679649 ], [ -159.489165014231503, 22.049295902600669 ], [ -159.489265662771089, 22.049626049865097 ], [ -159.489519801276373, 22.049387627641085 ], [ -159.489165014231503, 22.049295902600669 ], [ -159.489008392470595, 22.048623100786223 ], [ -159.489039420578223, 22.048109801206124 ], [ -159.488445906858573, 22.046583101444003 ], [ -159.48838301112329, 22.045649809326502 ], [ -159.488716326116133, 22.045630287469827 ], [ -159.48958049319225, 22.045675711497704 ], [ -159.488430977849106, 22.044818500305787 ], [ -159.487265737823236, 22.04413249036352 ], [ -159.488808729355782, 22.044284331742343 ], [ -159.490449744043048, 22.044827717995673 ], [ -159.491629831045657, 22.045079955452827 ], [ -159.492151254438824, 22.04562044566207 ], [ -159.492482735988233, 22.044230445443997 ], [ -159.491043714778442, 22.043726572374222 ], [ -159.489970915784966, 22.043421256196652 ], [ -159.489586397984027, 22.042646822238677 ], [ -159.48900330331125, 22.042164240030854 ], [ -159.489567276868456, 22.041833793959285 ], [ -159.490181935981298, 22.041568552758083 ], [ -159.489565464887022, 22.04130699433869 ], [ -159.489286103597948, 22.041017413180366 ], [ -159.488019383678932, 22.041445419437643 ], [ -159.485834157801747, 22.041998027012013 ], [ -159.485510548183981, 22.041031892319712 ], [ -159.485175256475031, 22.041051529155759 ], [ -159.484460923495448, 22.040310895630128 ], [ -159.481708649625972, 22.039722449884472 ], [ -159.481734794869737, 22.039289874937097 ], [ -159.481693768133056, 22.038680594328479 ], [ -159.481995868689268, 22.038061851117497 ], [ -159.482599520007426, 22.037250692483166 ], [ -159.481135223725744, 22.036629337957294 ], [ -159.482455004286152, 22.036178549275157 ], [ -159.483460201321719, 22.036431362235337 ], [ -159.484531954719301, 22.036970252880806 ], [ -159.486658910748304, 22.036708170185285 ], [ -159.489039657602831, 22.036363285804022 ], [ -159.488958191426889, 22.037709640289361 ], [ -159.4892805141005, 22.03835885528003 ], [ -159.490937067678317, 22.03826184034282 ], [ -159.492085363485415, 22.038839143697899 ], [ -159.49271956258832, 22.038872471985083 ], [ -159.493078289186741, 22.038571696130298 ], [ -159.493041927589104, 22.038032296088389 ], [ -159.493345852223769, 22.036684840209862 ], [ -159.493291235254731, 22.035874830445337 ], [ -159.494129374591665, 22.035513154888204 ], [ -159.493628215692979, 22.034503833845665 ], [ -159.493301948763616, 22.033948318065221 ], [ -159.494340578205794, 22.033077478467757 ], [ -159.493848417512595, 22.031386323961438 ], [ -159.493919967237645, 22.030202805820075 ], [ -159.492928569072973, 22.029561552481496 ], [ -159.492026683649442, 22.029950774060442 ], [ -159.490118637236975, 22.03120194567564 ], [ -159.489527256546069, 22.030194932017441 ], [ -159.489250975018621, 22.029638447543402 ], [ -159.488634557678978, 22.029376884262099 ], [ -159.488683314672301, 22.028570500516565 ], [ -159.488357066163019, 22.028300444330068 ], [ -159.488374327470751, 22.028015302947662 ], [ -159.487456644832747, 22.027625917143773 ], [ -159.487543831059952, 22.02618528657829 ], [ -159.486894369841963, 22.025324255422504 ], [ -159.486755775775691, 22.02491049749846 ], [ -159.488067865847995, 22.025048262878681 ], [ -159.488660709825524, 22.024753515255789 ], [ -159.490333103021044, 22.025572243111291 ], [ -159.490406294038507, 22.025269829374324 ], [ -159.490369782259421, 22.024476404557895 ], [ -159.491449317976816, 22.024513053890278 ], [ -159.492427228955506, 22.024221140676946 ], [ -159.492704925350779, 22.023667925561103 ], [ -159.493296446131041, 22.023405439351496 ], [ -159.493870144146911, 22.023120176378065 ], [ -159.494941165698691, 22.023466566428016 ], [ -159.495583386495099, 22.022908159230813 ], [ -159.495643787958016, 22.021360477929875 ], [ -159.495599950430204, 22.02040709592633 ], [ -159.497050670783665, 22.019527366811477 ], [ -159.496478732896719, 22.019049042866076 ], [ -159.49559475526118, 22.018791011612056 ], [ -159.495021632423146, 22.01796933393307 ], [ -159.494502547232514, 22.017523778894667 ], [ -159.495309506922865, 22.017165699255258 ], [ -159.495605129265073, 22.016285052721749 ], [ -159.496745241704929, 22.015293628800784 ], [ -159.495590709249228, 22.014444235119402 ], [ -159.493556763836438, 22.014148391869305 ], [ -159.494411617940699, 22.013405001304925 ], [ -159.494444202391861, 22.01257006198524 ], [ -159.493882933522372, 22.012088238484051 ], [ -159.493530751669908, 22.011472518726077 ], [ -159.494137622266095, 22.010944810302284 ], [ -159.494111835643565, 22.010383971009006 ], [ -159.494561647338799, 22.009585109398444 ], [ -159.4941149748295, 22.009569946956965 ], [ -159.492910530554326, 22.009618104442392 ], [ -159.492964379265828, 22.008240363768092 ], [ -159.492340647679299, 22.008219194460757 ], [ -159.491788953554931, 22.008778062005714 ], [ -159.490681044751625, 22.008235649968988 ], [ -159.490327291957954, 22.008497415427541 ], [ -159.489953895341671, 22.009609564291843 ], [ -159.488890745265707, 22.010138205169827 ], [ -159.486846022596012, 22.010404996992325 ], [ -159.485984968393751, 22.010689284204435 ], [ -159.485163863220777, 22.010661360996963 ], [ -159.484232937235987, 22.011225824897426 ], [ -159.483927579620541, 22.011535108808456 ], [ -159.482782433720729, 22.012043191900556 ], [ -159.482493124155894, 22.012336164802811 ], [ -159.48122476165392, 22.012293011969202 ], [ -159.480028149516187, 22.012462985818669 ], [ -159.479801500055544, 22.011851781142667 ], [ -159.480173199656178, 22.011516669849705 ], [ -159.481243011133046, 22.009984573716537 ], [ -159.481617965927711, 22.010699441845624 ], [ -159.482056751790822, 22.01068981489459 ], [ -159.483361356617394, 22.01071078717926 ], [ -159.483366758590904, 22.01042045318199 ], [ -159.483353070482281, 22.009878434107229 ], [ -159.483375615866407, 22.008658733789531 ], [ -159.48334497072031, 22.007447477818758 ], [ -159.483934449134324, 22.007162120521937 ], [ -159.484805052748783, 22.007708721393186 ], [ -159.485098445363747, 22.007702278849887 ], [ -159.485389108365951, 22.007706943774387 ], [ -159.485679733734059, 22.007700558010409 ], [ -159.486548813354119, 22.007714523693437 ], [ -159.486262082803648, 22.007156822150069 ], [ -159.485679022681609, 22.006637747669924 ], [ -159.486253981503609, 22.00607133762832 ], [ -159.487128346398151, 22.006347513928738 ], [ -159.488174319751238, 22.006010165171833 ], [ -159.48914583182858, 22.006473217964032 ], [ -159.490157598467079, 22.006011758791228 ], [ -159.490649527492224, 22.004582468732099 ], [ -159.49176247507728, 22.005112889899454 ], [ -159.491775030672414, 22.004432796778055 ], [ -159.491761237631295, 22.00388988552232 ], [ -159.493218922200981, 22.003443943090719 ], [ -159.492933751748978, 22.003342486187758 ], [ -159.491731244141988, 22.00307293277562 ], [ -159.493213017858352, 22.001736725335206 ], [ -159.49263210607316, 22.001717015959883 ], [ -159.491518611014072, 22.002256180054861 ], [ -159.490747377577378, 22.002273162830264 ], [ -159.490311399734765, 22.002266179193199 ], [ -159.489733080861868, 22.002278907905659 ], [ -159.490109128218336, 22.001178876445895 ], [ -159.490885849843124, 22.001191342250628 ], [ -159.490890990752092, 22.000912058979949 ], [ -159.490884017794485, 22.000638436356809 ], [ -159.491753354568175, 21.999854537006705 ], [ -159.491338249446926, 21.999024974757351 ], [ -159.490588149021704, 21.999012944097224 ], [ -159.489720400065323, 21.999433099418773 ], [ -159.488849996928963, 21.999018233235734 ], [ -159.487954841678942, 21.998750282468201 ], [ -159.487394086786708, 21.998209476277726 ], [ -159.4865263092438, 21.99743691076063 ], [ -159.486504657335615, 21.996580676168882 ], [ -159.487677317584172, 21.996045820140438 ], [ -159.488220055496157, 21.994993931086576 ], [ -159.488538701289315, 21.994682680758675 ], [ -159.489106550556755, 21.994170607102582 ], [ -159.489413428752499, 21.99332570045911 ], [ -159.488541797160735, 21.992934524079953 ], [ -159.48852489745147, 21.992267520000198 ], [ -159.490144994958001, 21.989582575918245 ], [ -159.490852530559607, 21.989259819927987 ], [ -159.490443547352982, 21.988156905863601 ], [ -159.4914159411789, 21.986272152625958 ], [ -159.491710510415629, 21.985734635547534 ], [ -159.491991536426497, 21.984644246165338 ], [ -159.492844177712698, 21.981499380117992 ], [ -159.492876077761025, 21.979765758362298 ], [ -159.492781458649773, 21.976030589127038 ], [ -159.494486408767642, 21.974364705124916 ], [ -159.49656297976378, 21.973861635798311 ], [ -159.501255442415641, 21.974593518842639 ], [ -159.511926617415668, 21.974847283080507 ], [ -159.512158335123786, 21.975505756743587 ] ], [ [ -159.517528470111642, 22.093928100714233 ], [ -159.517726768675658, 22.094276130793034 ], [ -159.518501681164906, 22.094042812780437 ], [ -159.517528470111642, 22.093928100714233 ] ], [ [ -159.499379528803217, 22.060377203056369 ], [ -159.499480209309439, 22.060707343009735 ], [ -159.499734349758086, 22.060468905197411 ], [ -159.499379528803217, 22.060377203056369 ] ], [ [ -159.496754247437707, 22.057945943611625 ], [ -159.4968876690142, 22.058364619216068 ], [ -159.497761292362242, 22.060257504055684 ], [ -159.498542275831454, 22.060502730603041 ], [ -159.49772887399223, 22.059188843163856 ], [ -159.497841628604164, 22.058123164828316 ], [ -159.496754247437707, 22.057945943611625 ] ], [ [ -159.496456878619881, 22.056049651351625 ], [ -159.496338685176113, 22.056210337061227 ], [ -159.49519371620346, 22.056613680390754 ], [ -159.495932237479451, 22.057085726454517 ], [ -159.496302229808521, 22.057581748371568 ], [ -159.497224593568575, 22.057217319300634 ], [ -159.497739674054316, 22.056352382038561 ], [ -159.496456878619881, 22.056049651351625 ] ], [ [ -159.527858981838534, 22.056493444929814 ], [ -159.527977749583215, 22.057108976293559 ], [ -159.528237449301628, 22.056642956113233 ], [ -159.527858981838534, 22.056493444929814 ] ] ] } }
]
}
