{
"type": "FeatureCollection",
"name": "myralyx",
"crs": { "type": "name", "properties": { "name": "urn:ogc:def:crs:OGC:1.3:CRS84" } },
"features": [
{ "type": "Feature", "properties": { "ID": 1, "GRIDCODE": 2 }, "geometry": { "type": "Polygon", "coordinates": [ [ [ -159.57002769266839, 22.203788556688728 ], [ -159.571526429917498, 22.204635874272132 ], [ -159.574081069117256, 22.205005618569718 ], [ -159.574596004018019, 22.204984791371366 ], [ -159.576280085341295, 22.203896891280756 ], [ -159.57657053767312, 22.203751457412075 ], [ -159.574964822731829, 22.206214360503445 ], [ -159.573676125018068, 22.207700371376049 ], [ -159.573108452987583, 22.208525766497178 ], [ -159.572415133291628, 22.209471641051042 ], [ -159.571663073332729, 22.210970032146882 ], [ -159.571363083876179, 22.211502791662102 ], [ -159.571085346351566, 22.21205614149596 ], [ -159.569934475099814, 22.213821207950634 ], [ -159.569627820693569, 22.211508873685428 ], [ -159.569131813583937, 22.211084122567854 ], [ -159.570397273964744, 22.210316877394394 ], [ -159.569896562778297, 22.209888121210046 ], [ -159.570494498619638, 22.209072496038793 ], [ -159.570182842027748, 22.208529105087617 ], [ -159.570760082827263, 22.20802735099463 ], [ -159.57105557736611, 22.207438564683347 ], [ -159.571955969265417, 22.207039017282987 ], [ -159.571924141685031, 22.206356600919463 ], [ -159.571934749580919, 22.206081010719899 ], [ -159.571763226956847, 22.205820290327054 ], [ -159.571354462756119, 22.206634788991568 ], [ -159.570471287420787, 22.20689857225274 ], [ -159.569434980809461, 22.207567961604038 ], [ -159.568602165642886, 22.208411224044749 ], [ -159.567878336504407, 22.209040427830743 ], [ -159.567458120668505, 22.209877674967675 ], [ -159.566707326018189, 22.209050403850746 ], [ -159.568118591951503, 22.207823623852097 ], [ -159.568722811874409, 22.206362648770824 ], [ -159.569312754385805, 22.205557857443182 ], [ -159.569589393299395, 22.204733497669373 ], [ -159.57002769266839, 22.203788556688728 ] ] ] } },
{ "type": "Feature", "properties": { "ID": 2, "GRIDCODE": 2 }, "geometry": { "type": "Polygon", "coordinates": [ [ [ -159.577590348552292, 22.20267782169444 ], [ -159.577445590765848, 22.203316334779682 ], [ -159.576927657718954, 22.203019157639506 ], [ -159.577590348552292, 22.20267782169444 ] ] ] } },
{ "type": "Feature", "properties": { "ID": 3, "GRIDCODE": 2 }, "geometry": { "type": "Polygon", "coordinates": [ [ [ -159.577880278773733, 22.202405772523676 ], [ -159.577881388045938, 22.202676788990381 ], [ -159.577590348552292, 22.20267782169444 ], [ -159.577589239838659, 22.202406805213823 ], [ -159.577880278773733, 22.202405772523676 ] ] ] } },
{ "type": "Feature", "properties": { "ID": 4, "GRIDCODE": 2 }, "geometry": { "type": "Polygon", "coordinates": [ [ [ -159.577880278773733, 22.202405772523676 ], [ -159.577978544416965, 22.20207498940756 ], [ -159.578234744594113, 22.202311735408536 ], [ -159.577880278773733, 22.202405772523676 ] ] ] } },
{ "type": "Feature", "properties": { "ID": 5, "GRIDCODE": 2 }, "geometry": { "type": "Polygon", "coordinates": [ [ [ -159.585147261294367, 22.200211656958682 ], [ -159.586148198551683, 22.200467344924792 ], [ -159.58564836262812, 22.203541353045118 ], [ -159.58477812799083, 22.202920815404124 ], [ -159.584282226475182, 22.200962397128226 ], [ -159.584894939465329, 22.200518478571691 ], [ -159.585147261294367, 22.200211656958682 ] ] ] } },
{ "type": "Feature", "properties": { "ID": 6, "GRIDCODE": 2 }, "geometry": { "type": "Polygon", "coordinates": [ [ [ -159.609835942457408, 22.188738244812349 ], [ -159.609686912670441, 22.189206077623755 ], [ -159.60910166656825, 22.189679483066989 ], [ -159.608835844731772, 22.190513692091901 ], [ -159.608524313907736, 22.190765719830555 ], [ -159.608258486760235, 22.191599927925818 ], [ -159.607656714321394, 22.192397128217433 ], [ -159.607740032833732, 22.19331649607652 ], [ -159.607395929676187, 22.194042323880105 ], [ -159.606793367914577, 22.194295433504298 ], [ -159.606525196747185, 22.194587608165598 ], [ -159.60621365288884, 22.194839631654538 ], [ -159.605788761940801, 22.1953026234535 ], [ -159.604072593612443, 22.196202685628002 ], [ -159.603846601546763, 22.195892704621599 ], [ -159.603909943879785, 22.195119908875668 ], [ -159.60254214720328, 22.194557589399814 ], [ -159.602419194149746, 22.19320014540153 ], [ -159.604868521181402, 22.192171431016998 ], [ -159.606510068955117, 22.191064408189273 ], [ -159.609314093624448, 22.188886707715959 ], [ -159.609835942457408, 22.188738244812349 ] ] ] } },
{ "type": "Feature", "properties": { "ID": 7, "GRIDCODE": 2 }, "geometry": { "type": "Polygon", "coordinates": [ [ [ -159.609835942457408, 22.188738244812349 ], [ -159.61059723046597, 22.187966880779371 ], [ -159.613152178130008, 22.186230249333878 ], [ -159.612585187164086, 22.187237995402214 ], [ -159.61331826187191, 22.188221558244084 ], [ -159.61223256331013, 22.18892332262941 ], [ -159.610855353631138, 22.18859276607898 ], [ -159.609835942457408, 22.188738244812349 ] ] ] } },
{ "type": "Feature", "properties": { "ID": 8, "GRIDCODE": 2 }, "geometry": { "type": "Polygon", "coordinates": [ [ [ -159.628956877044061, 22.169423167223933 ], [ -159.62905500136884, 22.169092351046157 ], [ -159.629311223838442, 22.169329025362956 ], [ -159.628956877044061, 22.169423167223933 ] ] ] } },
{ "type": "Feature", "properties": { "ID": 9, "GRIDCODE": 2 }, "geometry": { "type": "Polygon", "coordinates": [ [ [ -159.643748131986484, 22.158795674197446 ], [ -159.644103286251266, 22.158887045996511 ], [ -159.643849221911353, 22.159125712378628 ], [ -159.643748131986484, 22.158795674197446 ] ] ] } },
{ "type": "Feature", "properties": { "ID": 10, "GRIDCODE": 2 }, "geometry": { "type": "Polygon", "coordinates": [ [ [ -159.34900397600299, 22.156440508655681 ], [ -159.349206443867757, 22.156535358622236 ], [ -159.349632442263243, 22.157343295711261 ], [ -159.349103499471141, 22.157162331758354 ], [ -159.34900397600299, 22.156440508655681 ] ] ] } },
{ "type": "Feature", "properties": { "ID": 11, "GRIDCODE": 2 }, "geometry": { "type": "Polygon", "coordinates": [ [ [ -159.390225950571505, 22.12246860102552 ], [ -159.391530023370336, 22.122697343960098 ], [ -159.390876696549242, 22.123119612001307 ], [ -159.390225950571505, 22.12246860102552 ] ] ] } },
{ "type": "Feature", "properties": { "ID": 12, "GRIDCODE": 2 }, "geometry": { "type": "Polygon", "coordinates": [ [ [ -159.396008025135103, 22.10971634017497 ], [ -159.396106658154366, 22.109385652440121 ], [ -159.396362388965599, 22.109622703396777 ], [ -159.396008025135103, 22.10971634017497 ] ] ] } },
{ "type": "Feature", "properties": { "ID": 13, "GRIDCODE": 2 }, "geometry": { "type": "Polygon", "coordinates": [ [ [ -159.396008025135103, 22.10971634017497 ], [ -159.395670067173654, 22.11138931887913 ], [ -159.393714672578682, 22.113501182413835 ], [ -159.392385138887136, 22.116360116098907 ], [ -159.39196330106347, 22.117612882748929 ], [ -159.391525851905897, 22.117175264081684 ], [ -159.390932311613852, 22.116915996210512 ], [ -159.390650106878695, 22.116092841357631 ], [ -159.390061255327481, 22.11611600183252 ], [ -159.389775263362907, 22.115281845464903 ], [ -159.389188190117068, 22.115304932342081 ], [ -159.388315497954466, 22.115274785123422 ], [ -159.386499957369836, 22.115346153865143 ], [ -159.386866440908193, 22.115028104483635 ], [ -159.386853971396704, 22.114752307981714 ], [ -159.386864736048096, 22.114481253702252 ], [ -159.386827633620982, 22.113661811950259 ], [ -159.387387476724882, 22.113681154735701 ], [ -159.388024294701637, 22.113128528681418 ], [ -159.388946268153376, 22.111790720052369 ], [ -159.390022045346427, 22.111748412192483 ], [ -159.390348190364762, 22.112028537689802 ], [ -159.390690183022315, 22.11269924580662 ], [ -159.391502085543209, 22.112296424492158 ], [ -159.392059651060322, 22.112315682342611 ], [ -159.392384247064115, 22.112033998462525 ], [ -159.392663251512232, 22.111751960358941 ], [ -159.393267100936129, 22.111484648439241 ], [ -159.393230419839966, 22.110676447749885 ], [ -159.393820588846864, 22.110164283062559 ], [ -159.391214588458922, 22.109783868720424 ], [ -159.392074624818463, 22.109075294058641 ], [ -159.392952141916595, 22.109040779350828 ], [ -159.39324302665247, 22.109050815360465 ], [ -159.39409192930097, 22.10901741384599 ], [ -159.395370653562537, 22.109926242292889 ], [ -159.396008025135103, 22.10971634017497 ] ] ] } },
{ "type": "Feature", "properties": { "ID": 14, "GRIDCODE": 2 }, "geometry": { "type": "Polygon", "coordinates": [ [ [ -159.403551780932901, 22.103193191343887 ], [ -159.40481453748049, 22.103779370039774 ], [ -159.404292526516144, 22.104215153746058 ], [ -159.403651539903905, 22.103914982475455 ], [ -159.403551780932901, 22.103193191343887 ] ] ] } },
{ "type": "Feature", "properties": { "ID": 15, "GRIDCODE": 2 }, "geometry": { "type": "Polygon", "coordinates": [ [ [ -159.608587711141723, 22.101474083767883 ], [ -159.608233517926351, 22.101568186097865 ], [ -159.608489581340677, 22.1018048903844 ], [ -159.608587711141723, 22.101474083767883 ], [ -159.609599230115833, 22.101058237926726 ], [ -159.610610688746192, 22.101091813182514 ], [ -159.611347997004827, 22.102146505836732 ], [ -159.612971388326514, 22.104219368255944 ], [ -159.614957931648632, 22.105565683416152 ], [ -159.623580363302437, 22.108629233721743 ], [ -159.630658592206629, 22.111028775291352 ], [ -159.631502733236943, 22.111870677926689 ], [ -159.631463121009659, 22.112909823769709 ], [ -159.631769057031164, 22.113712416701361 ], [ -159.632053051023235, 22.11465766785906 ], [ -159.631130536355187, 22.115341013481594 ], [ -159.629792055187977, 22.114687674594204 ], [ -159.628515588559424, 22.115110082766922 ], [ -159.626735149462888, 22.115051178991017 ], [ -159.628618919424099, 22.116073371101667 ], [ -159.628553914862295, 22.117780912182077 ], [ -159.628728202172852, 22.117930151637108 ], [ -159.628829225592227, 22.118260202281569 ], [ -159.629083244459594, 22.118021559233163 ], [ -159.628728202172852, 22.117930151637108 ], [ -159.62933216811436, 22.116171148998951 ], [ -159.629738384630485, 22.116161858167391 ], [ -159.630465593026315, 22.116172873257931 ], [ -159.631628929498333, 22.116146261884417 ], [ -159.632638144016511, 22.11616154424615 ], [ -159.632938346768498, 22.115612921127273 ], [ -159.633220936759841, 22.115064357480659 ], [ -159.633515922728833, 22.114525248551111 ], [ -159.633071764107598, 22.112158180637408 ], [ -159.644439530778641, 22.117264844068707 ], [ -159.652727008833239, 22.119058300438123 ], [ -159.675574158843744, 22.119512590203378 ], [ -159.680720336715751, 22.120352082717602 ], [ -159.684117621543407, 22.121870274633569 ], [ -159.686362111172741, 22.124338807899576 ], [ -159.68813505885467, 22.127984532159402 ], [ -159.689146457282249, 22.131593411513496 ], [ -159.688869660709429, 22.136201356396928 ], [ -159.687110274843434, 22.141651579603408 ], [ -159.683619551024691, 22.145791472370252 ], [ -159.678637707146123, 22.148967798419744 ], [ -159.671442463566365, 22.151633156452959 ], [ -159.665691257036968, 22.153154404402567 ], [ -159.661326480259874, 22.154250810349851 ], [ -159.65929641578029, 22.155078785489568 ], [ -159.658163137275864, 22.154540729216741 ], [ -159.657260772428288, 22.154527214402101 ], [ -159.657251757807813, 22.155048586922028 ], [ -159.657551901502359, 22.155897611617075 ], [ -159.659020692536103, 22.158918736256265 ], [ -159.658604555015444, 22.16046177925066 ], [ -159.657634219723292, 22.162345532989541 ], [ -159.657298261205, 22.16267410680766 ], [ -159.657002717153887, 22.162940891096934 ], [ -159.656584608571393, 22.163752596347816 ], [ -159.656136565938937, 22.163762910717377 ], [ -159.655554604536604, 22.163754193561118 ], [ -159.655263702773482, 22.164318937871982 ], [ -159.654101955056404, 22.164849686111179 ], [ -159.652974866045611, 22.165396241853944 ], [ -159.652357342835643, 22.165133071097728 ], [ -159.652366940920388, 22.164580358552339 ], [ -159.651182682726073, 22.164051027955907 ], [ -159.6511921090096, 22.163506280824684 ], [ -159.650298612488001, 22.16324015951054 ], [ -159.650900903832195, 22.162696545211748 ], [ -159.64884086101921, 22.161450184131041 ], [ -159.648856970397674, 22.160517515628847 ], [ -159.647395818252306, 22.160551105084743 ], [ -159.646828535813455, 22.160005784579219 ], [ -159.646226289599753, 22.16054478532142 ], [ -159.645669666580773, 22.161089028926078 ], [ -159.645287960175835, 22.160768663135475 ], [ -159.646510519562071, 22.159073183697146 ], [ -159.646173011686045, 22.158257782817859 ], [ -159.64533270732116, 22.158665249112449 ], [ -159.645365270888021, 22.156787420794533 ], [ -159.644774610933297, 22.156219646852378 ], [ -159.643885930907999, 22.157015026482778 ], [ -159.643549254048366, 22.158658236599777 ], [ -159.643306965427882, 22.158393598790418 ], [ -159.642851112577773, 22.157103579179573 ], [ -159.641765962585367, 22.156588252770909 ], [ -159.641264186091433, 22.157041120887165 ], [ -159.64097466328306, 22.157324237576351 ], [ -159.640112912854818, 22.157311237749536 ], [ -159.638444818905612, 22.158120000918153 ], [ -159.636770556360148, 22.158446257387329 ], [ -159.63632635813704, 22.157602394416006 ], [ -159.635423700408609, 22.157623076085297 ], [ -159.635447656200029, 22.15625087043043 ], [ -159.63456767602537, 22.15598866122869 ], [ -159.633398308952394, 22.155169229564908 ], [ -159.631690680325903, 22.155208315634873 ], [ -159.631362495082016, 22.154917020752972 ], [ -159.631076148538881, 22.154641683228807 ], [ -159.630487265398045, 22.154378366353392 ], [ -159.62990998494206, 22.154104151097787 ], [ -159.629321106121097, 22.153840829891063 ], [ -159.628505873437746, 22.153453596133367 ], [ -159.628164388477785, 22.154116309138548 ], [ -159.627852885947249, 22.154685312746409 ], [ -159.627909082371445, 22.156816964981779 ], [ -159.627300003583997, 22.157366559836234 ], [ -159.627307254222217, 22.157640157386563 ], [ -159.627297790712618, 22.158181291111021 ], [ -159.628762447360998, 22.159067747057502 ], [ -159.628481805428066, 22.160077528165306 ], [ -159.628181495109743, 22.160626035213539 ], [ -159.629063310181152, 22.16140869939197 ], [ -159.629071074767069, 22.161701168804914 ], [ -159.628776400295322, 22.162239333073025 ], [ -159.628790577394739, 22.162776000020468 ], [ -159.628214397478899, 22.163828456161262 ], [ -159.628194855160103, 22.164946463546752 ], [ -159.628797131495304, 22.165480970777786 ], [ -159.628792143079522, 22.165765036425977 ], [ -159.628799397138494, 22.166038559116032 ], [ -159.62735436048925, 22.16827887325179 ], [ -159.628224750007092, 22.16902217369962 ], [ -159.628956877044061, 22.169423167223933 ], [ -159.629112884742653, 22.171516669014522 ], [ -159.630568199342378, 22.172536375708876 ], [ -159.631624683991589, 22.17300871126821 ], [ -159.63215057120712, 22.174497130304555 ], [ -159.634204504348048, 22.175415374621753 ], [ -159.636114468393657, 22.176461339405559 ], [ -159.635765919489529, 22.17727887096768 ], [ -159.634674315196861, 22.177808027080516 ], [ -159.632693009465669, 22.178712804446835 ], [ -159.632343114170624, 22.179028545859598 ], [ -159.631412038114348, 22.179938649735 ], [ -159.629964013357267, 22.177688081292807 ], [ -159.628266873518641, 22.178502273867092 ], [ -159.627986552151242, 22.179592849308911 ], [ -159.627593942889263, 22.180675730616247 ], [ -159.628101786359053, 22.182039204775084 ], [ -159.627120024053852, 22.182024327327458 ], [ -159.626838220510962, 22.183120522249567 ], [ -159.625087589916177, 22.183392849901747 ], [ -159.623645987960089, 22.183742822341642 ], [ -159.6233408721084, 22.182041132250657 ], [ -159.622291641160416, 22.182709392018445 ], [ -159.621338235275317, 22.181792798194913 ], [ -159.620433136629686, 22.181779043713576 ], [ -159.619559736202234, 22.182335303117327 ], [ -159.618973083094062, 22.182603134980027 ], [ -159.618187454116708, 22.184127075356646 ], [ -159.616817248359524, 22.184546915833341 ], [ -159.616080485648212, 22.185602820022908 ], [ -159.615498759847583, 22.185326493371839 ], [ -159.614874111224168, 22.185047167120217 ], [ -159.622591683678024, 22.178084764799713 ], [ -159.625275562370035, 22.174074605344046 ], [ -159.625911568314137, 22.172320399388802 ], [ -159.625582178926436, 22.169852566490444 ], [ -159.62358005944742, 22.165590598875269 ], [ -159.622232252877495, 22.160383333791483 ], [ -159.621689905213685, 22.154723726054435 ], [ -159.622077296724086, 22.151666594272456 ], [ -159.623324797226275, 22.149878131975257 ], [ -159.626268586895918, 22.148451137273135 ], [ -159.628136146587991, 22.148408450096355 ], [ -159.629154470353285, 22.148423888053735 ], [ -159.630660036079803, 22.148389449073033 ], [ -159.634621780148905, 22.149203488811697 ], [ -159.636470982286369, 22.149231443832438 ], [ -159.637451167293818, 22.148930898922597 ], [ -159.638029846495698, 22.148650321725764 ], [ -159.638867490168479, 22.149455670116094 ], [ -159.639489882270368, 22.149465067019019 ], [ -159.640617113352732, 22.148918496860176 ], [ -159.641016191362553, 22.149241676624076 ], [ -159.642013656186521, 22.15020070639833 ], [ -159.643007329445311, 22.15082244218376 ], [ -159.64471049548078, 22.150783339051536 ], [ -159.645864872053806, 22.151331555511984 ], [ -159.646476041433658, 22.150250481665509 ], [ -159.646846775640398, 22.14732038186829 ], [ -159.648032542306566, 22.146956720499876 ], [ -159.647224914019034, 22.145422637296075 ], [ -159.643978014170642, 22.145373760098131 ], [ -159.642938796510066, 22.145397617839087 ], [ -159.642964977892461, 22.14389002411874 ], [ -159.641498385990388, 22.143234292367545 ], [ -159.642002685859637, 22.142722062035023 ], [ -159.643525418475662, 22.141853601564154 ], [ -159.644906847940831, 22.142509709817059 ], [ -159.64594334952659, 22.141023171862241 ], [ -159.647013825213719, 22.141039277137942 ], [ -159.647481609810512, 22.139676722701765 ], [ -159.649647336898454, 22.140252824231993 ], [ -159.649620149866109, 22.141819939409963 ], [ -159.65072113813514, 22.142508791567533 ], [ -159.651103658350195, 22.141809601577975 ], [ -159.651064644773527, 22.140337303180125 ], [ -159.651088161487536, 22.138979455427567 ], [ -159.650097205288915, 22.138536431802159 ], [ -159.653066177696786, 22.136705954215586 ], [ -159.654835111485539, 22.1346462931768 ], [ -159.653895747902538, 22.13395973119999 ], [ -159.652238413748762, 22.134776601968692 ], [ -159.651490545367238, 22.135451828854308 ], [ -159.651064840796806, 22.135868187773642 ], [ -159.650188785945687, 22.136408294401996 ], [ -159.648981959468443, 22.137177442327136 ], [ -159.647076605702807, 22.13761820346549 ], [ -159.642648463672543, 22.140237868353346 ], [ -159.640896085493182, 22.14064316024734 ], [ -159.639962392434796, 22.141095916955571 ], [ -159.638281468229366, 22.140797048835797 ], [ -159.637719258768925, 22.138686946104279 ], [ -159.636626544307518, 22.136610778579005 ], [ -159.634993098753142, 22.134484559250097 ], [ -159.630378923967015, 22.130536681974498 ], [ -159.628039107673487, 22.129072115272166 ], [ -159.623375041517505, 22.1268560603779 ], [ -159.619019742218995, 22.125417620546795 ], [ -159.609123470030056, 22.122297297891585 ], [ -159.599050814539936, 22.118357171881573 ], [ -159.59089315067564, 22.114105744424197 ], [ -159.584873956527701, 22.11124377711587 ], [ -159.580390826328852, 22.109905825115842 ], [ -159.57766779978337, 22.108255987458985 ], [ -159.576474284473761, 22.106628594756835 ], [ -159.577044525269599, 22.105244624300351 ], [ -159.578258581154302, 22.103027926318006 ], [ -159.579719594970015, 22.099848080321102 ], [ -159.581058611262733, 22.094390559591634 ], [ -159.58219998026604, 22.085808285693016 ], [ -159.581846132396834, 22.074836833454828 ], [ -159.581213594175296, 22.072457891070041 ], [ -159.57658867040638, 22.061420250581463 ], [ -159.573613574238607, 22.055758364108165 ], [ -159.568247818385203, 22.047403521712862 ], [ -159.565950102841413, 22.043900698291171 ], [ -159.566730996098869, 22.0427812723579 ], [ -159.567781974027412, 22.042133680227412 ], [ -159.569065344486887, 22.04131614750057 ], [ -159.569525131015922, 22.041851175250148 ], [ -159.569910072140345, 22.042943186814959 ], [ -159.570544040223439, 22.04292891997482 ], [ -159.570982980738023, 22.042935727253219 ], [ -159.571364910819142, 22.041824469289484 ], [ -159.572871095566711, 22.041847858102624 ], [ -159.573572382578959, 22.040487346102545 ], [ -159.574317870473493, 22.040814897286555 ], [ -159.575422356858837, 22.042372610973363 ], [ -159.57563986126442, 22.041521648803162 ], [ -159.575570915088292, 22.038863955677485 ], [ -159.577069321190351, 22.038306854836613 ], [ -159.577943791818171, 22.037749710165325 ], [ -159.578665858497686, 22.038445088359421 ], [ -159.579476200315185, 22.037652784642916 ], [ -159.58512156534934, 22.038577729955666 ], [ -159.589124271176445, 22.041156003551283 ], [ -159.596293584819222, 22.049802687330885 ], [ -159.600405398340712, 22.058549819055173 ], [ -159.605602153714017, 22.069584178583579 ], [ -159.607056968006702, 22.075211790817097 ], [ -159.609138576386385, 22.085525947399031 ], [ -159.608963026217594, 22.095496852806988 ], [ -159.609851253062374, 22.098834346145679 ], [ -159.610478791208806, 22.100520750041124 ], [ -159.608780354775348, 22.100913306756908 ], [ -159.608587711141723, 22.101474083767883 ] ], [ [ -159.639643043221668, 22.151765315097371 ], [ -159.639986099059655, 22.153599663739698 ], [ -159.640868440090884, 22.153474667100181 ], [ -159.64122505081744, 22.151899700112729 ], [ -159.639643043221668, 22.151765315097371 ] ], [ [ -159.65008793472532, 22.145490572004888 ], [ -159.65020337935124, 22.146470862564644 ], [ -159.650654913876394, 22.146675718110082 ], [ -159.650292099787947, 22.145606633921329 ], [ -159.65008793472532, 22.145490572004888 ] ] ] } },
{ "type": "Feature", "properties": { "ID": 16, "GRIDCODE": 2 }, "geometry": { "type": "Polygon", "coordinates": [ [ [ -159.569070455847793, 22.037925591147449 ], [ -159.568969632204272, 22.037595496015879 ], [ -159.568715650252841, 22.037834038799584 ], [ -159.569070455847793, 22.037925591147449 ], [ -159.568913534005958, 22.039026584313433 ], [ -159.567126533100065, 22.039429975062571 ], [ -159.566054111157342, 22.040517111584748 ], [ -159.565732270123306, 22.040506329918184 ], [ -159.565198370440243, 22.04157123638689 ], [ -159.564550370580633, 22.041893776721594 ], [ -159.562555608341569, 22.039037099602513 ], [ -159.559039153959702, 22.036021812771001 ], [ -159.559319019489038, 22.035647997373367 ], [ -159.560491879642399, 22.035930233391962 ], [ -159.560807424644253, 22.034038948697479 ], [ -159.561896872793113, 22.033994935078113 ], [ -159.5630391632574, 22.034553445498808 ], [ -159.563426667592495, 22.034266463393386 ], [ -159.563357077953412, 22.032768083967998 ], [ -159.564779034888119, 22.033463350214092 ], [ -159.565155423070195, 22.033184623863821 ], [ -159.565105296234663, 22.032106232744734 ], [ -159.565854984002925, 22.032131352960885 ], [ -159.566336670785091, 22.031170624797948 ], [ -159.567679481470606, 22.031827166349903 ], [ -159.568145513607135, 22.031482036752763 ], [ -159.567446564328577, 22.030261532091053 ], [ -159.568341705023443, 22.03006706969299 ], [ -159.56970997079037, 22.030736012249523 ], [ -159.569792628514392, 22.030393550734164 ], [ -159.56975838387109, 22.029656899668659 ], [ -159.569768796408766, 22.029385837094608 ], [ -159.569744259900034, 22.02885831095972 ], [ -159.570055372396666, 22.028305184538059 ], [ -159.570030215802689, 22.027764774223776 ], [ -159.570483202527612, 22.027746456940047 ], [ -159.571931500034793, 22.027794921486112 ], [ -159.572620045010268, 22.026421223104599 ], [ -159.574308163508732, 22.025580780659737 ], [ -159.574789555651449, 22.026237304149518 ], [ -159.575577038236446, 22.032373239496113 ], [ -159.573837108415745, 22.03231506098696 ], [ -159.573864920102409, 22.032911654429771 ], [ -159.572398754250656, 22.032862608707383 ], [ -159.57309541523756, 22.033571368364196 ], [ -159.573972880628787, 22.034323675422144 ], [ -159.573558889269094, 22.035059711385063 ], [ -159.573593926500649, 22.035811560228023 ], [ -159.572082887644001, 22.03532372422551 ], [ -159.572134002298128, 22.036422422096631 ], [ -159.571240932120418, 22.036964531097414 ], [ -159.571254994015419, 22.037267533655989 ], [ -159.570067105164981, 22.037227786256121 ], [ -159.570108879095301, 22.038124372600361 ], [ -159.569070455847793, 22.037925591147449 ] ] ] } },
{ "type": "Feature", "properties": { "ID": 17, "GRIDCODE": 2 }, "geometry": { "type": "Polygon", "coordinates": [ [ [ -159.564080207538751, 22.025746662582662 ], [ -159.564434980091477, 22.025838225807689 ], [ -159.564181010861034, 22.026076761617105 ], [ -159.564080207538751, 22.025746662582662 ] ] ] } },
{ "type": "Feature", "properties": { "ID": 18, "GRIDCODE": 2 }, "geometry": { "type": "Polygon", "coordinates": [ [ [ -159.545070069689132, 21.995455890069309 ], [ -159.545822576730245, 21.995675318675072 ], [ -159.545773507483574, 21.996944206469394 ], [ -159.545811172154032, 21.997757165779525 ], [ -159.545768498744792, 21.99886186673092 ], [ -159.546964187599315, 21.998466543717868 ], [ -159.547866287304743, 21.997153536002159 ], [ -159.548535263850795, 21.996571279397628 ], [ -159.549521307037708, 21.997053626081236 ], [ -159.548087950295098, 21.998041428278334 ], [ -159.547244528888768, 22.000557160056903 ], [ -159.547310747766971, 22.001985592971998 ], [ -159.546983143063386, 22.003168661874636 ], [ -159.546707775692056, 22.004264014396242 ], [ -159.546231108093309, 22.005546980846535 ], [ -159.545780467616936, 22.005882948815977 ], [ -159.543156693560348, 21.99966507783471 ], [ -159.543200100699693, 21.998542757390762 ], [ -159.543777663721215, 21.998040109586928 ], [ -159.544239487574259, 21.997571937447191 ], [ -159.54463221246283, 21.996400782317252 ], [ -159.545070069689132, 21.995455890069309 ] ] ] } },
{ "type": "Feature", "properties": { "ID": 19, "GRIDCODE": 2 }, "geometry": { "type": "Polygon", "coordinates": [ [ [ -159.564080207538751, 22.025746662582662 ], [ -159.563640756464054, 22.025615374410513 ], [ -159.562462442773182, 22.025243833714384 ], [ -159.562497626334732, 22.026605595764803 ], [ -159.560448458906109, 22.025456535712223 ], [ -159.560738252594774, 22.026709440114004 ], [ -159.561040367499658, 22.027791917309148 ], [ -159.560452883957169, 22.028060124388464 ], [ -159.560167199564091, 22.028339423211843 ], [ -159.557336673412152, 22.026992072942605 ], [ -159.557563319679161, 22.027583991090363 ], [ -159.558572631349989, 22.029394483962943 ], [ -159.557261741209715, 22.029697170196027 ], [ -159.556705764454222, 22.030240667319941 ], [ -159.55629602299004, 22.030249867064104 ], [ -159.553679557255123, 22.022371834910683 ], [ -159.550232479490489, 22.014543402746749 ], [ -159.546131673382632, 22.006300364064398 ], [ -159.548095564659036, 22.004730901401853 ], [ -159.548450885094695, 22.005073328539069 ], [ -159.548736264223436, 22.003964457980906 ], [ -159.549892448910242, 22.002921104359594 ], [ -159.550942601380285, 22.000883811660092 ], [ -159.551339368798324, 22.00126614224072 ], [ -159.552501931526962, 22.000890691291399 ], [ -159.553841283537025, 22.001313178143512 ], [ -159.555648713661725, 22.000437125324112 ], [ -159.555722908188869, 22.000813391468355 ], [ -159.555695556729972, 22.002334375950404 ], [ -159.55627734114708, 22.0023213367643 ], [ -159.5578621037549, 22.003075853130508 ], [ -159.557208274324267, 22.001902850860155 ], [ -159.55804573228707, 22.001496919088293 ], [ -159.559003400753539, 22.001511887070759 ], [ -159.558598734271612, 22.000422455640827 ], [ -159.559391083631937, 22.000060623449919 ], [ -159.558018804693944, 21.998839999478374 ], [ -159.559212734682035, 21.998511953656376 ], [ -159.560336779403286, 21.998529506420883 ], [ -159.559783477970143, 21.997985750677294 ], [ -159.558304357498599, 21.997543688961954 ], [ -159.558586636311531, 21.996898358630293 ], [ -159.561781802827909, 21.996471260631843 ], [ -159.561495440933527, 21.99607534367702 ], [ -159.561195967402995, 21.995808963543965 ], [ -159.561494798070299, 21.995263040114949 ], [ -159.559445432155087, 21.994650569092226 ], [ -159.559456212253423, 21.99405231574222 ], [ -159.559436467608379, 21.993287189182919 ], [ -159.560926557248649, 21.993732529110932 ], [ -159.564614608542286, 21.99626258075704 ], [ -159.566517574726959, 21.998304920611602 ], [ -159.569335033950154, 22.004713932730983 ], [ -159.573053079442275, 22.014720970209176 ], [ -159.574351843889076, 22.018847645175423 ], [ -159.574396961236289, 22.020586562895545 ], [ -159.572550127648526, 22.019707623475494 ], [ -159.572048597118425, 22.020160280763779 ], [ -159.571760243884853, 22.020719832719866 ], [ -159.570888177318949, 22.020706281118155 ], [ -159.570537991637735, 22.021385778464552 ], [ -159.569434794790737, 22.020716862628579 ], [ -159.567898228281109, 22.019638087523301 ], [ -159.567685979488743, 22.019906425380505 ], [ -159.568825147426736, 22.022336653609432 ], [ -159.566581588323459, 22.021268805166525 ], [ -159.565636790859486, 22.021544154358679 ], [ -159.567117963522094, 22.022861216774253 ], [ -159.566812533867903, 22.024378924382315 ], [ -159.564846175856246, 22.023443009926094 ], [ -159.564790568398053, 22.023736940702641 ], [ -159.564811103549317, 22.024531042355516 ], [ -159.563367690143053, 22.024075924207843 ], [ -159.563937231262514, 22.025608928473236 ], [ -159.564080207538751, 22.025746662582662 ] ] ] } },
{ "type": "Feature", "properties": { "ID": 20, "GRIDCODE": 2 }, "geometry": { "type": "Polygon", "coordinates": [ [ [ -159.540395568085955, 21.98896667116302 ], [ -159.54060365725806, 21.98911537895188 ], [ -159.540499779323113, 21.989787503006227 ], [ -159.54111952278123, 21.99323009018843 ], [ -159.540820076756262, 21.993820544801899 ], [ -159.540155046060704, 21.992320433236326 ], [ -159.539440687303937, 21.991224707688584 ], [ -159.540395568085955, 21.98896667116302 ] ] ] } },
{ "type": "Feature", "properties": { "ID": 21, "GRIDCODE": 2 }, "geometry": { "type": "Polygon", "coordinates": [ [ [ -159.534514493778318, 21.970555953611978 ], [ -159.536221111765087, 21.970749409256367 ], [ -159.535807505710778, 21.971763712099253 ], [ -159.535873221451197, 21.972243042914052 ], [ -159.534219774110596, 21.972689813885655 ], [ -159.533773174716885, 21.973404174453428 ], [ -159.534622808556492, 21.974741569036354 ], [ -159.53240455440681, 21.97427416272998 ], [ -159.532069308433222, 21.972852659441966 ], [ -159.531644739148078, 21.971483933200886 ], [ -159.532093980446575, 21.971534569606998 ], [ -159.5343305512271, 21.971164036158974 ], [ -159.534514493778318, 21.970555953611978 ] ] ] } },
{ "type": "Feature", "properties": { "ID": 22, "GRIDCODE": 2 }, "geometry": { "type": "Polygon", "coordinates": [ [ [ -159.528969646330069, 21.96406919838698 ], [ -159.529422025406234, 21.964188268141633 ], [ -159.529811293504707, 21.964638519528449 ], [ -159.531339590279913, 21.965772042168659 ], [ -159.530559079600721, 21.966081806774284 ], [ -159.530239874531418, 21.967137015071049 ], [ -159.529580227762523, 21.967215718387198 ], [ -159.528782377421265, 21.965507893958527 ], [ -159.528969646330069, 21.96406919838698 ] ] ] } },
{ "type": "Feature", "properties": { "ID": 23, "GRIDCODE": 2 }, "geometry": { "type": "Polygon", "coordinates": [ [ [ -159.401298211834217, 21.922691568055743 ], [ -159.401752560111532, 21.92281158409148 ], [ -159.403205787072238, 21.923891571003107 ], [ -159.403485679528927, 21.925369267348763 ], [ -159.404879553921575, 21.927139873848155 ], [ -159.402891587773325, 21.926903697209976 ], [ -159.402341972645502, 21.926604033016861 ], [ -159.39996662899145, 21.925976608266911 ], [ -159.399398242169298, 21.925554200216634 ], [ -159.399715031978815, 21.923139725885889 ], [ -159.401169494266696, 21.922842387093009 ], [ -159.401298211834217, 21.922691568055743 ] ] ] } }
]
}
