{
"type": "FeatureCollection",
"name": "myrdege",
"crs": { "type": "name", "properties": { "name": "urn:ogc:def:crs:OGC:1.3:CRS84" } },
"features": [
{ "type": "Feature", "properties": { "ID": 1, "GRIDCODE": 2 }, "geometry": { "type": "Polygon", "coordinates": [ [ [ -157.94151522568356, 21.588057154808222 ], [ -157.941867837872337, 21.588152161278146 ], [ -157.941612004722003, 21.588388203881387 ], [ -157.94151522568356, 21.588057154808222 ] ] ] } },
{ "type": "Feature", "properties": { "ID": 2, "GRIDCODE": 2 }, "geometry": { "type": "Polygon", "coordinates": [ [ [ -157.951962198231968, 21.58595510998067 ], [ -157.953806298537728, 21.585688941382834 ], [ -157.954116358480434, 21.586390201712227 ], [ -157.955013552135881, 21.587453901826056 ], [ -157.954917070977984, 21.588141823431176 ], [ -157.955033248287407, 21.589066764440062 ], [ -157.954783211454753, 21.589345541625807 ], [ -157.954421210340939, 21.588526709467473 ], [ -157.954102319371998, 21.5885617595215 ], [ -157.953817177565554, 21.587916831004851 ], [ -157.952696814652171, 21.588040002225497 ], [ -157.953280278697889, 21.586648620407242 ], [ -157.953235041861944, 21.586288721881708 ], [ -157.95232808479895, 21.586388420251456 ], [ -157.951962198231968, 21.58595510998067 ] ] ] } },
{ "type": "Feature", "properties": { "ID": 3, "GRIDCODE": 2 }, "geometry": { "type": "Polygon", "coordinates": [ [ [ -157.951962198231968, 21.58595510998067 ], [ -157.951609583718238, 21.585860124817827 ], [ -157.951865396742932, 21.585624065940355 ], [ -157.951962198231968, 21.58595510998067 ] ] ] } },
{ "type": "Feature", "properties": { "ID": 4, "GRIDCODE": 2 }, "geometry": { "type": "Polygon", "coordinates": [ [ [ -157.949651964440591, 21.584856483056345 ], [ -157.950637797609147, 21.585099773000344 ], [ -157.950128865135156, 21.585511890650213 ], [ -157.949651964440591, 21.584856483056345 ] ] ] } },
{ "type": "Feature", "properties": { "ID": 5, "GRIDCODE": 2 }, "geometry": { "type": "Polygon", "coordinates": [ [ [ -157.943880466791683, 21.581567772126704 ], [ -157.944002411472155, 21.580945259426993 ], [ -157.944249377120968, 21.581422825347545 ], [ -157.943880466791683, 21.581567772126704 ] ] ] } },
{ "type": "Feature", "properties": { "ID": 6, "GRIDCODE": 2 }, "geometry": { "type": "Polygon", "coordinates": [ [ [ -157.942159695371345, 21.579117698022273 ], [ -157.942512286672553, 21.579212702361012 ], [ -157.942256470900134, 21.579448746887131 ], [ -157.942159695371345, 21.579117698022273 ] ] ] } },
{ "type": "Feature", "properties": { "ID": 7, "GRIDCODE": 2 }, "geometry": { "type": "Polygon", "coordinates": [ [ [ -157.93465415383622, 21.575275623376108 ], [ -157.935006730316701, 21.575370643068489 ], [ -157.934750909961622, 21.575606675949039 ], [ -157.93465415383622, 21.575275623376108 ] ] ] } },
{ "type": "Feature", "properties": { "ID": 8, "GRIDCODE": 2 }, "geometry": { "type": "Polygon", "coordinates": [ [ [ -157.927420794896221, 21.573874120447712 ], [ -157.927909487162907, 21.573985117189846 ], [ -157.928261023219648, 21.57506694470613 ], [ -157.92752406576443, 21.574855498455445 ], [ -157.927420794896221, 21.573874120447712 ] ] ] } },
{ "type": "Feature", "properties": { "ID": 9, "GRIDCODE": 2 }, "geometry": { "type": "Polygon", "coordinates": [ [ [ -157.950313481694792, 21.573477923214874 ], [ -157.950992994066127, 21.573831893386917 ], [ -157.950448192022236, 21.574083533004078 ], [ -157.950313481694792, 21.573477923214874 ] ] ] } },
{ "type": "Feature", "properties": { "ID": 10, "GRIDCODE": 2 }, "geometry": { "type": "Polygon", "coordinates": [ [ [ -157.947126436288499, 21.573457809050083 ], [ -157.947479017792091, 21.573552802509994 ], [ -157.947223220076751, 21.57378885555595 ], [ -157.947126436288499, 21.573457809050083 ] ] ] } },
{ "type": "Feature", "properties": { "ID": 11, "GRIDCODE": 2 }, "geometry": { "type": "Polygon", "coordinates": [ [ [ -157.927420794896221, 21.573874120447712 ], [ -157.927045311910007, 21.573720975973412 ], [ -157.927309322602667, 21.573257529083264 ], [ -157.927420794896221, 21.573874120447712 ] ] ] } },
{ "type": "Feature", "properties": { "ID": 12, "GRIDCODE": 2 }, "geometry": { "type": "Polygon", "coordinates": [ [ [ -157.914990670129583, 21.569999401306628 ], [ -157.9148890430466, 21.570329171746213 ], [ -157.914636740132323, 21.570089860358134 ], [ -157.914990670129583, 21.569999401306628 ] ] ] } },
{ "type": "Feature", "properties": { "ID": 13, "GRIDCODE": 2 }, "geometry": { "type": "Polygon", "coordinates": [ [ [ -157.914990670129583, 21.569999401306628 ], [ -157.91509229671982, 21.56966963077295 ], [ -157.915344599720783, 21.569908941483664 ], [ -157.914990670129583, 21.569999401306628 ] ] ] } },
{ "type": "Feature", "properties": { "ID": 14, "GRIDCODE": 2 }, "geometry": { "type": "Polygon", "coordinates": [ [ [ -157.933112063404877, 21.548435083900081 ], [ -157.933274711445904, 21.54855416533616 ], [ -157.933524814318162, 21.54886171843718 ], [ -157.934971133524499, 21.549156868518491 ], [ -157.933288948724254, 21.549451008646368 ], [ -157.933112063404877, 21.548435083900081 ] ] ] } },
{ "type": "Feature", "properties": { "ID": 15, "GRIDCODE": 2 }, "geometry": { "type": "Polygon", "coordinates": [ [ [ -157.936312375227914, 21.546558409337539 ], [ -157.937594813754259, 21.54690132139665 ], [ -157.936459419600453, 21.547751136344296 ], [ -157.936312375227914, 21.546558409337539 ] ] ] } },
{ "type": "Feature", "properties": { "ID": 16, "GRIDCODE": 2 }, "geometry": { "type": "Polygon", "coordinates": [ [ [ -157.930818448908099, 21.545168185134951 ], [ -157.93101902324716, 21.545264750590317 ], [ -157.93143530670099, 21.546076235901079 ], [ -157.930910472435613, 21.545890781993151 ], [ -157.930818448908099, 21.545168185134951 ] ] ] } },
{ "type": "Feature", "properties": { "ID": 17, "GRIDCODE": 2 }, "geometry": { "type": "Polygon", "coordinates": [ [ [ -157.93260008925003, 21.539217215731654 ], [ -157.934144947008434, 21.539331241389334 ], [ -157.933844350335761, 21.539858254376256 ], [ -157.932822491990919, 21.539635487201025 ], [ -157.93260008925003, 21.539217215731654 ] ] ] } },
{ "type": "Feature", "properties": { "ID": 18, "GRIDCODE": 2 }, "geometry": { "type": "Polygon", "coordinates": [ [ [ -157.933112063404877, 21.548435083900081 ], [ -157.932339671221996, 21.548521184432889 ], [ -157.931225400795967, 21.549030473256366 ], [ -157.93095461423772, 21.548129338758152 ], [ -157.930695989605994, 21.548599578274519 ], [ -157.930215677358319, 21.548823050432095 ], [ -157.930692669379738, 21.549052663710409 ], [ -157.931075818581036, 21.549773355712311 ], [ -157.93152513714017, 21.549571583578057 ], [ -157.932326816940389, 21.550277949929008 ], [ -157.931416856470292, 21.550701274460032 ], [ -157.931643820297353, 21.551135853580622 ], [ -157.931289945295305, 21.551226350540038 ], [ -157.931542245571222, 21.551465637021749 ], [ -157.931643820297353, 21.551135853580622 ], [ -157.932088180346227, 21.551264151929885 ], [ -157.93235745719565, 21.552121936119622 ], [ -157.933366259863902, 21.552052567252268 ], [ -157.934953099681564, 21.55271259847574 ], [ -157.934213799964198, 21.553300260455934 ], [ -157.933808323767863, 21.553734431282173 ], [ -157.933495298310419, 21.553983331435603 ], [ -157.933224978737798, 21.554272733367807 ], [ -157.932864001810231, 21.554559635634462 ], [ -157.932198556567783, 21.55450535247148 ], [ -157.931688344288006, 21.554540393577966 ], [ -157.931326342692358, 21.554928057007679 ], [ -157.930972458213631, 21.555018552864297 ], [ -157.931224764211919, 21.55525783996929 ], [ -157.931326342692358, 21.554928057007679 ], [ -157.931992899692403, 21.555120505980788 ], [ -157.933811532339917, 21.55619855056867 ], [ -157.933751527513436, 21.556840707435303 ], [ -157.933784147152863, 21.557254984638288 ], [ -157.933458107106276, 21.557793013834079 ], [ -157.934563124380361, 21.558326434064714 ], [ -157.934920010043527, 21.557244646712437 ], [ -157.935233040457319, 21.556995744166738 ], [ -157.935503361500025, 21.55670633911393 ], [ -157.935816389771048, 21.556457435368145 ], [ -157.936093980184921, 21.556160201884346 ], [ -157.938109077650239, 21.55728656532477 ], [ -157.938466728004954, 21.557261980034109 ], [ -157.938356867224655, 21.558440033618751 ], [ -157.939633491848923, 21.558352285645775 ], [ -157.940130638192613, 21.557819897300387 ], [ -157.941081763270716, 21.557575039966149 ], [ -157.941577023505573, 21.558120220844049 ], [ -157.942346135043806, 21.558376006288164 ], [ -157.942747366830844, 21.557550082421617 ], [ -157.943110431145158, 21.557949714379564 ], [ -157.943011185967549, 21.55901489348971 ], [ -157.940126021974976, 21.558630339730271 ], [ -157.939831333193069, 21.559236798901448 ], [ -157.938711612770703, 21.559145508760199 ], [ -157.938097632904288, 21.559460784190456 ], [ -157.937505690501524, 21.558809044739714 ], [ -157.936956998738566, 21.558958787047729 ], [ -157.937532999781098, 21.559429461880502 ], [ -157.937799080586188, 21.559722289745022 ], [ -157.938288038939902, 21.560121874024407 ], [ -157.9374659012108, 21.560775386127055 ], [ -157.937810859134146, 21.561057336294304 ], [ -157.938078346835539, 21.56135169457232 ], [ -157.938622267749309, 21.561314335070904 ], [ -157.93952350453435, 21.561630392678076 ], [ -157.940655398490463, 21.561957042918838 ], [ -157.939517738209673, 21.562423293218213 ], [ -157.939246256143406, 21.562871827098682 ], [ -157.940570958002922, 21.563434860562612 ], [ -157.939665855338689, 21.564154352616459 ], [ -157.938949962766372, 21.563774764980881 ], [ -157.937089773378034, 21.563100849904803 ], [ -157.937207197639594, 21.564594310016872 ], [ -157.936691711095392, 21.565444764533936 ], [ -157.93747881287095, 21.565390632961577 ], [ -157.937861681996566, 21.565421922501006 ], [ -157.938620174834114, 21.566324367572449 ], [ -157.937745922349563, 21.567019298339957 ], [ -157.937181757176859, 21.567870634566955 ], [ -157.938760515242024, 21.567762128321007 ], [ -157.939193964236409, 21.567298019434816 ], [ -157.939753997109051, 21.567343665963666 ], [ -157.940620910011774, 21.566898521719782 ], [ -157.940937271482284, 21.567906459289219 ], [ -157.942188262748942, 21.56843817928533 ], [ -157.942678990048677, 21.568404439674929 ], [ -157.943528349912299, 21.568702283019697 ], [ -157.945345074944555, 21.568964696323224 ], [ -157.946422807143136, 21.56781042764111 ], [ -157.947256661223207, 21.568728067050515 ], [ -157.945255058972634, 21.570319213433823 ], [ -157.944983905374698, 21.57072256682623 ], [ -157.946729592936663, 21.571226221760842 ], [ -157.948082195829898, 21.571133202899713 ], [ -157.948427730491744, 21.57232188012236 ], [ -157.947044347260544, 21.572209061787404 ], [ -157.9464205904236, 21.572383965512486 ], [ -157.947126436288499, 21.573457809050083 ], [ -157.946482603010907, 21.573630137746175 ], [ -157.945535300898854, 21.57468220937038 ], [ -157.944905622123258, 21.574618142902064 ], [ -157.944998556981915, 21.573819111620761 ], [ -157.944345405222521, 21.5733046989046 ], [ -157.944680014653017, 21.573048307328435 ], [ -157.944947453634711, 21.572416194190108 ], [ -157.944371256853088, 21.571962281948277 ], [ -157.944114478974626, 21.571122591895609 ], [ -157.943509930592597, 21.570872752600071 ], [ -157.943249229838614, 21.570575070957862 ], [ -157.942644685313979, 21.570325228658888 ], [ -157.942369254283932, 21.57001077831293 ], [ -157.94209163041603, 21.570388479318495 ], [ -157.942683850329416, 21.570855006201928 ], [ -157.942097574827585, 21.571304258625542 ], [ -157.942951643136212, 21.571657251786899 ], [ -157.943208014435612, 21.572552189665338 ], [ -157.942208094449256, 21.572450497444578 ], [ -157.941625687895538, 21.572502245434105 ], [ -157.940911555399794, 21.573295407062705 ], [ -157.940000513394125, 21.573539191175833 ], [ -157.940356419459164, 21.57412967357892 ], [ -157.940904714801462, 21.574080955539934 ], [ -157.941190184020456, 21.574708438512246 ], [ -157.941773104798528, 21.574061066913476 ], [ -157.942458055905519, 21.574130789337669 ], [ -157.941975421074687, 21.575307667418844 ], [ -157.941194924453839, 21.57590581309184 ], [ -157.942193740452041, 21.576318618885551 ], [ -157.941718765581555, 21.577082269902682 ], [ -157.942145003326772, 21.577789582095683 ], [ -157.942624992208209, 21.578167660473845 ], [ -157.942294168097504, 21.578699521341811 ], [ -157.942159695371345, 21.579117698022273 ], [ -157.941649561101883, 21.579247120176884 ], [ -157.940870804248107, 21.579622228044624 ], [ -157.942299681717259, 21.580668398787353 ], [ -157.942889949843362, 21.580590630014427 ], [ -157.943235275139983, 21.581395285880802 ], [ -157.943880466791683, 21.581567772126704 ], [ -157.94409272951583, 21.582226479837495 ], [ -157.945025263616998, 21.58228439717173 ], [ -157.946658108676218, 21.581232897490722 ], [ -157.946609274886583, 21.581920717961069 ], [ -157.947341082882559, 21.582697307811184 ], [ -157.948842552299539, 21.582204061188325 ], [ -157.949259367340318, 21.582557240995754 ], [ -157.949188024771814, 21.58356218795058 ], [ -157.949569227301112, 21.584577202450518 ], [ -157.947625472828037, 21.583911007126545 ], [ -157.946518693124972, 21.583842275197181 ], [ -157.94752395782848, 21.584449223680455 ], [ -157.947463306971088, 21.585304171717528 ], [ -157.948174752807887, 21.587198641097949 ], [ -157.947164542318149, 21.587135882158424 ], [ -157.946853547731763, 21.588348859749235 ], [ -157.945718924930361, 21.588916265775026 ], [ -157.94599737359988, 21.588213490985368 ], [ -157.946504320861351, 21.587355016819242 ], [ -157.945730947080875, 21.585750618733982 ], [ -157.945378447085659, 21.587125504039342 ], [ -157.945138924467585, 21.586595318493714 ], [ -157.945159082903643, 21.586312585597575 ], [ -157.944824316752971, 21.585727076710569 ], [ -157.944878674171662, 21.584961811746023 ], [ -157.944863376663307, 21.584690697912126 ], [ -157.944882600520287, 21.584419802830411 ], [ -157.944867303014576, 21.584148688981564 ], [ -157.944898502804818, 21.583708947350996 ], [ -157.944013123338635, 21.584151743238316 ], [ -157.943437530731615, 21.58411593505031 ], [ -157.943416576150724, 21.584410506405725 ], [ -157.94344604220322, 21.584932083140171 ], [ -157.943119437278597, 21.585485078597433 ], [ -157.942702351911691, 21.586320094532471 ], [ -157.942245123659205, 21.58629171634648 ], [ -157.941945037972971, 21.586601584611454 ], [ -157.941393381546334, 21.586016146469401 ], [ -157.940961951393433, 21.585650679882583 ], [ -157.942543540147483, 21.584983852204985 ], [ -157.942091011684766, 21.582575174597515 ], [ -157.941693338134826, 21.582238309809018 ], [ -157.941744411933229, 21.581518018234849 ], [ -157.941388150921739, 21.580778596092916 ], [ -157.94026732763777, 21.581146695742856 ], [ -157.939971901077342, 21.581128340065863 ], [ -157.93936457526496, 21.581158283900713 ], [ -157.939404926830093, 21.580590768926584 ], [ -157.939381996018398, 21.580184097861022 ], [ -157.93942960391368, 21.579513740595079 ], [ -157.939107314655985, 21.579240671107602 ], [ -157.93916406582116, 21.5784416788761 ], [ -157.938674309279634, 21.578026673996984 ], [ -157.93826730360891, 21.577594727435674 ], [ -157.937963018423034, 21.577336988889559 ], [ -157.937693753802193, 21.576778020067533 ], [ -157.936706093762723, 21.576485879777429 ], [ -157.935656635309954, 21.574873323954375 ], [ -157.936246042424131, 21.574387327184873 ], [ -157.935085555675954, 21.574593231568869 ], [ -157.934754119018294, 21.574935440899178 ], [ -157.934866870106276, 21.573349100472107 ], [ -157.934246642334045, 21.572690750046217 ], [ -157.933362918590745, 21.572429295356834 ], [ -157.933093680152155, 21.571870319872048 ], [ -157.932782105251107, 21.571606306112766 ], [ -157.933948672626059, 21.570217934127218 ], [ -157.932807420849713, 21.570274212851086 ], [ -157.932406497814384, 21.569441986660948 ], [ -157.931507790905613, 21.570687294435558 ], [ -157.93104918332395, 21.571857212981595 ], [ -157.930712867327316, 21.573481152698125 ], [ -157.930459674833003, 21.573223729048934 ], [ -157.930190446428583, 21.572664749322048 ], [ -157.929716060154306, 21.572262786638341 ], [ -157.930762797674646, 21.571399953656453 ], [ -157.930153092212805, 21.570410362583413 ], [ -157.929306725161211, 21.570767118296061 ], [ -157.92968465466501, 21.571087342662999 ], [ -157.927573840746703, 21.5709559917943 ], [ -157.927602242371194, 21.571460624718672 ], [ -157.926887163694659, 21.572891756889465 ], [ -157.92589722295304, 21.571840879608974 ], [ -157.925485146418424, 21.573447512053868 ], [ -157.924955982306614, 21.572916423790797 ], [ -157.924994497605638, 21.572374772703924 ], [ -157.924673095320344, 21.57210241008876 ], [ -157.924150572065201, 21.571017685149272 ], [ -157.923776404561124, 21.570994425998745 ], [ -157.923850070591669, 21.572303003776685 ], [ -157.923526596898284, 21.572637036967993 ], [ -157.922907977732478, 21.573146883101593 ], [ -157.922939991039499, 21.573715786655811 ], [ -157.922628236557159, 21.574243627585737 ], [ -157.922659623140078, 21.574801477322659 ], [ -157.92233706202606, 21.574781393534437 ], [ -157.921734261615171, 21.575082715846285 ], [ -157.921829461387716, 21.57374611826658 ], [ -157.920758131568306, 21.573679432513117 ], [ -157.920041718289212, 21.573714687254036 ], [ -157.92031971608688, 21.573142169119311 ], [ -157.921090119755746, 21.573190168717943 ], [ -157.922060413818571, 21.57278119296361 ], [ -157.921790350699297, 21.572339573802925 ], [ -157.921175460490417, 21.571504085093231 ], [ -157.922179888515956, 21.571566563311265 ], [ -157.922672297206304, 21.570732881117234 ], [ -157.922649034052768, 21.570320119543776 ], [ -157.922678402103855, 21.569906904320895 ], [ -157.922373317837867, 21.569648405581255 ], [ -157.922086681754877, 21.569344106478155 ], [ -157.921191121035548, 21.569388198795796 ], [ -157.921823303903153, 21.568554100550557 ], [ -157.921402640237403, 21.567817861500746 ], [ -157.922999640998853, 21.567481218063104 ], [ -157.922409447081264, 21.566980958264093 ], [ -157.922694947188972, 21.566366401867899 ], [ -157.923759013233678, 21.566432629441728 ], [ -157.922998938433096, 21.565297469874249 ], [ -157.921594601151128, 21.565639595928893 ], [ -157.921246430521876, 21.565030070487687 ], [ -157.92156917504775, 21.563396667905693 ], [ -157.921262559661386, 21.563136834255321 ], [ -157.920982654755875, 21.562555738476984 ], [ -157.920670196245112, 21.563773683993347 ], [ -157.919812011057388, 21.563398453595301 ], [ -157.919041568121344, 21.562580409788985 ], [ -157.918946292503648, 21.56283783910008 ], [ -157.918962157850132, 21.56312119863399 ], [ -157.918342711343541, 21.563631751687137 ], [ -157.918374327243612, 21.564194566195077 ], [ -157.918299628647873, 21.565243870533848 ], [ -157.918710556360764, 21.565592122587049 ], [ -157.91808642804358, 21.567437277100094 ], [ -157.917466172606623, 21.567177450679125 ], [ -157.91690358578154, 21.566886700430096 ], [ -157.916580775975575, 21.566902598762997 ], [ -157.916619957286684, 21.56635129438142 ], [ -157.916597090572878, 21.565944622225381 ], [ -157.916667690904376, 21.564953584728443 ], [ -157.91536305409673, 21.565793476714408 ], [ -157.915458434871312, 21.564439019566866 ], [ -157.916052899885301, 21.562419070097036 ], [ -157.915779620105127, 21.560854783342506 ], [ -157.915094801133534, 21.559656031119257 ], [ -157.91608864571424, 21.557666799642924 ], [ -157.917242570658743, 21.55773867954726 ], [ -157.917266268548445, 21.557404761335416 ], [ -157.9166706752805, 21.557144299425882 ], [ -157.916710329783342, 21.556585785277381 ], [ -157.915849376057622, 21.556628157751312 ], [ -157.91551995982158, 21.556051627793959 ], [ -157.915549340262714, 21.555638810834285 ], [ -157.915261731890325, 21.554139139774716 ], [ -157.914958714644854, 21.553608832142999 ], [ -157.914988092893992, 21.553196412186345 ], [ -157.914925242610195, 21.552080179569881 ], [ -157.916525584798848, 21.550281278047713 ], [ -157.916024297127365, 21.548945369112573 ], [ -157.916464656449818, 21.548199827260344 ], [ -157.916742063531984, 21.547644379193912 ], [ -157.917133446339875, 21.547321847596326 ], [ -157.917037714845577, 21.545621286731315 ], [ -157.917087307388158, 21.544923490327825 ], [ -157.916149610059705, 21.544128632098897 ], [ -157.917339122305663, 21.54379342038558 ], [ -157.918320551338553, 21.542371593430605 ], [ -157.919680503368369, 21.541250489293674 ], [ -157.919715389768555, 21.54076035778127 ], [ -157.91969002019016, 21.540308543139204 ], [ -157.920486564899022, 21.538959411229254 ], [ -157.920298285969949, 21.535614813943056 ], [ -157.920335539511512, 21.535090886240784 ], [ -157.919845347093485, 21.532007674755018 ], [ -157.919467396956094, 21.53168729847388 ], [ -157.919202291472914, 21.530586295336771 ], [ -157.918636391523336, 21.529595825136699 ], [ -157.918615777196123, 21.529228138051057 ], [ -157.919490926880371, 21.528506640672205 ], [ -157.918936717012343, 21.527332371125286 ], [ -157.918052448841308, 21.5270705762786 ], [ -157.918093349062872, 21.526494070239568 ], [ -157.91661188755802, 21.525404294366886 ], [ -157.916038748614113, 21.525432530623497 ], [ -157.915766802683976, 21.525143668618707 ], [ -157.914610760215538, 21.524801418470691 ], [ -157.915181194291648, 21.523784778364771 ], [ -157.915556007466819, 21.5234758361354 ], [ -157.915440053922964, 21.521415790563601 ], [ -157.915790906046027, 21.519722559660728 ], [ -157.916094826070918, 21.519741538365491 ], [ -157.91673317494292, 21.519422261853173 ], [ -157.916636557617466, 21.520780094689901 ], [ -157.91695438338661, 21.521117554313317 ], [ -157.91783380218618, 21.52107422959649 ], [ -157.917234623505408, 21.523111109886774 ], [ -157.918580525960834, 21.523806841392183 ], [ -157.919254308712539, 21.523555407387953 ], [ -157.919618009279844, 21.523179754260223 ], [ -157.921685642118405, 21.52364398441393 ], [ -157.922130202325746, 21.524116041901323 ], [ -157.924153305892048, 21.524714933928308 ], [ -157.922863600348506, 21.52577228928056 ], [ -157.921847187710512, 21.525709020684868 ], [ -157.921786911274665, 21.526555890928645 ], [ -157.922402923419583, 21.526525529930396 ], [ -157.922689480328813, 21.526829826545679 ], [ -157.92357813143758, 21.527092882490717 ], [ -157.923203215535437, 21.528049809085843 ], [ -157.925283920326336, 21.528516926718783 ], [ -157.924712815718323, 21.529285474559789 ], [ -157.923503311618703, 21.528974037935235 ], [ -157.922971330910428, 21.529000247281626 ], [ -157.922681809303782, 21.528982233545449 ], [ -157.922247169724187, 21.529003643430752 ], [ -157.921242044303028, 21.528941104958534 ], [ -157.921800568222579, 21.529534256847981 ], [ -157.922105570930341, 21.529792754318414 ], [ -157.92206706272114, 21.53033453980099 ], [ -157.922678758841187, 21.530853132251529 ], [ -157.922639611897807, 21.531405037183099 ], [ -157.923232793494975, 21.531711643715827 ], [ -157.923826606664989, 21.531971274212083 ], [ -157.924508701367643, 21.532323773818149 ], [ -157.92574231773753, 21.531918579450576 ], [ -157.926409555227593, 21.532484229893907 ], [ -157.92642819003396, 21.532816041690079 ], [ -157.925318438974585, 21.533128876708179 ], [ -157.924969122021537, 21.534161996464206 ], [ -157.924661181312814, 21.534415810606248 ], [ -157.924165914720078, 21.534927390968878 ], [ -157.922930483096337, 21.53565134982799 ], [ -157.923677168086613, 21.535820394192388 ], [ -157.924738267890092, 21.53547185846686 ], [ -157.925530247468515, 21.535521160867816 ], [ -157.925827943741012, 21.535506470431084 ], [ -157.926108235998953, 21.536377369673485 ], [ -157.926958791991211, 21.537098299896144 ], [ -157.92618541347079, 21.537172523881907 ], [ -157.925236214167569, 21.537113477355216 ], [ -157.924945178962787, 21.537414047893044 ], [ -157.923494567024392, 21.537719974123434 ], [ -157.924057780032143, 21.537951153996627 ], [ -157.924361140638183, 21.537936238236867 ], [ -157.925501696564993, 21.539323884551948 ], [ -157.926028613975063, 21.538779752335873 ], [ -157.926710047737714, 21.538746159353401 ], [ -157.926604812789463, 21.540227673257291 ], [ -157.927304898044781, 21.539504612928589 ], [ -157.929981904856703, 21.539671146557083 ], [ -157.930549784085514, 21.538534147060009 ], [ -157.931049694971989, 21.539396125022527 ], [ -157.930712625444556, 21.540710674779714 ], [ -157.929990457462992, 21.540337562667126 ], [ -157.929247912166517, 21.540949731832992 ], [ -157.928709310273206, 21.541506039944633 ], [ -157.927970031190853, 21.541460067762564 ], [ -157.929158841236045, 21.542467610741653 ], [ -157.928370212760598, 21.542861990809346 ], [ -157.927851331869988, 21.542311063411347 ], [ -157.927691108159365, 21.543596371967393 ], [ -157.92841568078785, 21.543970766872135 ], [ -157.929991552369046, 21.543893017261592 ], [ -157.93095842646008, 21.54471246883001 ], [ -157.930091349903819, 21.545040253587345 ], [ -157.929316588437302, 21.544217597590048 ], [ -157.928711097689188, 21.545039794882886 ], [ -157.929507882892096, 21.545000514402556 ], [ -157.929229979334536, 21.545573053489857 ], [ -157.928651292419289, 21.545537047249748 ], [ -157.928922340088974, 21.545841168436649 ], [ -157.929243695143839, 21.546113521627625 ], [ -157.929205206168604, 21.546655308640076 ], [ -157.929510256968939, 21.546913794078119 ], [ -157.929974701096626, 21.547406868964806 ], [ -157.930954017576568, 21.546917102138096 ], [ -157.931839648377093, 21.548075329110269 ], [ -157.932978179102719, 21.548019165751118 ], [ -157.933112063404877, 21.548435083900081 ] ], [ [ -157.918338413333942, 21.548339892967032 ], [ -157.918408860498232, 21.549751474166992 ], [ -157.919240990744271, 21.548992519760407 ], [ -157.918595127440199, 21.548781628929692 ], [ -157.918963956510254, 21.54842930433745 ], [ -157.918338413333942, 21.548339892967032 ] ], [ [ -157.928941133148754, 21.56412731423011 ], [ -157.929037869933154, 21.56445836971567 ], [ -157.929293678707126, 21.564222344873865 ], [ -157.928941133148754, 21.56412731423011 ] ], [ [ -157.928077977281674, 21.563308714415548 ], [ -157.928189447234388, 21.563925305807942 ], [ -157.928453435156683, 21.563461855684057 ], [ -157.928077977281674, 21.563308714415548 ] ], [ [ -157.925766293694863, 21.56248077886011 ], [ -157.925886247208666, 21.56365348607299 ], [ -157.9261621691588, 21.562703795847195 ], [ -157.925766293694863, 21.56248077886011 ] ], [ [ -157.924893175390622, 21.56301718067331 ], [ -157.924989902253884, 21.563348238140861 ], [ -157.925245715253993, 21.56311221967464 ], [ -157.924893175390622, 21.56301718067331 ] ], [ [ -157.926931106375122, 21.561675234317629 ], [ -157.927880872355615, 21.561871442710583 ], [ -157.92757584737052, 21.56100945253209 ], [ -157.926931106375122, 21.561675234317629 ], [ -157.926355369851393, 21.561402891568623 ], [ -157.925773725330373, 21.561664006175953 ], [ -157.926053904482558, 21.56221029296686 ], [ -157.92682787037964, 21.561862944485402 ], [ -157.926931106375122, 21.561675234317629 ] ], [ [ -157.92433774713038, 21.559761400611578 ], [ -157.924241023758725, 21.559430342785987 ], [ -157.923985215948562, 21.559666360012884 ], [ -157.92433774713038, 21.559761400611578 ], [ -157.924434470908182, 21.560092458386379 ], [ -157.924690278804235, 21.559856440482463 ], [ -157.92433774713038, 21.559761400611578 ] ], [ [ -157.925228820556214, 21.556785968488729 ], [ -157.925325544728764, 21.557117025864361 ], [ -157.925581345799202, 21.556881006233041 ], [ -157.925228820556214, 21.556785968488729 ] ], [ [ -157.923786339343508, 21.555963611446813 ], [ -157.923941237183755, 21.556308741517704 ], [ -157.92445176982713, 21.556077742412164 ], [ -157.923786339343508, 21.555963611446813 ] ], [ [ -157.91834443966647, 21.547526883068659 ], [ -157.918441142885655, 21.547857943892691 ], [ -157.918696937641329, 21.547621934357448 ], [ -157.91834443966647, 21.547526883068659 ] ], [ [ -157.919227519856065, 21.545635494569261 ], [ -157.919324224054918, 21.545966554986094 ], [ -157.919580013984898, 21.545730543844964 ], [ -157.919227519856065, 21.545635494569261 ] ] ] } },
{ "type": "Feature", "properties": { "ID": 19, "GRIDCODE": 2 }, "geometry": { "type": "Polygon", "coordinates": [ [ [ -157.914226984141379, 21.516875250249125 ], [ -157.915192278472887, 21.516995530844842 ], [ -157.914531588744325, 21.51744864322275 ], [ -157.914226984141379, 21.516875250249125 ] ] ] } },
{ "type": "Feature", "properties": { "ID": 20, "GRIDCODE": 2 }, "geometry": { "type": "Polygon", "coordinates": [ [ [ -157.913649766842923, 21.516600477667833 ], [ -157.914002187599635, 21.516695535962256 ], [ -157.913746442169582, 21.516931541111507 ], [ -157.913649766842923, 21.516600477667833 ] ] ] } },
{ "type": "Feature", "properties": { "ID": 21, "GRIDCODE": 1 }, "geometry": { "type": "Polygon", "coordinates": [ [ [ -158.145063294314781, 21.517675085580823 ], [ -158.145415888773755, 21.517769660838873 ], [ -158.145160500190258, 21.518006034311966 ], [ -158.145063294314781, 21.517675085580823 ] ] ] } },
{ "type": "Feature", "properties": { "ID": 22, "GRIDCODE": 1 }, "geometry": { "type": "Polygon", "coordinates": [ [ [ -158.145063294314781, 21.517675085580823 ], [ -158.14471070033801, 21.517580509591973 ], [ -158.144966088853295, 21.517344136794687 ], [ -158.145063294314781, 21.517675085580823 ] ] ] } },
{ "type": "Feature", "properties": { "ID": 23, "GRIDCODE": 1 }, "geometry": { "type": "Polygon", "coordinates": [ [ [ -158.143338178596025, 21.515497996715869 ], [ -158.143782641110505, 21.515625734449095 ], [ -158.144047486144132, 21.516189269408482 ], [ -158.144621069175003, 21.517163777485042 ], [ -158.143703209149407, 21.516655322696458 ], [ -158.143338178596025, 21.515497996715869 ] ] ] } },
{ "type": "Feature", "properties": { "ID": 24, "GRIDCODE": 1 }, "geometry": { "type": "Polygon", "coordinates": [ [ [ -158.131752885682289, 21.515438143925824 ], [ -158.13210546511317, 21.515532746858234 ], [ -158.131850059826348, 21.515769099438945 ], [ -158.131752885682289, 21.515438143925824 ] ] ] } },
{ "type": "Feature", "properties": { "ID": 25, "GRIDCODE": 2 }, "geometry": { "type": "Polygon", "coordinates": [ [ [ -157.911644657381061, 21.513606230235805 ], [ -157.911997069503002, 21.513701292438331 ], [ -157.911741326455257, 21.513937294682503 ], [ -157.911644657381061, 21.513606230235805 ] ] ] } },
{ "type": "Feature", "properties": { "ID": 26, "GRIDCODE": 1 }, "geometry": { "type": "Polygon", "coordinates": [ [ [ -158.151746977077721, 21.513914748975331 ], [ -158.152204666568565, 21.51403022401362 ], [ -158.152702351251122, 21.514687499849124 ], [ -158.153350190905428, 21.514571085575312 ], [ -158.153889322516449, 21.514959257475024 ], [ -158.151004141726389, 21.515485282141299 ], [ -158.150754432456409, 21.51438116200487 ], [ -158.151625145863761, 21.514072010813422 ], [ -158.151746977077721, 21.513914748975331 ] ] ] } },
{ "type": "Feature", "properties": { "ID": 27, "GRIDCODE": 1 }, "geometry": { "type": "Polygon", "coordinates": [ [ [ -158.155225675025406, 21.513390325097845 ], [ -158.155933124356011, 21.513946354525959 ], [ -158.154217025202541, 21.51483393834036 ], [ -158.15448588734489, 21.513780620936313 ], [ -158.155093439756399, 21.513537677656903 ], [ -158.155225675025406, 21.513390325097845 ] ] ] } },
{ "type": "Feature", "properties": { "ID": 28, "GRIDCODE": 1 }, "geometry": { "type": "Polygon", "coordinates": [ [ [ -158.147405686298384, 21.513350573145726 ], [ -158.147822250556857, 21.513702671221782 ], [ -158.148267185060149, 21.514623045662674 ], [ -158.149761789261191, 21.514547356648922 ], [ -158.15071670990821, 21.515348304626588 ], [ -158.149033491664653, 21.515705717377735 ], [ -158.147816662582386, 21.515631620119851 ], [ -158.147870232029788, 21.516558863948699 ], [ -158.146264484724554, 21.517886756116255 ], [ -158.145795259935625, 21.517735341684489 ], [ -158.146676194076235, 21.516237797196272 ], [ -158.146581271349447, 21.514594849614333 ], [ -158.147263496660059, 21.514306064449723 ], [ -158.147405686298384, 21.513350573145726 ] ] ] } },
{ "type": "Feature", "properties": { "ID": 29, "GRIDCODE": 1 }, "geometry": { "type": "Polygon", "coordinates": [ [ [ -158.138718427877137, 21.513034952639487 ], [ -158.139433314035301, 21.513661691495777 ], [ -158.138443807139623, 21.514230608699929 ], [ -158.138718427877137, 21.513034952639487 ] ] ] } },
{ "type": "Feature", "properties": { "ID": 30, "GRIDCODE": 1 }, "geometry": { "type": "Polygon", "coordinates": [ [ [ -158.134375621548514, 21.512741462372936 ], [ -158.135661508953973, 21.512945971219953 ], [ -158.136274072693197, 21.512864510581299 ], [ -158.136525049910944, 21.513447637301837 ], [ -158.137891733670244, 21.514222068148609 ], [ -158.136243485909716, 21.514642393039189 ], [ -158.135077607426012, 21.514206519855815 ], [ -158.134752668052641, 21.514937861554003 ], [ -158.133250329482564, 21.515768104423238 ], [ -158.133427144452611, 21.514689203031605 ], [ -158.134245359642335, 21.513435831185987 ], [ -158.134375621548514, 21.512741462372936 ] ] ] } },
{ "type": "Feature", "properties": { "ID": 31, "GRIDCODE": 1 }, "geometry": { "type": "Polygon", "coordinates": [ [ [ -158.131752885682289, 21.515438143925824 ], [ -158.130983762175902, 21.515041823453736 ], [ -158.129908478934482, 21.513477535814225 ], [ -158.130155465946899, 21.512540407985366 ], [ -158.131494204884774, 21.5128693579607 ], [ -158.131295507683888, 21.513678039682745 ], [ -158.131638829446757, 21.514735162153549 ], [ -158.131752885682289, 21.515438143925824 ] ] ] } },
{ "type": "Feature", "properties": { "ID": 32, "GRIDCODE": 1 }, "geometry": { "type": "Polygon", "coordinates": [ [ [ -158.142198731438839, 21.512239778593518 ], [ -158.142404702500244, 21.512374433106476 ], [ -158.142662407492594, 21.513478406686616 ], [ -158.142341738639459, 21.514621493366818 ], [ -158.141955082131233, 21.514091208666905 ], [ -158.140480178087671, 21.513655107705926 ], [ -158.139464233950349, 21.513862741607241 ], [ -158.140284142112961, 21.513153724142366 ], [ -158.141778225323833, 21.51280316902011 ], [ -158.142198731438839, 21.512239778593518 ] ] ] } },
{ "type": "Feature", "properties": { "ID": 33, "GRIDCODE": 1 }, "geometry": { "type": "Polygon", "coordinates": [ [ [ -158.156681639947777, 21.51204252899721 ], [ -158.157972932037723, 21.512738138467139 ], [ -158.158270750604288, 21.512717208654436 ], [ -158.158705005192303, 21.512752085301372 ], [ -158.159392887341568, 21.512703871502499 ], [ -158.159996423332132, 21.512960935033128 ], [ -158.157575597173746, 21.513462744410702 ], [ -158.156483222458888, 21.513831882008649 ], [ -158.156681639947777, 21.51204252899721 ] ] ] } },
{ "type": "Feature", "properties": { "ID": 34, "GRIDCODE": 1 }, "geometry": { "type": "Polygon", "coordinates": [ [ [ -158.130914602654059, 21.510284211375211 ], [ -158.131306617337344, 21.510570647707755 ], [ -158.131474291302112, 21.511674498733541 ], [ -158.13035816175622, 21.512296570816865 ], [ -158.130474307867416, 21.511315287380356 ], [ -158.130914602654059, 21.510284211375211 ] ] ] } },
{ "type": "Feature", "properties": { "ID": 35, "GRIDCODE": 1 }, "geometry": { "type": "Polygon", "coordinates": [ [ [ -158.132653940081411, 21.510022225348379 ], [ -158.13255284666036, 21.510352150581532 ], [ -158.132300272381229, 21.510113157449894 ], [ -158.132653940081411, 21.510022225348379 ] ] ] } },
{ "type": "Feature", "properties": { "ID": 36, "GRIDCODE": 2 }, "geometry": { "type": "Polygon", "coordinates": [ [ [ -157.906188722836816, 21.50733718804285 ], [ -157.90647831900381, 21.50733908478103 ], [ -157.906476292389129, 21.507610088322586 ], [ -157.906186695685733, 21.507608191558191 ], [ -157.906188722836816, 21.50733718804285 ] ] ] } },
{ "type": "Feature", "properties": { "ID": 37, "GRIDCODE": 2 }, "geometry": { "type": "Polygon", "coordinates": [ [ [ -157.906476292389129, 21.507610088322586 ], [ -157.907398620174661, 21.507074621495722 ], [ -157.907766963213959, 21.507495532660382 ], [ -157.908684697453936, 21.508219106032225 ], [ -157.909548888867022, 21.508576557904011 ], [ -157.908623803606957, 21.509102225837605 ], [ -157.908179903222958, 21.509595239653077 ], [ -157.909180880236107, 21.510384396401893 ], [ -157.908281072766897, 21.510742627987863 ], [ -157.909505321781694, 21.51100510392089 ], [ -157.91007172559182, 21.512859075112523 ], [ -157.911226798563661, 21.513184474727218 ], [ -157.91148688537757, 21.513542542159456 ], [ -157.909770286575224, 21.513173182938889 ], [ -157.909463208335524, 21.513200422771565 ], [ -157.908939791101858, 21.512048952850169 ], [ -157.906792083968213, 21.5104067520268 ], [ -157.906993668067486, 21.508676105167748 ], [ -157.906604524188907, 21.508029958669745 ], [ -157.906476292389129, 21.507610088322586 ] ] ] } },
{ "type": "Feature", "properties": { "ID": 38, "GRIDCODE": 1 }, "geometry": { "type": "Polygon", "coordinates": [ [ [ -158.132653940081411, 21.510022225348379 ], [ -158.132525044940849, 21.509579543588679 ], [ -158.131687467430197, 21.510046382923736 ], [ -158.131562802921678, 21.50922523310361 ], [ -158.132793924276854, 21.507689154318321 ], [ -158.132551212326092, 21.506074284057281 ], [ -158.132228883114777, 21.505294455972333 ], [ -158.132105259730764, 21.504869799300199 ], [ -158.132838571934172, 21.504714801707667 ], [ -158.133388936304982, 21.505029449352833 ], [ -158.13487292947687, 21.505273236387414 ], [ -158.135123970970682, 21.505483830967925 ], [ -158.133635206473002, 21.506045039868035 ], [ -158.13305936473887, 21.506735375694451 ], [ -158.133135173869675, 21.507234819718004 ], [ -158.135259816126478, 21.506952241179984 ], [ -158.134679167591827, 21.508312127188681 ], [ -158.135719340821623, 21.509072045396312 ], [ -158.135968605808159, 21.509584561213078 ], [ -158.134808337699667, 21.509880418604371 ], [ -158.134539414230176, 21.511041159969938 ], [ -158.133972120051396, 21.510142415818493 ], [ -158.13365183168284, 21.510185021680687 ], [ -158.133391950472088, 21.509866257998887 ], [ -158.132653940081411, 21.510022225348379 ] ] ] } },
{ "type": "Feature", "properties": { "ID": 39, "GRIDCODE": 1 }, "geometry": { "type": "Polygon", "coordinates": [ [ [ -158.132105259730764, 21.504869799300199 ], [ -158.131752705749534, 21.50477519711356 ], [ -158.132008091299269, 21.504538843733286 ], [ -158.132105259730764, 21.504869799300199 ] ] ] } },
{ "type": "Feature", "properties": { "ID": 40, "GRIDCODE": 1 }, "geometry": { "type": "Polygon", "coordinates": [ [ [ -158.131532475170303, 21.503782700335151 ], [ -158.131908015354298, 21.503935386906889 ], [ -158.131644775244155, 21.504399190134887 ], [ -158.131532475170303, 21.503782700335151 ] ] ] } },
{ "type": "Feature", "properties": { "ID": 41, "GRIDCODE": 1 }, "geometry": { "type": "Polygon", "coordinates": [ [ [ -158.131246085995173, 21.503239150171026 ], [ -158.131598635942765, 21.503333753308677 ], [ -158.131343251934737, 21.503570106145034 ], [ -158.131246085995173, 21.503239150171026 ] ] ] } },
{ "type": "Feature", "properties": { "ID": 42, "GRIDCODE": 1 }, "geometry": { "type": "Polygon", "coordinates": [ [ [ -158.153549083861151, 21.502811610141649 ], [ -158.154471539872446, 21.502981310126049 ], [ -158.153828521342518, 21.504668956730935 ], [ -158.154382417915684, 21.506337520679274 ], [ -158.158804437184699, 21.509407239304299 ], [ -158.160587942733542, 21.511739702240558 ], [ -158.160192041417275, 21.512389814924948 ], [ -158.159590558992249, 21.51177584251371 ], [ -158.15891499175126, 21.511183727904683 ], [ -158.157652915699629, 21.50966512091059 ], [ -158.157126940465929, 21.509204108480521 ], [ -158.156849549911271, 21.508920957036985 ], [ -158.156549965841293, 21.508930560578111 ], [ -158.155982673890037, 21.508645943148998 ], [ -158.155393908876817, 21.508382257226472 ], [ -158.154595919098227, 21.507567573111235 ], [ -158.154100931163839, 21.50754673740871 ], [ -158.152849988573934, 21.507586780962775 ], [ -158.152198529014953, 21.507015672111713 ], [ -158.153089223544782, 21.506251695965616 ], [ -158.152814124314261, 21.505648552682622 ], [ -158.15196598517926, 21.505268668378186 ], [ -158.151940112169342, 21.504560321944524 ], [ -158.1525350365321, 21.504050129058811 ], [ -158.152523309737433, 21.503730998847761 ], [ -158.153268876748484, 21.503091543815458 ], [ -158.153549083861151, 21.502811610141649 ] ] ] } },
{ "type": "Feature", "properties": { "ID": 43, "GRIDCODE": 1 }, "geometry": { "type": "Polygon", "coordinates": [ [ [ -158.1350254110572, 21.500819490795465 ], [ -158.135434290638017, 21.501096939361972 ], [ -158.135185400265215, 21.501528267631191 ], [ -158.134322057889307, 21.501363929568264 ], [ -158.134556553616477, 21.502601126192836 ], [ -158.13513071871418, 21.503457886327624 ], [ -158.133908480934679, 21.503408608557038 ], [ -158.133106914627774, 21.502864638786338 ], [ -158.132861082649299, 21.502539859730675 ], [ -158.132346495672067, 21.502632272915836 ], [ -158.131919530752725, 21.501995091455552 ], [ -158.133092248310589, 21.501306799063922 ], [ -158.134903573768042, 21.500976740440848 ], [ -158.1350254110572, 21.500819490795465 ] ] ] } },
{ "type": "Feature", "properties": { "ID": 44, "GRIDCODE": 1 }, "geometry": { "type": "Polygon", "coordinates": [ [ [ -158.151260521030053, 21.497921429244357 ], [ -158.15219687635124, 21.498151426121566 ], [ -158.152334310711836, 21.498739976300808 ], [ -158.152230178294957, 21.499164191922567 ], [ -158.152825246099468, 21.499553113369689 ], [ -158.153249457327263, 21.500632045855401 ], [ -158.154252063535552, 21.501856370683054 ], [ -158.153631169155403, 21.501945003095489 ], [ -158.152570819046048, 21.501291162495264 ], [ -158.151809326038432, 21.50102010362885 ], [ -158.152083490617315, 21.499903821432564 ], [ -158.151359802802205, 21.499430803846852 ], [ -158.151562568147654, 21.498604909737921 ], [ -158.151260521030053, 21.497921429244357 ] ] ] } },
{ "type": "Feature", "properties": { "ID": 45, "GRIDCODE": 1 }, "geometry": { "type": "Polygon", "coordinates": [ [ [ -158.134767864423253, 21.495397542882007 ], [ -158.135057456804589, 21.495399042439232 ], [ -158.135055854756388, 21.495670064941592 ], [ -158.134766261838848, 21.49566856536363 ], [ -158.134767864423253, 21.495397542882007 ] ] ] } },
{ "type": "Feature", "properties": { "ID": 46, "GRIDCODE": 1 }, "geometry": { "type": "Polygon", "coordinates": [ [ [ -158.135055854756388, 21.495670064941592 ], [ -158.136103642326191, 21.49550906978266 ], [ -158.137355172050377, 21.494008721247788 ], [ -158.137856103577576, 21.495172386165919 ], [ -158.138680665164713, 21.494712723661383 ], [ -158.13924033574466, 21.495003843248163 ], [ -158.137891440498066, 21.497070909891189 ], [ -158.139424454882572, 21.497478942213323 ], [ -158.138285280708345, 21.498292448602619 ], [ -158.138997187076541, 21.498812639806417 ], [ -158.137956358120732, 21.499205017442538 ], [ -158.138718862718349, 21.500402849592962 ], [ -158.138400727487692, 21.500683951714098 ], [ -158.136487826052615, 21.499968771570369 ], [ -158.136688331482134, 21.501289362341517 ], [ -158.135478673985546, 21.500789281980595 ], [ -158.136063186844495, 21.499893723070798 ], [ -158.136402374235331, 21.498777673730814 ], [ -158.136176143512955, 21.497288415332608 ], [ -158.135055854756388, 21.495670064941592 ] ] ] } },
{ "type": "Feature", "properties": { "ID": 47, "GRIDCODE": 1 }, "geometry": { "type": "Polygon", "coordinates": [ [ [ -158.134767864423253, 21.495397542882007 ], [ -158.133777073545076, 21.495126869946258 ], [ -158.131774620730482, 21.494053527060451 ], [ -158.131711803924162, 21.493558582860839 ], [ -158.132339571547391, 21.493093495670099 ], [ -158.132290803510131, 21.492709127801767 ], [ -158.132610226084068, 21.491684826370324 ], [ -158.133164323750293, 21.492339803612825 ], [ -158.133768859434554, 21.491641209852858 ], [ -158.134116758282346, 21.492804356477652 ], [ -158.134366199288621, 21.49256465916795 ], [ -158.134672624042167, 21.491894690674481 ], [ -158.135537534574951, 21.492550277195178 ], [ -158.134865273612405, 21.493607100035259 ], [ -158.134937828303009, 21.49417885055021 ], [ -158.134767864423253, 21.495397542882007 ] ] ] } },
{ "type": "Feature", "properties": { "ID": 48, "GRIDCODE": 1 }, "geometry": { "type": "Polygon", "coordinates": [ [ [ -158.128142768383043, 21.489400428245279 ], [ -158.129191024956214, 21.489534329454305 ], [ -158.129115270311445, 21.490359995879526 ], [ -158.130632339344828, 21.490627148323334 ], [ -158.130569599346074, 21.491310287740614 ], [ -158.130621069599442, 21.49195306237889 ], [ -158.129573824367213, 21.492026351889631 ], [ -158.128274331173913, 21.489817718342032 ], [ -158.128142768383043, 21.489400428245279 ] ] ] } },
{ "type": "Feature", "properties": { "ID": 49, "GRIDCODE": 1 }, "geometry": { "type": "Polygon", "coordinates": [ [ [ -158.128147611308179, 21.488587361596394 ], [ -158.128500124060423, 21.488681970177307 ], [ -158.128244761716957, 21.488918319380574 ], [ -158.128147611308179, 21.488587361596394 ] ] ] } },
{ "type": "Feature", "properties": { "ID": 50, "GRIDCODE": 2 }, "geometry": { "type": "Polygon", "coordinates": [ [ [ -157.89767849209079, 21.483702780996104 ], [ -157.897576895894474, 21.484032545123927 ], [ -157.897324764796451, 21.48379321264964 ], [ -157.89767849209079, 21.483702780996104 ] ] ] } },
{ "type": "Feature", "properties": { "ID": 51, "GRIDCODE": 1 }, "geometry": { "type": "Polygon", "coordinates": [ [ [ -158.130197205397309, 21.484803610968658 ], [ -158.130389768712803, 21.484949590725499 ], [ -158.13093141790759, 21.486290424688011 ], [ -158.130892718212806, 21.48656892998056 ], [ -158.130991186512858, 21.487345678108714 ], [ -158.130598773923282, 21.487636503867751 ], [ -158.130336515916497, 21.487939585724355 ], [ -158.1300339985074, 21.487902742707949 ], [ -158.12949462699018, 21.487962728880891 ], [ -158.128871565917677, 21.487615532474855 ], [ -158.128394311818028, 21.488167082028024 ], [ -158.128629072779887, 21.486759290699027 ], [ -158.130197205397309, 21.484803610968658 ] ] ] } },
{ "type": "Feature", "properties": { "ID": 52, "GRIDCODE": 1 }, "geometry": { "type": "Polygon", "coordinates": [ [ [ -158.151260521030053, 21.497921429244357 ], [ -158.15095317629499, 21.498175679900779 ], [ -158.150539894508654, 21.498603814876304 ], [ -158.149960882340963, 21.498568578608943 ], [ -158.149378724435451, 21.499171730406758 ], [ -158.149092418373016, 21.498579442236029 ], [ -158.148578098599302, 21.49860553924314 ], [ -158.147919525092163, 21.49831857758636 ], [ -158.147647153211238, 21.498030077410849 ], [ -158.147342325167813, 21.498045527398528 ], [ -158.146685345069926, 21.496686089602743 ], [ -158.145610734937122, 21.496936409375319 ], [ -158.144203614561548, 21.497945507739448 ], [ -158.143891146633194, 21.496656574619639 ], [ -158.143007455474475, 21.496396231524209 ], [ -158.142737528260369, 21.495837565210678 ], [ -158.142433030859252, 21.495580190292053 ], [ -158.141875104452566, 21.494749012892377 ], [ -158.141281019737562, 21.494490148286143 ], [ -158.141011102461476, 21.493931479393634 ], [ -158.140417022656379, 21.493672611851359 ], [ -158.139703237585252, 21.492609296313372 ], [ -158.138839001851011, 21.492556606461456 ], [ -158.138397123581029, 21.492578943512992 ], [ -158.138124781321579, 21.492290428595851 ], [ -158.1378202994986, 21.492033045678653 ], [ -158.13741291331948, 21.49160156792535 ], [ -158.136894991007438, 21.491163563017263 ], [ -158.135824092946109, 21.489568235200426 ], [ -158.134366107840776, 21.48849178390838 ], [ -158.134096227578198, 21.487933104702847 ], [ -158.133790917830083, 21.487674982611942 ], [ -158.133810551523851, 21.487391745835879 ], [ -158.133508601815578, 21.486590122962127 ], [ -158.133227419394188, 21.485720452499653 ], [ -158.132647906016501, 21.485230503281901 ], [ -158.131876623182904, 21.484413405831166 ], [ -158.131492923692321, 21.484667224309451 ], [ -158.130972352800399, 21.485206580158405 ], [ -158.131278164538003, 21.484139265287094 ], [ -158.133073437934144, 21.484478707582259 ], [ -158.133889815999339, 21.485585591974971 ], [ -158.134897672415605, 21.487671319585939 ], [ -158.137371848160797, 21.490291923862671 ], [ -158.138132761512622, 21.490935314347947 ], [ -158.138640203287991, 21.491472780721789 ], [ -158.139363042283492, 21.491787767793017 ], [ -158.143976947252838, 21.495502220031568 ], [ -158.145037788133322, 21.495864571983059 ], [ -158.146610852063816, 21.496147682692051 ], [ -158.149299664117194, 21.49713085000031 ], [ -158.149662689461763, 21.497515225878651 ], [ -158.150749173810567, 21.49746020746041 ], [ -158.15112475363469, 21.497777614076515 ], [ -158.151260521030053, 21.497921429244357 ] ] ] } },
{ "type": "Feature", "properties": { "ID": 53, "GRIDCODE": 2 }, "geometry": { "type": "Polygon", "coordinates": [ [ [ -157.892850416240719, 21.471204092527334 ], [ -157.892952012624363, 21.470874330851249 ], [ -157.893204115042153, 21.471113669022834 ], [ -157.892850416240719, 21.471204092527334 ] ] ] } },
{ "type": "Feature", "properties": { "ID": 54, "GRIDCODE": 2 }, "geometry": { "type": "Polygon", "coordinates": [ [ [ -157.892850416240719, 21.471204092527334 ], [ -157.892996443032473, 21.472702732768056 ], [ -157.892610761874266, 21.473339080074659 ], [ -157.894144234678436, 21.473233901995027 ], [ -157.894416221440252, 21.473312056626835 ], [ -157.893635937191334, 21.473932298636591 ], [ -157.893263633307527, 21.475417648802726 ], [ -157.892308666838659, 21.476176801258418 ], [ -157.892871838868444, 21.476637409633216 ], [ -157.893222077348696, 21.478129130537305 ], [ -157.893877442087302, 21.478084240683732 ], [ -157.894663214683192, 21.478950128749638 ], [ -157.895263580528507, 21.479205661655364 ], [ -157.895230819813634, 21.479556390900594 ], [ -157.894636551356456, 21.480028792886053 ], [ -157.895543252570235, 21.480290915892375 ], [ -157.896097792849162, 21.480699648911283 ], [ -157.894934499197433, 21.481370959910084 ], [ -157.89466481737233, 21.481584812411395 ], [ -157.896059520389741, 21.481987917568183 ], [ -157.896967973913064, 21.481925565586174 ], [ -157.897561289738434, 21.481974142306189 ], [ -157.897511626210672, 21.481340603568817 ], [ -157.898740926754414, 21.481441208021444 ], [ -157.898632530274796, 21.482600388690859 ], [ -157.898107244710388, 21.483018008542238 ], [ -157.89783495570083, 21.483578361676955 ], [ -157.89767849209079, 21.483702780996104 ], [ -157.897544372176782, 21.483019192946404 ], [ -157.897214232960238, 21.482756319912465 ], [ -157.896673183601763, 21.48329517994825 ], [ -157.895491430857362, 21.483243506189933 ], [ -157.89551977948247, 21.484058728993531 ], [ -157.895443557290747, 21.484360406340603 ], [ -157.893882769660109, 21.483574152684067 ], [ -157.893333450386791, 21.484643930122186 ], [ -157.894336553230858, 21.484613317945602 ], [ -157.894623473569283, 21.484907339664641 ], [ -157.895790737968724, 21.485175750975216 ], [ -157.896068094957656, 21.485332279927288 ], [ -157.894327860500681, 21.485708112315191 ], [ -157.893758587598853, 21.485862680592174 ], [ -157.895812239564293, 21.486786444614658 ], [ -157.894015756397096, 21.48814837266324 ], [ -157.894633365211945, 21.489233349706385 ], [ -157.895174017625493, 21.48869489208748 ], [ -157.895500051953405, 21.488416172024071 ], [ -157.896656687210083, 21.48846668886565 ], [ -157.896617223569223, 21.489256452658697 ], [ -157.897076536431399, 21.489660386020667 ], [ -157.897712203618738, 21.4890273338874 ], [ -157.898059321762474, 21.490079350350079 ], [ -157.89835837069856, 21.490342347995004 ], [ -157.898310757485888, 21.491295422958942 ], [ -157.898344355598994, 21.492260546206435 ], [ -157.897163942838063, 21.492208956693144 ], [ -157.897189915462718, 21.491689458943917 ], [ -157.895453851317001, 21.491446740303228 ], [ -157.896623496552962, 21.492475412580564 ], [ -157.896294823031582, 21.493046836110569 ], [ -157.896887670656696, 21.49331349737902 ], [ -157.898507044594311, 21.494372188058794 ], [ -157.898009450059874, 21.495237602218722 ], [ -157.898027816633089, 21.49576533239475 ], [ -157.898006501217509, 21.496192360540146 ], [ -157.897133754257396, 21.496570827796809 ], [ -157.897440259156838, 21.49684036081673 ], [ -157.897716685461546, 21.497123523555242 ], [ -157.8983711356762, 21.497417913236095 ], [ -157.900081213080853, 21.497365728812159 ], [ -157.898858689685738, 21.498751530883524 ], [ -157.899447315215468, 21.499564291562443 ], [ -157.899433505604406, 21.499839848788834 ], [ -157.89945736195196, 21.500521914377597 ], [ -157.900307912516212, 21.50010775840996 ], [ -157.901092324696663, 21.500911348360344 ], [ -157.90150497594874, 21.499720821820866 ], [ -157.902348373104331, 21.500145595491318 ], [ -157.902912280747557, 21.500128391850041 ], [ -157.904285997948989, 21.500188357218502 ], [ -157.904654400558115, 21.498784939355406 ], [ -157.904777104352434, 21.498525048907641 ], [ -157.905297130789506, 21.500100501894494 ], [ -157.904902775402093, 21.500437680471492 ], [ -157.904355475420573, 21.501503469813727 ], [ -157.903156841868878, 21.502023277932633 ], [ -157.904110588319298, 21.502575608543886 ], [ -157.905218729155706, 21.502036144621261 ], [ -157.905683875537648, 21.503445424041313 ], [ -157.906947215939624, 21.503406851639571 ], [ -157.907512275467781, 21.503880792586965 ], [ -157.906288005287308, 21.504234708619414 ], [ -157.905777687943726, 21.504212442173849 ], [ -157.905343182757377, 21.504225673051963 ], [ -157.90490835320486, 21.504206677723179 ], [ -157.90404536366367, 21.504241113271078 ], [ -157.904620782184963, 21.504747089998812 ], [ -157.905697980168071, 21.505850394007297 ], [ -157.906188722836816, 21.50733718804285 ], [ -157.905531947871992, 21.506759620595211 ], [ -157.90490225587439, 21.505833003117417 ], [ -157.90325368430868, 21.504383268059804 ], [ -157.902363297692943, 21.502585042641638 ], [ -157.899582112549353, 21.502021399606992 ], [ -157.897098949298481, 21.502612822055223 ], [ -157.895935436916915, 21.502259615185903 ], [ -157.896288781303411, 21.501645084182009 ], [ -157.896239397312627, 21.500225296545267 ], [ -157.896287873995419, 21.499254033771031 ], [ -157.894241353549404, 21.49642817487862 ], [ -157.893228050337143, 21.494936498905208 ], [ -157.891354865992724, 21.494367754225109 ], [ -157.891382031649783, 21.493824247903969 ], [ -157.891372382972719, 21.493548734517248 ], [ -157.891723142628337, 21.492938893132294 ], [ -157.891338206072732, 21.491154288043003 ], [ -157.891972508637451, 21.490612162177765 ], [ -157.892027179189739, 21.489516681587837 ], [ -157.891400858617715, 21.488389622322693 ], [ -157.891481530426944, 21.486773653011895 ], [ -157.890561552676047, 21.485964489703818 ], [ -157.889870575034621, 21.485256555292274 ], [ -157.889119438689846, 21.484595791770591 ], [ -157.889742649839036, 21.483760814422936 ], [ -157.889710632596348, 21.482836988797711 ], [ -157.889757976858562, 21.481888745633231 ], [ -157.889715620701281, 21.480668889988081 ], [ -157.889787481945945, 21.479228003879577 ], [ -157.88946789403559, 21.478900475819838 ], [ -157.888629433703812, 21.478162907318517 ], [ -157.888320027225546, 21.47753776340971 ], [ -157.88744182747547, 21.476449840027378 ], [ -157.888668876622347, 21.476095146403512 ], [ -157.88920021526863, 21.474562431425081 ], [ -157.889502748291079, 21.474303746424525 ], [ -157.889787490763837, 21.473482265345158 ], [ -157.890157589713112, 21.472515718359542 ], [ -157.890050343008369, 21.469429079934219 ], [ -157.890406310007108, 21.469692137351998 ], [ -157.890678569498192, 21.47051731644909 ], [ -157.89126708966586, 21.470782113302899 ], [ -157.891240093963177, 21.471322909497825 ], [ -157.891551583371324, 21.471336553810556 ], [ -157.891833918077907, 21.471055299840575 ], [ -157.892850416240719, 21.471204092527334 ] ] ] } },
{ "type": "Feature", "properties": { "ID": 55, "GRIDCODE": 2 }, "geometry": { "type": "Polygon", "coordinates": [ [ [ -157.891127634699956, 21.46929555777227 ], [ -157.89182623524664, 21.469473015188669 ], [ -157.890838730468175, 21.469940681456617 ], [ -157.891127634699956, 21.46929555777227 ] ] ] } },
{ "type": "Feature", "properties": { "ID": 56, "GRIDCODE": 2 }, "geometry": { "type": "Polygon", "coordinates": [ [ [ -157.884549142576162, 21.458682153568713 ], [ -157.884700582572663, 21.458045188493678 ], [ -157.885212278498955, 21.458347604369056 ], [ -157.884549142576162, 21.458682153568713 ] ] ] } },
{ "type": "Feature", "properties": { "ID": 57, "GRIDCODE": 2 }, "geometry": { "type": "Polygon", "coordinates": [ [ [ -157.877640622009466, 21.453486632288772 ], [ -157.877742237905409, 21.453156880120488 ], [ -157.877994285300048, 21.453396239317787 ], [ -157.877640622009466, 21.453486632288772 ] ] ] } },
{ "type": "Feature", "properties": { "ID": 58, "GRIDCODE": 2 }, "geometry": { "type": "Polygon", "coordinates": [ [ [ -157.878238253688551, 21.451051490414429 ], [ -157.878590492092172, 21.451146616357502 ], [ -157.878334811908474, 21.451382571590766 ], [ -157.878238253688551, 21.451051490414429 ] ] ] } },
{ "type": "Feature", "properties": { "ID": 59, "GRIDCODE": 2 }, "geometry": { "type": "Polygon", "coordinates": [ [ [ -157.8793982532722, 21.450788246002979 ], [ -157.879750491926103, 21.450883369511924 ], [ -157.879494814001077, 21.451119326626738 ], [ -157.8793982532722, 21.450788246002979 ] ] ] } },
{ "type": "Feature", "properties": { "ID": 60, "GRIDCODE": 2 }, "geometry": { "type": "Polygon", "coordinates": [ [ [ -157.874195908793666, 21.449669260589516 ], [ -157.874547999526925, 21.449764393848149 ], [ -157.874292598362473, 21.450000344664211 ], [ -157.874195908793666, 21.449669260589516 ] ] ] } },
{ "type": "Feature", "properties": { "ID": 61, "GRIDCODE": 2 }, "geometry": { "type": "Polygon", "coordinates": [ [ [ -157.874489547216939, 21.449129202877447 ], [ -157.87484163689237, 21.449224335475694 ], [ -157.874586237162106, 21.449460286816826 ], [ -157.874489547216939, 21.449129202877447 ] ] ] } },
{ "type": "Feature", "properties": { "ID": 62, "GRIDCODE": 2 }, "geometry": { "type": "Polygon", "coordinates": [ [ [ -157.877640622009466, 21.453486632288772 ], [ -157.876924395046473, 21.454534000218938 ], [ -157.877537853499632, 21.454964028369343 ], [ -157.882380215130837, 21.453562292480488 ], [ -157.882689116726112, 21.454058815798582 ], [ -157.881014411150943, 21.454506751152557 ], [ -157.880674001148577, 21.455564390322508 ], [ -157.880083171304193, 21.455242375617633 ], [ -157.879784629744108, 21.455573986816599 ], [ -157.879072729548227, 21.455501266019184 ], [ -157.878638176313984, 21.455539774006187 ], [ -157.878348896872041, 21.45551017741122 ], [ -157.877648971290398, 21.455572245121296 ], [ -157.877200009492412, 21.456070838092341 ], [ -157.876879216931883, 21.456316609313799 ], [ -157.87694965536943, 21.457012554202567 ], [ -157.877752294858283, 21.456589382361031 ], [ -157.87809313301139, 21.456624222114833 ], [ -157.878009466810511, 21.457342026702808 ], [ -157.878908194871656, 21.456868148753571 ], [ -157.879535350582813, 21.456932230657337 ], [ -157.87944972154969, 21.45766729241338 ], [ -157.879796601274904, 21.458243871556569 ], [ -157.879458118203388, 21.458788070819718 ], [ -157.879919293152597, 21.459151897157881 ], [ -157.88103873575028, 21.458561577601799 ], [ -157.881492791343163, 21.45908077644637 ], [ -157.882061047210698, 21.459529145585961 ], [ -157.883463216570533, 21.45878977368573 ], [ -157.884059448893026, 21.45885065510172 ], [ -157.884549142576162, 21.458682153568713 ], [ -157.884391570147272, 21.459363144215789 ], [ -157.88527164963341, 21.459630500149981 ], [ -157.885257638244184, 21.459911480922845 ], [ -157.886140543903508, 21.460179645273886 ], [ -157.885825947369909, 21.460726796048828 ], [ -157.888234879310488, 21.461575923652006 ], [ -157.889019785708939, 21.461552025628418 ], [ -157.889585420801467, 21.461940207701932 ], [ -157.887578981998246, 21.462520188397754 ], [ -157.888431063931449, 21.462903596417792 ], [ -157.888707411234378, 21.463186771679219 ], [ -157.889584983848835, 21.463453295267328 ], [ -157.889862609438609, 21.463568150200548 ], [ -157.8884118160139, 21.463987536402218 ], [ -157.887919667649385, 21.464477666426426 ], [ -157.88900712102236, 21.464807917278776 ], [ -157.888112026709337, 21.465340628270681 ], [ -157.887824854217683, 21.465626608076334 ], [ -157.886977764241095, 21.46437936362144 ], [ -157.885940964799687, 21.462947174310962 ], [ -157.882633966881826, 21.462333258400839 ], [ -157.88235763334032, 21.462050073653252 ], [ -157.881606022448437, 21.46171190320154 ], [ -157.880905634846556, 21.462052870654624 ], [ -157.880042543257105, 21.461763174998225 ], [ -157.879748574243166, 21.461772123832326 ], [ -157.87717968006848, 21.461659553808872 ], [ -157.876273816468853, 21.462561665885271 ], [ -157.875971286550879, 21.462820327342509 ], [ -157.875197608198135, 21.463590790661868 ], [ -157.874832755444999, 21.46172860787156 ], [ -157.874532404461263, 21.461187929480275 ], [ -157.874856278680056, 21.460910953793515 ], [ -157.87425248855368, 21.46037961416048 ], [ -157.874279870737723, 21.459832936082567 ], [ -157.874261133324211, 21.45929077771925 ], [ -157.874328928977718, 21.457936153107767 ], [ -157.874281010734563, 21.456554944866792 ], [ -157.87312809933033, 21.456036116576296 ], [ -157.87282668288978, 21.455121391539784 ], [ -157.872864766880696, 21.454359878248024 ], [ -157.871528924394141, 21.453184432488143 ], [ -157.873100119659227, 21.451841197685919 ], [ -157.873455147761462, 21.451149704460967 ], [ -157.873923919546343, 21.450335046640976 ], [ -157.874340494053854, 21.450353332279274 ], [ -157.875509053203331, 21.449526833912635 ], [ -157.87608360729655, 21.449551999255444 ], [ -157.876364643588772, 21.449272151022811 ], [ -157.877236771359264, 21.44879565322907 ], [ -157.876649970601704, 21.44981609982888 ], [ -157.876058330262907, 21.451208695996566 ], [ -157.875471103355665, 21.451710855388647 ], [ -157.875828660863164, 21.451978716486657 ], [ -157.877026459856921, 21.451395631071648 ], [ -157.878083330631483, 21.451660834733378 ], [ -157.876629211453803, 21.452526126036279 ], [ -157.875575071067601, 21.453194866238459 ], [ -157.875176630784694, 21.454644401858076 ], [ -157.877003462103232, 21.453272742705767 ], [ -157.877640622009466, 21.453486632288772 ] ] ] } },
{ "type": "Feature", "properties": { "ID": 63, "GRIDCODE": 2 }, "geometry": { "type": "Polygon", "coordinates": [ [ [ -157.874493706491251, 21.448587197887147 ], [ -157.874845794885942, 21.448682330425797 ], [ -157.874590396149671, 21.448918281829886 ], [ -157.874493706491251, 21.448587197887147 ] ] ] } },
{ "type": "Feature", "properties": { "ID": 64, "GRIDCODE": 2 }, "geometry": { "type": "Polygon", "coordinates": [ [ [ -157.874502024647143, 21.447503187799004 ], [ -157.875208145704335, 21.447697368817668 ], [ -157.874695213421148, 21.448153245968115 ], [ -157.874502024647143, 21.447503187799004 ] ] ] } },
{ "type": "Feature", "properties": { "ID": 65, "GRIDCODE": 2 }, "geometry": { "type": "Polygon", "coordinates": [ [ [ -157.873954279654356, 21.443434254947274 ], [ -157.874306355438847, 21.443529388120911 ], [ -157.874050965263876, 21.443765339199189 ], [ -157.873954279654356, 21.443434254947274 ] ] ] } },
{ "type": "Feature", "properties": { "ID": 66, "GRIDCODE": 2 }, "geometry": { "type": "Polygon", "coordinates": [ [ [ -157.873104613344964, 21.440989387360386 ], [ -157.873456682700208, 21.441084522067221 ], [ -157.873201295676836, 21.441320472043117 ], [ -157.873104613344964, 21.440989387360386 ] ] ] } },
{ "type": "Feature", "properties": { "ID": 67, "GRIDCODE": 2 }, "geometry": { "type": "Polygon", "coordinates": [ [ [ -157.872821397130309, 21.440174430660182 ], [ -157.873173464342671, 21.440269565877983 ], [ -157.872918078369793, 21.440505515486478 ], [ -157.872821397130309, 21.440174430660182 ] ] ] } },
{ "type": "Feature", "properties": { "ID": 68, "GRIDCODE": 2 }, "geometry": { "type": "Polygon", "coordinates": [ [ [ -157.865324781225411, 21.436329558576166 ], [ -157.865989615267267, 21.43644389867946 ], [ -157.865479284384662, 21.436674735365155 ], [ -157.865324781225411, 21.436329558576166 ] ] ] } },
{ "type": "Feature", "properties": { "ID": 69, "GRIDCODE": 2 }, "geometry": { "type": "Polygon", "coordinates": [ [ [ -157.861882882879883, 21.432240955727384 ], [ -157.862309125789608, 21.432390740883868 ], [ -157.8630325911314, 21.432341266201774 ], [ -157.863751682383224, 21.432491646413553 ], [ -157.863153818526342, 21.433477895926789 ], [ -157.865210779973154, 21.433744074089994 ], [ -157.865477358932708, 21.433925124500139 ], [ -157.864589763971253, 21.434288777961576 ], [ -157.864962237433645, 21.434593748484872 ], [ -157.865629147247404, 21.434548180364441 ], [ -157.867494701451136, 21.43507776490728 ], [ -157.865274110691644, 21.435534295920238 ], [ -157.864904411136479, 21.435930242026625 ], [ -157.864469230915802, 21.436276250912329 ], [ -157.86272110375927, 21.436132847373962 ], [ -157.861575917092438, 21.436211146508874 ], [ -157.861815718609193, 21.433648247898532 ], [ -157.861428928468257, 21.432639166725377 ], [ -157.861747773572205, 21.432385602668493 ], [ -157.861882882879883, 21.432240955727384 ] ] ] } },
{ "type": "Feature", "properties": { "ID": 70, "GRIDCODE": 2 }, "geometry": { "type": "Polygon", "coordinates": [ [ [ -157.859584179081907, 21.430057188241697 ], [ -157.860851199497546, 21.430190931731985 ], [ -157.860003160249335, 21.430704167236751 ], [ -157.859584179081907, 21.430057188241697 ] ] ] } },
{ "type": "Feature", "properties": { "ID": 71, "GRIDCODE": 2 }, "geometry": { "type": "Polygon", "coordinates": [ [ [ -157.858443281158884, 21.427881287010113 ], [ -157.859723321274458, 21.428374210176013 ], [ -157.85871169852544, 21.428623381844627 ], [ -157.858265369359486, 21.428295927658446 ], [ -157.858443281158884, 21.427881287010113 ] ] ] } },
{ "type": "Feature", "properties": { "ID": 72, "GRIDCODE": 2 }, "geometry": { "type": "Polygon", "coordinates": [ [ [ -157.855265842780398, 21.427046551473314 ], [ -157.857401207234233, 21.427176394112035 ], [ -157.856317508131553, 21.427970135170071 ], [ -157.855018802346962, 21.427553017422518 ], [ -157.855265842780398, 21.427046551473314 ] ] ] } },
{ "type": "Feature", "properties": { "ID": 73, "GRIDCODE": 2 }, "geometry": { "type": "Polygon", "coordinates": [ [ [ -157.846650988160832, 21.41831495637728 ], [ -157.846752785702165, 21.417985224648092 ], [ -157.847004440051165, 21.418224624619029 ], [ -157.846650988160832, 21.41831495637728 ] ] ] } },
{ "type": "Feature", "properties": { "ID": 74, "GRIDCODE": 2 }, "geometry": { "type": "Polygon", "coordinates": [ [ [ -157.851287980252806, 21.417533766319369 ], [ -157.851389766896801, 21.417204031250552 ], [ -157.851641427887301, 21.417443424555955 ], [ -157.851287980252806, 21.417533766319369 ] ] ] } },
{ "type": "Feature", "properties": { "ID": 75, "GRIDCODE": 2 }, "geometry": { "type": "Polygon", "coordinates": [ [ [ -157.845216698424252, 21.416678983878285 ], [ -157.845568689223029, 21.416774174093796 ], [ -157.845313303810201, 21.417010082090712 ], [ -157.845216698424252, 21.416678983878285 ] ] ] } },
{ "type": "Feature", "properties": { "ID": 76, "GRIDCODE": 2 }, "geometry": { "type": "Polygon", "coordinates": [ [ [ -157.853613861710016, 21.416194616811499 ], [ -157.85488075541582, 21.416328400113894 ], [ -157.854364222354207, 21.417180462107389 ], [ -157.853714822070572, 21.417382723045726 ], [ -157.853476597584006, 21.417739051158449 ], [ -157.852597960438402, 21.417363234368487 ], [ -157.852046142448387, 21.417520039268641 ], [ -157.852269873340646, 21.417101814973257 ], [ -157.853475740056638, 21.416726242051944 ], [ -157.853613861710016, 21.416194616811499 ] ] ] } },
{ "type": "Feature", "properties": { "ID": 77, "GRIDCODE": 2 }, "geometry": { "type": "Polygon", "coordinates": [ [ [ -157.839205441743985, 21.408235975091944 ], [ -157.839341235462626, 21.408648599405705 ], [ -157.839972197561366, 21.409204063143982 ], [ -157.840771378598902, 21.409179950565363 ], [ -157.841937735658206, 21.409688558899788 ], [ -157.840488205061007, 21.410001293366278 ], [ -157.840207892090916, 21.41028069088415 ], [ -157.839317378397567, 21.410810468905812 ], [ -157.839657561881268, 21.411110107721807 ], [ -157.841679711282126, 21.411049064797027 ], [ -157.841343577225445, 21.411633301430498 ], [ -157.841050437872269, 21.413538703224432 ], [ -157.840616126518142, 21.414672030637359 ], [ -157.842192561343012, 21.414078307395187 ], [ -157.844231756791942, 21.413831691508989 ], [ -157.844836938933867, 21.413537125576667 ], [ -157.844783638393551, 21.414600573359099 ], [ -157.843002866394045, 21.41490614748507 ], [ -157.842190971444154, 21.415714710019515 ], [ -157.841888202722146, 21.415973310961196 ], [ -157.841316163553955, 21.416543212208769 ], [ -157.842178994614073, 21.416517152644239 ], [ -157.842473123679838, 21.416530102284831 ], [ -157.84308513003478, 21.416232216020617 ], [ -157.844356015008231, 21.416288162761798 ], [ -157.843893212337463, 21.417093185989877 ], [ -157.844814568160757, 21.41706533330489 ], [ -157.844174095164249, 21.418179185300236 ], [ -157.845348203611877, 21.418143677903075 ], [ -157.845707079620212, 21.419233520813577 ], [ -157.84649960485396, 21.418444260971111 ], [ -157.846650988160832, 21.41831495637728 ], [ -157.846823170789492, 21.418992555543515 ], [ -157.846711666048208, 21.419442576179289 ], [ -157.848295042163443, 21.418832567791839 ], [ -157.848204006071882, 21.418439048728317 ], [ -157.849138446305972, 21.418221366264053 ], [ -157.849666651335582, 21.41790435362412 ], [ -157.851287980252806, 21.417533766319369 ], [ -157.850961144981284, 21.417871419736976 ], [ -157.849029396036485, 21.419260944062465 ], [ -157.849957660562865, 21.420049201729128 ], [ -157.849680786106632, 21.420105725323019 ], [ -157.849379064113322, 21.42008678096791 ], [ -157.848985089130224, 21.420875286601774 ], [ -157.847995021634205, 21.41982239818396 ], [ -157.847896706252328, 21.420609228632973 ], [ -157.848480171541269, 21.421104588280649 ], [ -157.848529485318807, 21.421989036018804 ], [ -157.847154727577418, 21.422376244898775 ], [ -157.84763711360381, 21.422785888718352 ], [ -157.847937893479326, 21.423105752351894 ], [ -157.848792407430921, 21.423063921632487 ], [ -157.849200774081595, 21.424335458715124 ], [ -157.849841940241134, 21.423673439597266 ], [ -157.850220748677344, 21.424461561929977 ], [ -157.85194986798777, 21.42437695242214 ], [ -157.851609000703007, 21.424808267263671 ], [ -157.850799897404613, 21.425475294442396 ], [ -157.851402424553839, 21.426211487125158 ], [ -157.852508846967709, 21.425658314775291 ], [ -157.852532410098661, 21.426079291561777 ], [ -157.852494033643495, 21.426613450874903 ], [ -157.85310852935217, 21.426361862355055 ], [ -157.853790144365632, 21.426021142131784 ], [ -157.854827925157167, 21.42647578758621 ], [ -157.853932720598209, 21.427165333157468 ], [ -157.850359137281231, 21.426786787605035 ], [ -157.849894914497213, 21.426293046578142 ], [ -157.848748562518836, 21.426349153267971 ], [ -157.84880127168239, 21.425610972103286 ], [ -157.848488384163318, 21.424959866412674 ], [ -157.847895142280549, 21.424699989668913 ], [ -157.847381457568304, 21.423631516044388 ], [ -157.846475163494489, 21.423319921859541 ], [ -157.845485631123495, 21.423026341821977 ], [ -157.843959576149359, 21.422236118890261 ], [ -157.842706815621028, 21.421954071575094 ], [ -157.841211971561592, 21.420363963489677 ], [ -157.839675695455384, 21.419908100435013 ], [ -157.839191629506757, 21.419393219559002 ], [ -157.837696532882546, 21.418879067568675 ], [ -157.835824060469605, 21.41933471805212 ], [ -157.836976316657854, 21.417383686337967 ], [ -157.836941423355768, 21.416757251600448 ], [ -157.837063442818362, 21.415053735124605 ], [ -157.836500934130839, 21.413882997130063 ], [ -157.836133212403382, 21.41349185199627 ], [ -157.835580140457409, 21.413022202822393 ], [ -157.835528171161911, 21.41209042649885 ], [ -157.836712791574683, 21.411327756719569 ], [ -157.838406537149922, 21.410335505557512 ], [ -157.838767342914053, 21.40859718317466 ], [ -157.839205441743985, 21.408235975091944 ] ], [ [ -157.84374404681293, 21.419921011034919 ], [ -157.843840650592057, 21.420252109917772 ], [ -157.844096044160409, 21.420016204616196 ], [ -157.84374404681293, 21.419921011034919 ] ], [ [ -157.841435122260663, 21.419092013892076 ], [ -157.841531720316368, 21.419423113879105 ], [ -157.841787115902321, 21.419187212177697 ], [ -157.841435122260663, 21.419092013892076 ] ], [ [ -157.839994465897234, 21.418268999838261 ], [ -157.840091060216452, 21.418600100516638 ], [ -157.840346456503852, 21.418364201029156 ], [ -157.839994465897234, 21.418268999838261 ] ], [ [ -157.838270843426955, 21.416630967263998 ], [ -157.838367432922524, 21.416962068774954 ], [ -157.838622828858433, 21.416726171866763 ], [ -157.838270843426955, 21.416630967263998 ] ] ] } },
{ "type": "Feature", "properties": { "ID": 78, "GRIDCODE": 2 }, "geometry": { "type": "Polygon", "coordinates": [ [ [ -157.839205441743985, 21.408235975091944 ], [ -157.83886583242122, 21.406755543911974 ], [ -157.839662541490782, 21.407007065958339 ], [ -157.839924990844992, 21.407307290700388 ], [ -157.840780245231343, 21.407231625563853 ], [ -157.839205441743985, 21.408235975091944 ] ] ] } },
{ "type": "Feature", "properties": { "ID": 79, "GRIDCODE": 2 }, "geometry": { "type": "Polygon", "coordinates": [ [ [ -157.840403637470388, 21.403094975914154 ], [ -157.839937846884993, 21.403744479685088 ], [ -157.839626893561217, 21.40450568322364 ], [ -157.839052480339376, 21.403198105881575 ], [ -157.840403637470388, 21.403094975914154 ] ] ] } },
{ "type": "Feature", "properties": { "ID": 80, "GRIDCODE": 2 }, "geometry": { "type": "Polygon", "coordinates": [ [ [ -157.840403637470388, 21.403094975914154 ], [ -157.840505436533789, 21.402765247551404 ], [ -157.840757055429009, 21.403004655695181 ], [ -157.840403637470388, 21.403094975914154 ] ] ] } },
{ "type": "Feature", "properties": { "ID": 81, "GRIDCODE": 2 }, "geometry": { "type": "Polygon", "coordinates": [ [ [ -157.82919753236348, 21.392989532609977 ], [ -157.829299348032521, 21.392659811489487 ], [ -157.829550931366043, 21.392899235118286 ], [ -157.82919753236348, 21.392989532609977 ] ] ] } },
{ "type": "Feature", "properties": { "ID": 82, "GRIDCODE": 2 }, "geometry": { "type": "Polygon", "coordinates": [ [ [ -157.82919753236348, 21.392989532609977 ], [ -157.82903895682847, 21.393384890756131 ], [ -157.828752739953217, 21.395578271974518 ], [ -157.827500654643103, 21.395137657719836 ], [ -157.826972517475411, 21.395557424608253 ], [ -157.827014813253356, 21.396100742577524 ], [ -157.825542792681972, 21.396341603552365 ], [ -157.821618481602883, 21.397940156596388 ], [ -157.821069732641348, 21.397614072492484 ], [ -157.821776656665548, 21.396857210696425 ], [ -157.822089512456216, 21.396608508761311 ], [ -157.822359736158973, 21.396319278071282 ], [ -157.822799721389629, 21.395969572431198 ], [ -157.823272020141474, 21.393629498228346 ], [ -157.823230256525932, 21.393092072206269 ], [ -157.823566706605249, 21.392824675343196 ], [ -157.823836920183481, 21.392535441691276 ], [ -157.824267788560604, 21.392193078086073 ], [ -157.82383734060079, 21.391457936273422 ], [ -157.824164400949144, 21.391197948845029 ], [ -157.823598319037558, 21.389719873245856 ], [ -157.824189375802405, 21.38874502995656 ], [ -157.823035843647716, 21.386838512564996 ], [ -157.822517309499347, 21.386413794708162 ], [ -157.822445584386685, 21.385489353116377 ], [ -157.822478336646185, 21.385139632523703 ], [ -157.821585305528771, 21.384408052825094 ], [ -157.821612482181848, 21.384119628881454 ], [ -157.820758764073588, 21.383420279286156 ], [ -157.820709826330699, 21.38279202269683 ], [ -157.821606308819383, 21.382490916246379 ], [ -157.822046836950335, 21.382527159050394 ], [ -157.822481110647772, 21.382497521890219 ], [ -157.822914861396555, 21.382533251691999 ], [ -157.823396068063772, 21.382500434663541 ], [ -157.823926586685133, 21.383086082547155 ], [ -157.824269335464834, 21.382380842085578 ], [ -157.825090405815502, 21.382817465980192 ], [ -157.825371875625308, 21.381964839596517 ], [ -157.826237549498586, 21.38254879065644 ], [ -157.827492131756998, 21.382236659461501 ], [ -157.82811493333611, 21.383300657018875 ], [ -157.827657288899246, 21.384241844306572 ], [ -157.827080848407888, 21.384699983009941 ], [ -157.827123646463093, 21.385251112596389 ], [ -157.825647986262567, 21.385855534509876 ], [ -157.826201384026263, 21.386338779009716 ], [ -157.827143039271618, 21.386611484707799 ], [ -157.827646694792634, 21.387167556246744 ], [ -157.828742948938441, 21.386799260626812 ], [ -157.82916782880406, 21.38752548556776 ], [ -157.82734166273994, 21.388494760851149 ], [ -157.827071463598202, 21.388784000944298 ], [ -157.82592052870109, 21.389698761987738 ], [ -157.825839298160957, 21.390564435266395 ], [ -157.827439264274005, 21.391246549989212 ], [ -157.826854253617228, 21.392704721809029 ], [ -157.828753749099832, 21.392860983362102 ], [ -157.82919753236348, 21.392989532609977 ] ] ] } },
{ "type": "Feature", "properties": { "ID": 83, "GRIDCODE": 2 }, "geometry": { "type": "Polygon", "coordinates": [ [ [ -157.806551143331319, 21.366541552934322 ], [ -157.807630788854851, 21.367303844050294 ], [ -157.809169373930416, 21.366904076211558 ], [ -157.809564467997859, 21.36780104094257 ], [ -157.809868474289033, 21.367767798082106 ], [ -157.810157512856563, 21.367803591658912 ], [ -157.81044709666179, 21.367771899651309 ], [ -157.810944729507241, 21.367833452806885 ], [ -157.811328178708209, 21.368704526716581 ], [ -157.81189881136504, 21.369139106794147 ], [ -157.812148052520428, 21.370115888017899 ], [ -157.811042004908444, 21.371848212629885 ], [ -157.810572421694701, 21.372195232214509 ], [ -157.80959265281632, 21.372074017535134 ], [ -157.80925874092199, 21.370947495316283 ], [ -157.808483953797833, 21.370357291344693 ], [ -157.807242453454762, 21.370493044887297 ], [ -157.806463957270751, 21.370396665309343 ], [ -157.806114734023907, 21.368827050433381 ], [ -157.804384534037098, 21.368463528175422 ], [ -157.804963836215876, 21.368035857274407 ], [ -157.805440139202119, 21.367487228433372 ], [ -157.806416981158662, 21.367233154139427 ], [ -157.806551143331319, 21.366541552934322 ] ] ] } },
{ "type": "Feature", "properties": { "ID": 84, "GRIDCODE": 2 }, "geometry": { "type": "Polygon", "coordinates": [ [ [ -157.794221807570466, 21.352902765756856 ], [ -157.794323667964079, 21.352573066677774 ], [ -157.794575126589052, 21.352812538028729 ], [ -157.794221807570466, 21.352902765756856 ] ] ] } },
{ "type": "Feature", "properties": { "ID": 85, "GRIDCODE": 2 }, "geometry": { "type": "Polygon", "coordinates": [ [ [ -157.794221807570466, 21.352902765756856 ], [ -157.794075624838968, 21.354402348749893 ], [ -157.793423279752545, 21.354920833289409 ], [ -157.793500705018943, 21.355919825944202 ], [ -157.792900734640767, 21.356562016634044 ], [ -157.792326010638732, 21.357018792547937 ], [ -157.791994388239232, 21.357700557391166 ], [ -157.791263247946091, 21.358281587342205 ], [ -157.790653851024643, 21.358933956820664 ], [ -157.789526875177586, 21.359583850415792 ], [ -157.788834043200325, 21.360726557735724 ], [ -157.788168497457661, 21.362741120039033 ], [ -157.787057831609872, 21.360856123019019 ], [ -157.786794636267189, 21.360292081249021 ], [ -157.784848713944058, 21.359863153256427 ], [ -157.784461741390459, 21.359201214108229 ], [ -157.784782823766761, 21.358671569605448 ], [ -157.78508487981037, 21.358050610972931 ], [ -157.785659629121909, 21.357593861159312 ], [ -157.785934310961693, 21.356762694105399 ], [ -157.786257671334283, 21.356229555914652 ], [ -157.78589594204297, 21.355933100963355 ], [ -157.78596994126562, 21.355146930573778 ], [ -157.785949008397807, 21.354875766174473 ], [ -157.785975024438301, 21.354598456969157 ], [ -157.785407239192438, 21.353114763053945 ], [ -157.78570398742167, 21.352656133644999 ], [ -157.786987542973691, 21.352130726889158 ], [ -157.787766263975783, 21.350846323243108 ], [ -157.787701664741235, 21.350010188418029 ], [ -157.787765147253765, 21.349333113168253 ], [ -157.787723275430551, 21.348790784207686 ], [ -157.787799735733131, 21.347978295773324 ], [ -157.787736645566014, 21.34716480018578 ], [ -157.787902894830495, 21.345395678366764 ], [ -157.787352988509497, 21.341361177564281 ], [ -157.78812257965572, 21.34221126576816 ], [ -157.789710859263266, 21.342889066670757 ], [ -157.78867382053491, 21.343713358783972 ], [ -157.788531754228558, 21.345222560281776 ], [ -157.790825253553407, 21.345066524089361 ], [ -157.7903393056651, 21.346277227923782 ], [ -157.790378143389574, 21.346777321345701 ], [ -157.790302628202483, 21.347579761322276 ], [ -157.790953526974363, 21.347062534348773 ], [ -157.791677157287012, 21.346287848641275 ], [ -157.79267466975233, 21.346219988931715 ], [ -157.792404309178465, 21.346530942236942 ], [ -157.792091517099095, 21.346779592903964 ], [ -157.791821332630008, 21.347068777987996 ], [ -157.791238966964727, 21.347531584284354 ], [ -157.791501709397693, 21.348150533737492 ], [ -157.791926853100165, 21.348498975528869 ], [ -157.791491555151026, 21.349216915374488 ], [ -157.791523472621265, 21.349631208350569 ], [ -157.791457846833481, 21.350330568018194 ], [ -157.793116743985223, 21.349917978309378 ], [ -157.792616660352621, 21.351164448282173 ], [ -157.793598093749438, 21.351097659822624 ], [ -157.792061234856646, 21.353095462736501 ], [ -157.792336040405473, 21.353312542824689 ], [ -157.792911121116816, 21.353017344675177 ], [ -157.793424390022238, 21.353059739689112 ], [ -157.794221807570466, 21.352902765756856 ] ], [ [ -157.78875221054605, 21.349611247283899 ], [ -157.788584365208862, 21.351884273287187 ], [ -157.787013580503952, 21.353635580834251 ], [ -157.787523974637878, 21.354508149610997 ], [ -157.787386505970431, 21.355970204718652 ], [ -157.787428377159898, 21.356512533348432 ], [ -157.787377586074882, 21.357054192826258 ], [ -157.787421248685121, 21.357619162873924 ], [ -157.786515031277361, 21.359113575915682 ], [ -157.787923331587422, 21.359263488979519 ], [ -157.789103108506566, 21.358411653516566 ], [ -157.790259139174509, 21.357938434726513 ], [ -157.790323535132757, 21.357252565371383 ], [ -157.789921607589008, 21.355966723133644 ], [ -157.789418480834058, 21.355410880825357 ], [ -157.788570160379635, 21.355468546754533 ], [ -157.789238697746413, 21.354460111799121 ], [ -157.790097508190655, 21.353777784276193 ], [ -157.790016776650816, 21.352737016597704 ], [ -157.79004308598283, 21.352457392695264 ], [ -157.789128806489913, 21.351707964821571 ], [ -157.789198155384668, 21.3509695297371 ], [ -157.789166747424503, 21.350562783160633 ], [ -157.789242892675531, 21.34975346761729 ], [ -157.78875221054605, 21.349611247283899 ] ] ] } },
{ "type": "Feature", "properties": { "ID": 86, "GRIDCODE": 2 }, "geometry": { "type": "Polygon", "coordinates": [ [ [ -157.787090137591292, 21.340655809496386 ], [ -157.787464874186725, 21.340809239007545 ], [ -157.787200888568719, 21.341272476733966 ], [ -157.787090137591292, 21.340655809496386 ] ] ] } },
{ "type": "Feature", "properties": { "ID": 87, "GRIDCODE": 2 }, "geometry": { "type": "Polygon", "coordinates": [ [ [ -157.779896869033308, 21.33599650702314 ], [ -157.780860832402027, 21.336117505657164 ], [ -157.780641647254782, 21.336490742128586 ], [ -157.779992549182623, 21.336177171355697 ], [ -157.779896869033308, 21.33599650702314 ] ] ] } },
{ "type": "Feature", "properties": { "ID": 88, "GRIDCODE": 2 }, "geometry": { "type": "Polygon", "coordinates": [ [ [ -157.777302644305593, 21.334893600475311 ], [ -157.778009117318732, 21.335338407226526 ], [ -157.779030871546297, 21.335131590169286 ], [ -157.779727655305464, 21.335758208042847 ], [ -157.778278550199843, 21.336095444578039 ], [ -157.777252403532572, 21.336490464989879 ], [ -157.776263151980231, 21.335876594956382 ], [ -157.776023963780119, 21.335322836271828 ], [ -157.777183245577959, 21.335053050276382 ], [ -157.777302644305593, 21.334893600475311 ] ] ] } },
{ "type": "Feature", "properties": { "ID": 89, "GRIDCODE": 2 }, "geometry": { "type": "Polygon", "coordinates": [ [ [ -157.772396790346448, 21.333502773968195 ], [ -157.772748529924968, 21.333598106375828 ], [ -157.772493185093566, 21.333833907102441 ], [ -157.772396790346448, 21.333502773968195 ] ] ] } },
{ "type": "Feature", "properties": { "ID": 90, "GRIDCODE": 2 }, "geometry": { "type": "Polygon", "coordinates": [ [ [ -157.771820566504431, 21.333227551510841 ], [ -157.77217230499781, 21.333322885078214 ], [ -157.771916959793828, 21.333558684915285 ], [ -157.771820566504431, 21.333227551510841 ] ] ] } },
{ "type": "Feature", "properties": { "ID": 91, "GRIDCODE": 2 }, "geometry": { "type": "Polygon", "coordinates": [ [ [ -157.76749556338109, 21.331569816851374 ], [ -157.768214633498019, 21.332022695300019 ], [ -157.769040767911179, 21.331527348019179 ], [ -157.769343660890172, 21.332228865681252 ], [ -157.767180497398613, 21.332732144873642 ], [ -157.76749556338109, 21.331569816851374 ] ] ] } },
{ "type": "Feature", "properties": { "ID": 92, "GRIDCODE": 2 }, "geometry": { "type": "Polygon", "coordinates": [ [ [ -157.757402005604121, 21.327972348405918 ], [ -157.758636044057624, 21.328348482886696 ], [ -157.757945222187089, 21.33014975019756 ], [ -157.758398333763296, 21.33054916127583 ], [ -157.758673901666782, 21.330832530062114 ], [ -157.759292826851009, 21.331097789765472 ], [ -157.75983889478016, 21.330554238055218 ], [ -157.760120067981205, 21.330843203800519 ], [ -157.76046495428767, 21.331147261439558 ], [ -157.761714360132146, 21.331110088778555 ], [ -157.762152876450102, 21.331129595356146 ], [ -157.763253020550707, 21.330432241702404 ], [ -157.763977025320656, 21.332215819716762 ], [ -157.758696031215521, 21.332768482173304 ], [ -157.758106518736554, 21.332162754023205 ], [ -157.75743946671551, 21.33157444763194 ], [ -157.755901039541953, 21.330880245607617 ], [ -157.755504972384159, 21.33065076493838 ], [ -157.756375903466306, 21.330273520400439 ], [ -157.756656207524486, 21.329994260638145 ], [ -157.756958932791349, 21.32973580962679 ], [ -157.757402005604121, 21.327972348405918 ] ] ] } },
{ "type": "Feature", "properties": { "ID": 93, "GRIDCODE": 2 }, "geometry": { "type": "Polygon", "coordinates": [ [ [ -157.730557617371375, 21.321538551793861 ], [ -157.730915436151975, 21.321774085817506 ], [ -157.731069275446799, 21.322442582322534 ], [ -157.730268539617015, 21.322604462872839 ], [ -157.730557617371375, 21.321538551793861 ] ] ] } },
{ "type": "Feature", "properties": { "ID": 94, "GRIDCODE": 2 }, "geometry": { "type": "Polygon", "coordinates": [ [ [ -157.736924923780634, 21.321044481627951 ], [ -157.737487829545927, 21.321211937260376 ], [ -157.737918915815527, 21.322558911571338 ], [ -157.738789990799376, 21.321998548829189 ], [ -157.739110966522162, 21.322018886740278 ], [ -157.739030530011206, 21.32313580493139 ], [ -157.739950867673656, 21.32309129473575 ], [ -157.740952259307193, 21.323610977430221 ], [ -157.742530564557057, 21.322822526550357 ], [ -157.743405735832823, 21.323405099883548 ], [ -157.743846549232757, 21.323383780556632 ], [ -157.745169710248973, 21.323467566952292 ], [ -157.745073684057019, 21.324795439016697 ], [ -157.746033894547537, 21.324480711805343 ], [ -157.746723353364871, 21.325215253489404 ], [ -157.747152782798395, 21.324772040161353 ], [ -157.747749774504882, 21.32452069459239 ], [ -157.749286359559306, 21.323752975073177 ], [ -157.749110327622844, 21.326193214565659 ], [ -157.74975310680216, 21.325872134117517 ], [ -157.75065520004722, 21.326183000206321 ], [ -157.751921996644029, 21.326121745438318 ], [ -157.752348344827311, 21.327010593360608 ], [ -157.753142110487829, 21.326972218163874 ], [ -157.754386059571544, 21.326171647114833 ], [ -157.754651449938365, 21.32732455234304 ], [ -157.754068909727721, 21.327804563116878 ], [ -157.753791112787013, 21.328388989756615 ], [ -157.755060336518426, 21.328946306010497 ], [ -157.755494757440317, 21.330220815782514 ], [ -157.753786911322976, 21.328886518717571 ], [ -157.753194232656568, 21.328626330329964 ], [ -157.752405090904716, 21.328216935781111 ], [ -157.749741189555095, 21.328345882846936 ], [ -157.749455372269864, 21.328041317404036 ], [ -157.746768797639049, 21.326183715590219 ], [ -157.745246642676989, 21.325515411716307 ], [ -157.743966004337352, 21.325577372986 ], [ -157.743404692943841, 21.325286089659247 ], [ -157.742233608734779, 21.325021539724737 ], [ -157.740694212917532, 21.324490954121881 ], [ -157.736265644835271, 21.323490464347433 ], [ -157.735619100590696, 21.32250147108703 ], [ -157.736741811440339, 21.322572634029537 ], [ -157.736924923780634, 21.321044481627951 ] ] ] } }
]
}
