{
"type": "FeatureCollection",
"name": "myrdent",
"crs": { "type": "name", "properties": { "name": "urn:ogc:def:crs:OGC:1.3:CRS84" } },
"features": [
{ "type": "Feature", "properties": { "ID": 1, "GRIDCODE": 2 }, "geometry": { "type": "Polygon", "coordinates": [ [ [ -159.598735098806088, 22.178751673302337 ], [ -159.599404782695927, 22.178859065309616 ], [ -159.598894696834435, 22.179095205383177 ], [ -159.598735098806088, 22.178751673302337 ] ] ] } },
{ "type": "Feature", "properties": { "ID": 2, "GRIDCODE": 2 }, "geometry": { "type": "Polygon", "coordinates": [ [ [ -159.512828690230435, 22.161428133044307 ], [ -159.513741490202165, 22.162033185798524 ], [ -159.514271190298842, 22.163299748173994 ], [ -159.515287279980356, 22.164017464246282 ], [ -159.516272994661193, 22.164545632787245 ], [ -159.513255214798988, 22.16511676907011 ], [ -159.513000554544675, 22.162082795569923 ], [ -159.512828690230435, 22.161428133044307 ] ] ] } },
{ "type": "Feature", "properties": { "ID": 3, "GRIDCODE": 2 }, "geometry": { "type": "Polygon", "coordinates": [ [ [ -159.557046613871336, 22.159385913125256 ], [ -159.557401718436836, 22.159477474962156 ], [ -159.557147503369663, 22.159716009486495 ], [ -159.557046613871336, 22.159385913125256 ] ] ] } },
{ "type": "Feature", "properties": { "ID": 4, "GRIDCODE": 2 }, "geometry": { "type": "Polygon", "coordinates": [ [ [ -159.55646364515502, 22.15911688094333 ], [ -159.557045546897854, 22.159114894238634 ], [ -159.557046613871336, 22.159385913125256 ], [ -159.556464711014058, 22.15938789985676 ], [ -159.55646364515502, 22.15911688094333 ] ] ] } },
{ "type": "Feature", "properties": { "ID": 5, "GRIDCODE": 2 }, "geometry": { "type": "Polygon", "coordinates": [ [ [ -159.614269629280301, 22.137498728631371 ], [ -159.614414160215546, 22.136860182916461 ], [ -159.614931923177892, 22.137157251114758 ], [ -159.614269629280301, 22.137498728631371 ] ] ] } },
{ "type": "Feature", "properties": { "ID": 6, "GRIDCODE": 2 }, "geometry": { "type": "Polygon", "coordinates": [ [ [ -159.609317273299979, 22.13589116528723 ], [ -159.609219123487406, 22.136221971458905 ], [ -159.608962995176086, 22.135985262475465 ], [ -159.609317273299979, 22.13589116528723 ] ] ] } },
{ "type": "Feature", "properties": { "ID": 7, "GRIDCODE": 2 }, "geometry": { "type": "Polygon", "coordinates": [ [ [ -159.533068141171952, 22.127485248530441 ], [ -159.534873225441174, 22.128693329537647 ], [ -159.537029659209878, 22.128960706588941 ], [ -159.536987677882166, 22.13004528044987 ], [ -159.537889538239114, 22.130583681264245 ], [ -159.537584786032937, 22.131124814497969 ], [ -159.537632901788953, 22.132163526499625 ], [ -159.539055915151437, 22.132474363521784 ], [ -159.539953542160362, 22.133759372472682 ], [ -159.541381192173105, 22.132731877197855 ], [ -159.541827916896324, 22.13360576368796 ], [ -159.542840108650978, 22.133271469847678 ], [ -159.543134261818579, 22.134953116776355 ], [ -159.543790783790115, 22.136099134123807 ], [ -159.545147383451848, 22.137261809929363 ], [ -159.545486515475773, 22.137925002232976 ], [ -159.545457772848465, 22.138668395085407 ], [ -159.545976170427764, 22.140030654060375 ], [ -159.547232433483089, 22.140577864021438 ], [ -159.547575927224074, 22.143172665774511 ], [ -159.549578671284223, 22.145448398551181 ], [ -159.549949785413389, 22.151518221394173 ], [ -159.550988585475551, 22.152408360408902 ], [ -159.55207105168131, 22.151870098266137 ], [ -159.553192915251174, 22.152418226977495 ], [ -159.553769388021976, 22.151834400419482 ], [ -159.554538994172816, 22.151995889955359 ], [ -159.553950055578554, 22.15304186836973 ], [ -159.553987204794879, 22.153840369572681 ], [ -159.553955724360804, 22.15465354488871 ], [ -159.554561521610054, 22.154917339613167 ], [ -159.554845673887087, 22.156010802802619 ], [ -159.555161014064367, 22.156561046811273 ], [ -159.555120261580214, 22.157616435373981 ], [ -159.555974540658951, 22.158348382898453 ], [ -159.55646364515502, 22.15911688094333 ], [ -159.55559079241732, 22.159119857107477 ], [ -159.555489906986196, 22.158789759675184 ], [ -159.555235689832813, 22.159028291280116 ], [ -159.55559079241732, 22.159119857107477 ], [ -159.555455111564498, 22.159534479009316 ], [ -159.554567983203754, 22.160064291920893 ], [ -159.554294489457988, 22.16035149603475 ], [ -159.553606574817792, 22.160928267209446 ], [ -159.554287255553817, 22.162675252798991 ], [ -159.553369672804337, 22.163307102400569 ], [ -159.552548330253728, 22.16335549391982 ], [ -159.551781508690823, 22.160335321775623 ], [ -159.549048850693993, 22.158185808751007 ], [ -159.547798055274484, 22.157919165935585 ], [ -159.549293413523941, 22.156665568305321 ], [ -159.549331910107952, 22.156024298483597 ], [ -159.549245270596089, 22.154748281445062 ], [ -159.550178087619344, 22.15349470839115 ], [ -159.549414233873506, 22.151430749318912 ], [ -159.548375350952114, 22.151376571737003 ], [ -159.546150912485217, 22.152667912555987 ], [ -159.545823320337377, 22.151692083548081 ], [ -159.545497358440628, 22.151138084310812 ], [ -159.545535741926471, 22.15050009864181 ], [ -159.544018061577674, 22.149245977624876 ], [ -159.544066131397784, 22.148446874239308 ], [ -159.543463945305376, 22.147649863818476 ], [ -159.543185135925341, 22.146551447153684 ], [ -159.542876893354645, 22.146296701407433 ], [ -159.542601207201471, 22.146011343408503 ], [ -159.541427851349169, 22.145514359240998 ], [ -159.541141404879625, 22.144661074352822 ], [ -159.540251327226059, 22.144408252171683 ], [ -159.539975650026889, 22.144122889489683 ], [ -159.538781611361031, 22.143783706702056 ], [ -159.538825766201796, 22.14304954402968 ], [ -159.536752050342983, 22.14225161177113 ], [ -159.536213055033272, 22.141693595084615 ], [ -159.535604716457527, 22.141729371760782 ], [ -159.535551233388048, 22.140940271487224 ], [ -159.535889373225132, 22.140355767016711 ], [ -159.535870568717513, 22.140078692660921 ], [ -159.535887273253252, 22.139800765569071 ], [ -159.53554414753205, 22.139517163097548 ], [ -159.535669711561212, 22.137430781641008 ], [ -159.534718940714072, 22.136644945858883 ], [ -159.534378909292201, 22.132923746422094 ], [ -159.534416937043886, 22.132291932531267 ], [ -159.534110217417037, 22.131675092650781 ], [ -159.533492833930779, 22.131164764360459 ], [ -159.53406648869435, 22.130172940464472 ], [ -159.532623290414136, 22.128979972795776 ], [ -159.53293446049949, 22.128441896038098 ], [ -159.533068141171952, 22.127485248530441 ] ] ] } },
{ "type": "Feature", "properties": { "ID": 8, "GRIDCODE": 2 }, "geometry": { "type": "Polygon", "coordinates": [ [ [ -159.532775216410869, 22.126944155983583 ], [ -159.533066102346794, 22.126943206461487 ], [ -159.533068141171952, 22.127485248530441 ], [ -159.532777254123573, 22.127486198078202 ], [ -159.532775216410869, 22.126944155983583 ] ] ] } },
{ "type": "Feature", "properties": { "ID": 9, "GRIDCODE": 2 }, "geometry": { "type": "Polygon", "coordinates": [ [ [ -159.532775216410869, 22.126944155983583 ], [ -159.532153027902467, 22.126546902280971 ], [ -159.531650492543235, 22.124668927647697 ], [ -159.532066908949787, 22.124888969594288 ], [ -159.532307768621934, 22.125750883916801 ], [ -159.532654783684137, 22.126513199341147 ], [ -159.532775216410869, 22.126944155983583 ] ] ] } },
{ "type": "Feature", "properties": { "ID": 10, "GRIDCODE": 2 }, "geometry": { "type": "Polygon", "coordinates": [ [ [ -159.530728865731504, 22.124240576216494 ], [ -159.53108386596287, 22.124332197843554 ], [ -159.530829667320205, 22.124570692007225 ], [ -159.530728865731504, 22.124240576216494 ] ] ] } },
{ "type": "Feature", "properties": { "ID": 11, "GRIDCODE": 2 }, "geometry": { "type": "Polygon", "coordinates": [ [ [ -159.530436971005088, 22.12397050021141 ], [ -159.530727850949035, 22.123969554975655 ], [ -159.530728865731504, 22.124240576216494 ], [ -159.53043798523143, 22.124241521465027 ], [ -159.530436971005088, 22.12397050021141 ] ] ] } },
{ "type": "Feature", "properties": { "ID": 12, "GRIDCODE": 2 }, "geometry": { "type": "Polygon", "coordinates": [ [ [ -159.530436971005088, 22.12397050021141 ], [ -159.52996695278577, 22.124190091740964 ], [ -159.529517652315974, 22.123340387689485 ], [ -159.530337566130044, 22.123519821303283 ], [ -159.530436971005088, 22.12397050021141 ] ] ] } },
{ "type": "Feature", "properties": { "ID": 13, "GRIDCODE": 2 }, "geometry": { "type": "Polygon", "coordinates": [ [ [ -159.527809968515612, 22.121539791295515 ], [ -159.528512205988534, 22.121988199382518 ], [ -159.528067710809268, 22.122462334351795 ], [ -159.527809968515612, 22.121539791295515 ] ] ] } },
{ "type": "Feature", "properties": { "ID": 14, "GRIDCODE": 2 }, "geometry": { "type": "Polygon", "coordinates": [ [ [ -159.527809968515612, 22.121539791295515 ], [ -159.526837942410651, 22.12108954611125 ], [ -159.527073569295112, 22.120095998712884 ], [ -159.527709564984121, 22.120818088978407 ], [ -159.527809968515612, 22.121539791295515 ] ] ] } },
{ "type": "Feature", "properties": { "ID": 15, "GRIDCODE": 2 }, "geometry": { "type": "Polygon", "coordinates": [ [ [ -159.524884159383788, 22.116941799201545 ], [ -159.525239137741437, 22.117033434050484 ], [ -159.524984941869064, 22.117271919263533 ], [ -159.524884159383788, 22.116941799201545 ] ] ] } },
{ "type": "Feature", "properties": { "ID": 16, "GRIDCODE": 2 }, "geometry": { "type": "Polygon", "coordinates": [ [ [ -159.489092596158031, 22.112716488841308 ], [ -159.489318678744809, 22.112896807393348 ], [ -159.488675361815751, 22.115114939437422 ], [ -159.489082799444958, 22.116608854495464 ], [ -159.491338649989274, 22.119553187754121 ], [ -159.491287462026293, 22.120171892488948 ], [ -159.491602431984489, 22.120423112457075 ], [ -159.491872728365735, 22.120713489185217 ], [ -159.492478644996311, 22.120963226988881 ], [ -159.492454723422355, 22.121252479892789 ], [ -159.492807867840952, 22.121534094208844 ], [ -159.493352101800554, 22.123198918343739 ], [ -159.494017456993674, 22.123729487656099 ], [ -159.495088444461857, 22.125311207652203 ], [ -159.495986409586578, 22.126372419636049 ], [ -159.497588144253143, 22.128737786026896 ], [ -159.500381820038001, 22.129320129793062 ], [ -159.501178022872779, 22.130967915813851 ], [ -159.501821410723181, 22.131233043916907 ], [ -159.50209174877088, 22.131523402572842 ], [ -159.502643006694285, 22.131962965543753 ], [ -159.502736321512231, 22.133001974497908 ], [ -159.5026798014446, 22.133686170990345 ], [ -159.502997974608775, 22.134485346634833 ], [ -159.502947584236608, 22.135095424059259 ], [ -159.503897644764521, 22.13585293180882 ], [ -159.503852840322565, 22.136395120076884 ], [ -159.504167868714319, 22.136646314219959 ], [ -159.504438222057132, 22.136936668513787 ], [ -159.505933187229829, 22.137552615749129 ], [ -159.505851694684452, 22.138538980959446 ], [ -159.506595844132335, 22.138845586962105 ], [ -159.506224632485271, 22.142351632851724 ], [ -159.505183377056369, 22.144676559254425 ], [ -159.504652442303012, 22.146507875014468 ], [ -159.505079857849097, 22.147215998564235 ], [ -159.505045608099948, 22.147630184605344 ], [ -159.505082146150016, 22.148036608310878 ], [ -159.505003705635772, 22.148985436998935 ], [ -159.505167395567497, 22.150807546644746 ], [ -159.50407109202439, 22.150242198544401 ], [ -159.500497284353486, 22.149737000488592 ], [ -159.497505329063955, 22.149522256299576 ], [ -159.496611643490468, 22.149990315159322 ], [ -159.495152395988953, 22.149885557068853 ], [ -159.493168330696733, 22.150397861419641 ], [ -159.493968968426998, 22.149050744583452 ], [ -159.494057842898769, 22.147976830599671 ], [ -159.493693953851789, 22.145102245887177 ], [ -159.491542702977455, 22.142695354194498 ], [ -159.492792502493529, 22.142171295312238 ], [ -159.493168918494263, 22.14120658309767 ], [ -159.493067684972971, 22.140078124884724 ], [ -159.493136250355207, 22.139249350535909 ], [ -159.492828134967112, 22.138307102346669 ], [ -159.492507031762329, 22.137774904325166 ], [ -159.493382483861495, 22.13661664763972 ], [ -159.493046070822885, 22.135358217159041 ], [ -159.491205191635089, 22.133890249260993 ], [ -159.491760047890295, 22.13328628142337 ], [ -159.492496106744056, 22.132691624175433 ], [ -159.492222770472011, 22.131533295454549 ], [ -159.490648599499281, 22.130487322761191 ], [ -159.49221889408318, 22.129926715192592 ], [ -159.492170207461584, 22.129384107886946 ], [ -159.493353968477976, 22.128427677507393 ], [ -159.493079430130905, 22.126923276187835 ], [ -159.492765138558696, 22.126402338690564 ], [ -159.492295529190613, 22.125430335937381 ], [ -159.489520404152159, 22.124286555810848 ], [ -159.490136231033148, 22.123250355565471 ], [ -159.489864677260101, 22.12259654155757 ], [ -159.489237939326784, 22.122096690258829 ], [ -159.488244871193558, 22.12102964457203 ], [ -159.487204087347408, 22.120600648360011 ], [ -159.487254340123627, 22.119993890860069 ], [ -159.486705399838399, 22.118857397190833 ], [ -159.485774600621426, 22.118542047097549 ], [ -159.484906045198414, 22.118609663701527 ], [ -159.485732338248482, 22.117710261305781 ], [ -159.487127451625554, 22.117125212932226 ], [ -159.486563357589432, 22.115707836792026 ], [ -159.487199099901119, 22.115015787703427 ], [ -159.488092414551716, 22.11476225930193 ], [ -159.488359753946355, 22.114199243049434 ], [ -159.488692220905733, 22.113639703862738 ], [ -159.488645251659818, 22.113115591369475 ], [ -159.488958462326309, 22.112862485931696 ], [ -159.489092596158031, 22.112716488841308 ] ] ] } },
{ "type": "Feature", "properties": { "ID": 17, "GRIDCODE": 2 }, "geometry": { "type": "Polygon", "coordinates": [ [ [ -159.489380649363596, 22.111902547533447 ], [ -159.489759227242189, 22.112052153021981 ], [ -159.489499302515128, 22.112518104971372 ], [ -159.489380649363596, 22.111902547533447 ] ] ] } },
{ "type": "Feature", "properties": { "ID": 18, "GRIDCODE": 2 }, "geometry": { "type": "Polygon", "coordinates": [ [ [ -159.478501976361855, 22.077243310670532 ], [ -159.478403557128871, 22.077574045869426 ], [ -159.478147750546839, 22.077337131928591 ], [ -159.478501976361855, 22.077243310670532 ] ] ] } },
{ "type": "Feature", "properties": { "ID": 19, "GRIDCODE": 2 }, "geometry": { "type": "Polygon", "coordinates": [ [ [ -159.48393926673225, 22.05147966017341 ], [ -159.484294056120717, 22.051571396477218 ], [ -159.484039904862954, 22.051809810755724 ], [ -159.48393926673225, 22.05147966017341 ] ] ] } },
{ "type": "Feature", "properties": { "ID": 20, "GRIDCODE": 2 }, "geometry": { "type": "Polygon", "coordinates": [ [ [ -159.483647611721011, 22.051209493749305 ], [ -159.48393834477551, 22.051208634552449 ], [ -159.48393926673225, 22.05147966017341 ], [ -159.483648533123954, 22.051480519381901 ], [ -159.483647611721011, 22.051209493749305 ] ] ] } },
{ "type": "Feature", "properties": { "ID": 21, "GRIDCODE": 2 }, "geometry": { "type": "Polygon", "coordinates": [ [ [ -159.483647611721011, 22.051209493749305 ], [ -159.483292823627693, 22.051117756016502 ], [ -159.483546974949462, 22.050879342877522 ], [ -159.483647611721011, 22.051209493749305 ] ] ] } },
{ "type": "Feature", "properties": { "ID": 22, "GRIDCODE": 2 }, "geometry": { "type": "Polygon", "coordinates": [ [ [ -159.544112511255804, 22.049122504675204 ], [ -159.544210758529971, 22.048791732143901 ], [ -159.5444666204871, 22.049028542493389 ], [ -159.544112511255804, 22.049122504675204 ] ] ] } },
{ "type": "Feature", "properties": { "ID": 23, "GRIDCODE": 2 }, "geometry": { "type": "Polygon", "coordinates": [ [ [ -159.497871702069688, 22.044933207227018 ], [ -159.498011126780739, 22.043865510591949 ], [ -159.499800469780979, 22.042638579440059 ], [ -159.500140624906919, 22.042952306739391 ], [ -159.499482543423312, 22.043723662114989 ], [ -159.497871702069688, 22.044933207227018 ] ] ] } },
{ "type": "Feature", "properties": { "ID": 24, "GRIDCODE": 2 }, "geometry": { "type": "Polygon", "coordinates": [ [ [ -159.535340768772528, 22.035871096161124 ], [ -159.536009734131312, 22.035978765059728 ], [ -159.535500045743021, 22.036214702734018 ], [ -159.535340768772528, 22.035871096161124 ] ] ] } },
{ "type": "Feature", "properties": { "ID": 25, "GRIDCODE": 2 }, "geometry": { "type": "Polygon", "coordinates": [ [ [ -159.532107629070993, 22.026395667178477 ], [ -159.531752874255744, 22.026304033563854 ], [ -159.532006899372789, 22.026065546907898 ], [ -159.532107629070993, 22.026395667178477 ] ] ] } },
{ "type": "Feature", "properties": { "ID": 26, "GRIDCODE": 2 }, "geometry": { "type": "Polygon", "coordinates": [ [ [ -159.553020779928289, 22.0222610101066 ], [ -159.553375537213668, 22.022352597646229 ], [ -159.553121555125017, 22.022591116672171 ], [ -159.553020779928289, 22.0222610101066 ] ] ] } },
{ "type": "Feature", "properties": { "ID": 27, "GRIDCODE": 2 }, "geometry": { "type": "Polygon", "coordinates": [ [ [ -159.535340768772528, 22.035871096161124 ], [ -159.534468018382341, 22.035700220181013 ], [ -159.532503573388084, 22.036098221900364 ], [ -159.531986595791324, 22.037158205478619 ], [ -159.531105808293603, 22.037897026333567 ], [ -159.531265726845874, 22.040259262403215 ], [ -159.52849874527459, 22.039810062420685 ], [ -159.528546876061966, 22.03900997597172 ], [ -159.527930348841721, 22.038748563032286 ], [ -159.527597266686854, 22.038403424614025 ], [ -159.526436623894625, 22.03794028871528 ], [ -159.525175201543277, 22.039803616239993 ], [ -159.523911650023649, 22.040171806873044 ], [ -159.523596413831342, 22.041570002811742 ], [ -159.524743861215853, 22.041182021583108 ], [ -159.525278975163133, 22.041210032386921 ], [ -159.525618714779029, 22.042550382363419 ], [ -159.525927699175298, 22.043076193113141 ], [ -159.526497873597549, 22.044444749332943 ], [ -159.527388302192321, 22.044968686455295 ], [ -159.527787377897027, 22.045382162901291 ], [ -159.526560677776331, 22.047031481259555 ], [ -159.526235507833007, 22.047697919656056 ], [ -159.525674530840689, 22.048668283351653 ], [ -159.52523466861129, 22.050012490456211 ], [ -159.524544893045402, 22.05059101519327 ], [ -159.52357841892379, 22.050105403251752 ], [ -159.523626914988739, 22.049300024063786 ], [ -159.523035360170098, 22.049334784354649 ], [ -159.522744573377082, 22.049319567921266 ], [ -159.521432592087791, 22.049396653279388 ], [ -159.520894822345724, 22.04727494276873 ], [ -159.519212611054712, 22.048570610719228 ], [ -159.519264531715578, 22.049338715339974 ], [ -159.519233880827301, 22.04984771668661 ], [ -159.519559683388792, 22.050685289589072 ], [ -159.519969180381338, 22.052300922480015 ], [ -159.518639004906873, 22.052593886202207 ], [ -159.518114970567638, 22.053144365969189 ], [ -159.517182784518297, 22.053674116507942 ], [ -159.516305989257461, 22.052765558372215 ], [ -159.515018915642713, 22.052341054099166 ], [ -159.5122318989674, 22.052905285972834 ], [ -159.512312729342995, 22.054102754586758 ], [ -159.514051473408216, 22.055039116786702 ], [ -159.514330641777349, 22.056353062969581 ], [ -159.511165395442987, 22.05667431956671 ], [ -159.509047824157875, 22.055006451306816 ], [ -159.507728824272078, 22.054447070835081 ], [ -159.506134264866944, 22.054540625792459 ], [ -159.505382744095726, 22.055329927041296 ], [ -159.504733398242735, 22.055610170690553 ], [ -159.504459718105608, 22.055818304861361 ], [ -159.506469638808227, 22.056390066048468 ], [ -159.506821770703169, 22.060090823165449 ], [ -159.508990667047101, 22.062538208760699 ], [ -159.511165912233508, 22.063156921364083 ], [ -159.511452721807586, 22.064012463609824 ], [ -159.514099138919676, 22.062883685890608 ], [ -159.514653290122936, 22.062912712409929 ], [ -159.515961426435837, 22.062835906612069 ], [ -159.517277473950884, 22.062904851545763 ], [ -159.517551638446719, 22.062616845595059 ], [ -159.518479596016135, 22.062216283825212 ], [ -159.519297858714822, 22.062627375777879 ], [ -159.51959508381276, 22.062609923186425 ], [ -159.521650022478866, 22.062717526203691 ], [ -159.521618303919922, 22.063243254612161 ], [ -159.521046655255333, 22.064231915250449 ], [ -159.520774442900603, 22.064838539331831 ], [ -159.523221757220995, 22.064694738752831 ], [ -159.523668524503933, 22.065593930708953 ], [ -159.524043417237465, 22.066231753859451 ], [ -159.524828381944133, 22.066880982061321 ], [ -159.526867838929888, 22.065839434659001 ], [ -159.527638521264976, 22.065506720257542 ], [ -159.528031878200039, 22.063905742734939 ], [ -159.529159575469578, 22.063964728345688 ], [ -159.530409277559556, 22.063542198935011 ], [ -159.530318976904738, 22.062208350785333 ], [ -159.53213210073838, 22.061679997632528 ], [ -159.532054783882302, 22.060538046738699 ], [ -159.533042003311863, 22.060111785213511 ], [ -159.532653119159647, 22.058776958419024 ], [ -159.533228620927787, 22.058294270171402 ], [ -159.533525251633307, 22.057686189919028 ], [ -159.534600149963296, 22.057742383008751 ], [ -159.534974751685979, 22.056597335395224 ], [ -159.536416482456161, 22.056672713727888 ], [ -159.535542442173778, 22.055514978574688 ], [ -159.536439451951367, 22.055253553512131 ], [ -159.536710739634827, 22.054424332441389 ], [ -159.538210679681129, 22.054093808227073 ], [ -159.53808971206783, 22.052307173690956 ], [ -159.539074559974836, 22.051481010918081 ], [ -159.540031106052083, 22.050475899956695 ], [ -159.540643270298631, 22.04996232987229 ], [ -159.541053241549832, 22.0495315576844 ], [ -159.541726632225021, 22.049273556051318 ], [ -159.542807869487945, 22.049816676258605 ], [ -159.543668748392633, 22.049251866287662 ], [ -159.544112511255804, 22.049122504675204 ], [ -159.544251296090835, 22.049536209135706 ], [ -159.54486221142048, 22.049795129424943 ], [ -159.544544039239497, 22.050062036888843 ], [ -159.544216186786997, 22.051064390105079 ], [ -159.544315635390177, 22.052531413763717 ], [ -159.545463984599508, 22.052463771712247 ], [ -159.544845499474945, 22.053864039255686 ], [ -159.545175084914746, 22.054424663227383 ], [ -159.545127441578842, 22.055217223292434 ], [ -159.545164157954389, 22.055759153666287 ], [ -159.545132795027484, 22.056280633085048 ], [ -159.545553770194573, 22.056996579966775 ], [ -159.54544754530292, 22.058764295074486 ], [ -159.546403408872663, 22.058707989793007 ], [ -159.546901122727775, 22.058184969185398 ], [ -159.547247539264731, 22.057894340572577 ], [ -159.547858845511257, 22.056640867060814 ], [ -159.548887373395274, 22.056196656110416 ], [ -159.549513691909794, 22.057107365442299 ], [ -159.550112491236575, 22.057361128170758 ], [ -159.550388799956181, 22.057647337337329 ], [ -159.550977541607068, 22.057612636098384 ], [ -159.551566536719065, 22.057643372508217 ], [ -159.551872079746772, 22.057322269096897 ], [ -159.551808536131091, 22.056385653557353 ], [ -159.553595130739183, 22.055738481124255 ], [ -159.554159167825986, 22.055450294579124 ], [ -159.555089464169896, 22.05517906075978 ], [ -159.555610461332407, 22.054631436371803 ], [ -159.557572580338586, 22.054733760321138 ], [ -159.558122902752018, 22.054155375674213 ], [ -159.558575812451096, 22.053824378083654 ], [ -159.559097518110462, 22.054364648795424 ], [ -159.559813654922976, 22.054889001052082 ], [ -159.560549566126298, 22.053801502312137 ], [ -159.560847961134272, 22.053817055377767 ], [ -159.561421922890617, 22.053783194615356 ], [ -159.561713071243588, 22.054084668142888 ], [ -159.562280079183154, 22.054338495381213 ], [ -159.564324251764532, 22.052705306046306 ], [ -159.564795108479359, 22.052447908168574 ], [ -159.565455967662331, 22.053777199422015 ], [ -159.567068520506325, 22.052603285905253 ], [ -159.567532838763356, 22.053537181802678 ], [ -159.568392337301475, 22.052149179769362 ], [ -159.568743939634487, 22.051892184706304 ], [ -159.569265675861317, 22.052432422469511 ], [ -159.569744106194094, 22.052827966661482 ], [ -159.570377564008879, 22.05216207549558 ], [ -159.571071628324091, 22.051884081015736 ], [ -159.572762379438331, 22.054388749408382 ], [ -159.570823877999601, 22.056015553443306 ], [ -159.569594503744099, 22.057867934254819 ], [ -159.570204458876958, 22.057831915592633 ], [ -159.571450284315944, 22.059121921606373 ], [ -159.57177062838673, 22.058785164059351 ], [ -159.573326921427963, 22.058656844972369 ], [ -159.572027914969595, 22.058407453088044 ], [ -159.57177062838673, 22.058785164059351 ], [ -159.571044074052452, 22.058139317589706 ], [ -159.57138878933327, 22.056766445425165 ], [ -159.572999307283311, 22.056730179112126 ], [ -159.574313002475208, 22.057122468623287 ], [ -159.575110740617333, 22.05864066098502 ], [ -159.57557872320038, 22.059479733169919 ], [ -159.577175734363038, 22.062771602410422 ], [ -159.581455630327497, 22.073089912254236 ], [ -159.582165937884014, 22.077502417527036 ], [ -159.581921579855077, 22.087968751685011 ], [ -159.580918802066918, 22.095273488597922 ], [ -159.57936227659809, 22.100832966401441 ], [ -159.577429664227139, 22.104581311895579 ], [ -159.576754787765509, 22.1055166709702 ], [ -159.575382375973561, 22.107689699028167 ], [ -159.575015262880186, 22.106883346423938 ], [ -159.574544474345657, 22.105548684247495 ], [ -159.572991669732517, 22.105524609907519 ], [ -159.572684122613623, 22.105802013660053 ], [ -159.572400219840063, 22.106079458075239 ], [ -159.571956830444492, 22.10647941614571 ], [ -159.571383218342817, 22.107039946598995 ], [ -159.570948030790191, 22.106621053624149 ], [ -159.57063527132965, 22.106628093148643 ], [ -159.569200383753582, 22.105945597125007 ], [ -159.569495257876184, 22.106648563283887 ], [ -159.570655762666576, 22.107679818508938 ], [ -159.570373048264941, 22.108254737983117 ], [ -159.569502094529469, 22.10865223647437 ], [ -159.570631673430142, 22.108840504298662 ], [ -159.571239741022396, 22.108246284009756 ], [ -159.571826184360361, 22.107978634434325 ], [ -159.573531774627583, 22.107006612724184 ], [ -159.5727040189457, 22.109288164965328 ], [ -159.573060759113162, 22.110674735474433 ], [ -159.5738701755607, 22.110687286268607 ], [ -159.574451831877553, 22.110674183548696 ], [ -159.575612554012821, 22.110692164608498 ], [ -159.576191821588566, 22.110126058080887 ], [ -159.577069111539174, 22.109857363653045 ], [ -159.578230300550501, 22.109294759731146 ], [ -159.57880838079609, 22.109851210393895 ], [ -159.579983166866526, 22.110201835536039 ], [ -159.579974957389283, 22.110660101596665 ], [ -159.580854560443015, 22.110922615190027 ], [ -159.581442884950803, 22.111202396956436 ], [ -159.582298613726664, 22.111183071502591 ], [ -159.583857912747362, 22.11192454802503 ], [ -159.584488922280372, 22.111307840956773 ], [ -159.584926944181632, 22.111729399365842 ], [ -159.585289619982319, 22.111374921589448 ], [ -159.592505558048572, 22.114946113359405 ], [ -159.599101131514374, 22.118383379896301 ], [ -159.609275433305584, 22.12234484295227 ], [ -159.619013948373748, 22.125424375041824 ], [ -159.618585187019107, 22.126246127883569 ], [ -159.617423558623841, 22.126228433415132 ], [ -159.616109409846985, 22.127065659376729 ], [ -159.615533350693454, 22.127056881617371 ], [ -159.615097063761795, 22.127066821707164 ], [ -159.614657863884503, 22.12706012223266 ], [ -159.614333204976361, 22.12769006666365 ], [ -159.613644389887213, 22.127473287566627 ], [ -159.613543394438352, 22.127143227231418 ], [ -159.613289332825161, 22.127381846820274 ], [ -159.613644389887213, 22.127473287566627 ], [ -159.613507443261227, 22.128156525584362 ], [ -159.613184038636462, 22.128437992578082 ], [ -159.613222221645373, 22.129252865814202 ], [ -159.612633891987088, 22.129233355343157 ], [ -159.612268992646847, 22.12924819767855 ], [ -159.611769342623887, 22.129832145382114 ], [ -159.613222768106453, 22.12977300546607 ], [ -159.613842651493968, 22.130075641055651 ], [ -159.613790535086451, 22.128963356827814 ], [ -159.613806414569012, 22.128546856224268 ], [ -159.614866473465781, 22.129064373366507 ], [ -159.615520229760108, 22.128401633902214 ], [ -159.616599867143577, 22.128749627842986 ], [ -159.618154384487497, 22.127854708035464 ], [ -159.618737830547445, 22.128139515140695 ], [ -159.619320258416536, 22.127849553206463 ], [ -159.619610494874308, 22.128139050527441 ], [ -159.620033871332481, 22.127709836756733 ], [ -159.620765332946803, 22.12707317411796 ], [ -159.621084990213177, 22.126119066177015 ], [ -159.623878205951343, 22.127019291929535 ], [ -159.622149108458956, 22.129015516378754 ], [ -159.621372008575662, 22.130565972040667 ], [ -159.620185524221313, 22.131935672587581 ], [ -159.619190607681759, 22.131902710321974 ], [ -159.618458738177992, 22.131932522550464 ], [ -159.61787855070969, 22.131649315361585 ], [ -159.61759635874833, 22.13193540727395 ], [ -159.616368073003514, 22.132212907503046 ], [ -159.61547679273778, 22.133116402681551 ], [ -159.614628802144011, 22.135995618449371 ], [ -159.613186213730756, 22.135291375480072 ], [ -159.611786534274472, 22.135754315862929 ], [ -159.611502788376271, 22.135471289781062 ], [ -159.611168010026375, 22.135211860979602 ], [ -159.610620625018782, 22.135766704929726 ], [ -159.61004015292383, 22.135747445715609 ], [ -159.609317273299979, 22.13589116528723 ], [ -159.6091846093274, 22.135743611062498 ], [ -159.60880495320697, 22.135452146162599 ], [ -159.608149489129204, 22.135516853362144 ], [ -159.606590161170772, 22.137280028682813 ], [ -159.605646145631937, 22.137665634797116 ], [ -159.606209035851208, 22.137922863036781 ], [ -159.60745747653479, 22.137078722399462 ], [ -159.608013515218062, 22.137129436787749 ], [ -159.608449691757585, 22.137086373885762 ], [ -159.609177246005942, 22.137152721923055 ], [ -159.609560171115561, 22.13632109043207 ], [ -159.610167835191021, 22.136997142468466 ], [ -159.611176994996327, 22.137771717401392 ], [ -159.611549917519568, 22.136961590250799 ], [ -159.613261060876027, 22.13648679562337 ], [ -159.613950742701377, 22.137253976469928 ], [ -159.614269629280301, 22.137498728631371 ], [ -159.614400521536709, 22.13846425356606 ], [ -159.614778584906844, 22.13934968637739 ], [ -159.616242115707138, 22.13914255453081 ], [ -159.615852691699644, 22.13791673747544 ], [ -159.61544745650437, 22.135747342162208 ], [ -159.616867221177614, 22.133669407329108 ], [ -159.618472015832793, 22.133884142833892 ], [ -159.619590253943414, 22.133725856033841 ], [ -159.619908744809294, 22.134107085294016 ], [ -159.620073458818439, 22.134224526842047 ], [ -159.620174474857038, 22.134554582386354 ], [ -159.620428537132625, 22.134315952259964 ], [ -159.620073458818439, 22.134224526842047 ], [ -159.620816634629051, 22.133012188866452 ], [ -159.621970871452561, 22.133258651299538 ], [ -159.622325970715679, 22.134341382082248 ], [ -159.62331669788594, 22.134031594559335 ], [ -159.623460787228453, 22.1322698126367 ], [ -159.623044570912157, 22.131227009498367 ], [ -159.624014884276107, 22.129770410470478 ], [ -159.626054456800375, 22.129189766431864 ], [ -159.625151170908993, 22.128818382240645 ], [ -159.625502338052598, 22.127865220900052 ], [ -159.629052727976159, 22.129643156126789 ], [ -159.630075034540994, 22.130456891378131 ], [ -159.6301297756319, 22.131060497207155 ], [ -159.629639235384133, 22.131457540664048 ], [ -159.629230297917218, 22.131903479993667 ], [ -159.628362659664361, 22.13145683563112 ], [ -159.628635125618644, 22.13216920144146 ], [ -159.629105589406379, 22.132543681772887 ], [ -159.629511413152386, 22.132978886813145 ], [ -159.62984860248369, 22.133247300025022 ], [ -159.629764270505007, 22.134278832777873 ], [ -159.630668732609905, 22.134744399511863 ], [ -159.630704158043784, 22.134310528531174 ], [ -159.63011864972384, 22.133844491799813 ], [ -159.630386415075947, 22.133497386938902 ], [ -159.631278362500154, 22.132972062557709 ], [ -159.631632895850572, 22.132223589087062 ], [ -159.632753157730207, 22.132684149034713 ], [ -159.635164080036532, 22.134603077495242 ], [ -159.637376384692345, 22.1377927307318 ], [ -159.638223227510537, 22.140387032626201 ], [ -159.638878027798398, 22.145809728298875 ], [ -159.638330253521985, 22.148357714005169 ], [ -159.637146008591742, 22.149146877428699 ], [ -159.635369441666285, 22.149286827155876 ], [ -159.633364531231052, 22.148954186143662 ], [ -159.629605511813025, 22.148155676556652 ], [ -159.625640812301441, 22.148653263237545 ], [ -159.623161034941489, 22.14999783365435 ], [ -159.622039771635343, 22.151887983665855 ], [ -159.621623058016667, 22.155401341631066 ], [ -159.620906012852572, 22.155777594566025 ], [ -159.620293995286772, 22.156034799101519 ], [ -159.620753208333042, 22.156794229791167 ], [ -159.62023953403758, 22.158113761076674 ], [ -159.620010903801358, 22.160907492879065 ], [ -159.620333430539858, 22.162826301611496 ], [ -159.620649458645232, 22.163617995069941 ], [ -159.620922478274196, 22.164450180370981 ], [ -159.621484232565905, 22.165857215401044 ], [ -159.621865627542803, 22.16739192713025 ], [ -159.62270763184884, 22.16848850748088 ], [ -159.623760913006549, 22.170663044195184 ], [ -159.625029430416248, 22.172023039279349 ], [ -159.625905452465815, 22.172720166140113 ], [ -159.624193480378125, 22.175798840438119 ], [ -159.62357392809696, 22.175847591023782 ], [ -159.622989192175396, 22.175220683332213 ], [ -159.621858107773136, 22.17530968429428 ], [ -159.621109243147515, 22.174206183266445 ], [ -159.620967620006326, 22.175006118803502 ], [ -159.620992553538713, 22.175280628992063 ], [ -159.620957963467674, 22.175702781759096 ], [ -159.621267013650709, 22.176644759695215 ], [ -159.621851034889573, 22.177109525931574 ], [ -159.621002388660401, 22.177729847084343 ], [ -159.61923597584331, 22.177987432422128 ], [ -159.617404479755777, 22.179334543362138 ], [ -159.616595856014271, 22.179398139578847 ], [ -159.61668630554567, 22.178293363472775 ], [ -159.616338087142424, 22.178268627621826 ], [ -159.615767097328529, 22.17831353004366 ], [ -159.616035124080156, 22.177999563883091 ], [ -159.616528763789603, 22.177600170124922 ], [ -159.616926589369172, 22.176929733197596 ], [ -159.61687673579786, 22.176380339138966 ], [ -159.616924219480978, 22.175800594681252 ], [ -159.61573071308311, 22.175309972443706 ], [ -159.615764777027067, 22.174893934631754 ], [ -159.615727090513275, 22.174478167876494 ], [ -159.61658412241016, 22.174118089317798 ], [ -159.616642195102685, 22.173408782836471 ], [ -159.616075956556074, 22.172958093759537 ], [ -159.617230545787265, 22.172023918021697 ], [ -159.616588818164786, 22.171513147298974 ], [ -159.616316990304284, 22.170951974936166 ], [ -159.614606867859777, 22.170479440602524 ], [ -159.614252394428235, 22.169893312721499 ], [ -159.614296580611324, 22.169353644979388 ], [ -159.613617964401243, 22.169864545753803 ], [ -159.614286267161106, 22.17096972271727 ], [ -159.613821730113159, 22.171752735774671 ], [ -159.614885478140309, 22.172046684755909 ], [ -159.614399639564226, 22.172439749979969 ], [ -159.613744057926681, 22.173154338268951 ], [ -159.613216207070849, 22.173116835753103 ], [ -159.612156656733504, 22.173974071423892 ], [ -159.612557173610554, 22.175315996893243 ], [ -159.612200801733366, 22.175916627102655 ], [ -159.612293835599132, 22.176942862792753 ], [ -159.610827973945533, 22.177359910062659 ], [ -159.610795310886601, 22.177758345467002 ], [ -159.610844469525489, 22.178300201301894 ], [ -159.610799322539663, 22.178851185983959 ], [ -159.611116271758306, 22.179103466885881 ], [ -159.611011067766384, 22.180388005483039 ], [ -159.611767774694869, 22.181639257827776 ], [ -159.611192587712083, 22.182852842557857 ], [ -159.610068638192871, 22.183442409184433 ], [ -159.609355134974948, 22.18291699233593 ], [ -159.609870515611703, 22.18204849583072 ], [ -159.609512201558687, 22.181150900183358 ], [ -159.609866591592805, 22.181056795629345 ], [ -159.609610379127076, 22.180820099090962 ], [ -159.609512201558687, 22.181150900183358 ], [ -159.608479697555396, 22.180949480156784 ], [ -159.608502975003518, 22.181290182225307 ], [ -159.608486807200904, 22.18156126262242 ], [ -159.608523201021484, 22.182093680027084 ], [ -159.60820684744354, 22.182112424406057 ], [ -159.607355752458545, 22.182068364145955 ], [ -159.606781953380647, 22.182671306658978 ], [ -159.605834930245436, 22.182358812919144 ], [ -159.605925969279895, 22.18369150385557 ], [ -159.605588023230524, 22.184276146501187 ], [ -159.605655334618092, 22.185261342028625 ], [ -159.604786010501556, 22.186174760483038 ], [ -159.604139798020896, 22.185650361299246 ], [ -159.603863126994668, 22.185364259450456 ], [ -159.603146305429817, 22.185406714248803 ], [ -159.603669093443159, 22.184032552704828 ], [ -159.603267950186762, 22.184011773307578 ], [ -159.60240332580625, 22.184062976632635 ], [ -159.602675470974646, 22.183472380592217 ], [ -159.603012510240916, 22.182889252398084 ], [ -159.602946356973746, 22.181921047502303 ], [ -159.603248213690648, 22.181302099603322 ], [ -159.603569730514181, 22.180745817091953 ], [ -159.603534113998194, 22.180224581624646 ], [ -159.603567992358393, 22.179656647718524 ], [ -159.602967843754016, 22.179963279363896 ], [ -159.602370611140486, 22.180221265267075 ], [ -159.601301944405606, 22.180767252906314 ], [ -159.60091686823958, 22.180512896380314 ], [ -159.600638695748756, 22.179685617711808 ], [ -159.599472621742166, 22.179192351683728 ], [ -159.599745933322254, 22.178875844764722 ], [ -159.600858774482134, 22.178395176822704 ], [ -159.601507522930973, 22.177522822773732 ], [ -159.601186865093666, 22.176978375613771 ], [ -159.601808115143797, 22.176457233377555 ], [ -159.601717044009519, 22.1751230701928 ], [ -159.602377783501396, 22.174785455806006 ], [ -159.602945102863401, 22.174814841130416 ], [ -159.603234789466967, 22.17451044266075 ], [ -159.604015633912041, 22.174550890144495 ], [ -159.602752650466897, 22.172664815926247 ], [ -159.60556303669162, 22.172092081863212 ], [ -159.60494740310611, 22.171278118074831 ], [ -159.605255164642614, 22.17046909170989 ], [ -159.605525090501544, 22.16936875568522 ], [ -159.606709322192557, 22.168661029104182 ], [ -159.606683853120416, 22.168287990978964 ], [ -159.606700419450107, 22.168009845464656 ], [ -159.605807998895841, 22.167485812261916 ], [ -159.60488718562388, 22.166533571155675 ], [ -159.605025415512046, 22.168557549354837 ], [ -159.604162254716869, 22.168230642777615 ], [ -159.603755197702384, 22.167413109095122 ], [ -159.602921613089364, 22.169122636705946 ], [ -159.602033455995013, 22.16938168835302 ], [ -159.601636263356767, 22.170196216723287 ], [ -159.600579823239656, 22.169673322641 ], [ -159.600215842694837, 22.168590580368441 ], [ -159.599411437830582, 22.168849615402905 ], [ -159.599435369365608, 22.169199593118872 ], [ -159.599150496185786, 22.171846743968057 ], [ -159.597991607989201, 22.17234730720979 ], [ -159.597972834278494, 22.172661959579788 ], [ -159.598466092207303, 22.17392667944566 ], [ -159.596823680542059, 22.17402390096381 ], [ -159.596436990786714, 22.17400385352601 ], [ -159.595325993602074, 22.175171121775396 ], [ -159.595402845761271, 22.173885510736042 ], [ -159.595356658525333, 22.173208127584616 ], [ -159.595399331525357, 22.172494230469294 ], [ -159.594949682993672, 22.171591110476079 ], [ -159.594769468012572, 22.171847545726614 ], [ -159.594498314247659, 22.172676840657292 ], [ -159.593819547127111, 22.172970003998405 ], [ -159.593052172423853, 22.174851164590805 ], [ -159.591742380743312, 22.17478323246247 ], [ -159.591198250886578, 22.175898892050252 ], [ -159.589856385336077, 22.175978262629496 ], [ -159.590255788624404, 22.175111614221752 ], [ -159.591286832003021, 22.174028383772139 ], [ -159.59308820493726, 22.172517453030199 ], [ -159.593896594582134, 22.171118865420471 ], [ -159.594178407677219, 22.169681530214287 ], [ -159.59452889953613, 22.168123585736161 ], [ -159.594142595387495, 22.163608393027921 ], [ -159.594184145541362, 22.162913609366338 ], [ -159.594147204310815, 22.162371701683732 ], [ -159.594193002315677, 22.161605929765145 ], [ -159.593848872006561, 22.1610215450618 ], [ -159.594202334549578, 22.159125937432005 ], [ -159.593549904541391, 22.158587205483744 ], [ -159.593231684105206, 22.157640458700104 ], [ -159.592005969277352, 22.156628293083653 ], [ -159.590963347050348, 22.154533700831216 ], [ -159.589438585694666, 22.153714127751606 ], [ -159.589570398979305, 22.151509549319925 ], [ -159.588156297501882, 22.150046697070835 ], [ -159.58769380410348, 22.149664700389796 ], [ -159.587280132504418, 22.149236788335749 ], [ -159.586509248856231, 22.148600119544795 ], [ -159.585748189774733, 22.147812756616986 ], [ -159.584208852272553, 22.147222769060793 ], [ -159.582019997469985, 22.14691302175703 ], [ -159.580421270193625, 22.145881177659962 ], [ -159.577854474206248, 22.144501184112588 ], [ -159.577502096411109, 22.143452335965108 ], [ -159.576607727887364, 22.142385569284531 ], [ -159.576640580158028, 22.141836874270471 ], [ -159.57602351751791, 22.141575657108223 ], [ -159.575162646743991, 22.140479352097685 ], [ -159.574700219378997, 22.140097316703887 ], [ -159.5742866149007, 22.13966936975395 ], [ -159.57138311034214, 22.137721768564436 ], [ -159.571350422118542, 22.137241985457017 ], [ -159.571929122291863, 22.136240958974859 ], [ -159.571591425997411, 22.13580454209897 ], [ -159.570919735852385, 22.135249670226834 ], [ -159.571067935015549, 22.132777209268568 ], [ -159.571040303380045, 22.132370771531395 ], [ -159.571087084444059, 22.131590192761472 ], [ -159.570337446314312, 22.13121406967808 ], [ -159.568439725641866, 22.131957243694561 ], [ -159.568056992758045, 22.129723843103022 ], [ -159.566956367814242, 22.12941137916798 ], [ -159.566416834482567, 22.128326843355417 ], [ -159.565583517251156, 22.127973997921696 ], [ -159.563742568688866, 22.125899205669377 ], [ -159.562843007220067, 22.124471785489295 ], [ -159.562280630901853, 22.124007082679181 ], [ -159.562004950882852, 22.123721756593287 ], [ -159.561696725961013, 22.123467045356264 ], [ -159.561082169667145, 22.122573981507177 ], [ -159.560526931504, 22.122115169813799 ], [ -159.560559443094775, 22.121573010917519 ], [ -159.560233769856779, 22.121303882396106 ], [ -159.559954887824205, 22.120205492461604 ], [ -159.559646674290661, 22.119950777008857 ], [ -159.559107677497195, 22.119392834514425 ], [ -159.558479066050069, 22.119429897347217 ], [ -159.558514384670673, 22.118841279074772 ], [ -159.557313319343393, 22.118332613926679 ], [ -159.556773903239218, 22.117248042360721 ], [ -159.556144535678328, 22.116981478703945 ], [ -159.555868881762308, 22.116696141472826 ], [ -159.554357289521079, 22.116055909926764 ], [ -159.55352040800858, 22.115364249149135 ], [ -159.553214388818645, 22.115047472819434 ], [ -159.552149313940333, 22.115110247611888 ], [ -159.551481217389409, 22.114558074771345 ], [ -159.55120557749737, 22.114272729294296 ], [ -159.550315675307928, 22.114019957532971 ], [ -159.55004003878625, 22.113734610000545 ], [ -159.54957776643144, 22.113352498963952 ], [ -159.549164316274528, 22.11292448376124 ], [ -159.548856137778898, 22.112669746991365 ], [ -159.548442691795913, 22.11224172984107 ], [ -159.547980428599487, 22.111859614026464 ], [ -159.547703754407536, 22.111303241394562 ], [ -159.547053091848937, 22.111027590237114 ], [ -159.547133628130439, 22.109686631098388 ], [ -159.546516758587217, 22.109425297337435 ], [ -159.546240095051502, 22.108868921847453 ], [ -159.544186844107969, 22.108620001473255 ], [ -159.543618305986769, 22.107793568622146 ], [ -159.543019302929764, 22.107539787770087 ], [ -159.542728081187676, 22.107238284357422 ], [ -159.542109882631308, 22.107274678096559 ], [ -159.542176982925099, 22.106159282232511 ], [ -159.541557832359899, 22.10564746547675 ], [ -159.541420030928691, 22.105504783893853 ], [ -159.541774281798524, 22.10541083356949 ], [ -159.541518320442208, 22.105174014330565 ], [ -159.541420030928691, 22.105504783893853 ], [ -159.541263338684928, 22.105379873026038 ], [ -159.540992972927029, 22.105089578884662 ], [ -159.540416492541397, 22.104630071123609 ], [ -159.540385724188923, 22.104288596185462 ], [ -159.54042081423529, 22.103863184115294 ], [ -159.539418979453046, 22.103450569550319 ], [ -159.539552896404871, 22.101825805513354 ], [ -159.538897592863776, 22.101303469025595 ], [ -159.538963161476659, 22.100507712238617 ], [ -159.538307866250904, 22.09998537313594 ], [ -159.538355450395102, 22.099408080478501 ], [ -159.538040447067488, 22.099156934170537 ], [ -159.537769073052999, 22.098595628876929 ], [ -159.537454684270102, 22.098074760991615 ], [ -159.537143570076012, 22.097123986447055 ], [ -159.535650165183824, 22.09671030730777 ], [ -159.535142427505065, 22.096165023515073 ], [ -159.534341697390431, 22.095835164183551 ], [ -159.533196994211863, 22.094605690623148 ], [ -159.532227086267142, 22.094277364962124 ], [ -159.530884546075754, 22.093905431657312 ], [ -159.529606681425378, 22.093472799774325 ], [ -159.527958815377787, 22.093129506056627 ], [ -159.527255798538079, 22.092374411981396 ], [ -159.52653840243164, 22.092430453133414 ], [ -159.526102058201474, 22.092399203987583 ], [ -159.525258103652078, 22.092465125431477 ], [ -159.52494858921176, 22.09213269714467 ], [ -159.52447852978284, 22.091757906292344 ], [ -159.524073143019081, 22.091322428774365 ], [ -159.523123753131898, 22.091059340323088 ], [ -159.52261608339191, 22.09051401589554 ], [ -159.519641714407612, 22.090268881527283 ], [ -159.518840817686197, 22.089408456260365 ], [ -159.518532982197229, 22.08974371607054 ], [ -159.515092246196929, 22.088325866664078 ], [ -159.514581931853314, 22.086765284650895 ], [ -159.512844973614875, 22.087199894857967 ], [ -159.513569327451279, 22.087777522049187 ], [ -159.513297057316606, 22.08925310795955 ], [ -159.511690000023464, 22.089137834975968 ], [ -159.510580994768873, 22.08979001862939 ], [ -159.509842152014414, 22.090594667607284 ], [ -159.508951128785185, 22.091314959124958 ], [ -159.510915962913288, 22.091859600065543 ], [ -159.511573039148942, 22.092717156576526 ], [ -159.51184625315085, 22.093820554151268 ], [ -159.512847265007451, 22.096796999107692 ], [ -159.509818176410619, 22.097579770421522 ], [ -159.508339162033195, 22.097695143476255 ], [ -159.508434026501533, 22.096546560482739 ], [ -159.508076576948923, 22.096520906913003 ], [ -159.507807034998848, 22.096814440940967 ], [ -159.507179051641231, 22.097322050554833 ], [ -159.507230811565051, 22.097897803921089 ], [ -159.50668953795946, 22.098809018450492 ], [ -159.506630864366116, 22.099518278354324 ], [ -159.506655263136963, 22.099789228799814 ], [ -159.506580526406964, 22.100693040633523 ], [ -159.508417253318868, 22.102666319009383 ], [ -159.509283458418906, 22.103023288356923 ], [ -159.510232643164727, 22.104042984953058 ], [ -159.511443400955557, 22.104541914088049 ], [ -159.512091072721574, 22.105058364494802 ], [ -159.512956437675058, 22.106492256546119 ], [ -159.513130747583062, 22.108431765719761 ], [ -159.512769631513635, 22.107911013129822 ], [ -159.512267469642978, 22.106871793028976 ], [ -159.510487046156896, 22.105953423413172 ], [ -159.509255266881496, 22.106049522739362 ], [ -159.508502669823713, 22.105240964595641 ], [ -159.507200502791335, 22.104913218753147 ], [ -159.503752511931651, 22.104665787437479 ], [ -159.50346174758397, 22.104688453062156 ], [ -159.502860093896516, 22.104645269939791 ], [ -159.501125104179778, 22.104945695286141 ], [ -159.500219162469421, 22.1052588594318 ], [ -159.499391717701229, 22.105199448627527 ], [ -159.498664801806342, 22.10525610894225 ], [ -159.498228422554774, 22.105224777782329 ], [ -159.497828902441654, 22.105255912008271 ], [ -159.495221839526579, 22.104820935748133 ], [ -159.496262019636305, 22.103256616241811 ], [ -159.496498001822005, 22.100403183587218 ], [ -159.496147530003498, 22.097968384877202 ], [ -159.495323993592166, 22.097083463041272 ], [ -159.494486739298338, 22.096415660919543 ], [ -159.49584507631053, 22.095617042856563 ], [ -159.495965521535538, 22.094161001416516 ], [ -159.494675707137162, 22.092022899513033 ], [ -159.494798952712642, 22.090532309656332 ], [ -159.493951900123733, 22.089280958860673 ], [ -159.491583522624154, 22.087584783562082 ], [ -159.490960033511016, 22.085064686727112 ], [ -159.490258409609652, 22.084028091990021 ], [ -159.489708446541556, 22.08358935404933 ], [ -159.489438226880424, 22.083298987594151 ], [ -159.488141447517791, 22.082939316356267 ], [ -159.48679302470569, 22.081429841521953 ], [ -159.486463111841033, 22.08074670433658 ], [ -159.485623575621332, 22.080076875105512 ], [ -159.485659232758962, 22.079645960774101 ], [ -159.485280922914257, 22.078488137310362 ], [ -159.483301968313924, 22.076360995730603 ], [ -159.480983110047589, 22.076839565651355 ], [ -159.478501976361855, 22.077243310670532 ], [ -159.479263324017296, 22.075710860352146 ], [ -159.478614046462752, 22.074115560644238 ], [ -159.480293944424545, 22.073763183800828 ], [ -159.485293267795555, 22.071854923691156 ], [ -159.487345800692225, 22.070751080535878 ], [ -159.488803122385917, 22.070885141249146 ], [ -159.489186166710795, 22.07005460295078 ], [ -159.491072844184345, 22.069658703218884 ], [ -159.492736978360654, 22.068695012450917 ], [ -159.493959507504798, 22.067742249889957 ], [ -159.494414735701184, 22.063776186853939 ], [ -159.493788791151616, 22.061184869308409 ], [ -159.492606506628277, 22.059866774988652 ], [ -159.491053135187485, 22.060500312654458 ], [ -159.489349478624376, 22.061650948601645 ], [ -159.488942091840073, 22.061196725688628 ], [ -159.488264948041035, 22.06067584755252 ], [ -159.487586541818985, 22.059205677609235 ], [ -159.48731325152005, 22.056471133211012 ], [ -159.486993906387795, 22.055955105543653 ], [ -159.48643453210164, 22.054576550145711 ], [ -159.485849819779247, 22.053631855067312 ], [ -159.486122184036645, 22.053488700382026 ], [ -159.487672796434111, 22.053887867794018 ], [ -159.49108083991311, 22.052961586106015 ], [ -159.491930865710714, 22.052660926119842 ], [ -159.49262968447718, 22.052725192038864 ], [ -159.49243921934081, 22.051037199297912 ], [ -159.493107538744596, 22.050516240894169 ], [ -159.493417713212182, 22.050165917616518 ], [ -159.494268394809438, 22.050244160334469 ], [ -159.494531451150294, 22.049673783457667 ], [ -159.497070410047769, 22.049313364174807 ], [ -159.497486184766046, 22.04827157794422 ], [ -159.497355364121631, 22.047112248528158 ], [ -159.498426849509514, 22.048306830247398 ], [ -159.498315070861707, 22.046770264127542 ], [ -159.497324517856811, 22.045495933430871 ], [ -159.497713357800535, 22.045056663665012 ], [ -159.497871702069688, 22.044933207227018 ], [ -159.49804398920827, 22.045488039514119 ], [ -159.499486500822513, 22.045316304143437 ], [ -159.499849649549816, 22.046112432681301 ], [ -159.500343116933863, 22.04501061840725 ], [ -159.501005242801455, 22.045085349802157 ], [ -159.50158799788872, 22.046362942292792 ], [ -159.502083402410591, 22.044727447943092 ], [ -159.502623819069129, 22.045912265305628 ], [ -159.503635350184737, 22.046662275259624 ], [ -159.503476298644529, 22.045501648555735 ], [ -159.504415351133815, 22.045607606268256 ], [ -159.504720425583997, 22.045571282327188 ], [ -159.505019723976119, 22.046227416859164 ], [ -159.505672096458909, 22.046711116284335 ], [ -159.50617788473798, 22.046650894673039 ], [ -159.506440064795157, 22.04722565413001 ], [ -159.506768119844651, 22.047741947496192 ], [ -159.506730054769264, 22.048035127339787 ], [ -159.507291561073487, 22.048451460054522 ], [ -159.507899433040279, 22.046902877709691 ], [ -159.508766824713604, 22.047489468245086 ], [ -159.509744411276927, 22.04772748075472 ], [ -159.509635015226877, 22.046929725416121 ], [ -159.50969697404463, 22.0464527361355 ], [ -159.511091645549556, 22.047211199863899 ], [ -159.512033035214415, 22.047449311672306 ], [ -159.511891625125969, 22.046417453430816 ], [ -159.512326181936402, 22.046090758494991 ], [ -159.511624471456287, 22.044405728974162 ], [ -159.513943381551087, 22.044805901834977 ], [ -159.515022760662362, 22.04467730236799 ], [ -159.5155232234018, 22.044090662467291 ], [ -159.517427314027998, 22.044305362907767 ], [ -159.517766343548999, 22.043907923337056 ], [ -159.518379121731073, 22.04366493151382 ], [ -159.519376045418284, 22.042981159878657 ], [ -159.518611366945549, 22.042012142041667 ], [ -159.51982577271923, 22.041763152576763 ], [ -159.520672427767551, 22.040770560420238 ], [ -159.520963302811083, 22.039496033905639 ], [ -159.522097043194606, 22.038643642641514 ], [ -159.522437424600781, 22.037519407084837 ], [ -159.523296383053662, 22.036873602931689 ], [ -159.523698546861141, 22.035975150548047 ], [ -159.524735886709777, 22.036092075919377 ], [ -159.525013275504875, 22.035175807105261 ], [ -159.525890714493499, 22.035274710418129 ], [ -159.526164676443045, 22.034662678561844 ], [ -159.526483188953961, 22.034698560799249 ], [ -159.526743449222238, 22.034393330826376 ], [ -159.527065474471812, 22.034151241852843 ], [ -159.527320827841294, 22.033307362682166 ], [ -159.527971599119638, 22.033049226116507 ], [ -159.527861820375165, 22.032248771326138 ], [ -159.528661839377094, 22.031647214458715 ], [ -159.528183974984302, 22.030895307565405 ], [ -159.527923180053563, 22.03026886728243 ], [ -159.529517078857765, 22.02963659133481 ], [ -159.530502312270357, 22.028960648642588 ], [ -159.531404677625972, 22.028445643466053 ], [ -159.531657972372642, 22.027059708851429 ], [ -159.531979972748104, 22.026817610496831 ], [ -159.532107629070993, 22.026395667178477 ], [ -159.532574674255301, 22.026017847402411 ], [ -159.533211564049168, 22.025323682762657 ], [ -159.534170411356939, 22.025818397721324 ], [ -159.535607505768979, 22.025064675000248 ], [ -159.536011297131438, 22.023798106793642 ], [ -159.537760585991407, 22.023300773966934 ], [ -159.538219837814125, 22.022331943738205 ], [ -159.53959091268095, 22.02175609998028 ], [ -159.540067385537213, 22.020261430242481 ], [ -159.540769700773154, 22.019077834785957 ], [ -159.541578573076947, 22.019495121078926 ], [ -159.54210764975636, 22.021631568363556 ], [ -159.542484292053302, 22.021602100994027 ], [ -159.542987898241819, 22.021053167302103 ], [ -159.543300003379443, 22.021388485595352 ], [ -159.543849470604783, 22.020789456342953 ], [ -159.544149662850998, 22.020810940730637 ], [ -159.544440247886143, 22.020788206084585 ], [ -159.544739091499537, 22.020809594618072 ], [ -159.545455107782942, 22.020433971309242 ], [ -159.545910501874573, 22.019937561895059 ], [ -159.546463179063835, 22.020531404702101 ], [ -159.54729661847955, 22.020779502529809 ], [ -159.547764993365405, 22.018824700818232 ], [ -159.548803125037921, 22.018898992790753 ], [ -159.549071457267388, 22.018332747814959 ], [ -159.549653589959377, 22.018374401820754 ], [ -159.549941696474121, 22.018060374235336 ], [ -159.551004950679555, 22.017805924202513 ], [ -159.551534248152393, 22.018901470508315 ], [ -159.551999700464933, 22.018865016025103 ], [ -159.552485128008101, 22.019386576837526 ], [ -159.551110634933195, 22.019682611856481 ], [ -159.550843715592578, 22.020245712217232 ], [ -159.549697084787226, 22.020727433130617 ], [ -159.550635215654552, 22.021951780565217 ], [ -159.550133497236885, 22.023239918660042 ], [ -159.550553701624722, 22.023207027640971 ], [ -159.550853899694431, 22.023228499615264 ], [ -159.551123215189875, 22.022934896611027 ], [ -159.551590197536001, 22.022557023733853 ], [ -159.55214754844107, 22.021949371872946 ], [ -159.552699974053837, 22.022542879462584 ], [ -159.551997332032499, 22.023474008804243 ], [ -159.551152206323991, 22.024852137673459 ], [ -159.549968896621863, 22.025106992346835 ], [ -159.54934501126283, 22.025434288004742 ], [ -159.549414483483304, 22.026205880356024 ], [ -159.549334912595839, 22.02673528199222 ], [ -159.548831940250807, 22.026194913220628 ], [ -159.547734392469067, 22.025742650074275 ], [ -159.54737966406077, 22.026490946897969 ], [ -159.546214619996363, 22.026980331607852 ], [ -159.545856009344249, 22.027736975416062 ], [ -159.544749107580429, 22.027010751776519 ], [ -159.544371339815797, 22.027807736395999 ], [ -159.543874225557857, 22.027273668411794 ], [ -159.543157165460229, 22.027329776136117 ], [ -159.54241563075351, 22.027276700551884 ], [ -159.542515373917126, 22.028384647753967 ], [ -159.541552660971604, 22.028658380352617 ], [ -159.541183732054748, 22.029060499520302 ], [ -159.54039692039467, 22.028654603643481 ], [ -159.540121917418418, 22.028954279113101 ], [ -159.539338956245587, 22.029283136792781 ], [ -159.540424969980961, 22.030566706216586 ], [ -159.540165974546568, 22.031102204080046 ], [ -159.538029407213173, 22.030271521532789 ], [ -159.536639150264023, 22.030413282436143 ], [ -159.53734267166567, 22.031579169968698 ], [ -159.5369139705397, 22.03192597668399 ], [ -159.536646972721229, 22.032489054689069 ], [ -159.536312230299814, 22.032759871478628 ], [ -159.5363610435829, 22.033302378421698 ], [ -159.535206675310206, 22.033787168134868 ], [ -159.533694840243811, 22.033275140474327 ], [ -159.533746012142501, 22.033843595354906 ], [ -159.533722997318023, 22.034122240991479 ], [ -159.534169344741315, 22.034861992320295 ], [ -159.53507062134355, 22.03558078664382 ], [ -159.535340768772528, 22.035871096161124 ] ], [ [ -159.499379528803217, 22.060377203056369 ], [ -159.499480209309439, 22.060707343009735 ], [ -159.499734349758086, 22.060468905197411 ], [ -159.499379528803217, 22.060377203056369 ] ], [ [ -159.496754247437707, 22.057945943611625 ], [ -159.4968876690142, 22.058364619216068 ], [ -159.497761292362242, 22.060257504055684 ], [ -159.498542275831454, 22.060502730603041 ], [ -159.49772887399223, 22.059188843163856 ], [ -159.497841628604164, 22.058123164828316 ], [ -159.496754247437707, 22.057945943611625 ] ], [ [ -159.496456878619881, 22.056049651351625 ], [ -159.496338685176113, 22.056210337061227 ], [ -159.49519371620346, 22.056613680390754 ], [ -159.495932237479451, 22.057085726454517 ], [ -159.496302229808521, 22.057581748371568 ], [ -159.497224593568575, 22.057217319300634 ], [ -159.497739674054316, 22.056352382038561 ], [ -159.496456878619881, 22.056049651351625 ] ], [ [ -159.611612887759719, 22.128564997571321 ], [ -159.611811464912023, 22.12891290600076 ], [ -159.612586399540902, 22.128679150163933 ], [ -159.611612887759719, 22.128564997571321 ] ], [ [ -159.628794328499708, 22.132836058197913 ], [ -159.628895363634882, 22.133166107950281 ], [ -159.629149408428759, 22.132927464608159 ], [ -159.628794328499708, 22.132836058197913 ] ], [ [ -159.616605115005115, 22.139387069157873 ], [ -159.616705985474738, 22.140108705103188 ], [ -159.617235187356783, 22.140288796525752 ], [ -159.616807730329583, 22.139481584295364 ], [ -159.616605115005115, 22.139387069157873 ] ], [ [ -159.611348897435249, 22.134799482032705 ], [ -159.611449893733919, 22.135129543410269 ], [ -159.611703972070643, 22.134890926522015 ], [ -159.611348897435249, 22.134799482032705 ] ] ] } },
{ "type": "Feature", "properties": { "ID": 28, "GRIDCODE": 2 }, "geometry": { "type": "Polygon", "coordinates": [ [ [ -159.548926329596213, 22.015770118721655 ], [ -159.548798769764801, 22.016773086226124 ], [ -159.547741050060012, 22.018060365622222 ], [ -159.547375236785484, 22.017414588999646 ], [ -159.548009368860306, 22.016954763725138 ], [ -159.548472063563906, 22.015889701115238 ], [ -159.548926329596213, 22.015770118721655 ] ] ] } },
{ "type": "Feature", "properties": { "ID": 29, "GRIDCODE": 2 }, "geometry": { "type": "Polygon", "coordinates": [ [ [ -159.548926329596213, 22.015770118721655 ], [ -159.54913085492268, 22.01540490960183 ], [ -159.549883576230059, 22.015650866639831 ], [ -159.548926329596213, 22.015770118721655 ] ] ] } }
]
}
