{
"type": "FeatureCollection",
"name": "myrhell",
"crs": { "type": "name", "properties": { "name": "urn:ogc:def:crs:OGC:1.3:CRS84" } },
"features": [
{ "type": "Feature", "properties": { "ID": 1, "GRIDCODE": 2 }, "geometry": { "type": "Polygon", "coordinates": [ [ [ -159.487219686681044, 22.160151540111048 ], [ -159.487684799607422, 22.160536133265154 ], [ -159.487638424064244, 22.161301729617787 ], [ -159.487945010115652, 22.161918657252539 ], [ -159.488253190724805, 22.16217350756606 ], [ -159.488529737401421, 22.162729980102149 ], [ -159.489263564417513, 22.163701865107587 ], [ -159.487792239153521, 22.164934336852333 ], [ -159.487398104593666, 22.16734078328216 ], [ -159.486421236853175, 22.168823252119598 ], [ -159.485826485706781, 22.170040466923748 ], [ -159.483919205239431, 22.169583782409411 ], [ -159.483868764271648, 22.168835496682448 ], [ -159.484182887255884, 22.167877161394099 ], [ -159.485043387492482, 22.167506179498808 ], [ -159.485069877659384, 22.167069076988319 ], [ -159.485016439124763, 22.166276715888593 ], [ -159.485362607106794, 22.165986746139797 ], [ -159.485041489167486, 22.165440375809116 ], [ -159.48617482853038, 22.16449105269329 ], [ -159.484912115667782, 22.163446908597226 ], [ -159.486347840236135, 22.162827938863163 ], [ -159.486797421130689, 22.161648887443178 ], [ -159.486761866959057, 22.161122162966674 ], [ -159.487083803282985, 22.160566108930379 ], [ -159.487219686681044, 22.160151540111048 ] ] ] } },
{ "type": "Feature", "properties": { "ID": 2, "GRIDCODE": 2 }, "geometry": { "type": "Polygon", "coordinates": [ [ [ -159.487507841483534, 22.159337604870196 ], [ -159.4878629042787, 22.159429319010723 ], [ -159.487608569656999, 22.159667747375369 ], [ -159.487507841483534, 22.159337604870196 ] ] ] } },
{ "type": "Feature", "properties": { "ID": 3, "GRIDCODE": 2 }, "geometry": { "type": "Polygon", "coordinates": [ [ [ -159.48279063261478, 22.141192955556264 ], [ -159.482435618862155, 22.141101229286573 ], [ -159.482689929657397, 22.140862808891647 ], [ -159.48279063261478, 22.141192955556264 ] ] ] } },
{ "type": "Feature", "properties": { "ID": 4, "GRIDCODE": 2 }, "geometry": { "type": "Polygon", "coordinates": [ [ [ -159.437626271880958, 22.118012006542724 ], [ -159.438309392354455, 22.118344930806749 ], [ -159.437744009814395, 22.119436917292287 ], [ -159.437626271880958, 22.118012006542724 ] ] ] } },
{ "type": "Feature", "properties": { "ID": 5, "GRIDCODE": 2 }, "geometry": { "type": "Polygon", "coordinates": [ [ [ -159.437913795421139, 22.116927126082953 ], [ -159.438583078195592, 22.117035186911849 ], [ -159.43807293365802, 22.11727082674004 ], [ -159.437913795421139, 22.116927126082953 ] ] ] } },
{ "type": "Feature", "properties": { "ID": 6, "GRIDCODE": 2 }, "geometry": { "type": "Polygon", "coordinates": [ [ [ -159.511210518874094, 22.116172095849318 ], [ -159.511112151223159, 22.11650284826246 ], [ -159.510856219547946, 22.116265980687249 ], [ -159.511210518874094, 22.116172095849318 ] ] ] } },
{ "type": "Feature", "properties": { "ID": 7, "GRIDCODE": 2 }, "geometry": { "type": "Polygon", "coordinates": [ [ [ -159.441977519643046, 22.114205905464367 ], [ -159.442332441228103, 22.114297721617927 ], [ -159.442078108083507, 22.11453608026266 ], [ -159.441977519643046, 22.114205905464367 ] ] ] } },
{ "type": "Feature", "properties": { "ID": 8, "GRIDCODE": 2 }, "geometry": { "type": "Polygon", "coordinates": [ [ [ -159.444298485714313, 22.112302416734646 ], [ -159.444653403918693, 22.112394227920124 ], [ -159.444399078096723, 22.112632590113236 ], [ -159.444298485714313, 22.112302416734646 ] ] ] } },
{ "type": "Feature", "properties": { "ID": 9, "GRIDCODE": 2 }, "geometry": { "type": "Polygon", "coordinates": [ [ [ -159.445452561680213, 22.1093179715924 ], [ -159.445871039647642, 22.10961716198188 ], [ -159.445186778279975, 22.109953470166431 ], [ -159.445452561680213, 22.1093179715924 ] ] ] } },
{ "type": "Feature", "properties": { "ID": 10, "GRIDCODE": 2 }, "geometry": { "type": "Polygon", "coordinates": [ [ [ -159.441958095655934, 22.107972324617265 ], [ -159.442691594763744, 22.108100765775756 ], [ -159.442675411154397, 22.108512437776707 ], [ -159.442693935003462, 22.108918928979666 ], [ -159.442682618285119, 22.109206339208274 ], [ -159.443270719156601, 22.109183024608669 ], [ -159.444065616196895, 22.109210219974159 ], [ -159.442973607837359, 22.110545212960329 ], [ -159.443300992002548, 22.110826228888346 ], [ -159.441892879073833, 22.11145012871161 ], [ -159.442729996727536, 22.112168630741682 ], [ -159.441757619259448, 22.112458386401176 ], [ -159.441159213616714, 22.112437903259796 ], [ -159.441551655645839, 22.113817058294025 ], [ -159.440812767488211, 22.113791767689033 ], [ -159.44035948228435, 22.113809731083823 ], [ -159.440409997830045, 22.114915672822093 ], [ -159.439209899215683, 22.114874587805499 ], [ -159.439223003369619, 22.115161932018125 ], [ -159.43920219763325, 22.115689601560423 ], [ -159.439816382801723, 22.116763613717495 ], [ -159.439746336319018, 22.117052546436383 ], [ -159.43846077760162, 22.11576720803993 ], [ -159.439094327221909, 22.11348735479876 ], [ -159.441301620174443, 22.108977946953686 ], [ -159.441958095655934, 22.107972324617265 ] ] ] } },
{ "type": "Feature", "properties": { "ID": 11, "GRIDCODE": 2 }, "geometry": { "type": "Polygon", "coordinates": [ [ [ -159.447752019145923, 22.100638802593991 ], [ -159.448130524732392, 22.100788497764317 ], [ -159.44787048187311, 22.101254394409285 ], [ -159.447752019145923, 22.100638802593991 ] ] ] } },
{ "type": "Feature", "properties": { "ID": 12, "GRIDCODE": 2 }, "geometry": { "type": "Polygon", "coordinates": [ [ [ -159.449204481728344, 22.100092761042987 ], [ -159.449604225625507, 22.100312136416218 ], [ -159.449337207730906, 22.101264362613584 ], [ -159.449204481728344, 22.100092761042987 ] ] ] } },
{ "type": "Feature", "properties": { "ID": 13, "GRIDCODE": 2 }, "geometry": { "type": "Polygon", "coordinates": [ [ [ -159.446586970434225, 22.100099935092452 ], [ -159.447111247783937, 22.100227299255337 ], [ -159.446995620565446, 22.100781118297547 ], [ -159.447424910420182, 22.102084313970458 ], [ -159.446783250561396, 22.102204296877041 ], [ -159.446412346630638, 22.100499212113231 ], [ -159.446586970434225, 22.100099935092452 ] ] ] } },
{ "type": "Feature", "properties": { "ID": 14, "GRIDCODE": 2 }, "geometry": { "type": "Polygon", "coordinates": [ [ [ -159.453566131959292, 22.099809685940713 ], [ -159.453921024390041, 22.099901485828219 ], [ -159.45366673638091, 22.100139853902903 ], [ -159.453566131959292, 22.099809685940713 ] ] ] } },
{ "type": "Feature", "properties": { "ID": 15, "GRIDCODE": 2 }, "geometry": { "type": "Polygon", "coordinates": [ [ [ -159.449493599412335, 22.099549910639727 ], [ -159.449848488727383, 22.099641719429894 ], [ -159.44959419421167, 22.099880081282279 ], [ -159.449493599412335, 22.099549910639727 ] ] ] } },
{ "type": "Feature", "properties": { "ID": 16, "GRIDCODE": 2 }, "geometry": { "type": "Polygon", "coordinates": [ [ [ -159.473043834193589, 22.097315221619972 ], [ -159.473713048076945, 22.097423139916234 ], [ -159.473203033935562, 22.097658887799902 ], [ -159.473043834193589, 22.097315221619972 ] ] ] } },
{ "type": "Feature", "properties": { "ID": 17, "GRIDCODE": 2 }, "geometry": { "type": "Polygon", "coordinates": [ [ [ -159.458777485484973, 22.092477394257248 ], [ -159.459487436749328, 22.092984933504738 ], [ -159.459083183660084, 22.094157721394893 ], [ -159.45861984238536, 22.09449309212831 ], [ -159.45825392048431, 22.095732137712432 ], [ -159.457471053884433, 22.095295035752059 ], [ -159.457188786482732, 22.095637902006345 ], [ -159.45599165396456, 22.096470226303214 ], [ -159.455184991822733, 22.096361443521872 ], [ -159.455092120507175, 22.096959653619059 ], [ -159.455219105588611, 22.09774409570408 ], [ -159.454868433181474, 22.097793391887613 ], [ -159.454562558003829, 22.097752126444462 ], [ -159.454031029064708, 22.09839784050261 ], [ -159.453444415142457, 22.097693943659497 ], [ -159.452350897817837, 22.099168668829321 ], [ -159.451681320443527, 22.099078347592013 ], [ -159.450789402355809, 22.100477486182697 ], [ -159.450769398707109, 22.099142452145234 ], [ -159.451108968369795, 22.098614314678848 ], [ -159.451358751173501, 22.097494610053452 ], [ -159.452013813772965, 22.097020535808145 ], [ -159.452521548013834, 22.095301733938246 ], [ -159.453732032046929, 22.09613289999465 ], [ -159.454782510883575, 22.095840938203011 ], [ -159.455677624804338, 22.095193116655871 ], [ -159.456292389392559, 22.0942285783429 ], [ -159.456619940907217, 22.093991540000733 ], [ -159.457050092644153, 22.093468910509234 ], [ -159.45747179409571, 22.093409618013151 ], [ -159.458165641051778, 22.093503189418428 ], [ -159.458777485484973, 22.092477394257248 ] ] ] } },
{ "type": "Feature", "properties": { "ID": 18, "GRIDCODE": 2 }, "geometry": { "type": "Polygon", "coordinates": [ [ [ -159.459934613546039, 22.090576948642997 ], [ -159.459836142234053, 22.090907673045436 ], [ -159.459580341576412, 22.090670730318919 ], [ -159.459934613546039, 22.090576948642997 ] ] ] } },
{ "type": "Feature", "properties": { "ID": 19, "GRIDCODE": 2 }, "geometry": { "type": "Polygon", "coordinates": [ [ [ -159.46341642680369, 22.088127866382521 ], [ -159.463197513295, 22.088534234305769 ], [ -159.462352944144698, 22.088763981273605 ], [ -159.460418251949562, 22.090484538834772 ], [ -159.459934613546039, 22.090576948642997 ], [ -159.460649334241452, 22.089601906303667 ], [ -159.461804149910137, 22.088249563989645 ], [ -159.462274550238448, 22.088302741188329 ], [ -159.46341642680369, 22.088127866382521 ] ] ] } },
{ "type": "Feature", "properties": { "ID": 20, "GRIDCODE": 2 }, "geometry": { "type": "Polygon", "coordinates": [ [ [ -159.463706351200443, 22.087856016605883 ], [ -159.463707236236729, 22.088127041808878 ], [ -159.46341642680369, 22.088127866382521 ], [ -159.463415542322394, 22.087856841168367 ], [ -159.463706351200443, 22.087856016605883 ] ] ] } },
{ "type": "Feature", "properties": { "ID": 21, "GRIDCODE": 2 }, "geometry": { "type": "Polygon", "coordinates": [ [ [ -159.523953624592338, 22.022356524238262 ], [ -159.523598884738959, 22.022264872622198 ], [ -159.523852916745739, 22.02202639836289 ], [ -159.523953624592338, 22.022356524238262 ] ] ] } },
{ "type": "Feature", "properties": { "ID": 22, "GRIDCODE": 2 }, "geometry": { "type": "Polygon", "coordinates": [ [ [ -159.518998371349113, 22.018577896391392 ], [ -159.518999358480841, 22.018848921632589 ], [ -159.51870869305867, 22.018849841813523 ], [ -159.518707706479745, 22.018578816559845 ], [ -159.518998371349113, 22.018577896391392 ] ] ] } },
{ "type": "Feature", "properties": { "ID": 23, "GRIDCODE": 2 }, "geometry": { "type": "Polygon", "coordinates": [ [ [ -159.518998371349113, 22.018577896391392 ], [ -159.519980269008528, 22.017383361077353 ], [ -159.521720239937849, 22.017001578195124 ], [ -159.521779336395241, 22.017365501685614 ], [ -159.520865427294723, 22.017605922259829 ], [ -159.519452672507356, 22.018458395063817 ], [ -159.518998371349113, 22.018577896391392 ] ] ] } },
{ "type": "Feature", "properties": { "ID": 24, "GRIDCODE": 2 }, "geometry": { "type": "Polygon", "coordinates": [ [ [ -159.514025786996029, 22.009920649926634 ], [ -159.514380490251682, 22.010012323116644 ], [ -159.514126463030777, 22.010250782934413 ], [ -159.514025786996029, 22.009920649926634 ] ] ] } },
{ "type": "Feature", "properties": { "ID": 25, "GRIDCODE": 2 }, "geometry": { "type": "Polygon", "coordinates": [ [ [ -159.523013977791067, 22.003929593001999 ], [ -159.523509508054701, 22.0040565618432 ], [ -159.523112901840477, 22.005402483201255 ], [ -159.522807902477211, 22.005124784709114 ], [ -159.523013977791067, 22.003929593001999 ] ] ] } },
{ "type": "Feature", "properties": { "ID": 26, "GRIDCODE": 2 }, "geometry": { "type": "Polygon", "coordinates": [ [ [ -159.509343477000925, 22.000991303290647 ], [ -159.509698155130422, 22.001082987193602 ], [ -159.509444135496665, 22.00132143986049 ], [ -159.509343477000925, 22.000991303290647 ] ] ] } },
{ "type": "Feature", "properties": { "ID": 27, "GRIDCODE": 2 }, "geometry": { "type": "Polygon", "coordinates": [ [ [ -159.513946680093397, 21.987967535090441 ], [ -159.514301328398432, 21.988059209751299 ], [ -159.514047339323383, 21.988297669329103 ], [ -159.513946680093397, 21.987967535090441 ] ] ] } },
{ "type": "Feature", "properties": { "ID": 28, "GRIDCODE": 2 }, "geometry": { "type": "Polygon", "coordinates": [ [ [ -159.513946680093397, 21.987967535090441 ], [ -159.513224267582387, 21.987825944229424 ], [ -159.512921735391842, 21.987843713798885 ], [ -159.512644855542362, 21.987556577101078 ], [ -159.512346934479893, 21.987574066518892 ], [ -159.512056274562809, 21.987558828542149 ], [ -159.51147518638308, 21.987592948137497 ], [ -159.510886415586128, 21.987562061676545 ], [ -159.510612553955326, 21.987879286340082 ], [ -159.512004060542779, 21.988469680013814 ], [ -159.511002573022097, 21.989309844225758 ], [ -159.51297058962686, 21.989730412305917 ], [ -159.511467627852113, 21.990274632669802 ], [ -159.512078004577376, 21.991083799024143 ], [ -159.512058784851575, 21.9914023153454 ], [ -159.513242484949188, 21.991332811120394 ], [ -159.513224272671664, 21.991634815136322 ], [ -159.513708069740403, 21.9924584154166 ], [ -159.513236227775934, 21.992433672680264 ], [ -159.511398204213947, 21.992541594610884 ], [ -159.5097471262456, 21.991356529169558 ], [ -159.50946297494005, 21.991477227921809 ], [ -159.510245376776396, 21.993489684971784 ], [ -159.509118788307632, 21.993802096666528 ], [ -159.508587098333209, 21.993250901317879 ], [ -159.508308639239203, 21.993755842233544 ], [ -159.509900027551026, 21.994692790290731 ], [ -159.508297322265264, 21.995159791533951 ], [ -159.507733212891452, 21.995388300790804 ], [ -159.510017640743342, 21.995876507555192 ], [ -159.509138118379269, 21.996256272493426 ], [ -159.509781719949956, 21.996788987482383 ], [ -159.509201711803286, 21.997275528706577 ], [ -159.507474002114265, 21.99765606309786 ], [ -159.508780318850114, 21.998210302929873 ], [ -159.510371266836728, 21.998116908333472 ], [ -159.510049322022127, 21.998962494288975 ], [ -159.510944754628099, 21.999217287568744 ], [ -159.510924727812068, 21.999549089493463 ], [ -159.510253030291807, 22.000112510909897 ], [ -159.509201940557915, 21.999764485087834 ], [ -159.508329827988433, 21.999702195691498 ], [ -159.509343477000925, 22.000991303290647 ], [ -159.508606565581147, 22.001119030655801 ], [ -159.507781081091849, 22.002018545974906 ], [ -159.509239525052209, 22.001904712077796 ], [ -159.50889391955937, 22.002486899724975 ], [ -159.509622302166406, 22.003068151193073 ], [ -159.511170489535544, 22.00294730489458 ], [ -159.51049543823305, 22.004084391805208 ], [ -159.509890199630263, 22.005360743578109 ], [ -159.509176197359977, 22.006306485592706 ], [ -159.508599516813888, 22.006265083401519 ], [ -159.508661515521567, 22.006956061558189 ], [ -159.508627912817559, 22.007362709395249 ], [ -159.508655104801534, 22.00766523334454 ], [ -159.50922183484451, 22.007621010121248 ], [ -159.509616039747812, 22.007649313351013 ], [ -159.509505651500263, 22.008986158246213 ], [ -159.509530850504717, 22.009266488389184 ], [ -159.50867218019323, 22.009626964602795 ], [ -159.51011019940529, 22.009514723632869 ], [ -159.51038165458516, 22.009861498554056 ], [ -159.509712594922377, 22.010402627187801 ], [ -159.510694902261406, 22.010325957009055 ], [ -159.511266861715058, 22.011717283178601 ], [ -159.511650746953961, 22.011298938664776 ], [ -159.512442003892346, 22.011707361094331 ], [ -159.512709488285736, 22.010592269481247 ], [ -159.513334799749941, 22.010339432412707 ], [ -159.513255928868546, 22.011295575307731 ], [ -159.513527900150848, 22.012215880630986 ], [ -159.513874037621747, 22.011130680956747 ], [ -159.514305196779617, 22.010404247545587 ], [ -159.515042494976683, 22.011196773045999 ], [ -159.515324347724118, 22.010313042294943 ], [ -159.515515668498495, 22.010061560556263 ], [ -159.515915114229898, 22.010888807652751 ], [ -159.516352771589879, 22.010411839241847 ], [ -159.517071915541948, 22.01118489271942 ], [ -159.517359868192557, 22.010577660158454 ], [ -159.517671177350707, 22.010325797274913 ], [ -159.517959339760779, 22.010011824516749 ], [ -159.518531352925379, 22.010052860850315 ], [ -159.518958408734449, 22.010019500296661 ], [ -159.519387496188131, 22.008674048431022 ], [ -159.519854518904452, 22.008296264569733 ], [ -159.520297385068375, 22.007813545679173 ], [ -159.520253599414332, 22.007326233294361 ], [ -159.520281800320333, 22.006984562282835 ], [ -159.520854443193713, 22.006521313879009 ], [ -159.521122448230329, 22.006229285121957 ], [ -159.522049575847916, 22.005839941395539 ], [ -159.521988700505887, 22.006578185476069 ], [ -159.521416061182805, 22.00704143777055 ], [ -159.520970303196293, 22.007527245678901 ], [ -159.520283053047365, 22.009233414766154 ], [ -159.519854375375303, 22.009580177285915 ], [ -159.520288506383196, 22.010299894419447 ], [ -159.520247732319973, 22.010793612145736 ], [ -159.520589054458782, 22.011941207368803 ], [ -159.519690985157865, 22.012196458757391 ], [ -159.519423953829772, 22.012759510663297 ], [ -159.519112642624179, 22.013011376844176 ], [ -159.518844620957537, 22.013303402404418 ], [ -159.517951998227034, 22.013557105286157 ], [ -159.51713784552237, 22.013984018080819 ], [ -159.516777138152321, 22.014744727111562 ], [ -159.516839698098352, 22.015441306827999 ], [ -159.516458897228688, 22.01608289142149 ], [ -159.515346268173943, 22.016003053405846 ], [ -159.515075547607466, 22.016298125177254 ], [ -159.514692107104025, 22.01627061227974 ], [ -159.514815358027107, 22.017642489234035 ], [ -159.514647902277147, 22.019671295573325 ], [ -159.51271624633867, 22.019532671296336 ], [ -159.512766812212902, 22.02009571116341 ], [ -159.512446783968528, 22.020634765946987 ], [ -159.512784696136293, 22.020904390091854 ], [ -159.512166175030899, 22.0211640858629 ], [ -159.511901045262618, 22.022269176668019 ], [ -159.51126770696834, 22.02253506913345 ], [ -159.512403296667287, 22.022789515412867 ], [ -159.512749466656146, 22.021704318847757 ], [ -159.513950178933669, 22.021363128532023 ], [ -159.513903378257424, 22.020842012031814 ], [ -159.514792091549992, 22.02090578886687 ], [ -159.515244792086435, 22.020870438030851 ], [ -159.516531203905572, 22.019468633687506 ], [ -159.51870869305867, 22.018849841813523 ], [ -159.517393433344807, 22.020429616356267 ], [ -159.517412375562856, 22.021170715861409 ], [ -159.516826770320648, 22.021698872173076 ], [ -159.516543903002997, 22.022247246547952 ], [ -159.515957700802829, 22.022514695726539 ], [ -159.515241773302819, 22.022861424249935 ], [ -159.514806941521471, 22.0249760806396 ], [ -159.514224423641139, 22.025501455560722 ], [ -159.513798629437844, 22.025917472503846 ], [ -159.513355316197533, 22.026317265670734 ], [ -159.513054194844898, 22.026611453370432 ], [ -159.51308097679464, 22.027663125953655 ], [ -159.512717461452752, 22.028664474616733 ], [ -159.511900386661921, 22.029037212072492 ], [ -159.51134001045466, 22.03012338929269 ], [ -159.510090295777445, 22.031250388204647 ], [ -159.510775178298246, 22.033095808229305 ], [ -159.51047325465035, 22.033646745947241 ], [ -159.511473089641299, 22.035441454429733 ], [ -159.511045021178489, 22.035827430717319 ], [ -159.511959642882829, 22.035807172081682 ], [ -159.511904619748861, 22.033650103617621 ], [ -159.512516536972498, 22.033098309559783 ], [ -159.512216005703976, 22.032830934377809 ], [ -159.511675193539958, 22.031800388414933 ], [ -159.513087072196527, 22.03093101154991 ], [ -159.513372855893692, 22.030651792966584 ], [ -159.51415415955455, 22.031023941869876 ], [ -159.514529788245426, 22.029565820943041 ], [ -159.515117235907752, 22.029575140966923 ], [ -159.515110042484281, 22.029293382989493 ], [ -159.515586253801644, 22.027981937714415 ], [ -159.51627287525659, 22.027668665554035 ], [ -159.516555753928856, 22.027120291779376 ], [ -159.517084367638546, 22.026310965736815 ], [ -159.517430774524939, 22.027936041011394 ], [ -159.517974805764311, 22.028420051834967 ], [ -159.518298861861552, 22.026843758912545 ], [ -159.518594395919763, 22.02657722152253 ], [ -159.518878250760963, 22.026299868882727 ], [ -159.519173782605833, 22.02603333047308 ], [ -159.519474889872754, 22.025739131774504 ], [ -159.519447489252798, 22.024666784904902 ], [ -159.520038896701891, 22.024133390154699 ], [ -159.520730674394144, 22.022792263876543 ], [ -159.521738207042119, 22.024214553955414 ], [ -159.522132746389389, 22.023449723898526 ], [ -159.523087578253467, 22.023985459516556 ], [ -159.523188285824574, 22.024315585791385 ], [ -159.523442322112487, 22.024077112142706 ], [ -159.523087578253467, 22.023985459516556 ], [ -159.522826242393762, 22.022989209912428 ], [ -159.524417028639959, 22.023281275057883 ], [ -159.52483566332927, 22.023821990849328 ], [ -159.525031103162632, 22.023224553919995 ], [ -159.524197486362198, 22.022671486117542 ], [ -159.523953624592338, 22.022356524238262 ], [ -159.524991602582446, 22.021941747083108 ], [ -159.525831431657082, 22.02112112341014 ], [ -159.527025471077394, 22.021959899817517 ], [ -159.526983078362832, 22.020302751966025 ], [ -159.527583007586117, 22.020588491303393 ], [ -159.527862228498151, 22.018953301616111 ], [ -159.528392289935141, 22.018961684329042 ], [ -159.530125977256347, 22.021126724737634 ], [ -159.530925190823893, 22.021108935167717 ], [ -159.531862765692495, 22.021123727553817 ], [ -159.53106360602311, 22.020032613007217 ], [ -159.530790670113021, 22.018678357324152 ], [ -159.531505717851104, 22.019367488864052 ], [ -159.532255061177409, 22.018635197155263 ], [ -159.534560937529761, 22.024360251150924 ], [ -159.538382428665159, 22.038947881621262 ], [ -159.538553493962297, 22.04249801476853 ], [ -159.538127339034247, 22.041686334751343 ], [ -159.537317866958176, 22.041423391531357 ], [ -159.536968604906207, 22.042779672290976 ], [ -159.536414039875012, 22.043279938706277 ], [ -159.534736992324127, 22.042102227788401 ], [ -159.535245216077328, 22.043924375742321 ], [ -159.535226345037046, 22.044964642540595 ], [ -159.534075030938169, 22.044946500002588 ], [ -159.533488973944316, 22.045230388471222 ], [ -159.533192698129, 22.045225729178028 ], [ -159.532850940411805, 22.045888346879988 ], [ -159.531904546733472, 22.045437771290256 ], [ -159.531444635404569, 22.044131969055471 ], [ -159.531009595699516, 22.04374498645327 ], [ -159.530908855334474, 22.043414866397004 ], [ -159.530654798047891, 22.043653351500353 ], [ -159.531009595699516, 22.04374498645327 ], [ -159.531182854900095, 22.045876281823769 ], [ -159.531756164953435, 22.046851749388509 ], [ -159.532033303570756, 22.047584031427643 ], [ -159.531165478412333, 22.048750855959511 ], [ -159.530644783518511, 22.04981820793877 ], [ -159.530258019267023, 22.050142629035218 ], [ -159.529737312643562, 22.051209978183905 ], [ -159.52914157469246, 22.052010941483303 ], [ -159.529169515247332, 22.052423809953744 ], [ -159.529139966253382, 22.052914298142756 ], [ -159.528276333874544, 22.053638690172402 ], [ -159.527593033035544, 22.054356574482242 ], [ -159.526651686793628, 22.055146070417656 ], [ -159.524795500184894, 22.055818102909601 ], [ -159.523810172170016, 22.056853242731535 ], [ -159.523043920820896, 22.057184022315617 ], [ -159.52350942575211, 22.057569025343941 ], [ -159.52498617179927, 22.056494628734924 ], [ -159.527520184793076, 22.055824595985669 ], [ -159.528000962254652, 22.057721126903377 ], [ -159.528325001478748, 22.057702066786202 ], [ -159.528150006414364, 22.055115866952526 ], [ -159.529015900863413, 22.054863548631239 ], [ -159.529116645576295, 22.055193669319276 ], [ -159.529370725662915, 22.054955186477397 ], [ -159.529015900863413, 22.054863548631239 ], [ -159.529133047561515, 22.054431816417051 ], [ -159.530068946770257, 22.054204691599114 ], [ -159.529957438376471, 22.053748439219888 ], [ -159.53093617401754, 22.053113819976272 ], [ -159.530839728851532, 22.052719221599478 ], [ -159.531502242222672, 22.051763498566036 ], [ -159.53173651508564, 22.050900030562243 ], [ -159.532489543484871, 22.050786882708913 ], [ -159.532590293106807, 22.051117001319735 ], [ -159.532844360120805, 22.050878513228383 ], [ -159.532489543484871, 22.050786882708913 ], [ -159.533342274256086, 22.048793107879494 ], [ -159.533801477362118, 22.048728320952669 ], [ -159.534616461081072, 22.04918296992351 ], [ -159.53468388542376, 22.048747029027503 ], [ -159.534540963233411, 22.04786682370278 ], [ -159.535095919495745, 22.048068115639929 ], [ -159.535196673058124, 22.048398232673353 ], [ -159.53545073085948, 22.048159740642689 ], [ -159.535095919495745, 22.048068115639929 ], [ -159.53483436862868, 22.046898644765697 ], [ -159.537273643213638, 22.046573048898605 ], [ -159.53784822047038, 22.046294709756189 ], [ -159.53843447665983, 22.046027181881698 ], [ -159.539552588833061, 22.045485533444882 ], [ -159.541742254553668, 22.050002368154882 ], [ -159.544257013258914, 22.061177222396417 ], [ -159.546736357148347, 22.070512007922346 ], [ -159.550814191203983, 22.084368762671556 ], [ -159.553002742023921, 22.091646363501685 ], [ -159.56003123085145, 22.110802220917495 ], [ -159.56323803845433, 22.118296936748603 ], [ -159.569100338811921, 22.125710732056948 ], [ -159.576280263802715, 22.131640002940873 ], [ -159.587718539704468, 22.138066544024522 ], [ -159.597743647457804, 22.142121859499756 ], [ -159.605085960462503, 22.147033865211252 ], [ -159.609792149040089, 22.151730245497173 ], [ -159.610980211983048, 22.153857632566421 ], [ -159.611740033149829, 22.157243916869533 ], [ -159.611284926230951, 22.159463190858045 ], [ -159.609110551017778, 22.162754318163966 ], [ -159.604649872587459, 22.16665507420479 ], [ -159.602009896182608, 22.168336193712037 ], [ -159.597707836902401, 22.170187353003644 ], [ -159.591761078189506, 22.170322096576463 ], [ -159.590407312778069, 22.169716405903291 ], [ -159.590393020646871, 22.169168692083375 ], [ -159.590695329222598, 22.168616812436941 ], [ -159.590395430220894, 22.168350508693496 ], [ -159.590101408885857, 22.167517642417323 ], [ -159.589514880968835, 22.166996794840436 ], [ -159.589811548765283, 22.166455267473573 ], [ -159.589797354903766, 22.165913375701969 ], [ -159.590190910590167, 22.165558419681947 ], [ -159.589804604425325, 22.164823946427518 ], [ -159.58950493799756, 22.164287214154939 ], [ -159.58979514798034, 22.16238545913864 ], [ -159.58949248347426, 22.162116681988635 ], [ -159.59021623177432, 22.16178639500238 ], [ -159.588616742298456, 22.161309312494126 ], [ -159.589737359037628, 22.159922548219747 ], [ -159.589200107691141, 22.159405705299438 ], [ -159.587447481148644, 22.159146432652566 ], [ -159.58716001318038, 22.158599891687579 ], [ -159.585096118694139, 22.158646547058112 ], [ -159.58541217471253, 22.158069665567879 ], [ -159.585715607820362, 22.157481290869903 ], [ -159.586663547692297, 22.156626334142182 ], [ -159.585406644552023, 22.156028892800208 ], [ -159.582777778803091, 22.155639905530549 ], [ -159.582220886247967, 22.155104085631688 ], [ -159.581360318478147, 22.15471895104243 ], [ -159.583566042992487, 22.154043477545102 ], [ -159.585468332395493, 22.152327729330995 ], [ -159.582762155687874, 22.151845655585973 ], [ -159.581920958207292, 22.151036254624461 ], [ -159.581161532548236, 22.151024529301626 ], [ -159.580288801483704, 22.151044227838039 ], [ -159.579828216235143, 22.151037106780716 ], [ -159.577520732557787, 22.151782018261912 ], [ -159.577550613217568, 22.150105153374117 ], [ -159.576643692770688, 22.149699223241601 ], [ -159.576357461025964, 22.149423786867231 ], [ -159.57553501305739, 22.149055680970122 ], [ -159.575187517136726, 22.148070861263619 ], [ -159.573453702781876, 22.148733140599838 ], [ -159.573423483344044, 22.147567779609716 ], [ -159.573739297829036, 22.146697409322442 ], [ -159.573715396486364, 22.145777011388503 ], [ -159.573741052787597, 22.144343491373714 ], [ -159.573425109455883, 22.143742650624919 ], [ -159.572542780263433, 22.142958850843474 ], [ -159.572552911326738, 22.142390377575076 ], [ -159.571961252934642, 22.142403701097457 ], [ -159.571670845841254, 22.141580625805474 ], [ -159.570105681744622, 22.141230963458984 ], [ -159.570647028949594, 22.140242925123761 ], [ -159.569916995693518, 22.140231597750649 ], [ -159.568847182403516, 22.140255668879043 ], [ -159.567001043030956, 22.139704639560467 ], [ -159.567297984488476, 22.13888643661036 ], [ -159.566395291525367, 22.138482318234633 ], [ -159.566419570675038, 22.137129774329477 ], [ -159.566408914678021, 22.13672060536269 ], [ -159.567571264391148, 22.136364736947161 ], [ -159.567274044172478, 22.135887981530121 ], [ -159.564949981842688, 22.135940234704382 ], [ -159.564366672091268, 22.13374627764858 ], [ -159.562981103246472, 22.133777405701725 ], [ -159.563786445926581, 22.132661642758631 ], [ -159.563772521213622, 22.132125012334299 ], [ -159.563777408437062, 22.131853972251104 ], [ -159.563770364457071, 22.131582973367468 ], [ -159.563781001318176, 22.130989899631743 ], [ -159.561210534089838, 22.131407500542277 ], [ -159.561846951839129, 22.129654254810546 ], [ -159.559395448824688, 22.12970928913747 ], [ -159.559836787581276, 22.128493480714607 ], [ -159.559118049399842, 22.127801611646273 ], [ -159.557943441825756, 22.127827970163775 ], [ -159.557516977938008, 22.126618505574267 ], [ -159.557064374834454, 22.126182813217383 ], [ -159.556756576437778, 22.125909307805387 ], [ -159.558215134813679, 22.125243856277329 ], [ -159.558237153718778, 22.124018649640135 ], [ -159.557630742736109, 22.123747092775027 ], [ -159.557053509715189, 22.123472506136387 ], [ -159.55618747475026, 22.123491934252787 ], [ -159.556169565503552, 22.122800780486141 ], [ -159.556177268209041, 22.122374798318869 ], [ -159.554719590603753, 22.12240747296433 ], [ -159.554428605189941, 22.121853816850589 ], [ -159.55330379169672, 22.122216816523988 ], [ -159.552974033912108, 22.121589313314317 ], [ -159.552676301309077, 22.121324723147534 ], [ -159.552249819383917, 22.120513094201055 ], [ -159.551510677550311, 22.120781190417492 ], [ -159.550737716362448, 22.121155505998654 ], [ -159.550096043100325, 22.120537732875615 ], [ -159.548891988652827, 22.120518882115704 ], [ -159.548185792640652, 22.120860869812031 ], [ -159.547436119851682, 22.119434197285631 ], [ -159.545389954459381, 22.119479958807922 ], [ -159.545735872428907, 22.117877024123423 ], [ -159.545394525428463, 22.117548333309497 ], [ -159.543950182774097, 22.117898365597629 ], [ -159.543933988586559, 22.117268160591681 ], [ -159.54481673987658, 22.115657260062985 ], [ -159.54392721615045, 22.11539156599267 ], [ -159.543639434719296, 22.114843817128232 ], [ -159.542080962238629, 22.115221498510028 ], [ -159.54160198379148, 22.114309769364333 ], [ -159.54101328620834, 22.114046063728026 ], [ -159.541032940894411, 22.112962404920623 ], [ -159.540575887532214, 22.112955225332957 ], [ -159.539857176525828, 22.112971274297962 ], [ -159.539268709614447, 22.112691234434731 ], [ -159.538653595598589, 22.112704967529165 ], [ -159.537373714383961, 22.111472475705181 ], [ -159.535778072325741, 22.111987261556163 ], [ -159.535728030648784, 22.11003751597838 ], [ -159.536052411522633, 22.109720655985551 ], [ -159.536355935569958, 22.109446988947358 ], [ -159.535679537107967, 22.108233955169872 ], [ -159.536059299908402, 22.107541086508295 ], [ -159.534373564590965, 22.107578667524365 ], [ -159.533413662034008, 22.107291888398819 ], [ -159.533438016977584, 22.105950868549428 ], [ -159.532824065179113, 22.105113213584421 ], [ -159.532853428236564, 22.103497099099908 ], [ -159.531963368737763, 22.103516921774609 ], [ -159.531949731523383, 22.102985527533804 ], [ -159.532243900959543, 22.102415431577647 ], [ -159.533297978912941, 22.101111490732382 ], [ -159.532098638712256, 22.100753145652654 ], [ -159.532659268568239, 22.098684635639852 ], [ -159.531636751323902, 22.099179727947689 ], [ -159.530778415388568, 22.098352949422139 ], [ -159.53000161990866, 22.098729056733848 ], [ -159.529617029695402, 22.098358586493418 ], [ -159.529028562490794, 22.098094892831792 ], [ -159.527675894432406, 22.097451031259791 ], [ -159.527169207422077, 22.097945901764309 ], [ -159.524625340781654, 22.097286068402312 ], [ -159.523503651485868, 22.096752129876489 ], [ -159.522915201870404, 22.09648841379639 ], [ -159.520879268820835, 22.094863334506961 ], [ -159.520000011565656, 22.094600534147212 ], [ -159.518940097201835, 22.094095944245112 ], [ -159.517237651146758, 22.093929021250421 ], [ -159.516891237467235, 22.093344807516221 ], [ -159.516054172472252, 22.0930237231882 ], [ -159.516413740035887, 22.093828916406647 ], [ -159.517237651146758, 22.093929021250421 ], [ -159.517513183575119, 22.094214426879429 ], [ -159.518847768934819, 22.094593857027078 ], [ -159.520631767771874, 22.095873207829872 ], [ -159.522334302206986, 22.098121338436936 ], [ -159.5232240576631, 22.09837426608712 ], [ -159.523762834298395, 22.098932341119717 ], [ -159.524096196685406, 22.098912745237119 ], [ -159.525377967781225, 22.099336689156875 ], [ -159.52641292010648, 22.100005430376338 ], [ -159.527885365283026, 22.100527479625345 ], [ -159.528572414351487, 22.100872510040755 ], [ -159.529035450224171, 22.101352088265362 ], [ -159.529670420925555, 22.101877111377522 ], [ -159.529038424618506, 22.1021499028273 ], [ -159.527571279280693, 22.103001691442838 ], [ -159.527611102668004, 22.103590708785013 ], [ -159.528775958009334, 22.105133229687024 ], [ -159.52875716695516, 22.105445000933145 ], [ -159.529360672870382, 22.105943990068532 ], [ -159.529343554760885, 22.106228031412979 ], [ -159.529658127293686, 22.106762949929919 ], [ -159.52934847164002, 22.107298377912194 ], [ -159.529032908192789, 22.10794488783911 ], [ -159.527909236505451, 22.107573282513016 ], [ -159.527053134547032, 22.107623613304956 ], [ -159.526609401987827, 22.107164099529879 ], [ -159.525934958915229, 22.106606430562724 ], [ -159.525294780776846, 22.107918109198724 ], [ -159.522383155675783, 22.107765762890626 ], [ -159.520636438233538, 22.106513297074212 ], [ -159.518917448815557, 22.105359124423064 ], [ -159.518598186640332, 22.10587990695527 ], [ -159.520389173647288, 22.107360849063824 ], [ -159.52091797355925, 22.108424829224344 ], [ -159.522193901952647, 22.110114630817726 ], [ -159.523815458630537, 22.110801840531522 ], [ -159.524399693270965, 22.111406952271938 ], [ -159.525290679557628, 22.111105827905558 ], [ -159.52767847796423, 22.11084235876249 ], [ -159.528201067221488, 22.111383580101748 ], [ -159.528536019937832, 22.111363895137309 ], [ -159.52907486752963, 22.111921942118869 ], [ -159.529383009699671, 22.112176716979487 ], [ -159.52966062668898, 22.113004143651398 ], [ -159.530585533990006, 22.113266989120795 ], [ -159.530528839239793, 22.114208647298447 ], [ -159.529946014185469, 22.115738999478772 ], [ -159.529983144424193, 22.11628752893041 ], [ -159.530850159790191, 22.116236551003116 ], [ -159.53233296805351, 22.116726844397771 ], [ -159.531989173073583, 22.11762953042523 ], [ -159.53203187458746, 22.118260064675241 ], [ -159.53437126537105, 22.117786354982169 ], [ -159.534319137880601, 22.118652194779347 ], [ -159.534644978895528, 22.119206220914858 ], [ -159.534924686306965, 22.120575679413147 ], [ -159.535662279446115, 22.120829034310482 ], [ -159.537955490172351, 22.120248670467774 ], [ -159.53783090695768, 22.122320166172475 ], [ -159.537867618837311, 22.122862093971673 ], [ -159.537810703775619, 22.123808418413457 ], [ -159.538827264168532, 22.124097231849696 ], [ -159.539405492796732, 22.124063206311703 ], [ -159.540689809291848, 22.123407434894052 ], [ -159.541337337972635, 22.124077862491859 ], [ -159.542595711357052, 22.124346256390936 ], [ -159.542070109793144, 22.126201053678091 ], [ -159.543330764796963, 22.12655915770927 ], [ -159.543788666355425, 22.127923489033094 ], [ -159.545146087556731, 22.127843571796532 ], [ -159.546921819644751, 22.128190837024221 ], [ -159.548606430829267, 22.127764406218333 ], [ -159.548916997954194, 22.128388938669083 ], [ -159.549339430102719, 22.129107019394773 ], [ -159.54892113813986, 22.129457768227361 ], [ -159.548600017180831, 22.129795013795516 ], [ -159.548684895555397, 22.131044871914664 ], [ -159.548236070023506, 22.131820966235374 ], [ -159.548924756736483, 22.132390085928318 ], [ -159.549229036804064, 22.133001917605323 ], [ -159.549808058691241, 22.132706249024857 ], [ -159.550470176701765, 22.132740781942648 ], [ -159.550972183313888, 22.13326044137143 ], [ -159.551575364605867, 22.133515912946951 ], [ -159.550683423162155, 22.136533755485218 ], [ -159.551384398196632, 22.13711299575267 ], [ -159.553036152445884, 22.137015665142449 ], [ -159.553319480016256, 22.138401946078368 ], [ -159.555217920935831, 22.138941043371428 ], [ -159.553607054559819, 22.140291790039395 ], [ -159.554521823994747, 22.140829448509393 ], [ -159.553122704595893, 22.141665140397151 ], [ -159.552631809381666, 22.14316543775346 ], [ -159.553773004527272, 22.145695462797946 ], [ -159.555694926502099, 22.146509316829778 ], [ -159.556382266068169, 22.146854222392093 ], [ -159.556845548072999, 22.147333714097005 ], [ -159.557644524634554, 22.147672021604336 ], [ -159.558013527396298, 22.148413814768819 ], [ -159.55852244959064, 22.149278745736861 ], [ -159.56070174711698, 22.149150240782021 ], [ -159.560056401498201, 22.150017699100818 ], [ -159.559463499724274, 22.150893188111478 ], [ -159.559500377624801, 22.15143570256539 ], [ -159.560424375063661, 22.152199090993403 ], [ -159.560327224574593, 22.153818712171411 ], [ -159.560400842605674, 22.15490254956897 ], [ -159.560367923838584, 22.155450820018121 ], [ -159.560714477951791, 22.156039645501313 ], [ -159.562445981508915, 22.155937525233096 ], [ -159.561532893353814, 22.158003992182209 ], [ -159.561582307860789, 22.158731599241793 ], [ -159.56265935149284, 22.158668079439323 ], [ -159.561575407097848, 22.160124954923862 ], [ -159.562737464164201, 22.161662437724758 ], [ -159.563074236319409, 22.162339326978298 ], [ -159.564487524248364, 22.162740477336172 ], [ -159.565054245548936, 22.163024788102689 ], [ -159.565653523192168, 22.163278480685534 ], [ -159.566252920152294, 22.163579199156519 ], [ -159.566219492607587, 22.164136966651043 ], [ -159.565212130159978, 22.164084550391166 ], [ -159.56389620785103, 22.164162180658881 ], [ -159.562105068954111, 22.166479001590044 ], [ -159.560414952904409, 22.167090881560618 ], [ -159.559876520362081, 22.168194247093467 ], [ -159.559263474638328, 22.168162316476145 ], [ -159.558640754919537, 22.168199032423693 ], [ -159.558112170195102, 22.169282210534668 ], [ -159.557196108580342, 22.169549121151011 ], [ -159.556659403737257, 22.170648913914402 ], [ -159.556079570543602, 22.170357994169176 ], [ -159.554898331822329, 22.170106248926992 ], [ -159.554329964284193, 22.169821090009428 ], [ -159.552903823990675, 22.169905127780822 ], [ -159.551304856177865, 22.170721460016672 ], [ -159.550844483810067, 22.171204947875161 ], [ -159.550472442866067, 22.171185560433639 ], [ -159.549688732503853, 22.173105141615689 ], [ -159.54919699224331, 22.173362578248977 ], [ -159.548809421954786, 22.171466727132493 ], [ -159.548368419461553, 22.170334731654176 ], [ -159.548802118652446, 22.169584842195842 ], [ -159.549104189844456, 22.168965985045958 ], [ -159.549066292492824, 22.168408386008636 ], [ -159.548196480564513, 22.167689722446863 ], [ -159.547565846584519, 22.166178009323168 ], [ -159.547662613996977, 22.164567130935971 ], [ -159.547595714744602, 22.163580663684993 ], [ -159.546398074518009, 22.163073528125562 ], [ -159.546446533286229, 22.162267517974151 ], [ -159.546397951952116, 22.16155201121509 ], [ -159.545552673460151, 22.161194045653176 ], [ -159.545215987138505, 22.160517118336646 ], [ -159.543144559363753, 22.159928869089967 ], [ -159.543239573411256, 22.158348401236022 ], [ -159.543208400428455, 22.157888614540777 ], [ -159.542611106048781, 22.157395064534406 ], [ -159.542643291288357, 22.156859759660744 ], [ -159.542572069984089, 22.155810162573072 ], [ -159.542928571340582, 22.155511320546882 ], [ -159.543371938581089, 22.154156680328704 ], [ -159.540562146351078, 22.153859527769836 ], [ -159.540597611565858, 22.153269813889143 ], [ -159.541934004711806, 22.151474051708217 ], [ -159.540568118552841, 22.151182789057621 ], [ -159.539971104393771, 22.150883115658026 ], [ -159.539404128846456, 22.150916479118909 ], [ -159.539127655750946, 22.150630257863355 ], [ -159.538528477465576, 22.150376465343772 ], [ -159.537975118356144, 22.149263702286721 ], [ -159.537358569519313, 22.148754182484737 ], [ -159.537046593203996, 22.148431235475247 ], [ -159.53590083898402, 22.147945906992103 ], [ -159.53562386804316, 22.147318163900369 ], [ -159.536219375601661, 22.146288711523027 ], [ -159.535019858858618, 22.145780609363083 ], [ -159.534606354915297, 22.145352560000145 ], [ -159.534108535993312, 22.144941087680387 ], [ -159.533563453820221, 22.144973142982405 ], [ -159.532703642759543, 22.144417817869986 ], [ -159.531812562784438, 22.143893928785875 ], [ -159.531349885054482, 22.142963386314737 ], [ -159.528908547172222, 22.143106904653017 ], [ -159.52826932977797, 22.143073484604493 ], [ -159.527545908912288, 22.142324471255048 ], [ -159.529456401025811, 22.141500074998632 ], [ -159.530003348098688, 22.140925764507717 ], [ -159.531286538871143, 22.140372050189544 ], [ -159.530461162590143, 22.1396898306525 ], [ -159.530938862704147, 22.139289366933632 ], [ -159.53208219269149, 22.138226153218142 ], [ -159.529226523979673, 22.137821078353841 ], [ -159.530383557140027, 22.136851178405156 ], [ -159.530312213258725, 22.135797899805034 ], [ -159.528570914115164, 22.135500953858877 ], [ -159.529209749061039, 22.134642636370323 ], [ -159.528284109134603, 22.133877498564573 ], [ -159.528007037093971, 22.133320209754942 ], [ -159.527417619227151, 22.133354860301687 ], [ -159.526841804347271, 22.132196537396599 ], [ -159.527728781392426, 22.131453003430682 ], [ -159.527689099824727, 22.130866866097794 ], [ -159.526252963550746, 22.130951267925649 ], [ -159.525959098630125, 22.130075413467473 ], [ -159.524827417843881, 22.129753806483436 ], [ -159.526535905464925, 22.128733683259863 ], [ -159.527284290454958, 22.127947862342666 ], [ -159.527993406236561, 22.127641834123015 ], [ -159.527594884819081, 22.126964072396461 ], [ -159.525795628020091, 22.127419282554019 ], [ -159.524371338438158, 22.12706876397414 ], [ -159.523617936925007, 22.126288595010646 ], [ -159.522424085991531, 22.125949288071258 ], [ -159.522456341146977, 22.125413429608585 ], [ -159.523614706318881, 22.123857008673106 ], [ -159.52278958434394, 22.122764470232823 ], [ -159.520959296126733, 22.12224427465312 ], [ -159.521567733439582, 22.121426784599866 ], [ -159.521199593045225, 22.1204810600447 ], [ -159.519797293535305, 22.120082482615121 ], [ -159.519521705189476, 22.119797082799099 ], [ -159.518445995975327, 22.119491322141748 ], [ -159.517207842220103, 22.119564030138616 ], [ -159.516578354934182, 22.1192478443289 ], [ -159.51661203817639, 22.118688831117726 ], [ -159.515427281254489, 22.118758379025646 ], [ -159.51551220459308, 22.117349520951475 ], [ -159.514276907451205, 22.117422040300102 ], [ -159.513976102307822, 22.116816745161611 ], [ -159.51278418852047, 22.116886701482546 ], [ -159.512853663676367, 22.115735014328013 ], [ -159.511945385599603, 22.116041907231004 ], [ -159.511210518874094, 22.116172095849318 ], [ -159.511058692628723, 22.115226024957956 ], [ -159.511066167590201, 22.114817420449327 ], [ -159.511038473378449, 22.113733736050023 ], [ -159.50930178091258, 22.114574262825744 ], [ -159.509324995367933, 22.11330703356715 ], [ -159.507852550493226, 22.113339624044272 ], [ -159.507564513488802, 22.112521909148306 ], [ -159.506100623733658, 22.112084289427372 ], [ -159.506107401917632, 22.111715205993189 ], [ -159.506070215897523, 22.110905817130899 ], [ -159.504939056018856, 22.111453238315214 ], [ -159.504639572593192, 22.111164685304832 ], [ -159.504649329514621, 22.110633827422333 ], [ -159.504153237906053, 22.110369693061642 ], [ -159.50343449961872, 22.112456991965676 ], [ -159.502906947170089, 22.111452212114649 ], [ -159.502396050994008, 22.110997859000509 ], [ -159.50155267611197, 22.113009687683867 ], [ -159.501163542619736, 22.112268414574373 ], [ -159.500583947788471, 22.112548876647047 ], [ -159.499968941339006, 22.112816360277272 ], [ -159.498837827838173, 22.112277766733602 ], [ -159.4979470675855, 22.112014884441454 ], [ -159.497375196369944, 22.113122392376841 ], [ -159.497388373621476, 22.113640029279964 ], [ -159.497383297606916, 22.11391374218762 ], [ -159.498267327800477, 22.114178062205713 ], [ -159.497966904050543, 22.11444873878996 ], [ -159.497973900853623, 22.114722348695757 ], [ -159.497968887605822, 22.11499338982744 ], [ -159.497976550465097, 22.115294879400231 ], [ -159.498710550460459, 22.116611864157537 ], [ -159.499141077546938, 22.117431864138684 ], [ -159.499437535643864, 22.117425316954105 ], [ -159.499723697255916, 22.117701000629918 ], [ -159.500764131053671, 22.118167385853333 ], [ -159.500017272109602, 22.118507811190231 ], [ -159.500024352912192, 22.118783877052326 ], [ -159.499730223912593, 22.119593040571594 ], [ -159.499765095126293, 22.120963785191588 ], [ -159.500900894816681, 22.120938701168956 ], [ -159.501799076747801, 22.122337918307345 ], [ -159.501779839850656, 22.123383519711247 ], [ -159.501794021754876, 22.123939182502536 ], [ -159.503515970195025, 22.123901136412446 ], [ -159.503824671485063, 22.124198545301624 ], [ -159.505270530617338, 22.124166584471265 ], [ -159.505698759952566, 22.124982180647503 ], [ -159.504910448307925, 22.126810343827035 ], [ -159.505862860551133, 22.126349486344129 ], [ -159.506673139125695, 22.126081374324325 ], [ -159.506086514036468, 22.128243901822628 ], [ -159.508785326728486, 22.12850860599627 ], [ -159.50907138658701, 22.128784165073775 ], [ -159.510179438213015, 22.129280739222786 ], [ -159.509350718671698, 22.130428012355516 ], [ -159.508204059771828, 22.130950725486574 ], [ -159.50850692179614, 22.13149398276185 ], [ -159.507363795560593, 22.13290733628763 ], [ -159.508538042629198, 22.133951438883297 ], [ -159.510265577539968, 22.133913194820085 ], [ -159.510255364647037, 22.134469279271482 ], [ -159.510262386629762, 22.134742788266401 ], [ -159.509967450286098, 22.13528054069797 ], [ -159.509673125121736, 22.13585059729505 ], [ -159.509686351177265, 22.136368230886728 ], [ -159.50967637620812, 22.136912106406982 ], [ -159.51143464379453, 22.137173122924938 ], [ -159.512096227351151, 22.137488010241142 ], [ -159.513768006480291, 22.137163519483614 ], [ -159.51375798775689, 22.137710587701751 ], [ -159.513765017427602, 22.137984269995069 ], [ -159.512201882202419, 22.138344481519397 ], [ -159.511731446127385, 22.138803766362493 ], [ -159.511435669967682, 22.139070292445375 ], [ -159.510862622402215, 22.139890587100378 ], [ -159.510276538282397, 22.14070188858469 ], [ -159.510577694793625, 22.141512506786377 ], [ -159.510567725525192, 22.142056994009778 ], [ -159.510581621401087, 22.142601605026126 ], [ -159.510285693593175, 22.142868237059499 ], [ -159.51000227864867, 22.143335790255868 ], [ -159.511466070024909, 22.144223294776189 ], [ -159.510496841467983, 22.144519645067081 ], [ -159.509115856665943, 22.144497699649953 ], [ -159.509140160139509, 22.145449261637822 ], [ -159.509127865831772, 22.146119036862693 ], [ -159.509438343059117, 22.146675914240152 ], [ -159.508701213377662, 22.148019945849914 ], [ -159.508259643854217, 22.14887513018785 ], [ -159.508283785706254, 22.149822457623678 ], [ -159.50918291954099, 22.151867736616875 ], [ -159.510035746110901, 22.15262589702326 ], [ -159.510321858099445, 22.152901452127374 ], [ -159.510768442977707, 22.153298460190879 ], [ -159.511197757978607, 22.153711889411817 ], [ -159.511636910854634, 22.153702158728869 ], [ -159.512568969203045, 22.153716948807539 ], [ -159.512958391822053, 22.154822103015817 ], [ -159.512939295696299, 22.155863977986101 ], [ -159.513273017314191, 22.156160617785332 ], [ -159.514702081147135, 22.156128943794762 ], [ -159.514992680655126, 22.157223263281416 ], [ -159.515859997886565, 22.157204029768572 ], [ -159.516306376543753, 22.157633883300626 ], [ -159.517030608042489, 22.156926933363529 ], [ -159.517323531981731, 22.158029908904769 ], [ -159.518777479766584, 22.157747682671769 ], [ -159.519091253002387, 22.157752647608127 ], [ -159.519774597309578, 22.158410669674502 ], [ -159.519357799945823, 22.159947490008246 ], [ -159.52141550407444, 22.159901801655423 ], [ -159.521390510527709, 22.1612732852943 ], [ -159.522290354200834, 22.162073054797059 ], [ -159.522285090352398, 22.162359727363846 ], [ -159.522875133967261, 22.162884143661298 ], [ -159.523172127590243, 22.163170069950883 ], [ -159.524914872225594, 22.163690660126885 ], [ -159.525290506789645, 22.165104606311566 ], [ -159.526965658663329, 22.165854944314734 ], [ -159.526929822310507, 22.167829068520327 ], [ -159.528353816574764, 22.168692125741845 ], [ -159.52871284395286, 22.169375301709881 ], [ -159.529011063606276, 22.169640320277942 ], [ -159.528809696191388, 22.172079796584772 ], [ -159.527754232816903, 22.170591684787645 ], [ -159.526318405517173, 22.169607474719047 ], [ -159.525220156365435, 22.169115569163548 ], [ -159.523489890769895, 22.168031243592569 ], [ -159.52317954847976, 22.168038145338599 ], [ -159.522590881844565, 22.167758051073466 ], [ -159.521992218348856, 22.16777134993432 ], [ -159.52113572308815, 22.166946719381855 ], [ -159.520564426865747, 22.167504362649815 ], [ -159.519971681282669, 22.167774564872818 ], [ -159.51998744322043, 22.168390520543728 ], [ -159.518524912255145, 22.168046375306268 ], [ -159.518233983940718, 22.168330391247199 ], [ -159.517629621554278, 22.168320822985379 ], [ -159.516787759225309, 22.169142519565249 ], [ -159.516297850073698, 22.169583922693352 ], [ -159.515921760078783, 22.171042427051205 ], [ -159.515213954139227, 22.171365042194402 ], [ -159.5147637701414, 22.172672224728871 ], [ -159.510959174824876, 22.172949801944196 ], [ -159.510254982839029, 22.172271736142996 ], [ -159.509462398874604, 22.171567203337329 ], [ -159.507479743919902, 22.171611078996904 ], [ -159.506902406870921, 22.171336322563867 ], [ -159.506162043797218, 22.171004607661271 ], [ -159.50690343619533, 22.169978545666282 ], [ -159.506889720138361, 22.169441908642732 ], [ -159.506899640784184, 22.168899830212155 ], [ -159.506885503818523, 22.168344799741764 ], [ -159.507471740109793, 22.167816667946269 ], [ -159.507921047809077, 22.167378188195112 ], [ -159.506375150595915, 22.166318255852058 ], [ -159.507463961099177, 22.165648501326388 ], [ -159.507763998235589, 22.16506748934756 ], [ -159.507743826918841, 22.164276770753332 ], [ -159.508859114406562, 22.163271990750033 ], [ -159.507230138909847, 22.162785223454463 ], [ -159.507747096016942, 22.161842747326734 ], [ -159.507726594641952, 22.161038969534818 ], [ -159.508899295066186, 22.160223548657896 ], [ -159.509182106837386, 22.159578305525052 ], [ -159.507963129702006, 22.158839263973867 ], [ -159.506272934736302, 22.158876652856737 ], [ -159.50567038857389, 22.158867075311694 ], [ -159.505700176882357, 22.157244204076633 ], [ -159.504516574921325, 22.156713852576353 ], [ -159.50423046614614, 22.156438287348475 ], [ -159.50393274787055, 22.156173609023774 ], [ -159.5036447122894, 22.155355999998289 ], [ -159.503220857649723, 22.154595722241687 ], [ -159.501690680982648, 22.155335993562371 ], [ -159.500407191845824, 22.154531313040199 ], [ -159.498416247143524, 22.154575257460358 ], [ -159.497440175295111, 22.153963287475499 ], [ -159.495319746941135, 22.153012949541353 ], [ -159.493740969462152, 22.153776618642944 ], [ -159.492143732363161, 22.153751082982581 ], [ -159.490669865629627, 22.153783545710361 ], [ -159.489222389096284, 22.155614846334718 ], [ -159.488211893655603, 22.157060621340083 ], [ -159.488252353313925, 22.154869713834504 ], [ -159.487343127080806, 22.154597876597364 ], [ -159.485862736446052, 22.153767631204634 ], [ -159.484722052023926, 22.153792720032058 ], [ -159.483853319614354, 22.153352427366308 ], [ -159.486918357871701, 22.151955949391599 ], [ -159.486169107356261, 22.151620106090444 ], [ -159.485883301294223, 22.15141942585289 ], [ -159.488500570639246, 22.151071090676965 ], [ -159.489377218506746, 22.150513667521011 ], [ -159.489363730536354, 22.149981690869041 ], [ -159.489368760073972, 22.149710650833402 ], [ -159.489361776466097, 22.149436967014573 ], [ -159.490771227445663, 22.149112396038635 ], [ -159.491101388671524, 22.147663394100476 ], [ -159.490227089320769, 22.14727150396573 ], [ -159.490237135913077, 22.146726768744713 ], [ -159.490218701534559, 22.145997766124665 ], [ -159.487246512973115, 22.145556163116726 ], [ -159.487609576851753, 22.144557600326607 ], [ -159.486387164186056, 22.144009628991398 ], [ -159.48527049275458, 22.144034185733037 ], [ -159.484544693748006, 22.143688578822843 ], [ -159.483673356831304, 22.14411002590364 ], [ -159.482581036537596, 22.143589910448014 ], [ -159.483236359702772, 22.142683169078236 ], [ -159.48293549908982, 22.141872803298721 ], [ -159.48279063261478, 22.141192955556264 ], [ -159.484590011813765, 22.141385522977224 ], [ -159.485439878141136, 22.140673532124161 ], [ -159.486123802247704, 22.139955819784159 ], [ -159.48785284220375, 22.139649825724 ], [ -159.487883821161546, 22.139137896535697 ], [ -159.48629987260432, 22.138466351114477 ], [ -159.485551073378815, 22.137847061697432 ], [ -159.486115430717888, 22.137516616050114 ], [ -159.48785653439657, 22.137010030219543 ], [ -159.48790243103474, 22.136251587562715 ], [ -159.487273269238784, 22.135599790312863 ], [ -159.486415487975563, 22.135649990210812 ], [ -159.48612432535063, 22.135348385686186 ], [ -159.485069031967186, 22.134900952078244 ], [ -159.484639979492556, 22.134546067203221 ], [ -159.485939652272549, 22.133770531056914 ], [ -159.485220151431378, 22.133465443592328 ], [ -159.485883067984105, 22.132575235768709 ], [ -159.484640538075269, 22.131844154697554 ], [ -159.484683692331259, 22.131130532914423 ], [ -159.482966706513082, 22.130402484389517 ], [ -159.486871498872773, 22.128718685857425 ], [ -159.487688546312853, 22.127307092018409 ], [ -159.484011849668605, 22.125748096810504 ], [ -159.48409803194977, 22.124324442425131 ], [ -159.483727860575158, 22.123940885803719 ], [ -159.482198746326418, 22.124030352546118 ], [ -159.480768008840499, 22.12362334281492 ], [ -159.480852005859902, 22.122236981679126 ], [ -159.477945137248525, 22.121740278064735 ], [ -159.47791418769404, 22.121280795273453 ], [ -159.478224069209006, 22.120745511157082 ], [ -159.477909729501221, 22.119937240065546 ], [ -159.478000883807994, 22.118433194253001 ], [ -159.477612411025234, 22.117772074743666 ], [ -159.477269791007018, 22.117082251942083 ], [ -159.476461571398829, 22.116676078885426 ], [ -159.47529934958169, 22.116183151452937 ], [ -159.475264896910915, 22.115671255845818 ], [ -159.475568945679356, 22.115048890749119 ], [ -159.477494341108581, 22.115523367504483 ], [ -159.479159735307434, 22.114432118341494 ], [ -159.480414790326961, 22.114847576326301 ], [ -159.48098354487783, 22.114371052157754 ], [ -159.479650111424888, 22.113414429240102 ], [ -159.478324161170008, 22.112523668775687 ], [ -159.481668013488758, 22.112881690274012 ], [ -159.482403763161443, 22.11300740628803 ], [ -159.482504444319972, 22.113337554618827 ], [ -159.482758706147877, 22.11309913420714 ], [ -159.482403763161443, 22.11300740628803 ], [ -159.482267710272254, 22.112591186047688 ], [ -159.481099579494128, 22.111210351285983 ], [ -159.481481225804089, 22.11086534878579 ], [ -159.483666393155488, 22.111022462153503 ], [ -159.483716247134709, 22.110419998724456 ], [ -159.483401313418796, 22.110168762584372 ], [ -159.483131054642712, 22.109878370783147 ], [ -159.482816123162451, 22.109627133457913 ], [ -159.482839788864936, 22.109340801732838 ], [ -159.482521787938481, 22.108541581245639 ], [ -159.482548388078811, 22.108220146689643 ], [ -159.481377120165945, 22.107285860746149 ], [ -159.481646139258743, 22.106899925278096 ], [ -159.481993880928542, 22.106924937092877 ], [ -159.482517121124431, 22.1063553269368 ], [ -159.48341580591827, 22.10641994727774 ], [ -159.483359043800391, 22.105786865227238 ], [ -159.484260495227602, 22.105851671295365 ], [ -159.484579766418619, 22.105504183240189 ], [ -159.485148568504684, 22.106115522384496 ], [ -159.485427833589171, 22.105241267598 ], [ -159.486293201606458, 22.105303481594472 ], [ -159.486022871885638, 22.104991316831057 ], [ -159.484870263222831, 22.104071896211057 ], [ -159.484804932818065, 22.103343342151074 ], [ -159.485898377024881, 22.103907580936088 ], [ -159.487423044124654, 22.10351764091363 ], [ -159.486575605633192, 22.102841624262375 ], [ -159.486012660191136, 22.102010063192228 ], [ -159.485211832035787, 22.100964629938854 ], [ -159.486434217228265, 22.100869451533764 ], [ -159.487888764228416, 22.100973995732456 ], [ -159.488761043336382, 22.100906064159467 ], [ -159.489795704514052, 22.100980416594563 ], [ -159.489766388165009, 22.10065379704136 ], [ -159.489814239773722, 22.100076084497882 ], [ -159.489060938599209, 22.100134749372536 ], [ -159.487727007890044, 22.099856526859462 ], [ -159.487763002923288, 22.099421410409558 ], [ -159.485963053361445, 22.098679364994862 ], [ -159.486001303514371, 22.098217030234707 ], [ -159.485684755780511, 22.097964479202407 ], [ -159.48573330337652, 22.09737799801211 ], [ -159.484978963131198, 22.097773147660163 ], [ -159.483646898278437, 22.096887722105411 ], [ -159.483218744000396, 22.096427577865466 ], [ -159.482502344428497, 22.096057876022748 ], [ -159.481898258259463, 22.095808779679135 ], [ -159.480853898850512, 22.095269801585939 ], [ -159.479280770095073, 22.095796327796741 ], [ -159.478242766178255, 22.096339999795173 ], [ -159.475874602300024, 22.096848653021983 ], [ -159.474233463204968, 22.09770824050193 ], [ -159.474364437358133, 22.097381251569086 ], [ -159.475461172752404, 22.096495125733348 ], [ -159.47444581787704, 22.095684994912105 ], [ -159.474938239704443, 22.095287098227292 ], [ -159.475476181898898, 22.094701595083688 ], [ -159.476562339414869, 22.095262222508307 ], [ -159.476974794688829, 22.095009131585407 ], [ -159.476944697841589, 22.094673446192935 ], [ -159.477842667461289, 22.094738050884306 ], [ -159.479187310926477, 22.093750301246761 ], [ -159.481520869417722, 22.093147743152503 ], [ -159.482810886583678, 22.093813515507872 ], [ -159.483367287424329, 22.093363892463302 ], [ -159.483318280808675, 22.09281708690833 ], [ -159.484234419003343, 22.092278524862422 ], [ -159.484636706483371, 22.09184055307977 ], [ -159.485236993040871, 22.09135549265174 ], [ -159.482765783849857, 22.091177801706799 ], [ -159.482438842299871, 22.091203249341827 ], [ -159.482496062294871, 22.090511915067033 ], [ -159.482458867408297, 22.090096716825311 ], [ -159.482784571931063, 22.089833495513947 ], [ -159.482443629783774, 22.089561473298726 ], [ -159.484011461809217, 22.088712856860646 ], [ -159.4843555949208, 22.088338199392002 ], [ -159.484709843643031, 22.088244364391066 ], [ -159.484454007159144, 22.088007461159417 ], [ -159.4843555949208, 22.088338199392002 ], [ -159.482786198059841, 22.088662105617502 ], [ -159.481599095208736, 22.087386151404413 ], [ -159.481298921525934, 22.087409516185659 ], [ -159.480971822472497, 22.087385996351887 ], [ -159.481064721846963, 22.088422736324866 ], [ -159.480711949418378, 22.08901644750739 ], [ -159.480201338168371, 22.090091933105281 ], [ -159.478299377375919, 22.089307652416927 ], [ -159.477531439296996, 22.088482192195997 ], [ -159.476949966416157, 22.088527445204132 ], [ -159.476659454815177, 22.088215231421145 ], [ -159.475993406703708, 22.087683785344936 ], [ -159.477844860264014, 22.087415313930666 ], [ -159.477772199278377, 22.086604660885516 ], [ -159.478518700709287, 22.086001483196362 ], [ -159.478974530844511, 22.084429665264199 ], [ -159.478936241977692, 22.084002227711981 ], [ -159.479315897250473, 22.082813418275148 ], [ -159.480287702356691, 22.081178049913259 ], [ -159.479813878844112, 22.081430319932018 ], [ -159.478675088886376, 22.082266888239403 ], [ -159.478072757067224, 22.082519529408682 ], [ -159.477395022860549, 22.083257356373043 ], [ -159.474902885043036, 22.084717134938053 ], [ -159.474300535926915, 22.084969762440139 ], [ -159.473757602280386, 22.085560735323064 ], [ -159.471065401416183, 22.087411150624245 ], [ -159.470294606630716, 22.085814565038731 ], [ -159.46921024379148, 22.086240516009219 ], [ -159.467897650042119, 22.08820704430973 ], [ -159.46646043577968, 22.088515676868095 ], [ -159.464937085756276, 22.088908890610824 ], [ -159.465673405307484, 22.08767009892135 ], [ -159.463706351200443, 22.087856016605883 ], [ -159.46396638298063, 22.086975398213429 ], [ -159.465151865934786, 22.086310010143006 ], [ -159.465634293316214, 22.085723852930329 ], [ -159.466707475032621, 22.085868531671395 ], [ -159.467322449232853, 22.085520397611059 ], [ -159.467867030609028, 22.085593809518748 ], [ -159.468684013173657, 22.083639471499946 ], [ -159.468462898810884, 22.082274114703004 ], [ -159.46966387661945, 22.080945257290182 ], [ -159.469911691221597, 22.07928347448021 ], [ -159.470250719374064, 22.078756043640606 ], [ -159.468715216675662, 22.076851014989781 ], [ -159.470521897693629, 22.076606345550214 ], [ -159.471355755324225, 22.076298012576153 ], [ -159.472555593453365, 22.07605842661231 ], [ -159.472681734797874, 22.075905096136161 ], [ -159.47303596091345, 22.075811286699668 ], [ -159.472780166344137, 22.075574364097228 ], [ -159.472681734797874, 22.075905096136161 ], [ -159.471938259124641, 22.075786716380964 ], [ -159.471096241500391, 22.075217113415086 ], [ -159.469963436859757, 22.074580270429305 ], [ -159.469637849089992, 22.073866167417272 ], [ -159.468716042404395, 22.073507231195638 ], [ -159.467449697755399, 22.072818297449839 ], [ -159.46611448024052, 22.073334189319322 ], [ -159.465126924106585, 22.073879056718745 ], [ -159.464860639726282, 22.073512063036862 ], [ -159.466593336314304, 22.071480009918304 ], [ -159.467081986605933, 22.069866391397927 ], [ -159.464593922333023, 22.069211835614681 ], [ -159.463516646681882, 22.069339835011679 ], [ -159.464564312764907, 22.066863895133579 ], [ -159.46496408709109, 22.067374841680198 ], [ -159.465436430524591, 22.068410846991554 ], [ -159.466114699670015, 22.068487524770465 ], [ -159.466416782982492, 22.068451627347962 ], [ -159.467263437460844, 22.069024435145273 ], [ -159.468750312066163, 22.069261235323982 ], [ -159.469183298043987, 22.069762067869462 ], [ -159.471371978120658, 22.070337815004926 ], [ -159.473516218421679, 22.070077434558868 ], [ -159.47471303301856, 22.069417024205567 ], [ -159.475715546389409, 22.070095139403609 ], [ -159.476670933852887, 22.069440362856998 ], [ -159.477590128661234, 22.070841025652854 ], [ -159.478823912854892, 22.070980410049827 ], [ -159.479221801024238, 22.070344982879945 ], [ -159.479489272231945, 22.068003440579609 ], [ -159.481611563842051, 22.068424922740114 ], [ -159.482768188643774, 22.069762525738412 ], [ -159.484047963261048, 22.069379034005298 ], [ -159.484711265699616, 22.068601852014936 ], [ -159.485950007394536, 22.068741730637047 ], [ -159.485822887750373, 22.06781352718658 ], [ -159.486558849408254, 22.068213828871706 ], [ -159.487693357340078, 22.068078874128336 ], [ -159.489844179587664, 22.068450289272075 ], [ -159.491134091526334, 22.067599378138969 ], [ -159.491261903617556, 22.067177465757659 ], [ -159.491616094997198, 22.067083616602062 ], [ -159.491360286068897, 22.066846723078154 ], [ -159.491261903617556, 22.067177465757659 ], [ -159.489238788692802, 22.067481932940872 ], [ -159.487930729199519, 22.066957778491247 ], [ -159.48833471463368, 22.066665876801988 ], [ -159.491680911671438, 22.066099722582916 ], [ -159.491407429867735, 22.064836404591169 ], [ -159.490922491293674, 22.065384216628928 ], [ -159.487663571281985, 22.065956066809139 ], [ -159.48661067075372, 22.065372614328147 ], [ -159.486151328360137, 22.064630505955989 ], [ -159.485882382954486, 22.063786178904557 ], [ -159.483009426888344, 22.064606693196382 ], [ -159.482677292825315, 22.06323106162121 ], [ -159.481832763223338, 22.063313813515947 ], [ -159.48141271983323, 22.06228175541618 ], [ -159.482096486432567, 22.061390166929325 ], [ -159.482375946076075, 22.059901385318124 ], [ -159.483692914396499, 22.05887502223624 ], [ -159.482852045270477, 22.057937409452105 ], [ -159.481578115925998, 22.056957329155015 ], [ -159.480915971162744, 22.056219026833791 ], [ -159.480438291892, 22.055851504315395 ], [ -159.479644416121772, 22.054966241298985 ], [ -159.477976324501327, 22.054626545561888 ], [ -159.477682055935787, 22.053407660824288 ], [ -159.475376192259517, 22.05363354201215 ], [ -159.475088426563644, 22.052441646745248 ], [ -159.474610774887083, 22.052074106555484 ], [ -159.474211442023858, 22.051628754799662 ], [ -159.473909446495867, 22.05165833018448 ], [ -159.473618620123716, 22.051631546254125 ], [ -159.473156260179451, 22.051676836112517 ], [ -159.472441454821563, 22.051390270936945 ], [ -159.472176568552499, 22.051094928392466 ], [ -159.470985990563008, 22.050852407420482 ], [ -159.470601847365401, 22.050424041424225 ], [ -159.469401620537923, 22.051234535610543 ], [ -159.468306186941078, 22.05050436997837 ], [ -159.465999760105063, 22.051112627649797 ], [ -159.46604255978778, 22.050570448071021 ], [ -159.467009932935468, 22.050176052630338 ], [ -159.467523011707698, 22.049776249882623 ], [ -159.467449314010452, 22.049121865375664 ], [ -159.469227252827352, 22.049285676064237 ], [ -159.469814921337388, 22.048391435053386 ], [ -159.470131666433559, 22.048144575083487 ], [ -159.470538701578903, 22.047684886644294 ], [ -159.471971851614427, 22.048182207867232 ], [ -159.472778287545623, 22.047853386076188 ], [ -159.472715903094041, 22.047299697435676 ], [ -159.473616785396473, 22.047050415389844 ], [ -159.473972186224159, 22.046649047130952 ], [ -159.475358179170399, 22.046776689099978 ], [ -159.475623134755239, 22.04647746380093 ], [ -159.476072223660935, 22.046353183320036 ], [ -159.476172839763791, 22.046683339337186 ], [ -159.476426995477141, 22.046444937050861 ], [ -159.476072223660935, 22.046353183320036 ], [ -159.474773534751364, 22.044139874402429 ], [ -159.476323571678194, 22.045127661744605 ], [ -159.476508870855071, 22.044866416218948 ], [ -159.476955601578197, 22.043976728773714 ], [ -159.477861691736052, 22.044420331662621 ], [ -159.47841103027983, 22.043864131055773 ], [ -159.479431922088708, 22.044884913791854 ], [ -159.480580750849072, 22.045386250860098 ], [ -159.480862266290927, 22.045937803981555 ], [ -159.482811204337025, 22.046364533268111 ], [ -159.483592488133041, 22.047145636274788 ], [ -159.484948957856773, 22.047541599552165 ], [ -159.485243814547005, 22.047836352709357 ], [ -159.486399018338261, 22.047262101071517 ], [ -159.487267651206054, 22.048629564636521 ], [ -159.487825399962276, 22.048607292048054 ], [ -159.488605630792421, 22.049276911746265 ], [ -159.489567161076138, 22.050238138175885 ], [ -159.489610035634598, 22.049970786451308 ], [ -159.489292972031819, 22.048857183619518 ], [ -159.489313064453484, 22.04834274219872 ], [ -159.489008076529274, 22.047539848701629 ], [ -159.48872466478619, 22.046446259163691 ], [ -159.488408476875748, 22.045893533205863 ], [ -159.489584006089416, 22.045933445924678 ], [ -159.488978343579902, 22.045042602338988 ], [ -159.487844338020835, 22.044069346150149 ], [ -159.488717218482918, 22.044278054156511 ], [ -159.490161641949243, 22.04482611588497 ], [ -159.491363911214592, 22.045089306005355 ], [ -159.492439104567723, 22.046164101559629 ], [ -159.492185319355713, 22.044100556600981 ], [ -159.490169386149915, 22.043220980566723 ], [ -159.489723153420812, 22.042518525068267 ], [ -159.490077284828686, 22.042424680069868 ], [ -159.489821523626034, 22.042187782568938 ], [ -159.489723153420812, 22.042518525068267 ], [ -159.489296694860542, 22.042178235158556 ], [ -159.489693136358824, 22.042066382381854 ], [ -159.490728575873135, 22.042140832927828 ], [ -159.490456491810022, 22.041286627986015 ], [ -159.489852627066341, 22.041037555369307 ], [ -159.48928097091661, 22.040742462920477 ], [ -159.48871135519019, 22.041040965166225 ], [ -159.487818502450494, 22.041294507294111 ], [ -159.485824953167565, 22.041983745253681 ], [ -159.48551295060139, 22.041028742164958 ], [ -159.485201948138268, 22.041052971965193 ], [ -159.484817816109569, 22.040257251579941 ], [ -159.482790044485682, 22.039834052474927 ], [ -159.482025709526596, 22.03922405741616 ], [ -159.481994434522278, 22.038875024525797 ], [ -159.482308055851263, 22.038347130183883 ], [ -159.482276042192581, 22.037989696011085 ], [ -159.483367817570468, 22.037107122671969 ], [ -159.481719331119564, 22.036649688515514 ], [ -159.482928752459884, 22.036179601418095 ], [ -159.483754442778121, 22.036699074044268 ], [ -159.484051273274247, 22.037018207614917 ], [ -159.489003730181423, 22.036503539252266 ], [ -159.488886183274701, 22.037925086796015 ], [ -159.489319945882784, 22.038391491178377 ], [ -159.490617428365397, 22.038290374124553 ], [ -159.492192332090838, 22.038842163803416 ], [ -159.492576026613449, 22.039254649635534 ], [ -159.493175783972191, 22.038769744354855 ], [ -159.493359775111941, 22.036544983004799 ], [ -159.493298722235352, 22.035864402808098 ], [ -159.494284058840435, 22.035584580884798 ], [ -159.493293266685072, 22.033941528793459 ], [ -159.494349838611413, 22.033087309718173 ], [ -159.493851771040369, 22.031411954385671 ], [ -159.493947673333565, 22.030251753611356 ], [ -159.493388191495086, 22.029650225146611 ], [ -159.4924439895793, 22.029582347671958 ], [ -159.490155493875932, 22.031105526210684 ], [ -159.489653921670822, 22.030066367282913 ], [ -159.489253592458738, 22.029635991467767 ], [ -159.488940467839683, 22.029386045852192 ], [ -159.488518810356851, 22.028095234686848 ], [ -159.487456568933709, 22.027479319516488 ], [ -159.487560565130764, 22.026222556217068 ], [ -159.486828068611061, 22.025007634198243 ], [ -159.488308174185647, 22.025114096605343 ], [ -159.48868473950202, 22.024703915939956 ], [ -159.489657320389313, 22.025749661970764 ], [ -159.490693866802701, 22.025314674818659 ], [ -159.490618808028614, 22.024477065235761 ], [ -159.491656533290353, 22.024551687157707 ], [ -159.492432497437477, 22.024226037906647 ], [ -159.49269965688066, 22.023663028339616 ], [ -159.493301714611562, 22.023410336553738 ], [ -159.49387125063771, 22.023111819183679 ], [ -159.494925928415597, 22.023656319471794 ], [ -159.495817149532456, 22.022643122804563 ], [ -159.495912080571429, 22.021495180768962 ], [ -159.495815658447185, 22.020420123952789 ], [ -159.497034663378201, 22.019434414559306 ], [ -159.497067005513571, 22.019042826439971 ], [ -159.49555251372712, 22.018622639448925 ], [ -159.494886011940338, 22.017517294894514 ], [ -159.495575542114779, 22.016959737429165 ], [ -159.495871629407674, 22.016335676736531 ], [ -159.496739616352613, 22.01518628627629 ], [ -159.49589742453503, 22.014469609798947 ], [ -159.495009850455006, 22.014168707994994 ], [ -159.49375955530715, 22.014266191044261 ], [ -159.494930860722974, 22.012715125259245 ], [ -159.49367293150587, 22.011711127158865 ], [ -159.494130511285448, 22.010940497647443 ], [ -159.49439764017248, 22.010377484989462 ], [ -159.49479679876157, 22.009705241545763 ], [ -159.492671442162646, 22.009261723891935 ], [ -159.492938770898064, 22.008755701171609 ], [ -159.493506558351271, 22.008296531617901 ], [ -159.492358298399466, 22.008213963708499 ], [ -159.491788322168304, 22.008512741483916 ], [ -159.49045095677846, 22.00805931889774 ], [ -159.490032310115311, 22.008764413831621 ], [ -159.48973218970292, 22.009704815742097 ], [ -159.488893321525723, 22.01014453320024 ], [ -159.488594506442354, 22.010123042226944 ], [ -159.488303932019392, 22.010145677648502 ], [ -159.487751088818271, 22.010105917860631 ], [ -159.484845770567915, 22.010730456459431 ], [ -159.482894646308694, 22.012029131261013 ], [ -159.482206790273807, 22.012082718461265 ], [ -159.481363143028744, 22.012021989547033 ], [ -159.480283817017039, 22.012587677552485 ], [ -159.480080362353931, 22.011721223146122 ], [ -159.481039420414675, 22.010676558497522 ], [ -159.481359478126507, 22.011020741985572 ], [ -159.482202975653706, 22.010955054883709 ], [ -159.483636583971077, 22.011058224806465 ], [ -159.483678233540758, 22.01055504939881 ], [ -159.483629703246862, 22.010013133161877 ], [ -159.483730655529399, 22.008793201549544 ], [ -159.483610512806536, 22.00745183948343 ], [ -159.483943008081496, 22.007425929132264 ], [ -159.484506414933094, 22.007716866230592 ], [ -159.485691417727423, 22.007964241409145 ], [ -159.486194089046791, 22.008504810987542 ], [ -159.486745260861113, 22.007724378841424 ], [ -159.485976903339747, 22.006449787699836 ], [ -159.486292921814652, 22.006316429308249 ], [ -159.487128445581959, 22.006376545444187 ], [ -159.488145429461895, 22.006297293874557 ], [ -159.489559404793141, 22.006398998891079 ], [ -159.49033527598985, 22.006073360582395 ], [ -159.490615026131024, 22.004907744718224 ], [ -159.491629067929949, 22.005110808580355 ], [ -159.491729688762689, 22.005440956573263 ], [ -159.491983745799644, 22.005202530773744 ], [ -159.491629067929949, 22.005110808580355 ], [ -159.491804907178846, 22.004433832055089 ], [ -159.491668660187116, 22.00387545698214 ], [ -159.493777071475847, 22.003609258283614 ], [ -159.492943990975533, 22.003040789335245 ], [ -159.492400792083998, 22.003156067140729 ], [ -159.492275268289774, 22.002641646387577 ], [ -159.493243494175232, 22.002013932921169 ], [ -159.493361647493288, 22.001853249155502 ], [ -159.493715675837677, 22.00175939774013 ], [ -159.493459983134159, 22.001522503511666 ], [ -159.493361647493288, 22.001853249155502 ], [ -159.492459228400179, 22.001502981004304 ], [ -159.492035058965513, 22.002079811885366 ], [ -159.49132748124228, 22.001934110937338 ], [ -159.490100201266273, 22.002194536998804 ], [ -159.489943091872988, 22.00155051665293 ], [ -159.491254463912384, 22.001088436904858 ], [ -159.491136863192082, 22.000606513579456 ], [ -159.491729469758837, 21.999800614400201 ], [ -159.492525890577269, 21.999519982377741 ], [ -159.490585037903912, 21.998706655235793 ], [ -159.489719722720736, 21.999235817358585 ], [ -159.488872690808648, 21.998725035083737 ], [ -159.487946840977799, 21.998506389231984 ], [ -159.487589081477864, 21.998026467595611 ], [ -159.486882114164445, 21.997574331073103 ], [ -159.486646590153299, 21.996609204268417 ], [ -159.487960196206927, 21.996146383544406 ], [ -159.488251433001523, 21.995413401629399 ], [ -159.488805545268406, 21.994659785230663 ], [ -159.488977081410383, 21.9945485725056 ], [ -159.489077688169772, 21.994878722799207 ], [ -159.489331731287194, 21.994640301067122 ], [ -159.488977081410383, 21.9945485725056 ], [ -159.489086403599345, 21.994109510055964 ], [ -159.489580666803619, 21.993823457416507 ], [ -159.489753904114423, 21.993298828622006 ], [ -159.488772199644643, 21.993086308757299 ], [ -159.48891580562389, 21.992651544471784 ], [ -159.488758400604496, 21.99218560147148 ], [ -159.490184809011026, 21.989606509577229 ], [ -159.491245186553272, 21.989265973010287 ], [ -159.490812609677448, 21.989019165162397 ], [ -159.490700279250177, 21.988580764399003 ], [ -159.491054276717136, 21.988486919153139 ], [ -159.490798612600742, 21.988250019872854 ], [ -159.490700279250177, 21.988580764399003 ], [ -159.49041683998712, 21.988354485075643 ], [ -159.491408040680653, 21.986264814929786 ], [ -159.49198069780897, 21.985801665967564 ], [ -159.492008963406704, 21.985459997723332 ], [ -159.491944253772061, 21.984737951602277 ], [ -159.492439481675973, 21.983467467394878 ], [ -159.492985609148832, 21.98011290218297 ], [ -159.492635940662751, 21.976211619213835 ], [ -159.494269415775619, 21.974431677072499 ], [ -159.496599189850599, 21.973829384400684 ], [ -159.501247593754698, 21.974600904167527 ], [ -159.511128094831179, 21.97482833247069 ], [ -159.510735537604944, 21.976048693205119 ], [ -159.509318469866201, 21.975118121829638 ], [ -159.508957974320168, 21.975525669289283 ], [ -159.509404327428626, 21.977330462463851 ], [ -159.50968442886807, 21.976162430179226 ], [ -159.510215419102991, 21.976733394358032 ], [ -159.512131322179727, 21.977053213049405 ], [ -159.512823350896042, 21.977797360681141 ], [ -159.512914092691744, 21.976870440705877 ], [ -159.512855121080008, 21.976213628813461 ], [ -159.513937723291889, 21.975645784606808 ], [ -159.5150104074919, 21.97620547467184 ], [ -159.51549498380902, 21.976726542975833 ], [ -159.516022013443745, 21.976685383864261 ], [ -159.518222146689254, 21.978261885581247 ], [ -159.520132673779074, 21.980757043415917 ], [ -159.520182142282721, 21.981307663569993 ], [ -159.520159718071056, 21.981578764195699 ], [ -159.520184931934352, 21.981859093322374 ], [ -159.51953471571008, 21.982132182553961 ], [ -159.519634390861938, 21.98324212196939 ], [ -159.518153213097719, 21.983135839426225 ], [ -159.517789564468728, 21.984276340266369 ], [ -159.515724525602081, 21.985143573842631 ], [ -159.516108101776126, 21.985938103594961 ], [ -159.516982434490586, 21.986635869179025 ], [ -159.516467744705437, 21.987901224482929 ], [ -159.515865462177317, 21.987253700511594 ], [ -159.515082633759675, 21.986628990476699 ], [ -159.514444964425422, 21.985943326205248 ], [ -159.514029166201226, 21.986226444458318 ], [ -159.514100936549738, 21.987025991743003 ], [ -159.513784299140724, 21.987559414995687 ], [ -159.513946680093397, 21.987967535090441 ] ], [ [ -159.491804998422083, 22.056063695175347 ], [ -159.49152195764097, 22.056711627959093 ], [ -159.49250846160291, 22.056234446266206 ], [ -159.491804998422083, 22.056063695175347 ] ], [ [ -159.4936256812355, 22.078011445771192 ], [ -159.493744321296504, 22.078627002851082 ], [ -159.494004172216762, 22.078161035351936 ], [ -159.4936256812355, 22.078011445771192 ] ], [ [ -159.49769860288032, 22.07854115608934 ], [ -159.497578320433632, 22.078110168230818 ], [ -159.497012384016216, 22.077305871291145 ], [ -159.496415247581524, 22.077079220732166 ], [ -159.496124768378507, 22.078224970077876 ], [ -159.496950382253317, 22.078049829255981 ], [ -159.49723541043096, 22.07843186476153 ], [ -159.49769860288032, 22.07854115608934 ], [ -159.497699552350326, 22.078812180245137 ], [ -159.49799034124365, 22.078811295044702 ], [ -159.498109000891333, 22.079426848535071 ], [ -159.498368838754061, 22.078960874384524 ], [ -159.49799034124365, 22.078811295044702 ], [ -159.497989391218965, 22.078540270900888 ], [ -159.49769860288032, 22.07854115608934 ] ], [ [ -159.499729354398937, 22.07717982841935 ], [ -159.499830048455692, 22.07750996724474 ], [ -159.50008421774541, 22.077271528825815 ], [ -159.499729354398937, 22.07717982841935 ] ], [ [ -159.500890585208339, 22.076634222164387 ], [ -159.501009255355967, 22.077249773512822 ], [ -159.501269079778552, 22.07678379488291 ], [ -159.500890585208339, 22.076634222164387 ] ], [ [ -159.501447287968347, 22.069585811274216 ], [ -159.501312179832837, 22.069440637531812 ], [ -159.500416453051514, 22.068921473697682 ], [ -159.499271898526331, 22.06805359392952 ], [ -159.500433262569942, 22.067566285746768 ], [ -159.501050511607019, 22.066641011251271 ], [ -159.500985783640317, 22.065919589204054 ], [ -159.501298869445975, 22.065666444461129 ], [ -159.501567023997353, 22.065374446908244 ], [ -159.502484537873954, 22.065113871271432 ], [ -159.502419805433959, 22.064392995667664 ], [ -159.501562314204648, 22.064039472798296 ], [ -159.500635160227318, 22.062669689706059 ], [ -159.501331677520596, 22.06210659459855 ], [ -159.501239169150125, 22.061075669952437 ], [ -159.501662000854793, 22.060363671465012 ], [ -159.502793214814744, 22.061106104436035 ], [ -159.503873774088731, 22.061572976452769 ], [ -159.502380650697262, 22.059097493370498 ], [ -159.501480250029232, 22.059167713984738 ], [ -159.500561968535834, 22.060167888193035 ], [ -159.500114777725088, 22.059687314622121 ], [ -159.499510818034679, 22.059438279953849 ], [ -159.498440294412092, 22.057856567934699 ], [ -159.497722846825098, 22.05728419039778 ], [ -159.498070108041475, 22.057003421587645 ], [ -159.499073596219773, 22.055910530222203 ], [ -159.49604366756202, 22.055596075640064 ], [ -159.495606371155532, 22.056072393848044 ], [ -159.494144502810258, 22.056487491204354 ], [ -159.495455227142088, 22.057533265316778 ], [ -159.49601804540282, 22.058364792336789 ], [ -159.496915583395378, 22.059426032124634 ], [ -159.497225116152919, 22.060066946543067 ], [ -159.497187182189094, 22.060525860149891 ], [ -159.497503719470842, 22.061321438855597 ], [ -159.498042954097457, 22.062971372924128 ], [ -159.498480182701172, 22.06516492763771 ], [ -159.498371562581411, 22.066478395101861 ], [ -159.498436350751916, 22.067200430216015 ], [ -159.498087384455005, 22.068095350711577 ], [ -159.497534142246906, 22.070014374053272 ], [ -159.4970374406453, 22.070850553477666 ], [ -159.495167761067449, 22.072110552128279 ], [ -159.49417049582101, 22.073196502740117 ], [ -159.493768565070042, 22.074183614790684 ], [ -159.494355074819339, 22.075155913680124 ], [ -159.494311814625945, 22.075679058867571 ], [ -159.494648059772686, 22.076236605879803 ], [ -159.49478505545531, 22.076923833698789 ], [ -159.493986913780077, 22.07699519414459 ], [ -159.493560308772913, 22.077381617315691 ], [ -159.49469162697477, 22.077535118510166 ], [ -159.49478505545531, 22.076923833698789 ], [ -159.495559086402807, 22.077186115590887 ], [ -159.495451168361058, 22.075982601477826 ], [ -159.496101857550855, 22.075709601937284 ], [ -159.496057020445591, 22.075209882649219 ], [ -159.49615624029957, 22.07489705014417 ], [ -159.496736794886118, 22.075520979741899 ], [ -159.49665539249861, 22.074614433865801 ], [ -159.4966822296727, 22.074290092398694 ], [ -159.49759264566228, 22.074355495710549 ], [ -159.498113102546029, 22.075433156824822 ], [ -159.49858303908789, 22.075808026572098 ], [ -159.49968382283825, 22.076991088949374 ], [ -159.499542697626566, 22.075418722692991 ], [ -159.500170904748956, 22.075155155184614 ], [ -159.500139427066472, 22.074804292526046 ], [ -159.499550599954176, 22.074334590097632 ], [ -159.499910428370839, 22.074043704796811 ], [ -159.499254970317537, 22.073520823190243 ], [ -159.500170498214743, 22.072982423426694 ], [ -159.499837595819571, 22.072430468810186 ], [ -159.500466001782968, 22.072166767342932 ], [ -159.500012446457191, 22.07180497061443 ], [ -159.500295272290344, 22.07136108955358 ], [ -159.501315438337627, 22.072457492354822 ], [ -159.501590681691169, 22.071877457107103 ], [ -159.501897510087076, 22.071899493092332 ], [ -159.502752383798367, 22.0716799668748 ], [ -159.50158813534452, 22.071357130481282 ], [ -159.501316959619828, 22.070795758978601 ], [ -159.501002084790485, 22.070544537946716 ], [ -159.50102598261347, 22.070255290758066 ], [ -159.500236210590032, 22.069929725629379 ], [ -159.501447287968347, 22.069585811274216 ], [ -159.501606523364302, 22.069929450271122 ], [ -159.502116389896116, 22.069693615681231 ], [ -159.501447287968347, 22.069585811274216 ] ], [ [ -159.500307107903041, 22.076093953946703 ], [ -159.500407802470761, 22.076424092449312 ], [ -159.500661968868144, 22.076185653155441 ], [ -159.500307107903041, 22.076093953946703 ] ], [ [ -159.502320555320523, 22.069854159451989 ], [ -159.502421249804883, 22.070184296961017 ], [ -159.502675401821818, 22.069945854630138 ], [ -159.502320555320523, 22.069854159451989 ] ], [ [ -159.501712231250451, 22.062267260664747 ], [ -159.501812918575098, 22.062597398980397 ], [ -159.502067058343641, 22.062358957610034 ], [ -159.501712231250451, 22.062267260664747 ] ] ] } }
]
}
