{
"type": "FeatureCollection",
"name": "myrjudd",
"crs": { "type": "name", "properties": { "name": "urn:ogc:def:crs:OGC:1.3:CRS84" } },
"features": [
{ "type": "Feature", "properties": { "ID": 1, "GRIDCODE": 2 }, "geometry": { "type": "Polygon", "coordinates": [ [ [ -157.966299963276981, 21.60718413882039 ], [ -157.96665263983553, 21.607279095069526 ], [ -157.96639681007747, 21.607515175512045 ], [ -157.966299963276981, 21.60718413882039 ] ] ] } },
{ "type": "Feature", "properties": { "ID": 2, "GRIDCODE": 2 }, "geometry": { "type": "Polygon", "coordinates": [ [ [ -157.966305739735191, 21.606371122032986 ], [ -157.966658414351087, 21.606466078200647 ], [ -157.966402586091959, 21.606702158732038 ], [ -157.966305739735191, 21.606371122032986 ] ] ] } },
{ "type": "Feature", "properties": { "ID": 3, "GRIDCODE": 2 }, "geometry": { "type": "Polygon", "coordinates": [ [ [ -157.964609372912491, 21.600398187170221 ], [ -157.965254582161094, 21.600524211327269 ], [ -157.96580686276593, 21.60158074953695 ], [ -157.965102514029098, 21.601333275020043 ], [ -157.964609372912491, 21.600398187170221 ] ] ] } },
{ "type": "Feature", "properties": { "ID": 4, "GRIDCODE": 2 }, "geometry": { "type": "Polygon", "coordinates": [ [ [ -157.951606101451006, 21.595167450934486 ], [ -157.951484174289618, 21.595789968995877 ], [ -157.951237162227557, 21.59531241266783 ], [ -157.951606101451006, 21.595167450934486 ] ] ] } },
{ "type": "Feature", "properties": { "ID": 5, "GRIDCODE": 2 }, "geometry": { "type": "Polygon", "coordinates": [ [ [ -157.960886649232606, 21.594141579684404 ], [ -157.960785105361168, 21.594471380758677 ], [ -157.960532683810442, 21.594232134815506 ], [ -157.960886649232606, 21.594141579684404 ] ] ] } },
{ "type": "Feature", "properties": { "ID": 6, "GRIDCODE": 2 }, "geometry": { "type": "Polygon", "coordinates": [ [ [ -157.919284243652726, 21.57707371505029 ], [ -157.919636812862478, 21.577168767029537 ], [ -157.919380965429553, 21.577404775084766 ], [ -157.919284243652726, 21.57707371505029 ] ] ] } },
{ "type": "Feature", "properties": { "ID": 7, "GRIDCODE": 2 }, "geometry": { "type": "Polygon", "coordinates": [ [ [ -157.950002270908101, 21.576457154617504 ], [ -157.950354861736713, 21.576552142325735 ], [ -157.950099062984521, 21.576788199680951 ], [ -157.950002270908101, 21.576457154617504 ] ] ] } },
{ "type": "Feature", "properties": { "ID": 8, "GRIDCODE": 2 }, "geometry": { "type": "Polygon", "coordinates": [ [ [ -157.952355239945575, 21.571593652872 ], [ -157.952456784334345, 21.571263856175367 ], [ -157.952709153987342, 21.57150311287355 ], [ -157.952355239945575, 21.571593652872 ] ] ] } },
{ "type": "Feature", "properties": { "ID": 9, "GRIDCODE": 2 }, "geometry": { "type": "Polygon", "coordinates": [ [ [ -157.957290314269216, 21.570269525656613 ], [ -157.957642895774399, 21.570364497591871 ], [ -157.95738711963773, 21.570600567228528 ], [ -157.957290314269216, 21.570269525656613 ] ] ] } },
{ "type": "Feature", "properties": { "ID": 10, "GRIDCODE": 2 }, "geometry": { "type": "Polygon", "coordinates": [ [ [ -157.918183640358052, 21.569207119357888 ], [ -157.918945160950528, 21.569324478536114 ], [ -157.918872388649874, 21.569618113903864 ], [ -157.919049783583034, 21.570382687623226 ], [ -157.917689313370829, 21.569896401207451 ], [ -157.918183640358052, 21.569207119357888 ] ] ] } },
{ "type": "Feature", "properties": { "ID": 11, "GRIDCODE": 2 }, "geometry": { "type": "Polygon", "coordinates": [ [ [ -157.962516957566123, 21.568676046360867 ], [ -157.963182483128662, 21.568790026062779 ], [ -157.962671960876406, 21.569021144189698 ], [ -157.962516957566123, 21.568676046360867 ] ] ] } },
{ "type": "Feature", "properties": { "ID": 12, "GRIDCODE": 2 }, "geometry": { "type": "Polygon", "coordinates": [ [ [ -157.960488896223779, 21.568663404731527 ], [ -157.960841476286816, 21.568758369841813 ], [ -157.960585708043936, 21.568994444756381 ], [ -157.960488896223779, 21.568663404731527 ] ] ] } },
{ "type": "Feature", "properties": { "ID": 13, "GRIDCODE": 2 }, "geometry": { "type": "Polygon", "coordinates": [ [ [ -157.961941370985045, 21.568130424047325 ], [ -157.962526321420199, 21.568274737877829 ], [ -157.961942715311409, 21.569054184644816 ], [ -157.961755237810536, 21.56881944824439 ], [ -157.961941370985045, 21.568130424047325 ] ] ] } },
{ "type": "Feature", "properties": { "ID": 14, "GRIDCODE": 2 }, "geometry": { "type": "Polygon", "coordinates": [ [ [ -157.946607686622968, 21.565052987030342 ], [ -157.946960247659376, 21.565147980841822 ], [ -157.94670446452497, 21.565384033890748 ], [ -157.946607686622968, 21.565052987030342 ] ] ] } },
{ "type": "Feature", "properties": { "ID": 15, "GRIDCODE": 2 }, "geometry": { "type": "Polygon", "coordinates": [ [ [ -157.946922845517918, 21.561531749032952 ], [ -157.947044756558029, 21.560909231423512 ], [ -157.947291701488439, 21.561386792984845 ], [ -157.946922845517918, 21.561531749032952 ] ] ] } },
{ "type": "Feature", "properties": { "ID": 16, "GRIDCODE": 2 }, "geometry": { "type": "Polygon", "coordinates": [ [ [ -157.949569252633552, 21.556128091035418 ], [ -157.949670790853645, 21.555798295254316 ], [ -157.949923130142992, 21.556037555338623 ], [ -157.949569252633552, 21.556128091035418 ] ] ] } },
{ "type": "Feature", "properties": { "ID": 17, "GRIDCODE": 2 }, "geometry": { "type": "Polygon", "coordinates": [ [ [ -157.959446032675487, 21.552395779584593 ], [ -157.959842872281712, 21.552586698957306 ], [ -157.960350863147255, 21.553576545926703 ], [ -157.958949676441051, 21.5533847840852 ], [ -157.958630878716434, 21.552763737285783 ], [ -157.959347431077362, 21.55257513753315 ], [ -157.959446032675487, 21.552395779584593 ] ] ] } },
{ "type": "Feature", "properties": { "ID": 18, "GRIDCODE": 2 }, "geometry": { "type": "Polygon", "coordinates": [ [ [ -157.941491176793363, 21.551469686674359 ], [ -157.941866620278176, 21.55162279726078 ], [ -157.941602697185687, 21.552086271914387 ], [ -157.941491176793363, 21.551469686674359 ] ] ] } },
{ "type": "Feature", "properties": { "ID": 19, "GRIDCODE": 2 }, "geometry": { "type": "Polygon", "coordinates": [ [ [ -157.955693636733969, 21.550475184752973 ], [ -157.956135455347123, 21.550605851892556 ], [ -157.956542444354028, 21.551037755265387 ], [ -157.957270350619666, 21.551654549983208 ], [ -157.954976535202206, 21.552123798826628 ], [ -157.954935616282626, 21.551398422064096 ], [ -157.955554033173883, 21.550888447354431 ], [ -157.955693636733969, 21.550475184752973 ] ] ] } },
{ "type": "Feature", "properties": { "ID": 20, "GRIDCODE": 2 }, "geometry": { "type": "Polygon", "coordinates": [ [ [ -157.949625836336935, 21.548268919187453 ], [ -157.949623885603359, 21.548539925238842 ], [ -157.949334203650466, 21.548538100004006 ], [ -157.949336154921838, 21.548267093977802 ], [ -157.949625836336935, 21.548268919187453 ] ] ] } },
{ "type": "Feature", "properties": { "ID": 21, "GRIDCODE": 2 }, "geometry": { "type": "Polygon", "coordinates": [ [ [ -157.949625836336935, 21.548268919187453 ], [ -157.949727368135683, 21.547939122839086 ], [ -157.949979694524757, 21.548178382511068 ], [ -157.949625836336935, 21.548268919187453 ] ] ] } },
{ "type": "Feature", "properties": { "ID": 22, "GRIDCODE": 2 }, "geometry": { "type": "Polygon", "coordinates": [ [ [ -157.950514370287351, 21.545564330035134 ], [ -157.950866887733014, 21.545659313989677 ], [ -157.950611146284785, 21.545895375222052 ], [ -157.950514370287351, 21.545564330035134 ] ] ] } },
{ "type": "Feature", "properties": { "ID": 23, "GRIDCODE": 2 }, "geometry": { "type": "Polygon", "coordinates": [ [ [ -157.947349434534885, 21.54256317850842 ], [ -157.947247901734329, 21.542892973551002 ], [ -157.94699558875331, 21.542653710149512 ], [ -157.947349434534885, 21.54256317850842 ] ] ] } },
{ "type": "Feature", "properties": { "ID": 24, "GRIDCODE": 2 }, "geometry": { "type": "Polygon", "coordinates": [ [ [ -157.947349434534885, 21.54256317850842 ], [ -157.947835885274998, 21.541913514797795 ], [ -157.948337971266284, 21.542332472774856 ], [ -157.947349434534885, 21.54256317850842 ] ] ] } },
{ "type": "Feature", "properties": { "ID": 25, "GRIDCODE": 2 }, "geometry": { "type": "Polygon", "coordinates": [ [ [ -157.939262320450979, 21.539259720031819 ], [ -157.939614814426477, 21.539354726925257 ], [ -157.939359067106778, 21.53959077078202 ], [ -157.939262320450979, 21.539259720031819 ] ] ] } },
{ "type": "Feature", "properties": { "ID": 26, "GRIDCODE": 2 }, "geometry": { "type": "Polygon", "coordinates": [ [ [ -157.938403185803082, 21.537899164144775 ], [ -157.938728397638613, 21.537563321411866 ], [ -157.939413768837198, 21.53722043897363 ], [ -157.940668577645368, 21.536955674536429 ], [ -157.941695348711477, 21.535895058138557 ], [ -157.942310999145349, 21.536349491169887 ], [ -157.942331057808616, 21.536704535809694 ], [ -157.942311839650642, 21.536975432183677 ], [ -157.942337667200974, 21.5374322775472 ], [ -157.938403185803082, 21.537899164144775 ] ] ] } },
{ "type": "Feature", "properties": { "ID": 27, "GRIDCODE": 2 }, "geometry": { "type": "Polygon", "coordinates": [ [ [ -157.94163855093916, 21.531144268427326 ], [ -157.941474910234973, 21.531495501179894 ], [ -157.940979552915223, 21.531248665972129 ], [ -157.94163855093916, 21.531144268427326 ] ] ] } },
{ "type": "Feature", "properties": { "ID": 28, "GRIDCODE": 2 }, "geometry": { "type": "Polygon", "coordinates": [ [ [ -157.953226386213117, 21.530946357206275 ], [ -157.953891732068882, 21.531060367278261 ], [ -157.953381331177496, 21.531291462706683 ], [ -157.953226386213117, 21.530946357206275 ] ] ] } },
{ "type": "Feature", "properties": { "ID": 29, "GRIDCODE": 2 }, "geometry": { "type": "Polygon", "coordinates": [ [ [ -157.94163855093916, 21.531144268427326 ], [ -157.941760452907545, 21.530521752337638 ], [ -157.942007333396106, 21.530999320629427 ], [ -157.94163855093916, 21.531144268427326 ] ] ] } },
{ "type": "Feature", "properties": { "ID": 30, "GRIDCODE": 2 }, "geometry": { "type": "Polygon", "coordinates": [ [ [ -157.932379776798456, 21.529730187202027 ], [ -157.932278220893238, 21.530059972606757 ], [ -157.932025954701032, 21.52982068811508 ], [ -157.932379776798456, 21.529730187202027 ] ] ] } },
{ "type": "Feature", "properties": { "ID": 31, "GRIDCODE": 2 }, "geometry": { "type": "Polygon", "coordinates": [ [ [ -157.932379776798456, 21.529730187202027 ], [ -157.932697226316492, 21.528791264893069 ], [ -157.93307423291742, 21.529534409784798 ], [ -157.932379776798456, 21.529730187202027 ] ] ] } },
{ "type": "Feature", "properties": { "ID": 32, "GRIDCODE": 2 }, "geometry": { "type": "Polygon", "coordinates": [ [ [ -157.93557967598511, 21.527853506040838 ], [ -157.936815671142625, 21.527967451204582 ], [ -157.935707033266851, 21.528465300123834 ], [ -157.93557967598511, 21.527853506040838 ] ] ] } },
{ "type": "Feature", "properties": { "ID": 33, "GRIDCODE": 2 }, "geometry": { "type": "Polygon", "coordinates": [ [ [ -157.933272454867364, 21.526483681875185 ], [ -157.933624913899024, 21.526578700139318 ], [ -157.93336918067692, 21.526814735689438 ], [ -157.933272454867364, 21.526483681875185 ] ] ] } },
{ "type": "Feature", "properties": { "ID": 34, "GRIDCODE": 2 }, "geometry": { "type": "Polygon", "coordinates": [ [ [ -157.932405525444267, 21.526207119595529 ], [ -157.932757983166624, 21.526302139643381 ], [ -157.932502249111565, 21.526538173834403 ], [ -157.932405525444267, 21.526207119595529 ] ] ] } },
{ "type": "Feature", "properties": { "ID": 35, "GRIDCODE": 2 }, "geometry": { "type": "Polygon", "coordinates": [ [ [ -157.92691638001503, 21.524274786942364 ], [ -157.927268829014309, 21.524369818266507 ], [ -157.927013090018619, 21.524605843869786 ], [ -157.92691638001503, 21.524274786942364 ] ] ] } },
{ "type": "Feature", "properties": { "ID": 36, "GRIDCODE": 2 }, "geometry": { "type": "Polygon", "coordinates": [ [ [ -157.919743710814117, 21.515013921378742 ], [ -157.921363148213231, 21.51483522337141 ], [ -157.921273441681677, 21.515473943418712 ], [ -157.919999700759405, 21.515317296387948 ], [ -157.919743710814117, 21.515013921378742 ] ] ] } },
{ "type": "Feature", "properties": { "ID": 37, "GRIDCODE": 2 }, "geometry": { "type": "Polygon", "coordinates": [ [ [ -157.919743710814117, 21.515013921378742 ], [ -157.91939128974451, 21.514918875202817 ], [ -157.919647022795004, 21.514682860817445 ], [ -157.919743710814117, 21.515013921378742 ] ] ] } },
{ "type": "Feature", "properties": { "ID": 38, "GRIDCODE": 2 }, "geometry": { "type": "Polygon", "coordinates": [ [ [ -157.917724448934564, 21.513916772921718 ], [ -157.917045295726581, 21.513562679528874 ], [ -157.917589919395965, 21.51331114030932 ], [ -157.917724448934564, 21.513916772921718 ] ] ] } },
{ "type": "Feature", "properties": { "ID": 39, "GRIDCODE": 2 }, "geometry": { "type": "Polygon", "coordinates": [ [ [ -157.913969584415781, 21.512537302424157 ], [ -157.914634809079672, 21.512651464533601 ], [ -157.914124417457629, 21.51288244047495 ], [ -157.913969584415781, 21.512537302424157 ] ] ] } },
{ "type": "Feature", "properties": { "ID": 40, "GRIDCODE": 2 }, "geometry": { "type": "Polygon", "coordinates": [ [ [ -157.911956453059361, 21.510627075290238 ], [ -157.912058038641817, 21.51029730285267 ], [ -157.912310238510543, 21.510536615302943 ], [ -157.911956453059361, 21.510627075290238 ] ] ] } },
{ "type": "Feature", "properties": { "ID": 41, "GRIDCODE": 2 }, "geometry": { "type": "Polygon", "coordinates": [ [ [ -157.922683775008494, 21.509070530737301 ], [ -157.923036184631911, 21.50916556952712 ], [ -157.922780466884205, 21.509401589890341 ], [ -157.922683775008494, 21.509070530737301 ] ] ] } },
{ "type": "Feature", "properties": { "ID": 42, "GRIDCODE": 2 }, "geometry": { "type": "Polygon", "coordinates": [ [ [ -157.894066699553122, 21.501837021672035 ], [ -157.893714329153568, 21.501741923202285 ], [ -157.893970077668598, 21.501505948566013 ], [ -157.894066699553122, 21.501837021672035 ] ] ] } },
{ "type": "Feature", "properties": { "ID": 43, "GRIDCODE": 2 }, "geometry": { "type": "Polygon", "coordinates": [ [ [ -157.916101286710841, 21.498458245176185 ], [ -157.915999719637227, 21.498788021262683 ], [ -157.915747532800594, 21.498548714653932 ], [ -157.916101286710841, 21.498458245176185 ] ] ] } },
{ "type": "Feature", "properties": { "ID": 44, "GRIDCODE": 2 }, "geometry": { "type": "Polygon", "coordinates": [ [ [ -157.916682452601833, 21.498190997538156 ], [ -157.916680445835226, 21.498462002297881 ], [ -157.916101286710841, 21.498458245176185 ], [ -157.916103294549799, 21.498187240468415 ], [ -157.916682452601833, 21.498190997538156 ] ] ] } },
{ "type": "Feature", "properties": { "ID": 45, "GRIDCODE": 2 }, "geometry": { "type": "Polygon", "coordinates": [ [ [ -157.914076242361944, 21.498174074917713 ], [ -157.91563619543598, 21.498307873938625 ], [ -157.914322958323879, 21.49854038788941 ], [ -157.914076242361944, 21.498174074917713 ] ] ] } },
{ "type": "Feature", "properties": { "ID": 46, "GRIDCODE": 2 }, "geometry": { "type": "Polygon", "coordinates": [ [ [ -157.901915995939419, 21.497823561833219 ], [ -157.901563629169942, 21.497728480076301 ], [ -157.901819358273457, 21.497492492466765 ], [ -157.901915995939419, 21.497823561833219 ] ] ] } },
{ "type": "Feature", "properties": { "ID": 47, "GRIDCODE": 2 }, "geometry": { "type": "Polygon", "coordinates": [ [ [ -157.916982062354663, 21.496837851257411 ], [ -157.918262912532242, 21.497330356769751 ], [ -157.918007100203653, 21.497810524283128 ], [ -157.917388868038728, 21.498042600564268 ], [ -157.917125508821897, 21.498357367656585 ], [ -157.916682452601833, 21.498190997538156 ], [ -157.916877431591672, 21.497830199100633 ], [ -157.916982062354663, 21.496837851257411 ] ] ] } },
{ "type": "Feature", "properties": { "ID": 48, "GRIDCODE": 2 }, "geometry": { "type": "Polygon", "coordinates": [ [ [ -157.916982062354663, 21.496837851257411 ], [ -157.916629686601141, 21.49674280096276 ], [ -157.916885390712253, 21.496506789156303 ], [ -157.916982062354663, 21.496837851257411 ] ] ] } },
{ "type": "Feature", "properties": { "ID": 49, "GRIDCODE": 2 }, "geometry": { "type": "Polygon", "coordinates": [ [ [ -157.904244790248612, 21.496212752499755 ], [ -157.904346381409312, 21.495882984508071 ], [ -157.904598544376796, 21.49612230742347 ], [ -157.904244790248612, 21.496212752499755 ] ] ] } },
{ "type": "Feature", "properties": { "ID": 50, "GRIDCODE": 2 }, "geometry": { "type": "Polygon", "coordinates": [ [ [ -157.914134564785684, 21.490314939772642 ], [ -157.913983211300348, 21.490951933144945 ], [ -157.913471341013576, 21.490649599100948 ], [ -157.914134564785684, 21.490314939772642 ] ] ] } },
{ "type": "Feature", "properties": { "ID": 51, "GRIDCODE": 2 }, "geometry": { "type": "Polygon", "coordinates": [ [ [ -157.92398371757119, 21.48983661949655 ], [ -157.924336082425583, 21.489931653858076 ], [ -157.92408040178654, 21.49016767823699 ], [ -157.92398371757119, 21.48983661949655 ] ] ] } },
{ "type": "Feature", "properties": { "ID": 52, "GRIDCODE": 2 }, "geometry": { "type": "Polygon", "coordinates": [ [ [ -157.923117022002089, 21.489560017558073 ], [ -157.923469385548913, 21.48965505369938 ], [ -157.923213704079842, 21.489891076721282 ], [ -157.923117022002089, 21.489560017558073 ] ] ] } },
{ "type": "Feature", "properties": { "ID": 53, "GRIDCODE": 2 }, "geometry": { "type": "Polygon", "coordinates": [ [ [ -157.922248334354862, 21.489554416798921 ], [ -157.922913463386777, 21.489668542124878 ], [ -157.922403165568824, 21.48989954790439 ], [ -157.922248334354862, 21.489554416798921 ] ] ] } },
{ "type": "Feature", "properties": { "ID": 54, "GRIDCODE": 2 }, "geometry": { "type": "Polygon", "coordinates": [ [ [ -157.919352710903951, 21.489535714999068 ], [ -157.920915949331629, 21.489921974652223 ], [ -157.919814763358659, 21.490171321112442 ], [ -157.919352710903951, 21.489535714999068 ] ] ] } },
{ "type": "Feature", "properties": { "ID": 55, "GRIDCODE": 2 }, "geometry": { "type": "Polygon", "coordinates": [ [ [ -157.911534543318709, 21.489484969601996 ], [ -157.911981945889437, 21.489747057370124 ], [ -157.912358488260168, 21.490906495168147 ], [ -157.911640234791321, 21.491110771711579 ], [ -157.911534543318709, 21.489484969601996 ] ] ] } },
{ "type": "Feature", "properties": { "ID": 56, "GRIDCODE": 2 }, "geometry": { "type": "Polygon", "coordinates": [ [ [ -157.921689174161799, 21.486840625088995 ], [ -157.921790718994572, 21.486510844194648 ], [ -157.922042896347079, 21.48675014156251 ], [ -157.921689174161799, 21.486840625088995 ] ] ] } },
{ "type": "Feature", "properties": { "ID": 57, "GRIDCODE": 2 }, "geometry": { "type": "Polygon", "coordinates": [ [ [ -157.919953831759585, 21.486558400130956 ], [ -157.920740428856192, 21.487052254737439 ], [ -157.921689174161799, 21.486840625088995 ], [ -157.921867267419486, 21.487539964314355 ], [ -157.92070887828072, 21.487937095358426 ], [ -157.920231069313218, 21.488575295120452 ], [ -157.919476095910966, 21.488834154850906 ], [ -157.919352710903951, 21.489535714999068 ], [ -157.91858062658406, 21.489621765075668 ], [ -157.918057460142592, 21.490005187918353 ], [ -157.917757602746718, 21.489865751970402 ], [ -157.917455712116777, 21.490001290410923 ], [ -157.916902269530453, 21.489584030795982 ], [ -157.916455107815665, 21.489784792221968 ], [ -157.916021811599023, 21.489583283846134 ], [ -157.914617091293621, 21.4902270298148 ], [ -157.914134564785684, 21.490314939772642 ], [ -157.914273975224063, 21.489305417465157 ], [ -157.914876656464088, 21.489392768334206 ], [ -157.915492702565757, 21.489050452386927 ], [ -157.91617024251579, 21.489148606394771 ], [ -157.916749957315176, 21.489072304083376 ], [ -157.91843032255386, 21.489315830643982 ], [ -157.919708267956111, 21.487856655383624 ], [ -157.919953831759585, 21.486558400130956 ] ] ] } },
{ "type": "Feature", "properties": { "ID": 58, "GRIDCODE": 2 }, "geometry": { "type": "Polygon", "coordinates": [ [ [ -157.919953831759585, 21.486558400130956 ], [ -157.919578577486533, 21.486405246962523 ], [ -157.919842440306724, 21.48594180153577 ], [ -157.919953831759585, 21.486558400130956 ] ] ] } },
{ "type": "Feature", "properties": { "ID": 59, "GRIDCODE": 2 }, "geometry": { "type": "Polygon", "coordinates": [ [ [ -157.922276269120346, 21.485760338316872 ], [ -157.922457347105109, 21.485862343926854 ], [ -157.92287210086991, 21.48652761041723 ], [ -157.92337024403767, 21.486371094179258 ], [ -157.923292449127359, 21.486951800767525 ], [ -157.922405661907305, 21.486660377251791 ], [ -157.922276269120346, 21.485760338316872 ] ] ] } },
{ "type": "Feature", "properties": { "ID": 60, "GRIDCODE": 2 }, "geometry": { "type": "Polygon", "coordinates": [ [ [ -157.920836485458977, 21.484666973267423 ], [ -157.920695242217306, 21.485299143338125 ], [ -157.919944390241341, 21.485078457008566 ], [ -157.920836485458977, 21.484666973267423 ] ] ] } },
{ "type": "Feature", "properties": { "ID": 61, "GRIDCODE": 2 }, "geometry": { "type": "Polygon", "coordinates": [ [ [ -157.902884278726845, 21.484550087192847 ], [ -157.903310305496831, 21.484924738182361 ], [ -157.901872505386279, 21.485435033212926 ], [ -157.902743963010352, 21.484689835620884 ], [ -157.902884278726845, 21.484550087192847 ] ] ] } },
{ "type": "Feature", "properties": { "ID": 62, "GRIDCODE": 2 }, "geometry": { "type": "Polygon", "coordinates": [ [ [ -157.924892216494953, 21.484422094184417 ], [ -157.925244569162203, 21.484517126170719 ], [ -157.924988899797398, 21.484753152546116 ], [ -157.924892216494953, 21.484422094184417 ] ] ] } },
{ "type": "Feature", "properties": { "ID": 63, "GRIDCODE": 2 }, "geometry": { "type": "Polygon", "coordinates": [ [ [ -157.903756989583968, 21.484013779256944 ], [ -157.904742060685095, 21.484257311824539 ], [ -157.903995175458618, 21.484908653305169 ], [ -157.903756989583968, 21.484013779256944 ] ] ] } },
{ "type": "Feature", "properties": { "ID": 64, "GRIDCODE": 2 }, "geometry": { "type": "Polygon", "coordinates": [ [ [ -157.920836485458977, 21.484666973267423 ], [ -157.920968997676511, 21.483761279945448 ], [ -157.921210383027471, 21.484485774811056 ], [ -157.920836485458977, 21.484666973267423 ] ] ] } },
{ "type": "Feature", "properties": { "ID": 65, "GRIDCODE": 2 }, "geometry": { "type": "Polygon", "coordinates": [ [ [ -157.904103329992893, 21.476427560471215 ], [ -157.904455648063532, 21.476522634995913 ], [ -157.904199961297934, 21.476758628962806 ], [ -157.904103329992893, 21.476427560471215 ] ] ] } },
{ "type": "Feature", "properties": { "ID": 66, "GRIDCODE": 2 }, "geometry": { "type": "Polygon", "coordinates": [ [ [ -157.903234725746216, 21.476421864185056 ], [ -157.903587043150367, 21.476516940516145 ], [ -157.903331355059834, 21.476752933095224 ], [ -157.903234725746216, 21.476421864185056 ] ] ] } },
{ "type": "Feature", "properties": { "ID": 67, "GRIDCODE": 2 }, "geometry": { "type": "Polygon", "coordinates": [ [ [ -157.89866329913707, 21.468261288823388 ], [ -157.899015593732372, 21.468356373914744 ], [ -157.898759913504023, 21.468592360021422 ], [ -157.89866329913707, 21.468261288823388 ] ] ] } },
{ "type": "Feature", "properties": { "ID": 68, "GRIDCODE": 2 }, "geometry": { "type": "Polygon", "coordinates": [ [ [ -157.893221814944496, 21.460365862197815 ], [ -157.8933234017899, 21.460036099517648 ], [ -157.893575487062833, 21.460275436657042 ], [ -157.893221814944496, 21.460365862197815 ] ] ] } },
{ "type": "Feature", "properties": { "ID": 69, "GRIDCODE": 2 }, "geometry": { "type": "Polygon", "coordinates": [ [ [ -157.893804909285052, 21.459827684340485 ], [ -157.894157180217576, 21.459922778755708 ], [ -157.89390150790976, 21.460158757962912 ], [ -157.893804909285052, 21.459827684340485 ] ] ] } },
{ "type": "Feature", "properties": { "ID": 70, "GRIDCODE": 2 }, "geometry": { "type": "Polygon", "coordinates": [ [ [ -157.893221814944496, 21.460365862197815 ], [ -157.892485419309907, 21.461304387899393 ], [ -157.891895922313751, 21.462145758511735 ], [ -157.890498444178121, 21.462751841106641 ], [ -157.893656760266794, 21.462655581011912 ], [ -157.893619113453241, 21.4634103561316 ], [ -157.892403658565797, 21.463761727064625 ], [ -157.891520961656113, 21.463723126984412 ], [ -157.890737714333369, 21.464161314470303 ], [ -157.891976699576048, 21.464718707538225 ], [ -157.891279321828279, 21.465653184059587 ], [ -157.890431662722904, 21.465616067266691 ], [ -157.889546337896604, 21.465643075870044 ], [ -157.889564799255538, 21.466173123978152 ], [ -157.888962377481704, 21.466980188681838 ], [ -157.889764050025178, 21.467340825520335 ], [ -157.890126291411548, 21.466980109616909 ], [ -157.890450293949215, 21.466721564527056 ], [ -157.890988742782952, 21.467809601204699 ], [ -157.891283713777199, 21.467800639671598 ], [ -157.891717866950728, 21.467819595922688 ], [ -157.892190867203652, 21.467805195926328 ], [ -157.892748110425913, 21.467250244442031 ], [ -157.893381408102243, 21.468529659472246 ], [ -157.893887184837439, 21.467544679563272 ], [ -157.89504917589943, 21.467837869007127 ], [ -157.895646547079764, 21.467547043979376 ], [ -157.895614583172375, 21.46818659522339 ], [ -157.897945229964165, 21.468115491429014 ], [ -157.898512203620527, 21.468369799016617 ], [ -157.89531561795269, 21.468706474391055 ], [ -157.895333413980211, 21.469215013999332 ], [ -157.893815275329615, 21.469148604494315 ], [ -157.893009704554885, 21.470012235390975 ], [ -157.894157507981106, 21.469977219003372 ], [ -157.894444400707556, 21.4702712402872 ], [ -157.89474691536293, 21.470537309857797 ], [ -157.894435909179009, 21.471078015982592 ], [ -157.894744256714347, 21.471920366430464 ], [ -157.895880338114495, 21.471885724424791 ], [ -157.896315528496075, 21.472331713450664 ], [ -157.895873704985377, 21.472709517340277 ], [ -157.895009569110499, 21.473576541961634 ], [ -157.895878374381851, 21.47434081213666 ], [ -157.895546396848317, 21.474624656262634 ], [ -157.894708859094948, 21.474588089298685 ], [ -157.893604659087288, 21.476164011636801 ], [ -157.894702933024291, 21.476497476207093 ], [ -157.894390908839227, 21.477040093501795 ], [ -157.894695388369939, 21.477871831726763 ], [ -157.895286927256763, 21.477853774753189 ], [ -157.895834372743622, 21.47841464391756 ], [ -157.896411920785539, 21.478133413521419 ], [ -157.897293523334184, 21.477878536198613 ], [ -157.898247895901704, 21.477572457840605 ], [ -157.899028372457281, 21.476795183123588 ], [ -157.899906911651328, 21.476833586734397 ], [ -157.900479689918342, 21.476263097198515 ], [ -157.901642797982191, 21.475758615191165 ], [ -157.9020187028745, 21.475026571386028 ], [ -157.902508382906831, 21.476015732071705 ], [ -157.90281723728944, 21.476571439731526 ], [ -157.901733762323346, 21.476524096101663 ], [ -157.90134156369129, 21.477655809009917 ], [ -157.900200981912604, 21.477605962524454 ], [ -157.899541140025349, 21.477927224609775 ], [ -157.897857568743746, 21.478413968326933 ], [ -157.897717254601531, 21.478553712681116 ], [ -157.897363539923731, 21.478644145005138 ], [ -157.89761566263158, 21.47888347718845 ], [ -157.897717254601531, 21.478553712681116 ], [ -157.898144683036065, 21.478700442344678 ], [ -157.898440142113941, 21.478685914219639 ], [ -157.89933157015659, 21.478741543263165 ], [ -157.899286357373882, 21.479377103828188 ], [ -157.899309542324175, 21.479791192933629 ], [ -157.898124415723998, 21.480041102497228 ], [ -157.898451370687042, 21.480613941733118 ], [ -157.899400557195889, 21.480567327516464 ], [ -157.90016103015742, 21.479781777963037 ], [ -157.9006390402362, 21.479387725996705 ], [ -157.901065307478291, 21.479840658543289 ], [ -157.90220099996543, 21.480337619859021 ], [ -157.902181241869783, 21.480615719594642 ], [ -157.902198836913243, 21.480927875654466 ], [ -157.901311492253086, 21.480872486743351 ], [ -157.900738087564974, 21.48223994745279 ], [ -157.900394795875371, 21.48252293223759 ], [ -157.89954913242866, 21.482470123688937 ], [ -157.900113272397334, 21.483975018011506 ], [ -157.898678672812878, 21.484379308251057 ], [ -157.898403369446612, 21.484663729062095 ], [ -157.897769119949203, 21.485186627496105 ], [ -157.898461769101004, 21.485489736516058 ], [ -157.898976053313618, 21.485464409404113 ], [ -157.89926868219942, 21.486072552364888 ], [ -157.901135584834464, 21.485980759054101 ], [ -157.89995430058292, 21.486954762450598 ], [ -157.899532935194713, 21.487389876439352 ], [ -157.899253796006178, 21.487093267308882 ], [ -157.897443598359047, 21.486825535073923 ], [ -157.896935075220682, 21.487380357351935 ], [ -157.897506226176887, 21.487352300574628 ], [ -157.897940377530205, 21.487379381183697 ], [ -157.898382248577406, 21.487357680878986 ], [ -157.899344507564422, 21.488380136674849 ], [ -157.898921096331009, 21.4887292854213 ], [ -157.900410561766307, 21.489063969812751 ], [ -157.901410328676747, 21.488031338338562 ], [ -157.901833115420402, 21.488480541275429 ], [ -157.902967467473218, 21.488976828925114 ], [ -157.900956414943579, 21.489543627214648 ], [ -157.899398486494817, 21.490546907122052 ], [ -157.900079065499682, 21.491124057494382 ], [ -157.900358854065331, 21.491994066311083 ], [ -157.900510876387756, 21.492122966125553 ], [ -157.900622189207752, 21.492739573911198 ], [ -157.900886123006387, 21.492276161796493 ], [ -157.900510876387756, 21.492122966125553 ], [ -157.900662013532838, 21.490901539342882 ], [ -157.903463504432523, 21.49097347687777 ], [ -157.904142632415244, 21.49065166642054 ], [ -157.904881475110983, 21.49138149488391 ], [ -157.908195475657379, 21.490950406815539 ], [ -157.909344788682432, 21.491778508471004 ], [ -157.91133819794095, 21.491036814950192 ], [ -157.910215881861035, 21.49203205180104 ], [ -157.910207340085549, 21.49232465003497 ], [ -157.910975594141263, 21.492679679647669 ], [ -157.910496649524163, 21.493139787994082 ], [ -157.909914767639776, 21.493124876460989 ], [ -157.909332861672624, 21.493132194647568 ], [ -157.908470378720637, 21.492576719554336 ], [ -157.908173580129926, 21.492861809892897 ], [ -157.90745492562138, 21.492151911014258 ], [ -157.906734286786048, 21.492844193228784 ], [ -157.906297170538977, 21.492832929197057 ], [ -157.905862757065535, 21.492838421801544 ], [ -157.905289501450426, 21.492823683035244 ], [ -157.904413548391005, 21.493371025255044 ], [ -157.903171325862104, 21.493339120854021 ], [ -157.900119253809351, 21.495183288812814 ], [ -157.89947284937486, 21.495756331766994 ], [ -157.900343445470952, 21.495794353956349 ], [ -157.902072788495531, 21.495772645531673 ], [ -157.902092567980958, 21.497150422536919 ], [ -157.901489889964182, 21.497135013594018 ], [ -157.901457954934926, 21.498224362517828 ], [ -157.901772997861372, 21.497960842956665 ], [ -157.901915995939419, 21.497823561833219 ], [ -157.902944588472167, 21.497988656135824 ], [ -157.903203606614454, 21.497408028024367 ], [ -157.904056998899762, 21.496346433603577 ], [ -157.904244790248612, 21.496212752499755 ], [ -157.904367738416425, 21.496637552339635 ], [ -157.904692873949557, 21.496875765746623 ], [ -157.905068937698559, 21.497753346192891 ], [ -157.905536873361115, 21.497691768324952 ], [ -157.906115428334687, 21.497775685388209 ], [ -157.90639097252307, 21.497157908448322 ], [ -157.906616422902971, 21.496923302922159 ], [ -157.906974430527839, 21.497758811869939 ], [ -157.907515872536493, 21.498249337865179 ], [ -157.909025300697635, 21.497705390984947 ], [ -157.909455321818172, 21.498708435410624 ], [ -157.910743211175969, 21.498538851324554 ], [ -157.91174086422464, 21.498683509454196 ], [ -157.912558582003015, 21.4982291771143 ], [ -157.913331836020888, 21.498410939721069 ], [ -157.912749568611247, 21.498825520803123 ], [ -157.912495043073505, 21.499129817203077 ], [ -157.912036020149117, 21.49945666735281 ], [ -157.910958282581589, 21.499052050415514 ], [ -157.909991407348485, 21.499179333540607 ], [ -157.909595199536767, 21.499652946588327 ], [ -157.909178959344644, 21.4999492343611 ], [ -157.908706049635555, 21.499880640591538 ], [ -157.907957427030425, 21.499979231825751 ], [ -157.906535051289524, 21.499750981975605 ], [ -157.906438401976914, 21.499419914858425 ], [ -157.906182676461725, 21.499655909661161 ], [ -157.906535051289524, 21.499750981975605 ], [ -157.906910001216744, 21.500212299318001 ], [ -157.908457122156648, 21.500816722835246 ], [ -157.908331697209633, 21.501574433473976 ], [ -157.907807083691608, 21.501498419249977 ], [ -157.90770906567073, 21.502315858092292 ], [ -157.908703315514202, 21.50176345099052 ], [ -157.908958494945296, 21.5023589606526 ], [ -157.909502961963739, 21.502598597945319 ], [ -157.909833574634092, 21.501516687517409 ], [ -157.910108940515187, 21.501282403234367 ], [ -157.910492602550079, 21.503044070326098 ], [ -157.911437576158193, 21.502518982851935 ], [ -157.91226073007752, 21.502991017240095 ], [ -157.913504634452266, 21.502827213990237 ], [ -157.914395667108067, 21.50333812237897 ], [ -157.913294924146555, 21.504121849974563 ], [ -157.912161307136074, 21.503696298322623 ], [ -157.911657684503297, 21.503762557874499 ], [ -157.911002936540172, 21.504545073333048 ], [ -157.910554165541726, 21.504480016160031 ], [ -157.909920881959266, 21.504563355497538 ], [ -157.90865777086475, 21.50420978406963 ], [ -157.908396126110176, 21.505105487116289 ], [ -157.908972085990854, 21.505029652971754 ], [ -157.90922584913443, 21.505341895172073 ], [ -157.909935214787225, 21.505618999852572 ], [ -157.909665899621928, 21.507088911928705 ], [ -157.909312121251162, 21.507179366631981 ], [ -157.90956431129203, 21.507418682901179 ], [ -157.909665899621928, 21.507088911928705 ], [ -157.910111975342375, 21.506966372757464 ], [ -157.911622646355482, 21.506190567184714 ], [ -157.911238583179511, 21.507784987089789 ], [ -157.91234431910695, 21.508255423486087 ], [ -157.91327014500007, 21.507779893101265 ], [ -157.913994447247944, 21.50753370266041 ], [ -157.914850109387373, 21.508832222015133 ], [ -157.917983860211393, 21.508617072496783 ], [ -157.918511978568745, 21.508051462875866 ], [ -157.919055946742077, 21.50865061520005 ], [ -157.919388520410678, 21.508922528316365 ], [ -157.919333704229189, 21.509508606425971 ], [ -157.918481635252277, 21.509438974214966 ], [ -157.918182534468258, 21.509459533142635 ], [ -157.917858089685666, 21.509102117223676 ], [ -157.916712058026491, 21.509180834480361 ], [ -157.916754310892145, 21.509719305820052 ], [ -157.915860450838665, 21.509964870240356 ], [ -157.915590183307415, 21.510254247031579 ], [ -157.915053032876443, 21.510681367928658 ], [ -157.914126427075956, 21.509660683632717 ], [ -157.913266475065967, 21.509719733219303 ], [ -157.91209938951647, 21.509624330328606 ], [ -157.911535746703862, 21.510227864825577 ], [ -157.911379264517933, 21.510352295875133 ], [ -157.911381282329927, 21.510081291978594 ], [ -157.911091680257982, 21.510079403513863 ], [ -157.910995014803632, 21.509748338710633 ], [ -157.910739277435823, 21.509984339752791 ], [ -157.911091680257982, 21.510079403513863 ], [ -157.9110896619095, 21.510350407384305 ], [ -157.911379264517933, 21.510352295875133 ], [ -157.911377246674277, 21.510623299762706 ], [ -157.911956453059361, 21.510627075290238 ], [ -157.912080200962805, 21.511632947421614 ], [ -157.912388541261123, 21.511264491350484 ], [ -157.912940186151843, 21.512141545156972 ], [ -157.913399127815296, 21.512477812381299 ], [ -157.912875025742778, 21.51327818835572 ], [ -157.913599225062796, 21.513182859243209 ], [ -157.913494096459743, 21.513818231552367 ], [ -157.914395385071799, 21.513699569990766 ], [ -157.914974009512576, 21.513783459089325 ], [ -157.915276939885615, 21.513743544407774 ], [ -157.915821346672317, 21.514170015935548 ], [ -157.914033075469604, 21.514841360944747 ], [ -157.914162985069197, 21.515705345103527 ], [ -157.916198021330246, 21.515437429409243 ], [ -157.917476907498781, 21.514726896591242 ], [ -157.917724448934564, 21.513916772921718 ], [ -157.917902852004175, 21.514021281242798 ], [ -157.918121254907589, 21.514358027834501 ], [ -157.919268211945337, 21.514618675647984 ], [ -157.91840532623587, 21.515108607000503 ], [ -157.918173141518935, 21.516003193235928 ], [ -157.91784887519853, 21.515906341236057 ], [ -157.917308039096014, 21.516122572648015 ], [ -157.917884795705731, 21.516460320124953 ], [ -157.917993998701149, 21.51662869349202 ], [ -157.917640201261349, 21.516719164989816 ], [ -157.917892421252077, 21.516958469675018 ], [ -157.917993998701149, 21.51662869349202 ], [ -157.918866651698664, 21.516769856416499 ], [ -157.9179457089827, 21.517401600162373 ], [ -157.917373351452028, 21.518111360227284 ], [ -157.917638959350683, 21.519617572266458 ], [ -157.918068199485674, 21.519996973891129 ], [ -157.918439186133099, 21.518750621461507 ], [ -157.919642553598266, 21.519458322274652 ], [ -157.92168618975316, 21.519142690961097 ], [ -157.921280513169904, 21.519746748970714 ], [ -157.920837806387055, 21.52076853921151 ], [ -157.919304367970682, 21.52114688097932 ], [ -157.919114378811429, 21.521785280377134 ], [ -157.918760569312411, 21.521875753701213 ], [ -157.919012799716512, 21.522115056997919 ], [ -157.919114378811429, 21.521785280377134 ], [ -157.920153838831595, 21.521902705494462 ], [ -157.921408081220221, 21.522275392691025 ], [ -157.922298268154293, 21.522076887962804 ], [ -157.922394966346758, 21.522407947155834 ], [ -157.922650708450448, 21.522171928720454 ], [ -157.922298268154293, 21.522076887962804 ], [ -157.922486596224132, 21.520875596468688 ], [ -157.923024480656579, 21.521406745087713 ], [ -157.923895062868326, 21.521948970077741 ], [ -157.924754398667943, 21.522502101880193 ], [ -157.925049583900545, 21.522498313157421 ], [ -157.925331521023224, 21.522776704471365 ], [ -157.926236811519203, 21.523601936483317 ], [ -157.925331278801508, 21.523578771982258 ], [ -157.925611185736983, 21.524133593008422 ], [ -157.92641629076644, 21.524505534846195 ], [ -157.925896511983751, 21.525490517488723 ], [ -157.924770430859468, 21.525992746404668 ], [ -157.924432612144813, 21.526292287884171 ], [ -157.925019673465243, 21.526563515353232 ], [ -157.925865350207005, 21.526978068018735 ], [ -157.926757450500048, 21.526580127202408 ], [ -157.927335934521011, 21.526306014202166 ], [ -157.929019553599346, 21.527131271156893 ], [ -157.929651828973959, 21.526869736104604 ], [ -157.930036255831453, 21.526500478511828 ], [ -157.930815853478407, 21.526882624434769 ], [ -157.931667489153881, 21.526871802264409 ], [ -157.931675467062149, 21.527424740349218 ], [ -157.929491492260354, 21.527809131029461 ], [ -157.929013765039429, 21.528268039291628 ], [ -157.927150563047178, 21.527898440128155 ], [ -157.92790100862959, 21.529284818048442 ], [ -157.927493747152567, 21.530373681248516 ], [ -157.92789013834772, 21.530110637059327 ], [ -157.928657696195586, 21.529031497241743 ], [ -157.930213280641681, 21.529307070550022 ], [ -157.931072543422232, 21.529860038887829 ], [ -157.931833151871899, 21.530211357735261 ], [ -157.931070267086085, 21.530944095150193 ], [ -157.930528020030209, 21.531424958245573 ], [ -157.929742818649487, 21.532827282234376 ], [ -157.931026466716588, 21.532503224762834 ], [ -157.93238423742838, 21.531654667004151 ], [ -157.932800258149513, 21.532033815848497 ], [ -157.933330778683512, 21.532557541718241 ], [ -157.933947217486917, 21.532859628098088 ], [ -157.935680440405122, 21.533512046595085 ], [ -157.934359460585227, 21.534009456057063 ], [ -157.933523159974442, 21.533599636126731 ], [ -157.932780737892841, 21.533930815169217 ], [ -157.932494723009853, 21.534205428474838 ], [ -157.931907819449123, 21.534467263667779 ], [ -157.931558700655444, 21.534802542788224 ], [ -157.930414297425585, 21.533144886654515 ], [ -157.929605950761982, 21.533921325487455 ], [ -157.927852018169006, 21.535476550394037 ], [ -157.927838248675585, 21.535945647419062 ], [ -157.929076046773929, 21.535359094182461 ], [ -157.928606594012052, 21.536614232778344 ], [ -157.929003000803107, 21.536351186757223 ], [ -157.929289026365382, 21.536076579954884 ], [ -157.929586285947067, 21.535812895990311 ], [ -157.930146937587807, 21.535274457837247 ], [ -157.930167754188801, 21.535541308027344 ], [ -157.930137151511246, 21.536590775131064 ], [ -157.930875929425184, 21.537320100050476 ], [ -157.931310664782899, 21.536902464811963 ], [ -157.931603109485309, 21.53690996240449 ], [ -157.932191557990933, 21.53690248226178 ], [ -157.932160029642858, 21.537983704012724 ], [ -157.932753514974536, 21.5382745985867 ], [ -157.933330526620949, 21.537180985926046 ], [ -157.934080733275067, 21.537548704664424 ], [ -157.935076351862989, 21.536926549221448 ], [ -157.935368655683959, 21.536934039317657 ], [ -157.935667265145526, 21.536930254674349 ], [ -157.935616699307161, 21.538666801291079 ], [ -157.937678887549652, 21.538303792269502 ], [ -157.938403185803082, 21.537899164144775 ], [ -157.93852823409182, 21.538052936931216 ], [ -157.939152909742404, 21.538296764786804 ], [ -157.938804536004824, 21.53938662658047 ], [ -157.938855943856339, 21.539728108068662 ], [ -157.937273865246993, 21.539499089824563 ], [ -157.936219700442706, 21.54075892746523 ], [ -157.935776493771613, 21.540592602626536 ], [ -157.935679754781802, 21.540261550143654 ], [ -157.935423999724122, 21.540497587612883 ], [ -157.935776493771613, 21.540592602626536 ], [ -157.935913539099886, 21.541273734137182 ], [ -157.936502656462636, 21.541545796842254 ], [ -157.935874576896538, 21.541825909010438 ], [ -157.934146573693198, 21.541781856907779 ], [ -157.934764401175016, 21.542344910523806 ], [ -157.93472409690699, 21.543157838087126 ], [ -157.933691624447306, 21.542138629093966 ], [ -157.932722846726961, 21.542624246517907 ], [ -157.933302453958191, 21.543152323469144 ], [ -157.932711399658416, 21.543415986122316 ], [ -157.932438413409699, 21.54422729087311 ], [ -157.932999088770003, 21.543688844565146 ], [ -157.933885599228859, 21.543293413993819 ], [ -157.933858036489937, 21.544239615446337 ], [ -157.934599215059336, 21.54451212788392 ], [ -157.935145402631775, 21.543476936602328 ], [ -157.936183454445683, 21.54398563270238 ], [ -157.936772583066187, 21.544257694838052 ], [ -157.936748838648441, 21.545070596337638 ], [ -157.937343913291897, 21.545342694522869 ], [ -157.937336117588984, 21.544800940359242 ], [ -157.937844475379535, 21.543441547666092 ], [ -157.938510144412589, 21.54345855638325 ], [ -157.939419598557748, 21.543173806010302 ], [ -157.940244571722587, 21.543224904088582 ], [ -157.939369884104963, 21.544000504452477 ], [ -157.939083186197536, 21.544367889510266 ], [ -157.940239467447583, 21.544005834579668 ], [ -157.940818090360949, 21.5440309487695 ], [ -157.940228985740077, 21.544553295520359 ], [ -157.940236991509892, 21.54510656423637 ], [ -157.941407590797752, 21.545091635548307 ], [ -157.941379714771927, 21.546048622876413 ], [ -157.941385860049252, 21.546468951339552 ], [ -157.942318670211506, 21.54645707225114 ], [ -157.943240033846678, 21.544314355250545 ], [ -157.944288201143792, 21.544876661004466 ], [ -157.943388183004316, 21.545674751278877 ], [ -157.94458382636941, 21.545659495958482 ], [ -157.944576004287711, 21.545117674888861 ], [ -157.945174954026669, 21.544855806150803 ], [ -157.945143496704958, 21.54593987825092 ], [ -157.945876699555527, 21.545930553900668 ], [ -157.946600790938959, 21.545948958715133 ], [ -157.946899278062432, 21.545945153810372 ], [ -157.946887464216701, 21.545132024429268 ], [ -157.947206232501799, 21.545140124652743 ], [ -157.94776704940486, 21.545693574971772 ], [ -157.948341919960683, 21.545141402302519 ], [ -157.948940721751171, 21.544879585036629 ], [ -157.948913259548306, 21.54582526347361 ], [ -157.948923222075081, 21.546504195520765 ], [ -157.947750846067578, 21.546763783231707 ], [ -157.94717515309884, 21.54703659305931 ], [ -157.946588220777613, 21.547298478493204 ], [ -157.946298130116759, 21.548137225215363 ], [ -157.948019903238475, 21.548115278991627 ], [ -157.948897808359419, 21.548402553087481 ], [ -157.949334203650466, 21.548538100004006 ], [ -157.949196536001921, 21.548680350718165 ], [ -157.948853171205684, 21.548963430381836 ], [ -157.948035231584925, 21.548912616604532 ], [ -157.94748099155305, 21.549485098462689 ], [ -157.947096834516799, 21.549461234865468 ], [ -157.945132940102695, 21.549768007888293 ], [ -157.946584907488528, 21.5504026606115 ], [ -157.947428087226399, 21.550838201031585 ], [ -157.947869300861186, 21.55081637217075 ], [ -157.948448440868788, 21.550852315402903 ], [ -157.949317849115999, 21.550809363046721 ], [ -157.950186560113593, 21.550863269615288 ], [ -157.951193087152149, 21.550813495531461 ], [ -157.951478112466276, 21.55140489893282 ], [ -157.952565045020975, 21.551938550184492 ], [ -157.952933584509424, 21.550847991359163 ], [ -157.954121115280117, 21.551635153210629 ], [ -157.953997902510679, 21.553372048035147 ], [ -157.952628577207975, 21.553019714638246 ], [ -157.952349961819721, 21.553307508882472 ], [ -157.951700561104531, 21.553559226320367 ], [ -157.951779881383146, 21.552442237659825 ], [ -157.950891359651621, 21.552486207091388 ], [ -157.9505614577009, 21.551801423900525 ], [ -157.949543695122827, 21.552310517535069 ], [ -157.949099382727809, 21.551838927175755 ], [ -157.947885928095417, 21.552237668133621 ], [ -157.946845559682203, 21.55217307082917 ], [ -157.94655575420839, 21.552187384366484 ], [ -157.946209200635934, 21.552165873438948 ], [ -157.945450030095031, 21.551360127333201 ], [ -157.944237887356451, 21.551088186398577 ], [ -157.943476207037975, 21.550279703049029 ], [ -157.942507625452748, 21.549993148626527 ], [ -157.941914327638159, 21.549686606587791 ], [ -157.941988541967589, 21.548639860976536 ], [ -157.941072971732353, 21.54808691804508 ], [ -157.940801776677574, 21.547798959350501 ], [ -157.939786830605726, 21.54735534694181 ], [ -157.939058577129572, 21.548492416286631 ], [ -157.940316839407984, 21.547863036924571 ], [ -157.940888567687523, 21.548469909183702 ], [ -157.940479835657555, 21.549162258406589 ], [ -157.941370184296858, 21.549916653699789 ], [ -157.941342771871433, 21.550302494672245 ], [ -157.940751633116065, 21.550789893287785 ], [ -157.941375167918437, 21.551062423458422 ], [ -157.940758942721004, 21.551322314812257 ], [ -157.940774603961245, 21.551600644138496 ], [ -157.940743565744668, 21.55203747614425 ], [ -157.939882857792838, 21.5524004194816 ], [ -157.939607496880939, 21.552684903990734 ], [ -157.939005526925882, 21.553181225471381 ], [ -157.939082073777399, 21.55454024077823 ], [ -157.939802980277278, 21.553795691653704 ], [ -157.941711563969704, 21.552698274738482 ], [ -157.942806158333013, 21.553263797206295 ], [ -157.942753377599388, 21.554007901077579 ], [ -157.943080684645139, 21.555182975293068 ], [ -157.94301861729295, 21.556056904915057 ], [ -157.943794355035976, 21.556490514675719 ], [ -157.944210830008757, 21.554866120345718 ], [ -157.944565307462085, 21.554888148971671 ], [ -157.945091035429328, 21.555446084251862 ], [ -157.945663300960405, 21.555417812769804 ], [ -157.946164124970693, 21.555448902150786 ], [ -157.945633336331838, 21.556803876856318 ], [ -157.945071707033094, 21.556769026401323 ], [ -157.944502498577123, 21.556823715430266 ], [ -157.945078391706829, 21.557311699766526 ], [ -157.945354947437494, 21.557605243987972 ], [ -157.946289848358475, 21.557137669904275 ], [ -157.948268880632781, 21.556805045089618 ], [ -157.948682050939311, 21.556378297210841 ], [ -157.949569252633552, 21.556128091035418 ], [ -157.948799141346626, 21.556952897860416 ], [ -157.946612401034088, 21.558114010026578 ], [ -157.948115745290153, 21.558443485927594 ], [ -157.94954847810817, 21.558344869305408 ], [ -157.94998043916388, 21.557882242146658 ], [ -157.950341392679434, 21.557595301876717 ], [ -157.950862090064959, 21.557637750886045 ], [ -157.951666272998438, 21.557582334776868 ], [ -157.950264288155466, 21.558697084368866 ], [ -157.949767744376743, 21.559228912372294 ], [ -157.948724200398118, 21.559656649941598 ], [ -157.94767440422234, 21.558950314107584 ], [ -157.947187813938967, 21.558983764910156 ], [ -157.94680139187497, 21.559779423253307 ], [ -157.94585026032712, 21.560024312976196 ], [ -157.945200597199204, 21.559309177922042 ], [ -157.944773464473315, 21.559766595367631 ], [ -157.944105330449162, 21.560040461038984 ], [ -157.943496699757446, 21.560692312804335 ], [ -157.943954488537514, 21.56147227258251 ], [ -157.943861683190079, 21.562469010492801 ], [ -157.94405294421756, 21.562723110506518 ], [ -157.944446712181218, 21.561912552518717 ], [ -157.944941433565333, 21.561519216290041 ], [ -157.944450763158727, 21.561118382807962 ], [ -157.944476836305199, 21.560838730202242 ], [ -157.944454947985861, 21.560559766304898 ], [ -157.944812243252414, 21.560037858571071 ], [ -157.94559796900154, 21.561715452716015 ], [ -157.946922845517918, 21.561531749032952 ], [ -157.947168291720459, 21.562452087130058 ], [ -157.948025489321424, 21.562758293358904 ], [ -157.947720643371667, 21.563991299110345 ], [ -157.946729064852263, 21.564622415464942 ], [ -157.946607686622968, 21.565052987030342 ], [ -157.945395311743255, 21.565149265471771 ], [ -157.945056564708096, 21.565765181322675 ], [ -157.944670468001704, 21.565944826205435 ], [ -157.944569876794219, 21.566395179045678 ], [ -157.943992405925229, 21.566120502646267 ], [ -157.943621916282297, 21.565727375597092 ], [ -157.94331687413893, 21.566786154132807 ], [ -157.943838416385034, 21.566247426182404 ], [ -157.943992405925229, 21.566120502646267 ], [ -157.944202316536717, 21.566788856020143 ], [ -157.944569876794219, 21.566395179045678 ], [ -157.944997356741737, 21.566244578863952 ], [ -157.945571355670893, 21.566315040417962 ], [ -157.946051969630787, 21.565761423374564 ], [ -157.946754577805308, 21.566593541769805 ], [ -157.947755707454007, 21.566483480584633 ], [ -157.948181250530808, 21.565993095285116 ], [ -157.948798502015677, 21.566068847422425 ], [ -157.948756086475072, 21.565731792639603 ], [ -157.949229701031953, 21.565381914417973 ], [ -157.949923927199023, 21.56576952708626 ], [ -157.95023922923005, 21.565734857661351 ], [ -157.950492011878168, 21.566583116153865 ], [ -157.950905530616069, 21.56725135502322 ], [ -157.952354913875013, 21.567091948935598 ], [ -157.95286574836112, 21.566503367089062 ], [ -157.953971213943447, 21.566639004818988 ], [ -157.954523407901803, 21.566002838828151 ], [ -157.955346580860294, 21.566462499863913 ], [ -157.955707802574238, 21.566890281288867 ], [ -157.956155910093145, 21.56684101623248 ], [ -157.956651754057759, 21.566901819208532 ], [ -157.957850133715311, 21.565083717134574 ], [ -157.958442685864156, 21.564735879039436 ], [ -157.957974774973394, 21.566230766556277 ], [ -157.958345778390651, 21.567151743212811 ], [ -157.958247843269277, 21.567849849922577 ], [ -157.959873788033832, 21.568502750842736 ], [ -157.959080908872892, 21.568809443517289 ], [ -157.958606464785902, 21.569356190393009 ], [ -157.957489466777957, 21.568732598312891 ], [ -157.956660762935286, 21.569181313120612 ], [ -157.956300234607369, 21.568754331929938 ], [ -157.95599710296716, 21.568787699412685 ], [ -157.955642036160185, 21.568744119952143 ], [ -157.95513505607147, 21.569328235127728 ], [ -157.95440083333358, 21.569167343378982 ], [ -157.954304035630258, 21.568836300327533 ], [ -157.954048257117734, 21.569072364769688 ], [ -157.95440083333358, 21.569167343378982 ], [ -157.95487122151917, 21.569957874847969 ], [ -157.956000200994396, 21.569560080693197 ], [ -157.956837550166171, 21.57057264521735 ], [ -157.956039805065416, 21.570924219331246 ], [ -157.953087001136709, 21.569813743587744 ], [ -157.951426485433728, 21.57103889260166 ], [ -157.951074384312761, 21.570622010896862 ], [ -157.950754421261138, 21.570379017809667 ], [ -157.950371183318936, 21.569925083894354 ], [ -157.949471634049956, 21.569678369601576 ], [ -157.949316661935484, 21.569333260749204 ], [ -157.94880611771282, 21.569564335399576 ], [ -157.949471634049956, 21.569678369601576 ], [ -157.949594767146522, 21.570103140443486 ], [ -157.949920138611787, 21.570341273455373 ], [ -157.950257272362762, 21.571126808646031 ], [ -157.950054330896648, 21.572353710690884 ], [ -157.951069518384884, 21.571789619333209 ], [ -157.952355239945575, 21.571593652872 ], [ -157.952834232539715, 21.572308417120119 ], [ -157.952729554758236, 21.573054579768776 ], [ -157.952934456442676, 21.573343890420489 ], [ -157.953657441747282, 21.572510898385826 ], [ -157.953923483549374, 21.573112632962896 ], [ -157.954372884861669, 21.573063249204882 ], [ -157.954820264889008, 21.573118129911023 ], [ -157.955083035874679, 21.572815346473558 ], [ -157.95586652591922, 21.572579280974384 ], [ -157.955368881567864, 21.573359175161183 ], [ -157.955053698484477, 21.574045925126015 ], [ -157.95515702304661, 21.574868294713394 ], [ -157.957994877237638, 21.575272749211663 ], [ -157.958694247005951, 21.575663204611942 ], [ -157.957867806704485, 21.576898062183282 ], [ -157.95667294832873, 21.575483154289568 ], [ -157.955948570495053, 21.575562845180816 ], [ -157.955482948111268, 21.575505669359924 ], [ -157.954811672209587, 21.574710769143614 ], [ -157.95443255878476, 21.574467411548461 ], [ -157.953934835919654, 21.575551864459683 ], [ -157.953630923870946, 21.575514556447494 ], [ -157.953119638968161, 21.575570827284626 ], [ -157.952771070443475, 21.576432041734563 ], [ -157.953379510800829, 21.576894068767437 ], [ -157.952021283486232, 21.577132394922412 ], [ -157.951302866160631, 21.576008999127264 ], [ -157.950584006054385, 21.57608803955981 ], [ -157.947625334534308, 21.57572332175274 ], [ -157.947276629424977, 21.574934334156094 ], [ -157.946920588672725, 21.574691105693905 ], [ -157.947003938319625, 21.57535415622074 ], [ -157.94694546662592, 21.575770965309843 ], [ -157.947569337876615, 21.576581211564982 ], [ -157.947230951439252, 21.576831166730734 ], [ -157.946941621544227, 21.577164403912953 ], [ -157.946293933579256, 21.577084877870387 ], [ -157.944952109674063, 21.577811292224055 ], [ -157.944781113844101, 21.577237208842192 ], [ -157.945163348047657, 21.57702855966139 ], [ -157.944919707685017, 21.576053180831412 ], [ -157.944781113844101, 21.577237208842192 ], [ -157.944627112757928, 21.577364132490292 ], [ -157.944345703836461, 21.578477780166082 ], [ -157.945446116683826, 21.578423415534907 ], [ -157.946199662189002, 21.578812611533596 ], [ -157.945504959201088, 21.579989150130235 ], [ -157.947138200254358, 21.579172405044414 ], [ -157.947514066761556, 21.579571315609051 ], [ -157.948178179376015, 21.579239187970838 ], [ -157.949257348631392, 21.579306211701557 ], [ -157.949555134103747, 21.579291482519782 ], [ -157.949822772095331, 21.580122367152018 ], [ -157.951299596659368, 21.580453573083702 ], [ -157.951246062598841, 21.581207797162573 ], [ -157.951277061951743, 21.581756114508735 ], [ -157.950965389092545, 21.582284011492813 ], [ -157.950988732981983, 21.582696771892643 ], [ -157.950922911545007, 21.583624340149573 ], [ -157.951397254165073, 21.584026112559616 ], [ -157.95241970737888, 21.583367642691375 ], [ -157.952892299260554, 21.584348024807159 ], [ -157.953579937500251, 21.583637817057426 ], [ -157.95477157582377, 21.58371173260787 ], [ -157.954690190253274, 21.584859473249608 ], [ -157.956778445765593, 21.584756249726713 ], [ -157.956720679447045, 21.585571587350206 ], [ -157.957332727327724, 21.586090063728502 ], [ -157.957311158582087, 21.586395220497501 ], [ -157.957327866091617, 21.586690030337653 ], [ -157.958185174348245, 21.586647624960658 ], [ -157.958465585585714, 21.587105729245017 ], [ -157.956360780782205, 21.587993337797347 ], [ -157.957022764933555, 21.588553945668654 ], [ -157.957345414139525, 21.589555079277989 ], [ -157.958172119435915, 21.589916230269445 ], [ -157.958303894398739, 21.590602207980226 ], [ -157.957949936329186, 21.590692757936971 ], [ -157.958202347584944, 21.590932007480703 ], [ -157.958303894398739, 21.590602207980226 ], [ -157.958461339096317, 21.590726196478084 ], [ -157.958728421589683, 21.591031107951352 ], [ -157.959661324011307, 21.590709946403841 ], [ -157.96068726012183, 21.590814215012749 ], [ -157.961357066132734, 21.590460964389759 ], [ -157.9617075880264, 21.591605977896116 ], [ -157.962354063620893, 21.591548474192169 ], [ -157.96305593666645, 21.591619742161779 ], [ -157.963637795456435, 21.59250986408794 ], [ -157.961196297582518, 21.592071841810469 ], [ -157.959899182063822, 21.592273820305309 ], [ -157.961588207636368, 21.593603922667391 ], [ -157.960886649232606, 21.594141579684404 ], [ -157.960763465723943, 21.593716816252826 ], [ -157.960284595809952, 21.593366385894335 ], [ -157.959028350428781, 21.5940644633083 ], [ -157.958731269800353, 21.593699483979293 ], [ -157.958366571509032, 21.593747554708049 ], [ -157.958492468154105, 21.594583229822483 ], [ -157.959567589901724, 21.594441542663684 ], [ -157.960130830855491, 21.595915941372855 ], [ -157.960618998843046, 21.596273179380592 ], [ -157.961006142292149, 21.596748818715358 ], [ -157.96159485167334, 21.59642166088323 ], [ -157.962217595938796, 21.596778278306104 ], [ -157.963073625535486, 21.596665440704879 ], [ -157.962995844802066, 21.597135928670657 ], [ -157.96307164979217, 21.597638008615327 ], [ -157.963920177743972, 21.597526112573814 ], [ -157.964178001516558, 21.597842934349323 ], [ -157.965035028228272, 21.597729894535391 ], [ -157.964170605524203, 21.598345356189174 ], [ -157.96381341207541, 21.599146525235302 ], [ -157.964362975186674, 21.599548731233948 ], [ -157.964609372912491, 21.600398187170221 ], [ -157.963251873840704, 21.6005053279275 ], [ -157.963664773509294, 21.601122453409673 ], [ -157.963502273083947, 21.601865085400792 ], [ -157.963963188609483, 21.602178342385979 ], [ -157.964412443563646, 21.604349080901486 ], [ -157.965240645294358, 21.604912016397343 ], [ -157.965613567449367, 21.604845456063636 ], [ -157.965851784684901, 21.605713121250016 ], [ -157.966187801892346, 21.605941498617565 ], [ -157.966305739735191, 21.606371122032986 ], [ -157.965565331192124, 21.605977461698313 ], [ -157.965111234254351, 21.605419634048364 ], [ -157.964122131651408, 21.605155429857298 ], [ -157.963698827766962, 21.604169429171616 ], [ -157.962684983338761, 21.604022838791202 ], [ -157.962275223677125, 21.604512627505397 ], [ -157.961775092234092, 21.603725502376243 ], [ -157.96194353923903, 21.602706268149177 ], [ -157.960618598995097, 21.603442434580437 ], [ -157.960782910217318, 21.602448583800388 ], [ -157.960124955104874, 21.601967016950116 ], [ -157.960380208072024, 21.601573929677624 ], [ -157.961149800296511, 21.601026048498355 ], [ -157.960711306010694, 21.600487296755496 ], [ -157.960040796920879, 21.600575674472587 ], [ -157.960145654824117, 21.599941397438535 ], [ -157.95898606843042, 21.599126057917307 ], [ -157.958243777441282, 21.599003372096568 ], [ -157.958146954188209, 21.598672331294836 ], [ -157.957891126999499, 21.598908398950655 ], [ -157.958243777441282, 21.599003372096568 ], [ -157.958662291489162, 21.600117718208967 ], [ -157.95779404950045, 21.599956725721661 ], [ -157.956277205228901, 21.599355493777548 ], [ -157.956414964304741, 21.60179167427534 ], [ -157.955778189576847, 21.600470904354857 ], [ -157.955474932904252, 21.599940663353891 ], [ -157.955512718661367, 21.599407666432878 ], [ -157.954857866193493, 21.598518117811519 ], [ -157.954949341378892, 21.597227986446427 ], [ -157.954537112762836, 21.596878752210859 ], [ -157.954952373639145, 21.594775485239548 ], [ -157.954094053486955, 21.594400555035186 ], [ -157.954069319434694, 21.593963371164378 ], [ -157.954104898753513, 21.593462120280282 ], [ -157.953563136509928, 21.592887369163403 ], [ -157.952970250538783, 21.592850557676314 ], [ -157.952592907333127, 21.593161613393924 ], [ -157.952665077625255, 21.594439076837173 ], [ -157.952341615861627, 21.594773165837392 ], [ -157.951606101451006, 21.595167450934486 ], [ -157.951421621755998, 21.593473292632584 ], [ -157.950183752696915, 21.593089003876678 ], [ -157.950692469547249, 21.592180506633913 ], [ -157.950221194990149, 21.591310690940041 ], [ -157.95091669586165, 21.590694038877832 ], [ -157.951351257228509, 21.59027668716223 ], [ -157.950904944766592, 21.589870194562589 ], [ -157.950337364505259, 21.589877468006048 ], [ -157.950055253915593, 21.589599113922272 ], [ -157.949637764717551, 21.589218737048636 ], [ -157.948604360567202, 21.589877449211127 ], [ -157.949479856980673, 21.589866302442303 ], [ -157.949463840071559, 21.590419351338085 ], [ -157.948596786398383, 21.590397335775176 ], [ -157.948289722152538, 21.591262570848283 ], [ -157.947711901480886, 21.592294486766928 ], [ -157.947187264601268, 21.593288691107805 ], [ -157.946848254910009, 21.592289024813951 ], [ -157.946554748275304, 21.592021576430163 ], [ -157.946272641250715, 21.591743216130094 ], [ -157.945977173034294, 21.591747035783076 ], [ -157.945413103905622, 21.591190446119121 ], [ -157.944679068558059, 21.590521816540761 ], [ -157.944256058232924, 21.590104470864432 ], [ -157.943139702632863, 21.58908755916358 ], [ -157.942800480302679, 21.590655792998518 ], [ -157.942214176151424, 21.591175574994807 ], [ -157.941916803563004, 21.591461110786568 ], [ -157.941047058881992, 21.591438972438912 ], [ -157.941076850601547, 21.593490443879343 ], [ -157.940489419434584, 21.59116831144846 ], [ -157.93930936775709, 21.590623593869079 ], [ -157.939919038963922, 21.588994166828691 ], [ -157.939321382181248, 21.588449716688277 ], [ -157.940217424706844, 21.587655408397044 ], [ -157.94021326641456, 21.587371330686793 ], [ -157.940221558638257, 21.587087332221589 ], [ -157.939627843187765, 21.586546547518239 ], [ -157.938770197634426, 21.586557426070126 ], [ -157.938794169427126, 21.58573361206874 ], [ -157.937904036172938, 21.58492276069552 ], [ -157.938210497788219, 21.584651118351243 ], [ -157.93849858080344, 21.584105496581703 ], [ -157.939102655241555, 21.583843755608338 ], [ -157.939666672099605, 21.584400364993357 ], [ -157.940916827257013, 21.584384435517464 ], [ -157.940532577702555, 21.583310495981479 ], [ -157.940540508267674, 21.58303714779106 ], [ -157.940532382323681, 21.582481432494806 ], [ -157.939237530539799, 21.582497868918015 ], [ -157.9385105726208, 21.582479341497358 ], [ -157.937785928202885, 21.582822688282501 ], [ -157.936778637490505, 21.582326233313111 ], [ -157.937650757567127, 21.581937383176019 ], [ -157.938413889552919, 21.5812046296573 ], [ -157.937531594783536, 21.580797308055473 ], [ -157.937956771617081, 21.580037852215533 ], [ -157.93736510175475, 21.579764715428894 ], [ -157.937380957772348, 21.579220202963555 ], [ -157.936776040890066, 21.578669081842499 ], [ -157.93622010824032, 21.578676184489744 ], [ -157.935940025609597, 21.578126804221675 ], [ -157.935630721182775, 21.577588220352528 ], [ -157.93565030100919, 21.578936348240713 ], [ -157.935192899918576, 21.579477111409023 ], [ -157.934777105340999, 21.578661403072871 ], [ -157.933898098665594, 21.578388335048949 ], [ -157.933914339258649, 21.577831651167937 ], [ -157.933038917384749, 21.577842785168048 ], [ -157.932762859055146, 21.576745835082701 ], [ -157.933342250584559, 21.576760662621989 ], [ -157.933727092300472, 21.5763909424019 ], [ -157.933206332835312, 21.573778478895218 ], [ -157.932778656938467, 21.574588788663394 ], [ -157.932479192318993, 21.575123675354352 ], [ -157.932483210812649, 21.575405568748298 ], [ -157.931886850253306, 21.575390364925564 ], [ -157.931301821511965, 21.575952067657802 ], [ -157.931326202180742, 21.575116215519291 ], [ -157.930710363027714, 21.574304507506824 ], [ -157.929008036420441, 21.575123226851289 ], [ -157.930179157239792, 21.57510838889246 ], [ -157.930151374874583, 21.576059810908305 ], [ -157.930163231212219, 21.5768729356904 ], [ -157.930143384502628, 21.577552730641891 ], [ -157.93043313105764, 21.578362876230031 ], [ -157.930425182213469, 21.578636223320309 ], [ -157.930433087154455, 21.579178306386734 ], [ -157.930386772508626, 21.580765332305226 ], [ -157.930774976971378, 21.58148208771814 ], [ -157.930285773925306, 21.584057171020433 ], [ -157.930674249416086, 21.585142737761782 ], [ -157.930350095296944, 21.585721526928857 ], [ -157.929486485275703, 21.586486942485628 ], [ -157.929525852945915, 21.585134829044964 ], [ -157.92951038133711, 21.584063502132803 ], [ -157.929846214794736, 21.583165935543782 ], [ -157.929823539636061, 21.581591832627552 ], [ -157.928085370457239, 21.580789307649294 ], [ -157.928678574066026, 21.580524821801049 ], [ -157.929258495663305, 21.5796994251264 ], [ -157.928100436263918, 21.579164698325979 ], [ -157.928774402464711, 21.578248202279049 ], [ -157.927583079556484, 21.577698172448358 ], [ -157.928128575721757, 21.576724345685175 ], [ -157.927733837034651, 21.575995301820441 ], [ -157.927256936629334, 21.576453275768575 ], [ -157.926378374886099, 21.575586067177301 ], [ -157.926390742696213, 21.576442136571114 ], [ -157.926374865452715, 21.576984066134177 ], [ -157.926386700530259, 21.5777971902274 ], [ -157.926366672962786, 21.578479894173512 ], [ -157.925486587814163, 21.578048638670477 ], [ -157.924926929954495, 21.576950377011581 ], [ -157.924965370005708, 21.575632929537736 ], [ -157.924801227366515, 21.575483327373011 ], [ -157.924803226941975, 21.575212324386069 ], [ -157.924513494345092, 21.575210453834949 ], [ -157.924416761983053, 21.574879396271385 ], [ -157.924160926140985, 21.575115412223653 ], [ -157.924513494345092, 21.575210453834949 ], [ -157.924511494231069, 21.575481456796087 ], [ -157.924801227366515, 21.575483327373011 ], [ -157.92466151017544, 21.575896558293532 ], [ -157.92406374295669, 21.576148495523153 ], [ -157.923788305358102, 21.576432949960562 ], [ -157.922483339966959, 21.576982953177581 ], [ -157.921772696659588, 21.57818641152182 ], [ -157.921706067459326, 21.579122029342685 ], [ -157.9217819706993, 21.5804699894945 ], [ -157.921142208547678, 21.579397002126719 ], [ -157.92087300632241, 21.578838008752829 ], [ -157.920551598436333, 21.578565638117929 ], [ -157.920608925544542, 21.577759844335521 ], [ -157.920578421369726, 21.577217615529928 ], [ -157.920598164009363, 21.576939846662604 ], [ -157.920141085819751, 21.576552459837234 ], [ -157.919723331713897, 21.576109085868097 ], [ -157.91931289220895, 21.576930784124702 ], [ -157.918793514045575, 21.576340786525506 ], [ -157.918278264700774, 21.574489957076512 ], [ -157.918592041717346, 21.573958631218481 ], [ -157.918576040849445, 21.573674543283488 ], [ -157.919057170918904, 21.573278024110071 ], [ -157.918023264419901, 21.572401759302725 ], [ -157.918948930013869, 21.572020830900332 ], [ -157.920132101201432, 21.572094472503945 ], [ -157.91915696163835, 21.571268153904615 ], [ -157.919485340552939, 21.570712240649446 ], [ -157.919469332108235, 21.570428946586944 ], [ -157.920057027168269, 21.56943378382266 ], [ -157.919780724668357, 21.568785749591076 ], [ -157.919488924021721, 21.56937002151637 ], [ -157.918761263439279, 21.568597577064111 ], [ -157.91718501450859, 21.568499405326925 ], [ -157.91715437484774, 21.568929416987338 ], [ -157.917179110573613, 21.569370375089317 ], [ -157.916576142322867, 21.569867330806566 ], [ -157.916591760065387, 21.570145329152218 ], [ -157.916572486893756, 21.570416219325924 ], [ -157.916603470958137, 21.570967979725761 ], [ -157.916280070900484, 21.57094787906621 ], [ -157.915757558028758, 21.571487370105679 ], [ -157.914143398403809, 21.569030042793358 ], [ -157.914627934869571, 21.566978352514958 ], [ -157.914546236525894, 21.565524751050706 ], [ -157.91460406377189, 21.564712081115086 ], [ -157.914588444005005, 21.564434876540812 ], [ -157.915010523352379, 21.56372025452767 ], [ -157.914898700796869, 21.561732828223732 ], [ -157.914951148893238, 21.560996081165221 ], [ -157.914303235620338, 21.560028353001371 ], [ -157.913747401698686, 21.559557202542713 ], [ -157.914703040021209, 21.558769569423266 ], [ -157.915308235577868, 21.557225688760326 ], [ -157.914951883770897, 21.556847281880529 ], [ -157.914357143021874, 21.556587214455398 ], [ -157.914501700765157, 21.554555074007762 ], [ -157.914102972822008, 21.554131595171803 ], [ -157.913792875519704, 21.553868814667059 ], [ -157.914222231590998, 21.553141867207732 ], [ -157.913802493183056, 21.552786071035911 ], [ -157.914118996836635, 21.551978790590102 ], [ -157.914398436984726, 21.551152344514659 ], [ -157.915764479810974, 21.550026420808027 ], [ -157.914684843662599, 21.548704213841223 ], [ -157.915616493158609, 21.54793626545532 ], [ -157.915568526104806, 21.547081749705548 ], [ -157.916543710042532, 21.546277951910621 ], [ -157.916124920346931, 21.544977184016581 ], [ -157.913891651342965, 21.544475670552284 ], [ -157.913870664249572, 21.544102621982706 ], [ -157.915356157096085, 21.543853250733523 ], [ -157.91530018987342, 21.54285735181055 ], [ -157.916695999615001, 21.543578835470726 ], [ -157.917348004601394, 21.543148953930192 ], [ -157.917374702151818, 21.542772377374266 ], [ -157.916957346666464, 21.541659730737102 ], [ -157.918196680918413, 21.541736918315603 ], [ -157.919128813847863, 21.540627599346042 ], [ -157.919105564915498, 21.540214373292624 ], [ -157.919134932848294, 21.539801157395384 ], [ -157.918817968004788, 21.53953251943409 ], [ -157.919672970237684, 21.539172094712463 ], [ -157.919739910371732, 21.538230321756817 ], [ -157.919426603606183, 21.53710459180768 ], [ -157.919446490095822, 21.536825565448503 ], [ -157.919141267087127, 21.534856797534445 ], [ -157.919208998710786, 21.533903648912585 ], [ -157.918890580781891, 21.533565461248081 ], [ -157.918585576484901, 21.533306957922068 ], [ -157.918624574123726, 21.53275829579955 ], [ -157.918008211327646, 21.532488774332474 ], [ -157.918538144587103, 21.531136398429755 ], [ -157.917756082565262, 21.530305903502931 ], [ -157.917451086908386, 21.530047398372602 ], [ -157.917471294205541, 21.529763544068491 ], [ -157.917119867616009, 21.52914829968994 ], [ -157.918364218914917, 21.528419080769826 ], [ -157.917228805245998, 21.52792254950565 ], [ -157.916891903500499, 21.52733280679524 ], [ -157.916928052602941, 21.526825480266826 ], [ -157.916624809308075, 21.526503465621957 ], [ -157.916327697475197, 21.526518077888625 ], [ -157.916038182145172, 21.5265000528575 ], [ -157.915474518170612, 21.526527819235568 ], [ -157.914578308408522, 21.52593324505478 ], [ -157.913735079130277, 21.525974802114607 ], [ -157.913697607426826, 21.525308132289126 ], [ -157.914092173655632, 21.523769623260939 ], [ -157.914605961555168, 21.523239004323113 ], [ -157.914916740935325, 21.522982778511835 ], [ -157.914564979094592, 21.521388068272799 ], [ -157.914644876690971, 21.520265680551653 ], [ -157.914629636594839, 21.519994564487991 ], [ -157.914651278008421, 21.519689414133762 ], [ -157.913766452013675, 21.518939155417407 ], [ -157.913847320964408, 21.517800762019146 ], [ -157.912874394331169, 21.516975885644506 ], [ -157.912154797845403, 21.515481133826544 ], [ -157.910782575325243, 21.514023873240717 ], [ -157.909859687081934, 21.513966305751872 ], [ -157.908322223569229, 21.51434088297805 ], [ -157.908302493020017, 21.513990933290064 ], [ -157.908392856188414, 21.512722456465717 ], [ -157.906599963747709, 21.511533032025724 ], [ -157.905642605164871, 21.511114279602392 ], [ -157.906045366859047, 21.510432297597021 ], [ -157.906015658501872, 21.509904626106767 ], [ -157.906518388563569, 21.509053184335976 ], [ -157.905393624627465, 21.507858462306796 ], [ -157.90391394950251, 21.506964114221933 ], [ -157.903459028066521, 21.505550067661943 ], [ -157.90272314451633, 21.505228165669251 ], [ -157.902141400792004, 21.504209154723384 ], [ -157.901649200534706, 21.503186827037307 ], [ -157.900457668068043, 21.502777821139333 ], [ -157.899271958707033, 21.502836110574034 ], [ -157.898364978272525, 21.502779513314835 ], [ -157.897617674251336, 21.503094495386151 ], [ -157.897707817522956, 21.504699155104557 ], [ -157.896807010094875, 21.503935274337007 ], [ -157.896357276786091, 21.502537323375517 ], [ -157.895644107306055, 21.502788407149644 ], [ -157.895077471960349, 21.503071753856467 ], [ -157.894781505956871, 21.503053253978223 ], [ -157.894234765633286, 21.503080137448059 ], [ -157.894066699553122, 21.501837021672035 ], [ -157.895172658096328, 21.5022080562489 ], [ -157.895674499791312, 21.500898044685727 ], [ -157.895364649551937, 21.500340597593766 ], [ -157.89540415433396, 21.49954706426297 ], [ -157.895094137026462, 21.499274328312822 ], [ -157.894817712149944, 21.498991161348368 ], [ -157.894519074656273, 21.498728490767743 ], [ -157.894246748535664, 21.497903317471561 ], [ -157.893948114242733, 21.497640645975675 ], [ -157.893671694610305, 21.497357477287661 ], [ -157.893103085980471, 21.49685739871197 ], [ -157.892776076736368, 21.496196746777542 ], [ -157.891937504102998, 21.49545919138944 ], [ -157.891630224779618, 21.495144319804965 ], [ -157.890178146138453, 21.495188538618848 ], [ -157.890232838006824, 21.494092464391969 ], [ -157.889918908536202, 21.493816318975714 ], [ -157.890335729552191, 21.493091658418365 ], [ -157.889925165823513, 21.492730509476861 ], [ -157.890512373741615, 21.492228570420817 ], [ -157.890527888465641, 21.49191663425734 ], [ -157.890033473047964, 21.491481815305836 ], [ -157.891681501780027, 21.490072897196338 ], [ -157.89083756930151, 21.489208196617884 ], [ -157.889990262721739, 21.488827011413765 ], [ -157.889965659313162, 21.488118672323353 ], [ -157.891131921285705, 21.487121616964824 ], [ -157.890566497149649, 21.486767249835523 ], [ -157.889669740752879, 21.486494975372555 ], [ -157.889123579997289, 21.485391599002124 ], [ -157.888293007447544, 21.485416909323085 ], [ -157.887297182573519, 21.48480552403268 ], [ -157.889130791308304, 21.483714534671709 ], [ -157.888853857538464, 21.483503674991663 ], [ -157.888051960551422, 21.48314289748107 ], [ -157.888563568700306, 21.482146662879195 ], [ -157.888997124362248, 21.481392737239489 ], [ -157.888281753598449, 21.481070846445224 ], [ -157.888302267025153, 21.480659495785769 ], [ -157.888288001452764, 21.480247913790134 ], [ -157.889159960215153, 21.479869814932631 ], [ -157.888307683993105, 21.479163780350639 ], [ -157.887719136751741, 21.478898972114365 ], [ -157.887746157248955, 21.478356986659918 ], [ -157.887435776246463, 21.478083904731697 ], [ -157.887461779862747, 21.477564210523624 ], [ -157.887163944931444, 21.47725905490385 ], [ -157.886011130463999, 21.476551339251316 ], [ -157.886294617351183, 21.475898183467184 ], [ -157.887457766476786, 21.475393802124771 ], [ -157.887750509550159, 21.47482380975379 ], [ -157.888771536014644, 21.473595739966573 ], [ -157.889525008340144, 21.47162846399068 ], [ -157.889514076331665, 21.471317476361019 ], [ -157.889527897749105, 21.47104211820751 ], [ -157.888933188441683, 21.469971899083614 ], [ -157.888973858335902, 21.46915766318541 ], [ -157.888023439625272, 21.467681132635391 ], [ -157.887533743735787, 21.466691866854092 ], [ -157.887237240916846, 21.466158182548646 ], [ -157.886962949631766, 21.46560400172962 ], [ -157.886378999688674, 21.464797385962573 ], [ -157.885269657725701, 21.463163895220344 ], [ -157.884652330767409, 21.46342047454748 ], [ -157.8838294864631, 21.463821047203002 ], [ -157.882384664082366, 21.45850487194614 ], [ -157.882972337450411, 21.457425391619715 ], [ -157.884130415175491, 21.457476128213397 ], [ -157.884112464433798, 21.456955809577604 ], [ -157.885848224216176, 21.456902998535782 ], [ -157.88615455601925, 21.45774018891624 ], [ -157.886074540421646, 21.459340680956231 ], [ -157.887438817255912, 21.459400443458875 ], [ -157.888810226689088, 21.459358676992149 ], [ -157.887832570157741, 21.460194608897432 ], [ -157.889318066209256, 21.460470335066237 ], [ -157.890181735446873, 21.46076011943795 ], [ -157.890981674213691, 21.459963290651391 ], [ -157.891906838719592, 21.459935081420326 ], [ -157.892493531863721, 21.460230694223323 ], [ -157.893221814944496, 21.460365862197815 ] ], [ [ -157.938290816214959, 21.55334645789215 ], [ -157.938387568481829, 21.553677508949839 ], [ -157.938643343063859, 21.553441468052931 ], [ -157.938290816214959, 21.55334645789215 ] ], [ [ -157.948461640709894, 21.589185242746545 ], [ -157.948558436361196, 21.589516288409612 ], [ -157.948814260813378, 21.589280234783605 ], [ -157.948461640709894, 21.589185242746545 ] ], [ [ -157.949722299900571, 21.575100301944563 ], [ -157.949833868790648, 21.575716882110846 ], [ -157.950097812600063, 21.575253396384987 ], [ -157.949722299900571, 21.575100301944563 ] ], [ [ -157.919929993020929, 21.568134387112977 ], [ -157.92002671131749, 21.568465446934777 ], [ -157.920282541366106, 21.568229436940779 ], [ -157.919929993020929, 21.568134387112977 ] ], [ [ -157.94632580606276, 21.563967134263613 ], [ -157.946422582710824, 21.564298181274747 ], [ -157.946678364294485, 21.564062128569439 ], [ -157.94632580606276, 21.563967134263613 ] ], [ [ -157.939193384527016, 21.548744904959666 ], [ -157.939304893591725, 21.549361491451577 ], [ -157.939568818479387, 21.548898020384609 ], [ -157.939193384527016, 21.548744904959666 ] ], [ [ -157.897091228757006, 21.484782974250216 ], [ -157.897202522983633, 21.485399583990638 ], [ -157.897466452975294, 21.484936176776252 ], [ -157.897091228757006, 21.484782974250216 ] ] ] } },
{ "type": "Feature", "properties": { "ID": 71, "GRIDCODE": 2 }, "geometry": { "type": "Polygon", "coordinates": [ [ [ -157.890100895208064, 21.451943646660105 ], [ -157.89045314465929, 21.452038748043446 ], [ -157.890197481042406, 21.452274722142771 ], [ -157.890100895208064, 21.451943646660105 ] ] ] } },
{ "type": "Feature", "properties": { "ID": 72, "GRIDCODE": 2 }, "geometry": { "type": "Polygon", "coordinates": [ [ [ -157.887216328104103, 21.450569401874755 ], [ -157.887317920404485, 21.450239642753523 ], [ -157.887569979368578, 21.450478988067097 ], [ -157.887216328104103, 21.450569401874755 ] ] ] } },
{ "type": "Feature", "properties": { "ID": 73, "GRIDCODE": 2 }, "geometry": { "type": "Polygon", "coordinates": [ [ [ -157.887216328104103, 21.450569401874755 ], [ -157.887083892020854, 21.450716535204226 ], [ -157.884970726839384, 21.451557865419325 ], [ -157.883594614248466, 21.452728368085459 ], [ -157.884339899041322, 21.45311240562868 ], [ -157.886746024033954, 21.452284282142948 ], [ -157.888535072694339, 21.45246701699277 ], [ -157.888478980121249, 21.452948401481773 ], [ -157.886641618921004, 21.452760712725265 ], [ -157.885907433211798, 21.453147861155784 ], [ -157.884894645083904, 21.453551080723056 ], [ -157.884448540253572, 21.454495674027303 ], [ -157.883423774066642, 21.454391044557344 ], [ -157.882936710655287, 21.455422103859405 ], [ -157.881530797729084, 21.455803819398572 ], [ -157.880227267488323, 21.452329645692458 ], [ -157.881065670770965, 21.452031485244028 ], [ -157.88157996472134, 21.452619700690608 ], [ -157.882258286235498, 21.45186636525974 ], [ -157.88273546654267, 21.451500609107836 ], [ -157.883427178012482, 21.450732338088738 ], [ -157.883937974986623, 21.451316420909187 ], [ -157.885241170276458, 21.451200847532224 ], [ -157.886201591282713, 21.450133893089838 ], [ -157.886769610557167, 21.450443427419462 ], [ -157.887216328104103, 21.450569401874755 ] ] ] } },
{ "type": "Feature", "properties": { "ID": 74, "GRIDCODE": 2 }, "geometry": { "type": "Polygon", "coordinates": [ [ [ -157.881151683737698, 21.44863184384149 ], [ -157.881308912349738, 21.44875589801298 ], [ -157.88171067950222, 21.44964057940415 ], [ -157.882965909169144, 21.449529268179912 ], [ -157.881846056809167, 21.450387508465752 ], [ -157.881875505347381, 21.450678042716628 ], [ -157.881396512884407, 21.451448258521001 ], [ -157.879996550926535, 21.451999321685257 ], [ -157.87952434992809, 21.449936208000992 ], [ -157.879606180703064, 21.449234864713972 ], [ -157.880434012140825, 21.449319473749682 ], [ -157.880701032580447, 21.449022850239963 ], [ -157.881019243653412, 21.448778972215365 ], [ -157.881151683737698, 21.44863184384149 ] ] ] } },
{ "type": "Feature", "properties": { "ID": 75, "GRIDCODE": 2 }, "geometry": { "type": "Polygon", "coordinates": [ [ [ -157.880878747812972, 21.446461883165224 ], [ -157.880980350870516, 21.446132128229102 ], [ -157.881232392289434, 21.446371482449056 ], [ -157.880878747812972, 21.446461883165224 ] ] ] } },
{ "type": "Feature", "properties": { "ID": 76, "GRIDCODE": 2 }, "geometry": { "type": "Polygon", "coordinates": [ [ [ -157.880878747812972, 21.446461883165224 ], [ -157.880759360675626, 21.446621405638368 ], [ -157.880125577765938, 21.446838558213908 ], [ -157.879289206194471, 21.448188043867038 ], [ -157.87914713345549, 21.447412815283791 ], [ -157.879882890833244, 21.446225822715064 ], [ -157.880878747812972, 21.446461883165224 ] ] ] } },
{ "type": "Feature", "properties": { "ID": 77, "GRIDCODE": 2 }, "geometry": { "type": "Polygon", "coordinates": [ [ [ -157.877136340866883, 21.443726648684866 ], [ -157.877488561083595, 21.443821776229456 ], [ -157.877232892568827, 21.444057730461669 ], [ -157.877136340866883, 21.443726648684866 ] ] ] } },
{ "type": "Feature", "properties": { "ID": 78, "GRIDCODE": 2 }, "geometry": { "type": "Polygon", "coordinates": [ [ [ -157.877136340866883, 21.443726648684866 ], [ -157.876829577284298, 21.443546801866212 ], [ -157.876173533782151, 21.441633503204017 ], [ -157.876739444830037, 21.441361983954216 ], [ -157.877309077467203, 21.442358695882106 ], [ -157.878127420652049, 21.442126116469883 ], [ -157.877616355551027, 21.443080777492487 ], [ -157.877250085693134, 21.443288729665397 ], [ -157.877136340866883, 21.443726648684866 ] ] ] } },
{ "type": "Feature", "properties": { "ID": 79, "GRIDCODE": 2 }, "geometry": { "type": "Polygon", "coordinates": [ [ [ -157.876600979356397, 21.438031701983412 ], [ -157.876383371746584, 21.438835947989862 ], [ -157.876599273489205, 21.439768488279551 ], [ -157.875313765588714, 21.439488641335267 ], [ -157.875589982007142, 21.438267414106345 ], [ -157.876600979356397, 21.438031701983412 ] ] ] } },
{ "type": "Feature", "properties": { "ID": 80, "GRIDCODE": 2 }, "geometry": { "type": "Polygon", "coordinates": [ [ [ -157.876600979356397, 21.438031701983412 ], [ -157.8767646572974, 21.437680531086308 ], [ -157.877259588198115, 21.437927541297054 ], [ -157.876600979356397, 21.438031701983412 ] ] ] } },
{ "type": "Feature", "properties": { "ID": 81, "GRIDCODE": 2 }, "geometry": { "type": "Polygon", "coordinates": [ [ [ -157.875745067217736, 21.436399854810713 ], [ -157.876272611035205, 21.436503241305918 ], [ -157.875831988307425, 21.437304534058615 ], [ -157.875405268845469, 21.437028666332804 ], [ -157.875745067217736, 21.436399854810713 ] ] ] } }
]
}
