{
"type": "FeatureCollection",
"name": "myrmezi",
"crs": { "type": "name", "properties": { "name": "urn:ogc:def:crs:OGC:1.3:CRS84" } },
"features": [
{ "type": "Feature", "properties": { "ID": 1, "GRIDCODE": 2 }, "geometry": { "type": "Polygon", "coordinates": [ [ [ -159.621723182379952, 22.178665589462813 ], [ -159.622112729817815, 22.178847265153152 ], [ -159.6218543247806, 22.179569193539031 ], [ -159.621385342053031, 22.179305123989643 ], [ -159.621723182379952, 22.178665589462813 ] ] ] } },
{ "type": "Feature", "properties": { "ID": 2, "GRIDCODE": 2 }, "geometry": { "type": "Polygon", "coordinates": [ [ [ -159.625764619834627, 22.171332591125221 ], [ -159.626722072463252, 22.171841867459452 ], [ -159.6270686504933, 22.172557246138808 ], [ -159.629992937021143, 22.175809066907082 ], [ -159.629390412779202, 22.176091698383189 ], [ -159.628840873552662, 22.176052705318632 ], [ -159.62840454586771, 22.176087054088686 ], [ -159.627512051403528, 22.176023718236092 ], [ -159.626248344091749, 22.17704624637993 ], [ -159.625748967321613, 22.178614355139686 ], [ -159.624917031646163, 22.179862882491285 ], [ -159.623069290473779, 22.178806887895025 ], [ -159.622935704215365, 22.177334147207834 ], [ -159.623825705004236, 22.176363965808488 ], [ -159.624799312125475, 22.176616074507177 ], [ -159.624200506566297, 22.177100543828416 ], [ -159.624702685297223, 22.178237587350001 ], [ -159.625286765153277, 22.177844321699887 ], [ -159.626401044270381, 22.17602697910603 ], [ -159.627372763885916, 22.175517135034497 ], [ -159.628478758788532, 22.175202327849881 ], [ -159.626781279747746, 22.173371410341687 ], [ -159.626217232497851, 22.172540363410693 ], [ -159.62590355144502, 22.172290704687871 ], [ -159.625764619834627, 22.171332591125221 ] ] ] } },
{ "type": "Feature", "properties": { "ID": 3, "GRIDCODE": 2 }, "geometry": { "type": "Polygon", "coordinates": [ [ [ -159.621918823790651, 22.156983244892878 ], [ -159.622297655806676, 22.15713253663051 ], [ -159.622038093034149, 22.157598689640757 ], [ -159.621918823790651, 22.156983244892878 ] ] ] } },
{ "type": "Feature", "properties": { "ID": 4, "GRIDCODE": 2 }, "geometry": { "type": "Polygon", "coordinates": [ [ [ -159.634411134889177, 22.152869827992472 ], [ -159.634313033400645, 22.153200647488678 ], [ -159.634056832715885, 22.15296398007721 ], [ -159.634411134889177, 22.152869827992472 ] ] ] } },
{ "type": "Feature", "properties": { "ID": 5, "GRIDCODE": 2 }, "geometry": { "type": "Polygon", "coordinates": [ [ [ -159.674254700330096, 22.149728784964005 ], [ -159.674352705608413, 22.149397943647344 ], [ -159.674608965264383, 22.14963454637563 ], [ -159.674254700330096, 22.149728784964005 ] ] ] } },
{ "type": "Feature", "properties": { "ID": 6, "GRIDCODE": 2 }, "geometry": { "type": "Polygon", "coordinates": [ [ [ -159.639079536667879, 22.15583282077586 ], [ -159.638896963713165, 22.156488729254296 ], [ -159.637328203494889, 22.155868555975118 ], [ -159.637831017827153, 22.15512391601106 ], [ -159.637452115740786, 22.154220125998343 ], [ -159.636864433544076, 22.15383119312655 ], [ -159.636577798359326, 22.153461925970142 ], [ -159.635862985296001, 22.1535964030702 ], [ -159.635407321129463, 22.153294836347321 ], [ -159.635162985115045, 22.152980055724335 ], [ -159.634411134889177, 22.152869827992472 ], [ -159.634576237917997, 22.152179262495199 ], [ -159.633327926098445, 22.151694941517633 ], [ -159.633433093326829, 22.150879330725473 ], [ -159.632509677278449, 22.150552790142886 ], [ -159.631646510033164, 22.150865713854699 ], [ -159.6311190691641, 22.150806666698085 ], [ -159.630176330729938, 22.151148416827603 ], [ -159.629905740901449, 22.150836251987617 ], [ -159.629324180649718, 22.150905920952059 ], [ -159.628826344130403, 22.15033174909389 ], [ -159.626418636569923, 22.150610784381563 ], [ -159.624583539200188, 22.151658778534731 ], [ -159.624064987212591, 22.152488224157985 ], [ -159.62381001605101, 22.15333223436669 ], [ -159.623304996315539, 22.154140063656218 ], [ -159.623183558362427, 22.155081274710934 ], [ -159.623304918859191, 22.15596103978066 ], [ -159.62191897658235, 22.156727086753722 ], [ -159.621747368952356, 22.155483535280208 ], [ -159.62232970810669, 22.154551947884407 ], [ -159.622936016785246, 22.153064554305676 ], [ -159.623189799520276, 22.151949529440046 ], [ -159.623765150500361, 22.151516756111597 ], [ -159.624115985580687, 22.150732070085883 ], [ -159.626638308800381, 22.149659508361349 ], [ -159.627851367445203, 22.149795333206971 ], [ -159.62902910403696, 22.149654251958253 ], [ -159.630320161477357, 22.150110824961118 ], [ -159.631940471920842, 22.149777674203836 ], [ -159.633099321930729, 22.149464544634743 ], [ -159.633364076374761, 22.150043173138837 ], [ -159.633850386152915, 22.150402845607477 ], [ -159.634370590735244, 22.151002827385913 ], [ -159.635111823965502, 22.15155103141095 ], [ -159.635410305554643, 22.152203375510233 ], [ -159.637984876743644, 22.153502157843416 ], [ -159.638626459304049, 22.155714072502054 ], [ -159.639079536667879, 22.15583282077586 ] ] ] } },
{ "type": "Feature", "properties": { "ID": 7, "GRIDCODE": 2 }, "geometry": { "type": "Polygon", "coordinates": [ [ [ -159.662303931983701, 22.144899400325219 ], [ -159.662143785590445, 22.145252289270086 ], [ -159.661643308604312, 22.145010635631813 ], [ -159.662303931983701, 22.144899400325219 ] ] ] } },
{ "type": "Feature", "properties": { "ID": 8, "GRIDCODE": 2 }, "geometry": { "type": "Polygon", "coordinates": [ [ [ -159.666913916120052, 22.135394950850731 ], [ -159.667269024788567, 22.135486273545233 ], [ -159.667015041401299, 22.135724974704051 ], [ -159.666913916120052, 22.135394950850731 ] ] ] } },
{ "type": "Feature", "properties": { "ID": 9, "GRIDCODE": 2 }, "geometry": { "type": "Polygon", "coordinates": [ [ [ -159.687829439692507, 22.129345735467346 ], [ -159.687738332470445, 22.129947408898246 ], [ -159.687201111489628, 22.129433745018122 ], [ -159.687829439692507, 22.129345735467346 ] ] ] } },
{ "type": "Feature", "properties": { "ID": 10, "GRIDCODE": 2 }, "geometry": { "type": "Polygon", "coordinates": [ [ [ -159.687829439692507, 22.129345735467346 ], [ -159.68792740030932, 22.129014886340865 ], [ -159.688183644143777, 22.129251468697653 ], [ -159.687829439692507, 22.129345735467346 ] ] ] } },
{ "type": "Feature", "properties": { "ID": 11, "GRIDCODE": 2 }, "geometry": { "type": "Polygon", "coordinates": [ [ [ -159.686369776492143, 22.12826780429759 ], [ -159.686724878472063, 22.128359084875875 ], [ -159.686470941173752, 22.128597815366014 ], [ -159.686369776492143, 22.12826780429759 ] ] ] } },
{ "type": "Feature", "properties": { "ID": 12, "GRIDCODE": 2 }, "geometry": { "type": "Polygon", "coordinates": [ [ [ -159.686369776492143, 22.12826780429759 ], [ -159.685097403878302, 22.128151584161962 ], [ -159.686141476829278, 22.127912679673244 ], [ -159.686369776492143, 22.12826780429759 ] ] ] } },
{ "type": "Feature", "properties": { "ID": 13, "GRIDCODE": 2 }, "geometry": { "type": "Polygon", "coordinates": [ [ [ -159.673571022763156, 22.128321114022356 ], [ -159.672901566636199, 22.128214021376102 ], [ -159.673411341627656, 22.127977655707994 ], [ -159.673571022763156, 22.128321114022356 ] ] ] } },
{ "type": "Feature", "properties": { "ID": 14, "GRIDCODE": 2 }, "geometry": { "type": "Polygon", "coordinates": [ [ [ -159.619743445843397, 22.125282077195031 ], [ -159.620429704729418, 22.125629181737292 ], [ -159.619885706608329, 22.125886298373928 ], [ -159.619743445843397, 22.125282077195031 ] ] ] } },
{ "type": "Feature", "properties": { "ID": 15, "GRIDCODE": 2 }, "geometry": { "type": "Polygon", "coordinates": [ [ [ -159.672667508839993, 22.121820373316698 ], [ -159.672312431529548, 22.121729061446313 ], [ -159.672566381348787, 22.121490352488102 ], [ -159.672667508839993, 22.121820373316698 ] ] ] } },
{ "type": "Feature", "properties": { "ID": 16, "GRIDCODE": 2 }, "geometry": { "type": "Polygon", "coordinates": [ [ [ -159.675391250413497, 22.144032692635488 ], [ -159.675290099272075, 22.143702674943384 ], [ -159.675036115427361, 22.143941388379236 ], [ -159.675391250413497, 22.144032692635488 ], [ -159.675616015000884, 22.14452505939526 ], [ -159.675487190139535, 22.1450716745661 ], [ -159.676162532867721, 22.145501937844241 ], [ -159.676094345210601, 22.14579140178753 ], [ -159.676186155763901, 22.146165168882966 ], [ -159.675255052520924, 22.145974760052287 ], [ -159.674383168517664, 22.146160639034786 ], [ -159.673548508258051, 22.145989944665114 ], [ -159.6732417142114, 22.145236348390316 ], [ -159.67275278382354, 22.144543598423986 ], [ -159.671031622388398, 22.144910500958609 ], [ -159.66950860212674, 22.144598992197075 ], [ -159.669288470537651, 22.145412935536278 ], [ -159.668627851068834, 22.145524199042779 ], [ -159.669128341204953, 22.145765830898267 ], [ -159.669288470537651, 22.145412935536278 ], [ -159.669950375960696, 22.145183399359112 ], [ -159.670340582729438, 22.145601558195899 ], [ -159.671719683269856, 22.146168054171799 ], [ -159.672049755223014, 22.147173288601135 ], [ -159.672524352475676, 22.14795749213852 ], [ -159.670700458998624, 22.14827518210874 ], [ -159.673201652862758, 22.149604853614282 ], [ -159.674254700330096, 22.149728784964005 ], [ -159.673155180985333, 22.151213845983392 ], [ -159.672649623302192, 22.150965077275711 ], [ -159.67170075250138, 22.150344183927977 ], [ -159.669738966919908, 22.150685871040306 ], [ -159.669472361749598, 22.15124916715628 ], [ -159.668579097493932, 22.151503685343691 ], [ -159.667859332880283, 22.151881666726187 ], [ -159.667415475929772, 22.151528614989431 ], [ -159.667133950913268, 22.15122688861964 ], [ -159.666855280843379, 22.151530906182185 ], [ -159.666275620393492, 22.152000262989031 ], [ -159.666546516819409, 22.152345224561145 ], [ -159.667421020372785, 22.152704448751173 ], [ -159.665564919537559, 22.153197399002632 ], [ -159.664330969332156, 22.15311009395764 ], [ -159.66283445631305, 22.15362894969838 ], [ -159.661916990317508, 22.153156969933566 ], [ -159.659275761122615, 22.15291681254952 ], [ -159.658230364897776, 22.152378996511068 ], [ -159.65570154292152, 22.153001605309051 ], [ -159.655112119344352, 22.154516993254873 ], [ -159.655845579067829, 22.156294370010155 ], [ -159.656705963962565, 22.156978851743027 ], [ -159.656309793250301, 22.157647109675501 ], [ -159.656744958848037, 22.159396592812826 ], [ -159.658437646904673, 22.160374674896154 ], [ -159.65759589328286, 22.160579706460563 ], [ -159.656101493567917, 22.160473912735032 ], [ -159.654115925570778, 22.160819538725491 ], [ -159.653495845800364, 22.161321501231679 ], [ -159.652996998330195, 22.161865537734776 ], [ -159.65291133285146, 22.161327242090525 ], [ -159.65391570953679, 22.159995730384729 ], [ -159.65339920512983, 22.158929943729927 ], [ -159.651725059392618, 22.158242106955935 ], [ -159.65087997398291, 22.157807300776629 ], [ -159.650581036214533, 22.157830874549415 ], [ -159.65028999298093, 22.15781026649584 ], [ -159.64978279256303, 22.157850259697756 ], [ -159.648822091052864, 22.157295041316896 ], [ -159.648491219847699, 22.156612241982653 ], [ -159.647495209107717, 22.155819782267443 ], [ -159.647089263914808, 22.155384626046509 ], [ -159.646618676431643, 22.15501020155234 ], [ -159.645683383203618, 22.154007583301134 ], [ -159.645025735126467, 22.154059430185235 ], [ -159.64475239631733, 22.153495181056162 ], [ -159.644442034557898, 22.153519648752678 ], [ -159.643936889534274, 22.152978091048489 ], [ -159.643524801965015, 22.15356235837961 ], [ -159.64361565390044, 22.154562923090534 ], [ -159.643013753901982, 22.154878870403596 ], [ -159.641538610016994, 22.155135534879733 ], [ -159.639079536667879, 22.15583282077586 ], [ -159.639537231398293, 22.155275604927237 ], [ -159.641073612691713, 22.154706021198841 ], [ -159.642638751029097, 22.154293373587883 ], [ -159.643015041081838, 22.152176029887237 ], [ -159.645149249856672, 22.152515127540131 ], [ -159.645596494986989, 22.153520930737795 ], [ -159.646507880637699, 22.153753453762832 ], [ -159.646814545401099, 22.154443160600692 ], [ -159.648223594846854, 22.15540764690374 ], [ -159.649136239783928, 22.155911169191526 ], [ -159.649391078933149, 22.156216060449491 ], [ -159.649885300304419, 22.156568282764251 ], [ -159.650271491656525, 22.15703024187906 ], [ -159.651473278390768, 22.15685991268186 ], [ -159.653358296833318, 22.158069906546348 ], [ -159.654496424438861, 22.159431198270234 ], [ -159.655680651566428, 22.159561189486563 ], [ -159.655781769717066, 22.159891219552538 ], [ -159.656035814747895, 22.159652535054203 ], [ -159.655680651566428, 22.159561189486563 ], [ -159.655542789399618, 22.158874114150802 ], [ -159.655093120243208, 22.158130891814679 ], [ -159.655573404056781, 22.156896192372734 ], [ -159.65434208349447, 22.155916584100545 ], [ -159.654364939974982, 22.155636697885864 ], [ -159.654340247018013, 22.155365777809781 ], [ -159.654382935061875, 22.154843128771148 ], [ -159.65364903581056, 22.153887695252227 ], [ -159.654042761250366, 22.153458240971396 ], [ -159.654634280730278, 22.153500125226753 ], [ -159.655027355022099, 22.152669940297333 ], [ -159.656381778570363, 22.151573388477239 ], [ -159.65680524209057, 22.151111518641262 ], [ -159.65727223744895, 22.15161205027692 ], [ -159.658121470104504, 22.151545031511901 ], [ -159.659976980224485, 22.151914205310185 ], [ -159.663054278166697, 22.152131985269719 ], [ -159.661908118641321, 22.151259873210289 ], [ -159.661052745212004, 22.150908481407573 ], [ -159.660736812261092, 22.149638507664239 ], [ -159.658539284068752, 22.149335657348118 ], [ -159.659233880287445, 22.148164065052455 ], [ -159.657525097715364, 22.147176614743348 ], [ -159.658283938573391, 22.147220102867784 ], [ -159.659629811948946, 22.147773056462494 ], [ -159.660147417199937, 22.148327838975788 ], [ -159.662089017825991, 22.148174585446132 ], [ -159.662457152299936, 22.148569132098704 ], [ -159.663212925835751, 22.148509463855234 ], [ -159.664564500640694, 22.148848146270559 ], [ -159.66563942536439, 22.148763271832816 ], [ -159.666182542822213, 22.149345340026741 ], [ -159.666551590082804, 22.148821959030798 ], [ -159.666847142802396, 22.14819759295677 ], [ -159.66768748974431, 22.147517104737823 ], [ -159.667228239334776, 22.147391166135446 ], [ -159.666235367456636, 22.147469570513984 ], [ -159.665671078083307, 22.147179276427842 ], [ -159.664624467761314, 22.146749332583678 ], [ -159.665061209181999, 22.145826668667791 ], [ -159.665497649341461, 22.145090429676888 ], [ -159.663377799293102, 22.144268901236604 ], [ -159.662303931983701, 22.144899400325219 ], [ -159.662136769955538, 22.143941884324597 ], [ -159.662720241285768, 22.143486355550223 ], [ -159.662432898466932, 22.141396303791936 ], [ -159.661278673151656, 22.140510991956912 ], [ -159.661665044549721, 22.140374875475338 ], [ -159.662900533793533, 22.140868105529819 ], [ -159.664029704309854, 22.142557028876176 ], [ -159.666934480780554, 22.142876908690614 ], [ -159.668737060175459, 22.142698282882524 ], [ -159.669157996333155, 22.143166134226146 ], [ -159.670571660477265, 22.142773346045971 ], [ -159.669764096066416, 22.141276009473664 ], [ -159.6685509079025, 22.14038956941922 ], [ -159.667579788552729, 22.140001928887507 ], [ -159.66680079812707, 22.139404443500659 ], [ -159.667658725701671, 22.139307789314667 ], [ -159.668241682725551, 22.139360735124868 ], [ -159.668823230175803, 22.139303103398248 ], [ -159.669680737833801, 22.139380980000468 ], [ -159.67121409158085, 22.138954926585484 ], [ -159.67110331541727, 22.137984657931941 ], [ -159.67160984026782, 22.137152206103085 ], [ -159.669961975135578, 22.136885611202597 ], [ -159.668785576053949, 22.136104134875449 ], [ -159.668226079374023, 22.136053319517465 ], [ -159.666785694504398, 22.13619605194949 ], [ -159.668673975797589, 22.135143246367491 ], [ -159.670224208684431, 22.135284034338763 ], [ -159.670825569431059, 22.134959852517078 ], [ -159.67217623811041, 22.134674980649027 ], [ -159.671693233354034, 22.133897284544638 ], [ -159.67142656902206, 22.133331266142722 ], [ -159.669961942388056, 22.131186879389492 ], [ -159.670250287878162, 22.131166308787332 ], [ -159.671353664104629, 22.131899294585512 ], [ -159.67315404076993, 22.131422310568095 ], [ -159.674181246827573, 22.131964815611649 ], [ -159.675736520609661, 22.131583094814019 ], [ -159.675852666058177, 22.130472608455214 ], [ -159.675483545097023, 22.130062297725487 ], [ -159.674845602420504, 22.1295730440856 ], [ -159.674314847587254, 22.128983052773243 ], [ -159.673836396811794, 22.128616107081108 ], [ -159.673571022763156, 22.128321114022356 ], [ -159.675730796027523, 22.127970089570816 ], [ -159.676021484332523, 22.127615993754688 ], [ -159.676348662185461, 22.127378505852523 ], [ -159.676597053919892, 22.12631711230209 ], [ -159.674845317051194, 22.12506887188589 ], [ -159.673097407367464, 22.12441072996209 ], [ -159.672781497928213, 22.123700564596536 ], [ -159.672918481714106, 22.122809633972807 ], [ -159.672667508839993, 22.121820373316698 ], [ -159.673980982861934, 22.122768388506774 ], [ -159.675846883713547, 22.121352215404247 ], [ -159.675416170778902, 22.120581615268048 ], [ -159.675433398575677, 22.119576990411751 ], [ -159.680120623539153, 22.120195342889772 ], [ -159.683415958939293, 22.121507509112625 ], [ -159.685615476071803, 22.123270895705982 ], [ -159.684163903577939, 22.123249384681994 ], [ -159.682701093932707, 22.123283330664435 ], [ -159.682715562711991, 22.123825076715619 ], [ -159.683584830588956, 22.123804914518239 ], [ -159.683890500734776, 22.123809440615734 ], [ -159.68387203775751, 22.124891443501479 ], [ -159.684757774061239, 22.125155143933995 ], [ -159.686219967946812, 22.125972945818013 ], [ -159.687085235941112, 22.125952847693959 ], [ -159.687669156324233, 22.126887797580892 ], [ -159.685344183197031, 22.127320834402386 ], [ -159.684769585263552, 22.127599690080029 ], [ -159.68388886085441, 22.127870050344264 ], [ -159.684776106970219, 22.128949331194402 ], [ -159.685068417824681, 22.130448235992681 ], [ -159.683604147970215, 22.129753197823494 ], [ -159.682162186084895, 22.12979458780995 ], [ -159.682956580769172, 22.130499324423614 ], [ -159.683325125205073, 22.130873799164632 ], [ -159.682739958491823, 22.131402347450017 ], [ -159.682754732599903, 22.131955480611715 ], [ -159.684197393552353, 22.131922005466713 ], [ -159.684638338703508, 22.132345773723383 ], [ -159.685097351841932, 22.132752972833096 ], [ -159.685952258378393, 22.132733121834242 ], [ -159.68625596610795, 22.133024980028971 ], [ -159.686246651300536, 22.133572482064963 ], [ -159.683067044010585, 22.133525368125166 ], [ -159.682740427671121, 22.134159850576307 ], [ -159.678970618483532, 22.134666194349172 ], [ -159.68082731571954, 22.135495865475079 ], [ -159.680412026781482, 22.136642901344818 ], [ -159.678394946846055, 22.137109924656496 ], [ -159.677832602192296, 22.137660088499363 ], [ -159.677476209033955, 22.136983401013907 ], [ -159.677577826384152, 22.138465030557345 ], [ -159.678704604058311, 22.137918310697387 ], [ -159.679939654529278, 22.137632366457449 ], [ -159.681304899553595, 22.137652626424536 ], [ -159.682355343828277, 22.137142914617964 ], [ -159.683652630159401, 22.138460950456267 ], [ -159.682777892897519, 22.139250994917074 ], [ -159.682062973468845, 22.139950496053476 ], [ -159.68251569220709, 22.140352112101851 ], [ -159.682489101790395, 22.141908561612954 ], [ -159.680759757604164, 22.140619936888953 ], [ -159.679577174449577, 22.140359273249448 ], [ -159.67960596577629, 22.141437909696794 ], [ -159.678705552025264, 22.142251074115833 ], [ -159.67931432722753, 22.142523090980578 ], [ -159.679891650585574, 22.142797130595046 ], [ -159.680480571796636, 22.143060268413606 ], [ -159.680769669872291, 22.143893373967192 ], [ -159.680088546623892, 22.144508520447879 ], [ -159.680656232846502, 22.145523944522704 ], [ -159.678403415905791, 22.145490501360477 ], [ -159.677405031653052, 22.144531056642499 ], [ -159.675391250413497, 22.144032692635488 ] ], [ [ -159.671007001317861, 22.139714479324887 ], [ -159.671399054559856, 22.140434878239716 ], [ -159.672272439025363, 22.140571572372675 ], [ -159.671634113252765, 22.139829742410068 ], [ -159.671007001317861, 22.139714479324887 ] ] ] } },
{ "type": "Feature", "properties": { "ID": 17, "GRIDCODE": 2 }, "geometry": { "type": "Polygon", "coordinates": [ [ [ -159.638602869026926, 22.114639584284511 ], [ -159.638957908797096, 22.114730970493536 ], [ -159.638703912712828, 22.11496962846423 ], [ -159.638602869026926, 22.114639584284511 ] ] ] } },
{ "type": "Feature", "properties": { "ID": 18, "GRIDCODE": 2 }, "geometry": { "type": "Polygon", "coordinates": [ [ [ -159.633975842753046, 22.120620075689949 ], [ -159.6336216203417, 22.120714225301992 ], [ -159.633877760525735, 22.120950895719634 ], [ -159.633975842753046, 22.120620075689949 ], [ -159.634405572803473, 22.120974824899822 ], [ -159.633840222232493, 22.12130660769996 ], [ -159.632931954148944, 22.121259703038682 ], [ -159.632989841552728, 22.122105030000384 ], [ -159.63223742806565, 22.122149737938095 ], [ -159.631227296447634, 22.122097560971735 ], [ -159.631728685993636, 22.122645256841967 ], [ -159.633834625776132, 22.1233902193215 ], [ -159.633566516947184, 22.124830115919181 ], [ -159.633255741397278, 22.125368376131416 ], [ -159.633930829052389, 22.125925712905921 ], [ -159.63383505398221, 22.127535362202888 ], [ -159.635073284739974, 22.127798700885911 ], [ -159.633563660310955, 22.128067299923458 ], [ -159.633592000291486, 22.128481173272011 ], [ -159.633551709339343, 22.129158881692721 ], [ -159.633590764641298, 22.129729637147584 ], [ -159.632410797506765, 22.130239763131737 ], [ -159.632018952610821, 22.131043996284536 ], [ -159.630979578914008, 22.131105748156607 ], [ -159.630940231504496, 22.130530948631144 ], [ -159.631269592416857, 22.130254444519345 ], [ -159.630936768433628, 22.129689397862627 ], [ -159.631563710328379, 22.128603874205378 ], [ -159.631477420087748, 22.127344020259066 ], [ -159.631881301704738, 22.126644649737297 ], [ -159.630676439686027, 22.126040627889122 ], [ -159.629357081881352, 22.127749252806826 ], [ -159.627446728329375, 22.127207674360367 ], [ -159.626290823464558, 22.126461999189374 ], [ -159.62523585887601, 22.127828212053117 ], [ -159.624247975906655, 22.127080059174521 ], [ -159.624307687084183, 22.126077280534865 ], [ -159.623140547092333, 22.124870240709956 ], [ -159.622106109762456, 22.125157638041063 ], [ -159.620558366209394, 22.125948909577094 ], [ -159.620779365010662, 22.125023562868282 ], [ -159.622221134569571, 22.124602725786495 ], [ -159.622815552069568, 22.124298810845232 ], [ -159.623375283935303, 22.124327756862279 ], [ -159.624458843840927, 22.124263420546743 ], [ -159.625320822501806, 22.124695593373147 ], [ -159.625768064561214, 22.124225357477279 ], [ -159.628021270587226, 22.124341803759659 ], [ -159.627745317345102, 22.124024286038431 ], [ -159.62616190568292, 22.123354508482336 ], [ -159.62552819960905, 22.122831279523254 ], [ -159.624761598792333, 22.121817685929191 ], [ -159.624838235788104, 22.120531546357149 ], [ -159.62363119833023, 22.119172277654268 ], [ -159.623943941678561, 22.118349565627536 ], [ -159.62333970596984, 22.118093944398055 ], [ -159.622537810668092, 22.11726455962653 ], [ -159.622144079042613, 22.117287928333866 ], [ -159.621604851967504, 22.116730197176114 ], [ -159.619842238556316, 22.116481126203904 ], [ -159.619273963924684, 22.11619618979751 ], [ -159.618549547173131, 22.116239181340315 ], [ -159.61723604501239, 22.115391657627704 ], [ -159.616260352953077, 22.115114949141148 ], [ -159.615239814800958, 22.11405933130051 ], [ -159.614015580510056, 22.114319708533486 ], [ -159.613438402121886, 22.114614775965876 ], [ -159.613044491792806, 22.113823518724722 ], [ -159.612007504420376, 22.113769825273629 ], [ -159.610956234775642, 22.11430724479019 ], [ -159.609999606549337, 22.114363961112883 ], [ -159.608394274703812, 22.113969742611108 ], [ -159.607140553809984, 22.114610633482393 ], [ -159.606472934547355, 22.114650200734705 ], [ -159.606452401344626, 22.11434874317392 ], [ -159.606759415441559, 22.114091054805982 ], [ -159.607218634765161, 22.113608277061626 ], [ -159.608406947571552, 22.11300083716894 ], [ -159.609082703949639, 22.113254089346139 ], [ -159.61015550065494, 22.11379212978752 ], [ -159.610926255345163, 22.113496564992321 ], [ -159.611684829259275, 22.112699029271273 ], [ -159.612849352334479, 22.112984965867653 ], [ -159.613290709796928, 22.112958794245969 ], [ -159.613995857283953, 22.112995299735875 ], [ -159.614972567943369, 22.112495939878045 ], [ -159.616062016915805, 22.112956892694875 ], [ -159.616344059191533, 22.113248652845854 ], [ -159.61750870800239, 22.112484064243404 ], [ -159.618964164990075, 22.1129644644578 ], [ -159.619541182900008, 22.112669419750414 ], [ -159.62112962959992, 22.11319369435105 ], [ -159.622692875399594, 22.111549949699359 ], [ -159.624163245558663, 22.112287216042922 ], [ -159.625898477107, 22.111780648464009 ], [ -159.625955856671681, 22.110816146226547 ], [ -159.622740856354909, 22.11047765585813 ], [ -159.623013478123397, 22.109948409957408 ], [ -159.623595668094794, 22.10997851135561 ], [ -159.624145429514414, 22.109400432568002 ], [ -159.624480523083321, 22.109417753266442 ], [ -159.624847215513199, 22.109032100295135 ], [ -159.628249647232195, 22.110235935455307 ], [ -159.627978641505138, 22.111029613186023 ], [ -159.627669070907217, 22.111565708413252 ], [ -159.62884503314217, 22.113321923958242 ], [ -159.627971909543277, 22.11319781168573 ], [ -159.626532712598845, 22.112917065303584 ], [ -159.623315879732388, 22.112673602461783 ], [ -159.622658228700857, 22.112343842766688 ], [ -159.62148458410789, 22.114079020743262 ], [ -159.620416199289167, 22.114023763354449 ], [ -159.619211558799122, 22.114329297284609 ], [ -159.618396667442823, 22.114287142610113 ], [ -159.618365703009658, 22.114807410397688 ], [ -159.620143438044067, 22.115109622462597 ], [ -159.62071007311107, 22.11539374334032 ], [ -159.62219076424654, 22.115708814480879 ], [ -159.622765912896227, 22.11618373067704 ], [ -159.623527212639601, 22.116971120904523 ], [ -159.62403786436991, 22.115923105587768 ], [ -159.625047338974383, 22.11646487806459 ], [ -159.626094177702214, 22.117329223877476 ], [ -159.625394088880142, 22.118541528232491 ], [ -159.625670198270342, 22.118898096855272 ], [ -159.626689661337025, 22.119187143683053 ], [ -159.627146511752727, 22.119962781479284 ], [ -159.627129984552738, 22.120239978504308 ], [ -159.627148965026322, 22.120517353448566 ], [ -159.626546515649096, 22.121328065315968 ], [ -159.627324478961867, 22.121970383356516 ], [ -159.6282533465928, 22.122931035013757 ], [ -159.629471697010615, 22.12344635954932 ], [ -159.628722282778938, 22.125065721727832 ], [ -159.62775353152341, 22.125878914949368 ], [ -159.628427488035044, 22.125945111330051 ], [ -159.628909066524528, 22.125916500568643 ], [ -159.629207404519661, 22.125931917697141 ], [ -159.630492969064193, 22.124580074188824 ], [ -159.631498713651268, 22.124520317329697 ], [ -159.632312403090936, 22.125361768086108 ], [ -159.632084947899671, 22.123851149219583 ], [ -159.631145276566741, 22.123453719677201 ], [ -159.630351653585791, 22.121419503395195 ], [ -159.630715440954873, 22.120537379060806 ], [ -159.631452693929816, 22.121299779168304 ], [ -159.631737325042849, 22.118783196780154 ], [ -159.631058289288433, 22.118222581318005 ], [ -159.631482591162722, 22.117776387918774 ], [ -159.633375201931358, 22.117439644912924 ], [ -159.634232123922885, 22.116538520264868 ], [ -159.634691194259517, 22.116153074155047 ], [ -159.635241304483543, 22.115023883275558 ], [ -159.635553353258473, 22.115346624323792 ], [ -159.636290035619737, 22.114257355435033 ], [ -159.63777546507481, 22.11416904306537 ], [ -159.638183302745432, 22.114505713649862 ], [ -159.637433418730922, 22.11513529561482 ], [ -159.638191641516642, 22.116137671662667 ], [ -159.636453104440932, 22.116447047071372 ], [ -159.636389325731074, 22.117520677452898 ], [ -159.63729853698544, 22.117466621536078 ], [ -159.637025367171958, 22.117770112986133 ], [ -159.636428459229734, 22.118028209755405 ], [ -159.636144470793283, 22.118326853824623 ], [ -159.635861851864973, 22.117759395780524 ], [ -159.635262649862284, 22.117505958134441 ], [ -159.634969430959757, 22.116917192401196 ], [ -159.63426977444945, 22.117652945332743 ], [ -159.633503655358652, 22.118296153573429 ], [ -159.633848339543647, 22.118881314542513 ], [ -159.632379286119743, 22.119516442672197 ], [ -159.632654572445944, 22.119684251830407 ], [ -159.633767200033276, 22.11999965774082 ], [ -159.633975842753046, 22.120620075689949 ] ], [ [ -159.624070821434515, 22.117134950971202 ], [ -159.624191361450045, 22.11799722181269 ], [ -159.62460221069253, 22.117232790902868 ], [ -159.624070821434515, 22.117134950971202 ] ] ] } },
{ "type": "Feature", "properties": { "ID": 19, "GRIDCODE": 2 }, "geometry": { "type": "Polygon", "coordinates": [ [ [ -159.60389407147315, 22.092005693377082 ], [ -159.603539109480579, 22.091914220616999 ], [ -159.60379312596325, 22.091675624502461 ], [ -159.60389407147315, 22.092005693377082 ] ] ] } },
{ "type": "Feature", "properties": { "ID": 20, "GRIDCODE": 2 }, "geometry": { "type": "Polygon", "coordinates": [ [ [ -159.60389407147315, 22.092005693377082 ], [ -159.604344672327898, 22.092147578999288 ], [ -159.606504208045038, 22.092098506984485 ], [ -159.608916562883223, 22.091318949310956 ], [ -159.609274142916718, 22.092681829618183 ], [ -159.608658540034526, 22.093237433931012 ], [ -159.607521915315175, 22.093756579536322 ], [ -159.608531412508285, 22.094653250856492 ], [ -159.607539619741061, 22.095106235608661 ], [ -159.606964990068974, 22.095384819204906 ], [ -159.606298025173402, 22.095689432974812 ], [ -159.607262883957503, 22.097004589506607 ], [ -159.607254772315173, 22.097465196342259 ], [ -159.604933817792187, 22.097826130207352 ], [ -159.604067994120527, 22.098105880689964 ], [ -159.602948560849939, 22.098088725097242 ], [ -159.601032471591139, 22.098707801474529 ], [ -159.600478735652899, 22.097654809056046 ], [ -159.599668340633144, 22.097308915173496 ], [ -159.59833083002664, 22.09795721605375 ], [ -159.597963341405915, 22.098670277978837 ], [ -159.596351601143283, 22.099269510214935 ], [ -159.59535501421766, 22.100847986310416 ], [ -159.594751676718175, 22.101115780724705 ], [ -159.593538011406139, 22.099947783231357 ], [ -159.591291274325528, 22.099446005884062 ], [ -159.590803144686845, 22.100866541344292 ], [ -159.589827197951109, 22.10085150683053 ], [ -159.589536120566919, 22.101698744169667 ], [ -159.588372632399796, 22.101680821053343 ], [ -159.588065514610406, 22.102874841207662 ], [ -159.586634367108815, 22.103313310297949 ], [ -159.586352737078613, 22.104132817008079 ], [ -159.58576633816412, 22.10440051791662 ], [ -159.58489992315603, 22.104952326662101 ], [ -159.584022992212738, 22.104676111293465 ], [ -159.583740783306297, 22.10549728649703 ], [ -159.583154373652604, 22.105764978216762 ], [ -159.582843426728147, 22.106368041267597 ], [ -159.58289224828539, 22.108244088508368 ], [ -159.580625737643544, 22.108209059540656 ], [ -159.579093965852735, 22.107134537969941 ], [ -159.578220462039781, 22.106898492931791 ], [ -159.579096178523116, 22.107676577105511 ], [ -159.579668480843708, 22.108227437648281 ], [ -159.58066543975329, 22.109113184411822 ], [ -159.584583664570602, 22.109554196541215 ], [ -159.584957083730643, 22.107363409156228 ], [ -159.586651364023254, 22.107389557729615 ], [ -159.586941040058804, 22.107106427502977 ], [ -159.587517161000306, 22.107115315753088 ], [ -159.588103357609896, 22.106831224436455 ], [ -159.588399690409773, 22.106835798267127 ], [ -159.589264261169632, 22.106285102628 ], [ -159.591329017203975, 22.105964230775388 ], [ -159.591873912710412, 22.104378507735824 ], [ -159.592031216751678, 22.104112340450037 ], [ -159.592584344835274, 22.105164337978351 ], [ -159.59532724614354, 22.105652973613285 ], [ -159.595954754975622, 22.10653728362097 ], [ -159.596358375774571, 22.106895829300964 ], [ -159.59711809563666, 22.106527610208992 ], [ -159.597725812863757, 22.106250130379241 ], [ -159.598278030072464, 22.105710298162585 ], [ -159.598864409583967, 22.105442552792589 ], [ -159.599293081531243, 22.105023520772932 ], [ -159.60065310442846, 22.10545175122499 ], [ -159.602060674190682, 22.10541979739747 ], [ -159.60264239771297, 22.105428711021524 ], [ -159.602933212504837, 22.105422113095681 ], [ -159.603819786984559, 22.10543569519875 ], [ -159.604830966323846, 22.104447157223493 ], [ -159.60583870628389, 22.105416840574698 ], [ -159.606148547271232, 22.105692015649478 ], [ -159.606717965214472, 22.105679067176112 ], [ -159.607696654266874, 22.106144301860795 ], [ -159.608461881742528, 22.105396133630062 ], [ -159.609040835554907, 22.105404985152447 ], [ -159.6093342056827, 22.105398316686845 ], [ -159.610507685985652, 22.105767708466548 ], [ -159.610483294782881, 22.104835258415601 ], [ -159.611676419107482, 22.104853483272173 ], [ -159.612237139784469, 22.10539298954923 ], [ -159.612534946579416, 22.105657469954615 ], [ -159.612821156445875, 22.105932844766716 ], [ -159.613409804741167, 22.106196232341624 ], [ -159.614303007325248, 22.106755548638009 ], [ -159.614274093835462, 22.105653653375754 ], [ -159.614278991192236, 22.105374374802096 ], [ -159.615067498522308, 22.105386403559773 ], [ -159.616261607348662, 22.107068721049142 ], [ -159.615730635900746, 22.10754793152282 ], [ -159.615744917278022, 22.108089822788365 ], [ -159.615373578363744, 22.10876823149156 ], [ -159.613855643464746, 22.107817771790316 ], [ -159.611842561234283, 22.107863609643879 ], [ -159.611379647817472, 22.109211265176572 ], [ -159.610510741814579, 22.108375270195364 ], [ -159.610212932857962, 22.108110786231435 ], [ -159.609926723429396, 22.107835406907533 ], [ -159.609321103854484, 22.107572070137518 ], [ -159.608504249928501, 22.10837063101965 ], [ -159.608029504737061, 22.108655546283316 ], [ -159.608548342494316, 22.107707748794002 ], [ -159.608166370231572, 22.107023484674393 ], [ -159.607285326379468, 22.107043518944295 ], [ -159.606587152568096, 22.108398239378229 ], [ -159.606136364262284, 22.108391335572058 ], [ -159.60614624465768, 22.107828733662139 ], [ -159.60526382512947, 22.10704499935828 ], [ -159.605271097337209, 22.106635833189845 ], [ -159.60525829262258, 22.106147679334963 ], [ -159.602365983017251, 22.106552454847215 ], [ -159.602947342255987, 22.107593922958195 ], [ -159.602331438627459, 22.108149703734288 ], [ -159.601493356116606, 22.108121866446947 ], [ -159.602186224288431, 22.107496593741583 ], [ -159.601163783001653, 22.107060245070667 ], [ -159.600031760764182, 22.107608933400481 ], [ -159.599727343148288, 22.106464936940352 ], [ -159.597370807042608, 22.107808453797627 ], [ -159.597715596549477, 22.108426216148658 ], [ -159.597418067193558, 22.108694696314284 ], [ -159.597133940608813, 22.109245968963112 ], [ -159.596260508619849, 22.108698925336402 ], [ -159.595671737802519, 22.108435418186684 ], [ -159.59567668467102, 22.108159216189275 ], [ -159.595377622794757, 22.107623479528275 ], [ -159.594699104095696, 22.106038653525978 ], [ -159.593333785672144, 22.105733754010064 ], [ -159.592162231708983, 22.105458486993015 ], [ -159.59145645262555, 22.106827581162197 ], [ -159.590144649580679, 22.106807379646447 ], [ -159.589549964372111, 22.107388668238798 ], [ -159.587812073076947, 22.108182078658839 ], [ -159.587238659903278, 22.108742563698726 ], [ -159.586056863475619, 22.10872433531684 ], [ -159.586092312039767, 22.110085725780742 ], [ -159.585791936548986, 22.110634167741711 ], [ -159.585799101931372, 22.110907671296523 ], [ -159.585794148567544, 22.111186950082928 ], [ -159.585215525566753, 22.111178023669218 ], [ -159.584921928259007, 22.111184658140214 ], [ -159.584635475524607, 22.110909019628306 ], [ -159.584043595693146, 22.110922393670812 ], [ -159.581588562310003, 22.110345435489965 ], [ -159.578936830887471, 22.109084432513328 ], [ -159.57699267755342, 22.107633343430976 ], [ -159.576471475121508, 22.10593721654244 ], [ -159.579697432062289, 22.105511682567062 ], [ -159.581119268256032, 22.106880193205249 ], [ -159.581411554718017, 22.106313236383595 ], [ -159.581713072114667, 22.106041247193893 ], [ -159.581681384264158, 22.104824359782103 ], [ -159.582719540134804, 22.104350438805337 ], [ -159.583582644967407, 22.103113419190613 ], [ -159.584748284503746, 22.103667724928666 ], [ -159.585516097276923, 22.10329564308962 ], [ -159.586318840183338, 22.102511033152872 ], [ -159.586926562547006, 22.102233593270345 ], [ -159.587209307251754, 22.101685104906242 ], [ -159.587504861365943, 22.101418444924345 ], [ -159.587788724848252, 22.101140974948898 ], [ -159.588665936139165, 22.100872219642188 ], [ -159.588947546712632, 22.100052709054971 ], [ -159.590431413477177, 22.099598058543535 ], [ -159.59039339324687, 22.098139278265801 ], [ -159.58952155805656, 22.09815900054933 ], [ -159.589235729989184, 22.098012344747573 ], [ -159.590514123898373, 22.097428662818292 ], [ -159.591266288789171, 22.098152598322198 ], [ -159.59171291892639, 22.09854937822049 ], [ -159.59214785613699, 22.09896800149183 ], [ -159.593003721294792, 22.098948620817993 ], [ -159.594558687950183, 22.099438302973713 ], [ -159.595364964673735, 22.098650088445485 ], [ -159.598376481403164, 22.096794332505045 ], [ -159.600508565986985, 22.096398339421658 ], [ -159.601154778579769, 22.097309012435655 ], [ -159.602017801873984, 22.097289426088139 ], [ -159.602606322382314, 22.097569230904348 ], [ -159.602958887394834, 22.09756123105344 ], [ -159.605464459333717, 22.096952935104323 ], [ -159.604928065421603, 22.096476462680293 ], [ -159.604630284718525, 22.095910192978078 ], [ -159.60402683164105, 22.095374149845121 ], [ -159.602881687655412, 22.095400147052118 ], [ -159.602892384264351, 22.094792538883674 ], [ -159.604923492630718, 22.094037272817232 ], [ -159.605207856256385, 22.093888633041669 ], [ -159.603709230847471, 22.093217907658765 ], [ -159.60389407147315, 22.092005693377082 ] ], [ [ -159.577782823793427, 22.107277404794491 ], [ -159.57813705307305, 22.107183376055417 ], [ -159.577881029122779, 22.106946615179794 ], [ -159.577782823793427, 22.107277404794491 ], [ -159.577428594026713, 22.107371432774531 ], [ -159.577684618023795, 22.107608194346707 ], [ -159.577782823793427, 22.107277404794491 ] ] ] } },
{ "type": "Feature", "properties": { "ID": 21, "GRIDCODE": 2 }, "geometry": { "type": "Polygon", "coordinates": [ [ [ -159.601835420898851, 22.086592820190631 ], [ -159.6014804737394, 22.086501342565782 ], [ -159.601734484316211, 22.086262749633224 ], [ -159.601835420898851, 22.086592820190631 ] ] ] } },
{ "type": "Feature", "properties": { "ID": 22, "GRIDCODE": 2 }, "geometry": { "type": "Polygon", "coordinates": [ [ [ -159.601835420898851, 22.086592820190631 ], [ -159.602972808934851, 22.086746605066502 ], [ -159.603871549176375, 22.086710088310301 ], [ -159.604312219973735, 22.086724737359354 ], [ -159.605174613808799, 22.08643944111892 ], [ -159.606339698298683, 22.086478166578715 ], [ -159.606767139132302, 22.084775671867686 ], [ -159.606293475196424, 22.083949421713449 ], [ -159.606346420388832, 22.082564978418727 ], [ -159.607027482839413, 22.081353830379125 ], [ -159.608020226800249, 22.080912640648787 ], [ -159.608547371626258, 22.081943013234405 ], [ -159.608064065646062, 22.082363752544698 ], [ -159.607497172709657, 22.083210739655541 ], [ -159.608859478639033, 22.083155335536034 ], [ -159.609259280621046, 22.089830668654962 ], [ -159.608389857221226, 22.089406049500315 ], [ -159.607526066123711, 22.089964723486244 ], [ -159.606902827173144, 22.090227739362977 ], [ -159.605888192068818, 22.089215232551737 ], [ -159.604881865075953, 22.089716276035112 ], [ -159.603744260653798, 22.089667911049027 ], [ -159.604601303936676, 22.08892194423348 ], [ -159.604890146376221, 22.088193658847487 ], [ -159.603143683734913, 22.087812765111892 ], [ -159.602006500298444, 22.087089656497533 ], [ -159.601835420898851, 22.086592820190631 ] ] ] } },
{ "type": "Feature", "properties": { "ID": 23, "GRIDCODE": 2 }, "geometry": { "type": "Polygon", "coordinates": [ [ [ -159.605843043224382, 22.071671727799181 ], [ -159.60599452063687, 22.071801517475627 ], [ -159.606341576218938, 22.072147860991034 ], [ -159.606276111794102, 22.073858973551641 ], [ -159.605412299428536, 22.074242886486729 ], [ -159.604847637472659, 22.075610415914596 ], [ -159.604241166387936, 22.07587994269689 ], [ -159.605299485458204, 22.076140469348385 ], [ -159.60581131257041, 22.075119092915983 ], [ -159.606747633481064, 22.074790307922797 ], [ -159.607262432202674, 22.075796696346654 ], [ -159.606874273209229, 22.076134633684099 ], [ -159.606411270758088, 22.077516695124611 ], [ -159.604906015440974, 22.077466671913296 ], [ -159.604267866020706, 22.077784420084186 ], [ -159.603757393190506, 22.077274960065392 ], [ -159.603405261918397, 22.078325979813279 ], [ -159.602813727880061, 22.078588862667914 ], [ -159.602519095605061, 22.078887621129777 ], [ -159.601951304336808, 22.078321015647479 ], [ -159.601037147426155, 22.077923003394456 ], [ -159.601081717326934, 22.078876219598129 ], [ -159.60023680996045, 22.079611685548567 ], [ -159.599923668258441, 22.080236367662238 ], [ -159.599029728631081, 22.080206626892 ], [ -159.599049618462715, 22.07968746691397 ], [ -159.598568807948766, 22.078885800262245 ], [ -159.597304518270136, 22.079703494086647 ], [ -159.596712966702142, 22.079966355210502 ], [ -159.596418318530453, 22.080265102981659 ], [ -159.595569298117653, 22.079417740917449 ], [ -159.594693571110184, 22.07985369916301 ], [ -159.593395231685747, 22.080430569603752 ], [ -159.592943816381791, 22.079980064901996 ], [ -159.591878538473679, 22.079669956985981 ], [ -159.591485369106806, 22.078901250568109 ], [ -159.590670593612401, 22.078546441686075 ], [ -159.58920310344763, 22.076751618399758 ], [ -159.590304442288186, 22.077289695280335 ], [ -159.590898163790115, 22.077548253121659 ], [ -159.591595808532986, 22.077889076671276 ], [ -159.592366662609066, 22.078658483125036 ], [ -159.593508963359682, 22.078612126435157 ], [ -159.593962871341915, 22.07906516811121 ], [ -159.594670654237262, 22.078347651360385 ], [ -159.595733499103716, 22.077875396946887 ], [ -159.596728019434465, 22.078361215440491 ], [ -159.597285423811655, 22.077796075094327 ], [ -159.597841673526432, 22.077311877027022 ], [ -159.598442843686513, 22.07643672498812 ], [ -159.59939050385654, 22.075861431604309 ], [ -159.600486345219679, 22.07589789022262 ], [ -159.601077384937753, 22.075603620974821 ], [ -159.601963911506772, 22.075633097172776 ], [ -159.601924879919835, 22.07479844998247 ], [ -159.602256561122118, 22.074264858593978 ], [ -159.602797673587929, 22.07480491277855 ], [ -159.603693682617916, 22.075062309672816 ], [ -159.603643939599607, 22.07399796761106 ], [ -159.604375276891375, 22.073361312389309 ], [ -159.605418069624648, 22.072897887013056 ], [ -159.605380500410689, 22.072094383867185 ], [ -159.605703795387086, 22.071812916413496 ], [ -159.605843043224382, 22.071671727799181 ] ] ] } },
{ "type": "Feature", "properties": { "ID": 24, "GRIDCODE": 2 }, "geometry": { "type": "Polygon", "coordinates": [ [ [ -159.602344625082395, 22.069516456110978 ], [ -159.601664287124322, 22.070442730395182 ], [ -159.601440025141329, 22.06973638507877 ], [ -159.602344625082395, 22.069516456110978 ] ] ] } },
{ "type": "Feature", "properties": { "ID": 25, "GRIDCODE": 2 }, "geometry": { "type": "Polygon", "coordinates": [ [ [ -159.60292615455819, 22.069514313928952 ], [ -159.602344625082395, 22.069516456110978 ], [ -159.602633786584164, 22.069137257912697 ], [ -159.60292615455819, 22.069514313928952 ] ] ] } },
{ "type": "Feature", "properties": { "ID": 26, "GRIDCODE": 2 }, "geometry": { "type": "Polygon", "coordinates": [ [ [ -159.604093821026311, 22.070594101677717 ], [ -159.604447940505167, 22.070500009648807 ], [ -159.604191941465729, 22.070263296701121 ], [ -159.604093821026311, 22.070594101677717 ], [ -159.603347661783175, 22.070478795234536 ], [ -159.60292615455819, 22.069514313928952 ], [ -159.604127660160856, 22.069319499707344 ], [ -159.603883771291891, 22.06782220908671 ], [ -159.604207824044607, 22.066952310203501 ], [ -159.605207438999741, 22.068496267089678 ], [ -159.605673544817137, 22.070411592186339 ], [ -159.604252184926509, 22.071442616616586 ], [ -159.604093821026311, 22.070594101677717 ] ] ] } },
{ "type": "Feature", "properties": { "ID": 27, "GRIDCODE": 2 }, "geometry": { "type": "Polygon", "coordinates": [ [ [ -159.603490424144667, 22.065446874281779 ], [ -159.603853154919648, 22.065678364516057 ], [ -159.604028336117636, 22.066393473261467 ], [ -159.603202290646493, 22.066685062722289 ], [ -159.602634688167853, 22.067457895362299 ], [ -159.602763505666331, 22.066481046343931 ], [ -159.603490424144667, 22.065446874281779 ] ] ] } },
{ "type": "Feature", "properties": { "ID": 28, "GRIDCODE": 2 }, "geometry": { "type": "Polygon", "coordinates": [ [ [ -159.601735561562833, 22.063014120525406 ], [ -159.602090449811158, 22.063105599174055 ], [ -159.601836480235022, 22.063344192386065 ], [ -159.601735561562833, 22.063014120525406 ] ] ] } },
{ "type": "Feature", "properties": { "ID": 29, "GRIDCODE": 2 }, "geometry": { "type": "Polygon", "coordinates": [ [ [ -159.601735561562833, 22.063014120525406 ], [ -159.600760570859251, 22.062827718087 ], [ -159.600427797293179, 22.063165172255207 ], [ -159.60014101449903, 22.06287890623776 ], [ -159.599839804497151, 22.062891143442375 ], [ -159.599311508308347, 22.061858293891987 ], [ -159.597502556111664, 22.061543216431151 ], [ -159.59781031569338, 22.060995825522067 ], [ -159.597503328409601, 22.060460059047802 ], [ -159.597220197120805, 22.059637697119658 ], [ -159.59691457915099, 22.058835018870347 ], [ -159.596935632662195, 22.05828708690121 ], [ -159.595759357809783, 22.057944668725614 ], [ -159.597075702347297, 22.057480350903848 ], [ -159.597725928185156, 22.057874721319692 ], [ -159.59808242493196, 22.058571723725418 ], [ -159.598925560788871, 22.058537491752443 ], [ -159.599251984207712, 22.05881719681501 ], [ -159.599621218245915, 22.059889603019592 ], [ -159.600842693027516, 22.059281356141852 ], [ -159.601913992647212, 22.061867748679958 ], [ -159.601735561562833, 22.063014120525406 ] ] ] } },
{ "type": "Feature", "properties": { "ID": 30, "GRIDCODE": 2 }, "geometry": { "type": "Polygon", "coordinates": [ [ [ -159.598796090875254, 22.055436221029627 ], [ -159.598998573641126, 22.055530762192738 ], [ -159.599425665355056, 22.056338037264897 ], [ -159.598896800302896, 22.056157878732577 ], [ -159.598796090875254, 22.055436221029627 ] ] ] } },
{ "type": "Feature", "properties": { "ID": 31, "GRIDCODE": 2 }, "geometry": { "type": "Polygon", "coordinates": [ [ [ -159.595866022771617, 22.050026420246756 ], [ -159.596480030175542, 22.050205187232166 ], [ -159.598746177549742, 22.054994665434098 ], [ -159.598063122455358, 22.055298227491708 ], [ -159.597185850276787, 22.055735079807718 ], [ -159.59725397697045, 22.053956381332483 ], [ -159.596266721002763, 22.054519233593972 ], [ -159.595220921059337, 22.055579612524618 ], [ -159.595153716131392, 22.055040305483033 ], [ -159.595729622327099, 22.053489181493067 ], [ -159.595445926121045, 22.053136313447862 ], [ -159.593706874996172, 22.053809588623782 ], [ -159.593984895533964, 22.053415905115529 ], [ -159.594864098605342, 22.052338439441264 ], [ -159.594851001265994, 22.052058000243125 ], [ -159.595454120579916, 22.051532963321876 ], [ -159.595416069754691, 22.05071756267526 ], [ -159.595866022771617, 22.050026420246756 ] ] ] } },
{ "type": "Feature", "properties": { "ID": 32, "GRIDCODE": 2 }, "geometry": { "type": "Polygon", "coordinates": [ [ [ -159.594695191793562, 22.048133503636162 ], [ -159.595282333355641, 22.048407721264784 ], [ -159.595910979133293, 22.049575254423466 ], [ -159.594790753688045, 22.04939602581636 ], [ -159.594409283351411, 22.048675003650231 ], [ -159.594695191793562, 22.048133503636162 ] ] ] } },
{ "type": "Feature", "properties": { "ID": 33, "GRIDCODE": 2 }, "geometry": { "type": "Polygon", "coordinates": [ [ [ -159.586815531486849, 22.040844253260115 ], [ -159.586966958433322, 22.040974062150894 ], [ -159.587328651626137, 22.04303973062952 ], [ -159.587851822286012, 22.043952877944079 ], [ -159.587787676496049, 22.045623708187332 ], [ -159.588427351058129, 22.04530522556631 ], [ -159.589320989586895, 22.04504130871489 ], [ -159.589269616148215, 22.046381499945625 ], [ -159.589897620554041, 22.046655060855802 ], [ -159.590178790363751, 22.046935791937592 ], [ -159.590491677214288, 22.046923100898894 ], [ -159.590453196396084, 22.046099395530156 ], [ -159.59105701045857, 22.046119515638196 ], [ -159.591337600927829, 22.046038521648924 ], [ -159.590463502110254, 22.0437421641847 ], [ -159.590313612813247, 22.042598506473237 ], [ -159.594221869176124, 22.047290816848498 ], [ -159.593375070271094, 22.048796848978512 ], [ -159.593710715705839, 22.049678663089303 ], [ -159.593680505458025, 22.050467497330885 ], [ -159.592815078207138, 22.050438657723213 ], [ -159.59246343590371, 22.050452932757253 ], [ -159.591386041646587, 22.051545394336554 ], [ -159.589625214068661, 22.051074971047871 ], [ -159.590786699495908, 22.050727552529011 ], [ -159.59106344410543, 22.050026179730896 ], [ -159.589634044516941, 22.049403612921395 ], [ -159.589070201353195, 22.048840648764138 ], [ -159.588387894077613, 22.048567991377418 ], [ -159.587582752012651, 22.049384355336024 ], [ -159.587011507962671, 22.049365313458321 ], [ -159.586411266382299, 22.049664162994119 ], [ -159.586124901995959, 22.04829434773168 ], [ -159.585828759611502, 22.048306358513432 ], [ -159.585392609904318, 22.048291806606834 ], [ -159.584347630351914, 22.048334148856316 ], [ -159.584408810824982, 22.049646775056257 ], [ -159.584085521894735, 22.049928201012232 ], [ -159.583810359791386, 22.051023605519301 ], [ -159.583487066587139, 22.051305030340608 ], [ -159.583524499635502, 22.052107550898214 ], [ -159.58343976001575, 22.052369730329875 ], [ -159.582357787142854, 22.051289482289796 ], [ -159.582001969312643, 22.051030044712459 ], [ -159.580831817353697, 22.052216379622536 ], [ -159.581210875547697, 22.053212520783891 ], [ -159.580610297299017, 22.053192452674736 ], [ -159.580332800129412, 22.053775700908695 ], [ -159.580922658104157, 22.054281284529512 ], [ -159.580583960165086, 22.054548085606129 ], [ -159.580039374319995, 22.054004293607523 ], [ -159.579461907713835, 22.054291739176808 ], [ -159.578834490511127, 22.054270783660609 ], [ -159.578898495315798, 22.055643581903855 ], [ -159.578263586565839, 22.055911425653161 ], [ -159.577722638983658, 22.055371285454129 ], [ -159.576838297248457, 22.055113701426659 ], [ -159.576553287984609, 22.054829090199704 ], [ -159.576267460072359, 22.055007890941074 ], [ -159.577144892149789, 22.056186961837028 ], [ -159.57711850452074, 22.056873550662637 ], [ -159.576265877659864, 22.0564568495404 ], [ -159.575720699241884, 22.057009519787876 ], [ -159.574532074164694, 22.057250215103537 ], [ -159.575120437973254, 22.056738206278002 ], [ -159.574097513631983, 22.056440268614335 ], [ -159.572973984466159, 22.054831683940787 ], [ -159.573673743812776, 22.054855088180574 ], [ -159.573602874717892, 22.053334011147978 ], [ -159.575397585263858, 22.052675276220878 ], [ -159.575345040260373, 22.051547258002685 ], [ -159.576964974387096, 22.050137415291498 ], [ -159.576232671275847, 22.049153275841615 ], [ -159.575946813427663, 22.048322562240411 ], [ -159.575608428384101, 22.04866562758296 ], [ -159.573893144981042, 22.048608276533937 ], [ -159.573920447980157, 22.047898541695425 ], [ -159.572333574680925, 22.048688473146125 ], [ -159.572767320588014, 22.049445741976275 ], [ -159.572734807952287, 22.050290991073545 ], [ -159.571897130761926, 22.051019951861093 ], [ -159.571346129308466, 22.052119062980235 ], [ -159.569748216587357, 22.049831153742186 ], [ -159.570439387982844, 22.048887220430732 ], [ -159.570365828984137, 22.047305076166875 ], [ -159.570734619911804, 22.046984131487491 ], [ -159.571291585263964, 22.047002767402056 ], [ -159.572152676713756, 22.046718032104938 ], [ -159.573325577418245, 22.046453225791062 ], [ -159.573604090116902, 22.046170902358202 ], [ -159.573904829502766, 22.045909145091162 ], [ -159.57426385131609, 22.045192936948382 ], [ -159.574767005810514, 22.046177146458962 ], [ -159.575230815403359, 22.046978272230675 ], [ -159.575639119440154, 22.046163760406156 ], [ -159.576090222393844, 22.045771135360109 ], [ -159.576508333876404, 22.045347228373505 ], [ -159.577671162013445, 22.045386089812773 ], [ -159.577958261756294, 22.044529437142856 ], [ -159.578258311257628, 22.043995937566883 ], [ -159.578239181529995, 22.043585016892969 ], [ -159.578256251635821, 22.043139676609613 ], [ -159.579446881118429, 22.042637319303942 ], [ -159.58009318746798, 22.043282703418416 ], [ -159.579410164690302, 22.044497243099556 ], [ -159.57946103032566, 22.045589386601023 ], [ -159.577830845972954, 22.04700823884669 ], [ -159.578276767970436, 22.047786722940966 ], [ -159.577379948660194, 22.048885552941012 ], [ -159.577989149517464, 22.049407787271992 ], [ -159.578271046996832, 22.049959164870518 ], [ -159.578585515728747, 22.050228715236898 ], [ -159.57856368894511, 22.050795788572572 ], [ -159.576591974207872, 22.051992616777827 ], [ -159.577131267784409, 22.052934143972983 ], [ -159.577413383921794, 22.053485935528233 ], [ -159.577737925855644, 22.053472797386728 ], [ -159.57767517500227, 22.052125997825119 ], [ -159.57858056115478, 22.051855248802205 ], [ -159.579149802806114, 22.051571888311774 ], [ -159.57974127163169, 22.051309091664333 ], [ -159.580363037644986, 22.050678736470491 ], [ -159.580281981627564, 22.048939095404748 ], [ -159.580364623267144, 22.048596629630982 ], [ -159.581473177040834, 22.049138419162599 ], [ -159.581755283184634, 22.048852397047813 ], [ -159.582056012746335, 22.048590625094803 ], [ -159.582332293390209, 22.047766244412113 ], [ -159.582923740403402, 22.047503436617141 ], [ -159.583782564062489, 22.046948003767771 ], [ -159.584374004901861, 22.046685190840282 ], [ -159.584653001112201, 22.046525870665196 ], [ -159.583779270729053, 22.046145261798774 ], [ -159.583496690875819, 22.045430691997247 ], [ -159.584993269901304, 22.044765703663664 ], [ -159.584909519665558, 22.042970178563824 ], [ -159.586101575422759, 22.042613636240695 ], [ -159.586378938307035, 22.042060270284342 ], [ -159.586678527969639, 22.04152746874551 ], [ -159.586815531486849, 22.040844253260115 ] ] ] } },
{ "type": "Feature", "properties": { "ID": 34, "GRIDCODE": 2 }, "geometry": { "type": "Polygon", "coordinates": [ [ [ -159.563251052532422, 22.036590576056593 ], [ -159.56422390056278, 22.036705024199367 ], [ -159.563449378483682, 22.036938552496203 ], [ -159.563251052532422, 22.036590576056593 ] ] ] } },
{ "type": "Feature", "properties": { "ID": 35, "GRIDCODE": 2 }, "geometry": { "type": "Polygon", "coordinates": [ [ [ -159.564412775900649, 22.036315550601056 ], [ -159.565081762513529, 22.036423100253074 ], [ -159.564572122888848, 22.036659127420624 ], [ -159.564412775900649, 22.036315550601056 ] ] ] } },
{ "type": "Feature", "properties": { "ID": 36, "GRIDCODE": 2 }, "geometry": { "type": "Polygon", "coordinates": [ [ [ -159.55881399607955, 22.01709184350484 ], [ -159.558459975970237, 22.017185835226218 ], [ -159.558715803054724, 22.017422624912655 ], [ -159.55881399607955, 22.01709184350484 ], [ -159.559763703773712, 22.017293626630188 ], [ -159.560514996580025, 22.017187471957026 ], [ -159.560355224534902, 22.016204122401568 ], [ -159.560954874181647, 22.014766259474587 ], [ -159.561420325664727, 22.014643692977302 ], [ -159.561521114384419, 22.014973794388521 ], [ -159.561775068828837, 22.014735262703741 ], [ -159.561420325664727, 22.014643692977302 ], [ -159.561170662387667, 22.01397167798601 ], [ -159.561565526922749, 22.013962815586609 ], [ -159.562438514125262, 22.014238078639337 ], [ -159.56278788785508, 22.01288004006696 ], [ -159.563015937198827, 22.013144858283507 ], [ -159.563304935462355, 22.013695084037121 ], [ -159.564699666409268, 22.012331411392356 ], [ -159.564437137552659, 22.01294692371334 ], [ -159.563738256372062, 22.014223556231016 ], [ -159.564179947187966, 22.014230440053584 ], [ -159.564473346374854, 22.014223855263623 ], [ -159.564954527809704, 22.014687396663525 ], [ -159.566986993166751, 22.013702207301016 ], [ -159.566429950846327, 22.015238320392498 ], [ -159.56707094650514, 22.015808330838869 ], [ -159.564913038150451, 22.015856839825627 ], [ -159.564474322937457, 22.015850013991539 ], [ -159.563896804955107, 22.016129943446039 ], [ -159.56307145106345, 22.015737058851975 ], [ -159.56265784467891, 22.016877474233013 ], [ -159.563040970215695, 22.017218201141944 ], [ -159.562446997901588, 22.017754271527235 ], [ -159.561874721918286, 22.018574741205406 ], [ -159.561289295660515, 22.019103052989816 ], [ -159.561296659346823, 22.019387089988626 ], [ -159.561289319424134, 22.019793655586238 ], [ -159.561299943527132, 22.02020277330282 ], [ -159.561004362585891, 22.020469485761826 ], [ -159.560720461287076, 22.020747009402623 ], [ -159.559845626393837, 22.020733358861889 ], [ -159.559562191610723, 22.021835076196236 ], [ -159.558992802971545, 22.021826200823359 ], [ -159.558685404908402, 22.022103569566735 ], [ -159.558303866728977, 22.022476589069569 ], [ -159.557342907031426, 22.02201914402508 ], [ -159.556942443191076, 22.022380529466357 ], [ -159.556161297602557, 22.023500325285443 ], [ -159.555203000565371, 22.023198123602814 ], [ -159.554645131647334, 22.023743456447452 ], [ -159.553753221846733, 22.022993208148879 ], [ -159.554184787701786, 22.02248822174905 ], [ -159.556356362970575, 22.021986831369258 ], [ -159.55636866935086, 22.021303796078104 ], [ -159.555776588079482, 22.021571406375351 ], [ -159.554650226048551, 22.022117276692462 ], [ -159.553231380505252, 22.021487018261915 ], [ -159.552788545532906, 22.020294795217957 ], [ -159.553160091347962, 22.019959521685614 ], [ -159.553442811927539, 22.019411086891107 ], [ -159.554034878355679, 22.019140772167756 ], [ -159.554020838654083, 22.018596085315068 ], [ -159.554921428330942, 22.018320241317728 ], [ -159.554886496903862, 22.016967175310267 ], [ -159.55518102616864, 22.016429334190693 ], [ -159.555321851416693, 22.016019603291941 ], [ -159.556477654107937, 22.015738849851388 ], [ -159.556002244430317, 22.015093514544972 ], [ -159.555321851416693, 22.016019603291941 ], [ -159.554191244731186, 22.016448663490515 ], [ -159.553727709512373, 22.017012830139073 ], [ -159.552580004965279, 22.017812300363815 ], [ -159.552276691945991, 22.017771537098344 ], [ -159.551695324125546, 22.017853641977187 ], [ -159.550248246830364, 22.014528610713786 ], [ -159.549026025878021, 22.012102691209694 ], [ -159.549370923239593, 22.011852608541982 ], [ -159.54928290268893, 22.011310848219612 ], [ -159.549671033226957, 22.011029388378144 ], [ -159.548777184074112, 22.00991350041317 ], [ -159.54903721389968, 22.009646151222785 ], [ -159.550369078514649, 22.010003430781332 ], [ -159.550810840390568, 22.00968312909206 ], [ -159.551081482660692, 22.009353691222966 ], [ -159.55168046001063, 22.010071908211579 ], [ -159.553099296294931, 22.009871499502363 ], [ -159.552848509615984, 22.010489353251248 ], [ -159.551924569114078, 22.011008881070019 ], [ -159.552275706938929, 22.011547355018884 ], [ -159.552213821492046, 22.011948215760185 ], [ -159.552547699450002, 22.012701216839091 ], [ -159.553329399707962, 22.012590791160928 ], [ -159.553079785292539, 22.014206549511314 ], [ -159.553730919641083, 22.014569801528268 ], [ -159.553987605374402, 22.01369798742666 ], [ -159.554310576593451, 22.013741377593512 ], [ -159.554566386391343, 22.013429949122209 ], [ -159.555478861907346, 22.012916863681475 ], [ -159.555270272844496, 22.011632688016785 ], [ -159.556306571213383, 22.0114862831735 ], [ -159.556791156205207, 22.012067270836511 ], [ -159.556951504513449, 22.011444127434089 ], [ -159.556839970434623, 22.010757707267594 ], [ -159.557465985869754, 22.010669262573082 ], [ -159.55803997615385, 22.011357466804608 ], [ -159.558912359650691, 22.009891833915237 ], [ -159.55982479659815, 22.009378724864991 ], [ -159.559775786274031, 22.009077195611429 ], [ -159.560689570297768, 22.008836560307685 ], [ -159.560941543888191, 22.008529767035462 ], [ -159.561752928422635, 22.008216872495311 ], [ -159.562390479113589, 22.007440694107412 ], [ -159.563880647981193, 22.006466749380209 ], [ -159.564455052090125, 22.005571312552522 ], [ -159.56474524488894, 22.004902984644946 ], [ -159.565831870889326, 22.004114873943308 ], [ -159.56592429221871, 22.0035160914552 ], [ -159.565814248887762, 22.002838902792242 ], [ -159.566560198245639, 22.002551189484429 ], [ -159.567084188620441, 22.000851867667777 ], [ -159.566968832962459, 22.000142093314302 ], [ -159.567511009028181, 22.000484428182201 ], [ -159.568345717983789, 22.002443061541772 ], [ -159.567934049176472, 22.003391081677329 ], [ -159.566676469333373, 22.004098376261773 ], [ -159.566781861637054, 22.004746631393107 ], [ -159.566372910428186, 22.005043239834979 ], [ -159.565910383947852, 22.006108350828281 ], [ -159.564766100289006, 22.006549655165351 ], [ -159.564710753989772, 22.006908116591845 ], [ -159.564778538900072, 22.007325242608836 ], [ -159.56334314975993, 22.007132484859088 ], [ -159.562934182523094, 22.00777005264931 ], [ -159.563064071068595, 22.00856948783418 ], [ -159.561874530656809, 22.008409734819995 ], [ -159.561749012580776, 22.009222022729926 ], [ -159.561861586767407, 22.009914655588545 ], [ -159.561238588002141, 22.010154914347563 ], [ -159.560953137586353, 22.010502400602345 ], [ -159.559976076791457, 22.01037117007527 ], [ -159.56017132485843, 22.011572773116722 ], [ -159.559502160047259, 22.012058040684806 ], [ -159.55925124060866, 22.012635855455493 ], [ -159.558414791379136, 22.013242414201326 ], [ -159.558341641633007, 22.013716200153087 ], [ -159.558750065141425, 22.014342353034802 ], [ -159.558629230964868, 22.015124217871627 ], [ -159.559513705744223, 22.014999252181102 ], [ -159.559266129331007, 22.016430185553197 ], [ -159.558938929151424, 22.016667424796971 ], [ -159.55881399607955, 22.01709184350484 ] ] ] } }
]
}
