{
"type": "FeatureCollection",
"name": "notpelt",
"crs": { "type": "name", "properties": { "name": "urn:ogc:def:crs:OGC:1.3:CRS84" } },
"features": [
{ "type": "Feature", "properties": { "ID": 1, "GRIDCODE": 2 }, "geometry": { "type": "Polygon", "coordinates": [ [ [ -159.60432183790482, 22.19228205262711 ], [ -159.604677053702289, 22.192373512759112 ], [ -159.604422862443499, 22.19261211135348 ], [ -159.60432183790482, 22.19228205262711 ] ] ] } },
{ "type": "Feature", "properties": { "ID": 2, "GRIDCODE": 2 }, "geometry": { "type": "Polygon", "coordinates": [ [ [ -159.622303964593556, 22.178392352989164 ], [ -159.621869986548347, 22.179867170125593 ], [ -159.621091783521422, 22.179271178818627 ], [ -159.622303964593556, 22.178392352989164 ] ] ] } },
{ "type": "Feature", "properties": { "ID": 3, "GRIDCODE": 2 }, "geometry": { "type": "Polygon", "coordinates": [ [ [ -159.631023890774628, 22.176190665630667 ], [ -159.631693583500464, 22.176297924692129 ], [ -159.631183563381825, 22.176534164461426 ], [ -159.631023890774628, 22.176190665630667 ] ] ] } },
{ "type": "Feature", "properties": { "ID": 4, "GRIDCODE": 2 }, "geometry": { "type": "Polygon", "coordinates": [ [ [ -159.622303964593556, 22.178392352989164 ], [ -159.624990881681811, 22.174552132060263 ], [ -159.625637770312323, 22.173104784111722 ], [ -159.625932788331653, 22.17093549803954 ], [ -159.626334548246604, 22.171295879556176 ], [ -159.627945185616028, 22.173366930309065 ], [ -159.628521586138049, 22.173825631209048 ], [ -159.628852404583029, 22.174508470971414 ], [ -159.629428812715958, 22.174967168421471 ], [ -159.62969949305878, 22.175257298346402 ], [ -159.630866443680702, 22.175931793658513 ], [ -159.630597656332924, 22.176066883794736 ], [ -159.626818598562352, 22.176404981290823 ], [ -159.626217243571205, 22.177418715825773 ], [ -159.625070607045643, 22.180404332363853 ], [ -159.623358458952026, 22.179166474218821 ], [ -159.622751796135816, 22.178516073958004 ], [ -159.622303964593556, 22.178392352989164 ] ] ] } },
{ "type": "Feature", "properties": { "ID": 5, "GRIDCODE": 2 }, "geometry": { "type": "Polygon", "coordinates": [ [ [ -159.622216917074638, 22.158608229602937 ], [ -159.622862769001642, 22.158693385760614 ], [ -159.622311124512578, 22.159193671865598 ], [ -159.622216917074638, 22.158608229602937 ] ] ] } },
{ "type": "Feature", "properties": { "ID": 6, "GRIDCODE": 2 }, "geometry": { "type": "Polygon", "coordinates": [ [ [ -159.622216917074638, 22.158608229602937 ], [ -159.621861776359566, 22.158516809783414 ], [ -159.622115877649946, 22.158278176797097 ], [ -159.622216917074638, 22.158608229602937 ] ] ] } },
{ "type": "Feature", "properties": { "ID": 7, "GRIDCODE": 2 }, "geometry": { "type": "Polygon", "coordinates": [ [ [ -159.677149691236366, 22.146735589864573 ], [ -159.677819238026331, 22.146842662558164 ], [ -159.677309403799001, 22.147079042977197 ], [ -159.677149691236366, 22.146735589864573 ] ] ] } },
{ "type": "Feature", "properties": { "ID": 8, "GRIDCODE": 2 }, "geometry": { "type": "Polygon", "coordinates": [ [ [ -159.683528967540809, 22.142372693256796 ], [ -159.684544291725615, 22.142923053426312 ], [ -159.683724229170679, 22.143302731706733 ], [ -159.683528967540809, 22.142372693256796 ] ] ] } },
{ "type": "Feature", "properties": { "ID": 9, "GRIDCODE": 2 }, "geometry": { "type": "Polygon", "coordinates": [ [ [ -159.655117749460885, 22.100752122930761 ], [ -159.654762735456814, 22.100660762822681 ], [ -159.655016678915331, 22.10042208901173 ], [ -159.655117749460885, 22.100752122930761 ] ] ] } },
{ "type": "Feature", "properties": { "ID": 10, "GRIDCODE": 2 }, "geometry": { "type": "Polygon", "coordinates": [ [ [ -159.680261131116708, 22.067584892686291 ], [ -159.680639743822667, 22.067734046944146 ], [ -159.680380530773022, 22.068200297315322 ], [ -159.680261131116708, 22.067584892686291 ] ] ] } },
{ "type": "Feature", "properties": { "ID": 11, "GRIDCODE": 2 }, "geometry": { "type": "Polygon", "coordinates": [ [ [ -159.678211612880062, 22.064612169272831 ], [ -159.678625060270264, 22.064885810126487 ], [ -159.677599034642526, 22.065540916858247 ], [ -159.676936065239175, 22.065191237619032 ], [ -159.678090983280185, 22.064770544365356 ], [ -159.678211612880062, 22.064612169272831 ] ] ] } },
{ "type": "Feature", "properties": { "ID": 12, "GRIDCODE": 2 }, "geometry": { "type": "Polygon", "coordinates": [ [ [ -159.664207465040732, 22.054370784718138 ], [ -159.665079655849468, 22.054367243133537 ], [ -159.66508219034634, 22.054909276888182 ], [ -159.664209996214453, 22.054912818568738 ], [ -159.664207465040732, 22.054370784718138 ] ] ] } },
{ "type": "Feature", "properties": { "ID": 13, "GRIDCODE": 2 }, "geometry": { "type": "Polygon", "coordinates": [ [ [ -159.580710681284245, 22.040866014993558 ], [ -159.580612524409929, 22.041196807832492 ], [ -159.580356618075342, 22.040960054717907 ], [ -159.580710681284245, 22.040866014993558 ] ] ] } },
{ "type": "Feature", "properties": { "ID": 14, "GRIDCODE": 2 }, "geometry": { "type": "Polygon", "coordinates": [ [ [ -159.580710681284245, 22.040866014993558 ], [ -159.580833314711953, 22.039959007311417 ], [ -159.581083890747749, 22.040681040874187 ], [ -159.580710681284245, 22.040866014993558 ] ] ] } },
{ "type": "Feature", "properties": { "ID": 15, "GRIDCODE": 2 }, "geometry": { "type": "Polygon", "coordinates": [ [ [ -159.605278821103525, 22.075739171522329 ], [ -159.604924689255171, 22.075833265572992 ], [ -159.605180699761888, 22.076069976959136 ], [ -159.605278821103525, 22.075739171522329 ], [ -159.605439811067583, 22.075618050892427 ], [ -159.605804144058709, 22.074803101703544 ], [ -159.607820565757919, 22.074468321587421 ], [ -159.608422645775931, 22.074535857115062 ], [ -159.609537878759738, 22.076231920579627 ], [ -159.609479407967598, 22.076684941473285 ], [ -159.609890779953616, 22.076926657435685 ], [ -159.610354152968029, 22.076382882060962 ], [ -159.610929243863779, 22.075950147842633 ], [ -159.611221824521323, 22.075295548238572 ], [ -159.612197418702635, 22.074149197878508 ], [ -159.61312351596527, 22.074253036732248 ], [ -159.613616789339289, 22.074193968361403 ], [ -159.613526322883558, 22.07489537218774 ], [ -159.613617933408477, 22.075560312694904 ], [ -159.613006480950929, 22.076020453622359 ], [ -159.612569904289728, 22.076997187661071 ], [ -159.613425699173519, 22.076894711867268 ], [ -159.614153011561683, 22.076976263563747 ], [ -159.615169589837166, 22.076854532059698 ], [ -159.61558816074799, 22.076363265998424 ], [ -159.616502740391496, 22.076115810950917 ], [ -159.616135661620007, 22.075236286053329 ], [ -159.616773260948548, 22.075307759289355 ], [ -159.617424107608116, 22.074947865421887 ], [ -159.61731305584442, 22.074142195677521 ], [ -159.617934958336321, 22.073674158608529 ], [ -159.61821061894409, 22.072761358106664 ], [ -159.620751461250222, 22.07304616559728 ], [ -159.621095170976844, 22.072277099876267 ], [ -159.623161728035939, 22.07202819117791 ], [ -159.623999293871634, 22.071452978224144 ], [ -159.624648131037191, 22.071209452849704 ], [ -159.624493324335504, 22.072409648330535 ], [ -159.626278343620015, 22.072195752035089 ], [ -159.627819665031041, 22.07333505755647 ], [ -159.628099301087502, 22.07394659752191 ], [ -159.630441629470624, 22.074409527080675 ], [ -159.630704214636239, 22.075318981635412 ], [ -159.628396424083405, 22.07506044778172 ], [ -159.627171339229307, 22.075737975941308 ], [ -159.627289195375255, 22.076592542616854 ], [ -159.626818307900351, 22.076946955491159 ], [ -159.625201873099229, 22.076765838411958 ], [ -159.623781218455122, 22.076936053557208 ], [ -159.623479847914524, 22.07826050695958 ], [ -159.622577517180218, 22.078776016239079 ], [ -159.621253164966845, 22.079771516837589 ], [ -159.621817403822433, 22.080189140195962 ], [ -159.622840170407187, 22.080066625900294 ], [ -159.623166118294876, 22.080377745207606 ], [ -159.621040202336872, 22.080814913549219 ], [ -159.619693149388581, 22.081739870585807 ], [ -159.618149987606529, 22.080902271502119 ], [ -159.6173691035427, 22.080995788519928 ], [ -159.616627279222655, 22.080912635586522 ], [ -159.61622397069786, 22.08181484755281 ], [ -159.615918545429651, 22.081780615049698 ], [ -159.615046615915702, 22.081885034286532 ], [ -159.613683070905893, 22.081732165184217 ], [ -159.61300619069192, 22.082106417935289 ], [ -159.612275853976854, 22.081263348223281 ], [ -159.610536103888194, 22.081140097946257 ], [ -159.610435151430607, 22.080810032911991 ], [ -159.61018116533657, 22.081048638967335 ], [ -159.610536103888194, 22.081140097946257 ], [ -159.610332963858951, 22.081762089013125 ], [ -159.608900735106488, 22.082180149980044 ], [ -159.60778948909072, 22.082951913278436 ], [ -159.60890865783557, 22.082885568322386 ], [ -159.60990101608877, 22.083213254676288 ], [ -159.610546038235384, 22.083880680307605 ], [ -159.61010065541268, 22.084254569502487 ], [ -159.610494480710742, 22.085264639075756 ], [ -159.611290451385969, 22.085601535700828 ], [ -159.612324765112191, 22.086120340797855 ], [ -159.61058096389354, 22.086505341797629 ], [ -159.609916239220439, 22.087204354171629 ], [ -159.611298617800173, 22.087498666382519 ], [ -159.611865124255814, 22.087782821824998 ], [ -159.612464159825834, 22.088036350076962 ], [ -159.612742207028106, 22.088863628602024 ], [ -159.613199219422967, 22.08924110555969 ], [ -159.614780745755041, 22.088839979233317 ], [ -159.615367677062153, 22.08887037511532 ], [ -159.615949144213772, 22.088835878986046 ], [ -159.616530891571301, 22.088865992463745 ], [ -159.617119527278788, 22.088831068136152 ], [ -159.617395985029873, 22.089057624515878 ], [ -159.615862117378526, 22.089396316187415 ], [ -159.614798856369134, 22.089939998401167 ], [ -159.614202021537352, 22.090198013055904 ], [ -159.613638158906213, 22.090528884748387 ], [ -159.61428884702093, 22.091066336020461 ], [ -159.614210537751319, 22.092379909543748 ], [ -159.614604430513594, 22.093048905830919 ], [ -159.612762025799697, 22.09345569071338 ], [ -159.611410800802986, 22.093798387736165 ], [ -159.610568193287435, 22.093375748390091 ], [ -159.607841544830819, 22.093537401715903 ], [ -159.608418478774837, 22.094013962002094 ], [ -159.608696640541353, 22.094870476188124 ], [ -159.606560325423004, 22.095793848347398 ], [ -159.607266814770242, 22.096728473692114 ], [ -159.607544429389037, 22.097457436881761 ], [ -159.605510187830617, 22.097819082800779 ], [ -159.604364446943663, 22.098109598358167 ], [ -159.60260426305021, 22.098371869453114 ], [ -159.602040160169707, 22.098660223143128 ], [ -159.600987572550991, 22.098919868734992 ], [ -159.600313345832859, 22.097565064602101 ], [ -159.599254748105096, 22.097627756203224 ], [ -159.597998382597439, 22.098948583656981 ], [ -159.597665517122977, 22.098931307457786 ], [ -159.596462440092864, 22.09923630303857 ], [ -159.595939671356916, 22.100308721898969 ], [ -159.595501211329548, 22.101067759148922 ], [ -159.594718923346079, 22.101382010120265 ], [ -159.593921282281485, 22.100556606484346 ], [ -159.593021820256979, 22.09981356665552 ], [ -159.591330531964019, 22.099512395562236 ], [ -159.590997847746479, 22.100868715591538 ], [ -159.590110091839449, 22.101127695497564 ], [ -159.58982418028981, 22.101714196981622 ], [ -159.588660438099396, 22.102217017471663 ], [ -159.588351929928791, 22.103161011504362 ], [ -159.586921048293391, 22.103578391181248 ], [ -159.5866499688305, 22.104407686376369 ], [ -159.585762182410747, 22.104666643207427 ], [ -159.584884221083854, 22.10524280167672 ], [ -159.584311003974307, 22.105213025936585 ], [ -159.583900232370013, 22.105644758961059 ], [ -159.583441053557692, 22.106030065161065 ], [ -159.583108842792143, 22.106711398436968 ], [ -159.58322809056358, 22.108462227882203 ], [ -159.580987649776887, 22.108621156330013 ], [ -159.580986539767224, 22.108350136889094 ], [ -159.580114003458476, 22.108353237567279 ], [ -159.580013100294082, 22.108023153696671 ], [ -159.579759014357251, 22.108261722165999 ], [ -159.580114003458476, 22.108353237567279 ], [ -159.580115111801319, 22.108624257050131 ], [ -159.580987649776887, 22.108621156330013 ], [ -159.58113072771917, 22.10875887200104 ], [ -159.5821131962864, 22.109052095424836 ], [ -159.583897759182804, 22.109011782677349 ], [ -159.584336903798004, 22.109018566173198 ], [ -159.584630942924036, 22.108448272691017 ], [ -159.58460319252984, 22.107383335195095 ], [ -159.585805429669108, 22.106834500952655 ], [ -159.586506459530824, 22.106845318635568 ], [ -159.58708809777653, 22.106832163012395 ], [ -159.587527164571696, 22.106838938333368 ], [ -159.587811180153949, 22.106561360233318 ], [ -159.588688424653498, 22.106292604248498 ], [ -159.588972295280229, 22.106015132218005 ], [ -159.589285823222042, 22.105732259319034 ], [ -159.59110861427061, 22.105760338386105 ], [ -159.591583076001484, 22.104379561015932 ], [ -159.591981447621919, 22.103841497622223 ], [ -159.592748709920841, 22.104922808453917 ], [ -159.593058525052669, 22.105198008961349 ], [ -159.59362524541865, 22.105185173827365 ], [ -159.594728757708879, 22.105202144188148 ], [ -159.596259910835983, 22.106276023614111 ], [ -159.597265274432687, 22.106253228946645 ], [ -159.597704410230108, 22.106259976685298 ], [ -159.597997473884305, 22.105691417060786 ], [ -159.599046718757677, 22.10474458451348 ], [ -159.600908680105107, 22.105440414852115 ], [ -159.603587427902738, 22.105379591687591 ], [ -159.604659632336364, 22.10433136939368 ], [ -159.604996506730799, 22.104336532368222 ], [ -159.606112978691073, 22.105410811129754 ], [ -159.607687998098129, 22.105880623054059 ], [ -159.608503640419315, 22.105083179017946 ], [ -159.610206605264324, 22.105401594838671 ], [ -159.610634044366293, 22.10457209245055 ], [ -159.611601636435381, 22.104586876269558 ], [ -159.613975576894148, 22.106357929753386 ], [ -159.614264766173306, 22.103482796919142 ], [ -159.614560935387033, 22.102106944388467 ], [ -159.61453796070046, 22.101228714036505 ], [ -159.614565503996658, 22.100505845340681 ], [ -159.615126716702093, 22.101045778612196 ], [ -159.617137110772518, 22.10164533548814 ], [ -159.618015538274733, 22.099940467185863 ], [ -159.619433016879441, 22.100273299245099 ], [ -159.619775214017295, 22.09993869928574 ], [ -159.621234003831916, 22.099667563651703 ], [ -159.622390696540094, 22.099386615196927 ], [ -159.622974880013714, 22.099395505406793 ], [ -159.623568124297606, 22.0993819447059 ], [ -159.624189280062552, 22.096964541459702 ], [ -159.625298276224413, 22.098031455068877 ], [ -159.626022501109702, 22.098014919626166 ], [ -159.626794351253693, 22.09802663380982 ], [ -159.627917346600213, 22.098560314223082 ], [ -159.62819956596087, 22.097738355778223 ], [ -159.628783452328321, 22.096928469993127 ], [ -159.629066023321343, 22.096379912785054 ], [ -159.630536675198101, 22.096106482401048 ], [ -159.630508320012069, 22.095029782117827 ], [ -159.630916244815495, 22.094284286899633 ], [ -159.631678378797488, 22.093936064783392 ], [ -159.632397915294945, 22.0929039644999 ], [ -159.633460268903235, 22.09340881116367 ], [ -159.634566452066252, 22.094472876836768 ], [ -159.635389337488931, 22.094454031413033 ], [ -159.635752435522448, 22.095817422232347 ], [ -159.636136633936133, 22.096849346756986 ], [ -159.635178054573657, 22.097440360611792 ], [ -159.63461731820064, 22.098528941989887 ], [ -159.633730004464354, 22.098801091184388 ], [ -159.633155413899146, 22.099079765899216 ], [ -159.632569128341743, 22.0993476324387 ], [ -159.632268108247956, 22.099642034906282 ], [ -159.632296140170268, 22.100706510821297 ], [ -159.632286356366393, 22.10126756574741 ], [ -159.631421449684296, 22.102048410477234 ], [ -159.631137728720006, 22.103152898007323 ], [ -159.630779570986221, 22.10414139967882 ], [ -159.631715959543328, 22.103687281227216 ], [ -159.632883929527736, 22.103417165488743 ], [ -159.634110682267476, 22.102542200522461 ], [ -159.635232923964338, 22.102052942135732 ], [ -159.636808679532436, 22.102801637900175 ], [ -159.635495574585235, 22.103401603151241 ], [ -159.633542921852751, 22.104942085860927 ], [ -159.633189276239278, 22.106668241854575 ], [ -159.632021280297835, 22.106938360287025 ], [ -159.631406337632143, 22.107236580707298 ], [ -159.629698170619434, 22.107760395794195 ], [ -159.62873603880854, 22.108373544556375 ], [ -159.627901829229131, 22.109189363146136 ], [ -159.62836395495853, 22.110841340930865 ], [ -159.627968439209866, 22.111564069824606 ], [ -159.628485227652902, 22.112489467650789 ], [ -159.628849823406341, 22.113217170855787 ], [ -159.624277950874756, 22.113147781067649 ], [ -159.622658526765633, 22.112638170868141 ], [ -159.621491921109822, 22.114311091591677 ], [ -159.620277129127686, 22.114292617020499 ], [ -159.619180618130571, 22.114317628506289 ], [ -159.618391332658291, 22.114724761205736 ], [ -159.620138204784752, 22.1151145552641 ], [ -159.620715306360012, 22.115388810520884 ], [ -159.622176582870878, 22.115648846400831 ], [ -159.623555331368948, 22.116615396963294 ], [ -159.624027363693273, 22.115699251824914 ], [ -159.626436629521265, 22.117207560531483 ], [ -159.625962682528069, 22.118073573022212 ], [ -159.625680874080558, 22.118806951790617 ], [ -159.626845887083931, 22.119154270964721 ], [ -159.627167097042417, 22.11946318875092 ], [ -159.627134618101877, 22.121319513547643 ], [ -159.628214964023755, 22.122634835943579 ], [ -159.628898774305412, 22.122940675502939 ], [ -159.629476183348459, 22.123273240394902 ], [ -159.628612553943839, 22.125656157744448 ], [ -159.628940408112555, 22.125921747653745 ], [ -159.629775202510217, 22.125105466440814 ], [ -159.631037858842859, 22.124225777392706 ], [ -159.632104590772542, 22.124561370255414 ], [ -159.632388834261519, 22.124140140681508 ], [ -159.630931247959154, 22.123488217717934 ], [ -159.630936232846778, 22.123204142406941 ], [ -159.630635800071786, 22.122397359353393 ], [ -159.630227510134233, 22.12124143843787 ], [ -159.630735816377438, 22.120312670697725 ], [ -159.631210445082928, 22.120769119604692 ], [ -159.631512862676885, 22.120762193783083 ], [ -159.631498673166362, 22.120223142489607 ], [ -159.631507841504941, 22.119698747864515 ], [ -159.631098469778664, 22.118235684320531 ], [ -159.631498424547488, 22.117504800904776 ], [ -159.632216762670993, 22.117515685208527 ], [ -159.632867808078686, 22.117500782035886 ], [ -159.634417676946782, 22.116395490298874 ], [ -159.635108720176788, 22.115054099732127 ], [ -159.635564713100962, 22.115061002125859 ], [ -159.636403224097336, 22.114240976405476 ], [ -159.638763666158212, 22.113873458194622 ], [ -159.638737296854117, 22.112874758134392 ], [ -159.641002255064933, 22.112032070449736 ], [ -159.641355974290832, 22.110654824804069 ], [ -159.641330024035483, 22.109674046541386 ], [ -159.643961384003546, 22.109065327906649 ], [ -159.645479311100814, 22.10758063170557 ], [ -159.646988233301016, 22.107117745112888 ], [ -159.647722887737558, 22.106063800606368 ], [ -159.648309170589442, 22.105795879930479 ], [ -159.648881277711553, 22.104975120045786 ], [ -159.650921724533674, 22.104701408528719 ], [ -159.653497838398664, 22.104075207828359 ], [ -159.654828261551728, 22.102166432924587 ], [ -159.655117749460885, 22.100752122930761 ], [ -159.656619645964042, 22.100911297845627 ], [ -159.657858993734095, 22.100837466191738 ], [ -159.658651006766604, 22.101656353325708 ], [ -159.659345025001414, 22.101692096792821 ], [ -159.660429464339387, 22.101324542459562 ], [ -159.65970854669709, 22.102573721295144 ], [ -159.660451450621309, 22.104065055523158 ], [ -159.661381967638221, 22.104665149320716 ], [ -159.662166929027904, 22.104618357566721 ], [ -159.662853644553479, 22.105185139514429 ], [ -159.663129485925595, 22.105470292153974 ], [ -159.663455311812754, 22.105739212347853 ], [ -159.663414343297234, 22.106430535343584 ], [ -159.663792261765565, 22.107914840005314 ], [ -159.664737829691944, 22.108892343779274 ], [ -159.665202766127948, 22.108403155704835 ], [ -159.666009955436607, 22.109237607913784 ], [ -159.667234075365087, 22.1089768440231 ], [ -159.668226915099268, 22.10769023728276 ], [ -159.669287605739726, 22.107055505535754 ], [ -159.670192511683325, 22.104281531249562 ], [ -159.67184744461116, 22.104366632388224 ], [ -159.671879726615117, 22.103821465305852 ], [ -159.671127747116884, 22.102545381442983 ], [ -159.673011813139851, 22.102432955973089 ], [ -159.674095746213084, 22.102488683334101 ], [ -159.675316072637088, 22.101864164067091 ], [ -159.676200324988713, 22.101909611418183 ], [ -159.675923097238609, 22.10133731378183 ], [ -159.675018609781603, 22.10014194077684 ], [ -159.675043879222955, 22.099714910183746 ], [ -159.6715515697027, 22.099424004132423 ], [ -159.671824940311353, 22.099186052045457 ], [ -159.672421701875663, 22.098927828868003 ], [ -159.673267596807023, 22.09849493846118 ], [ -159.674389435234076, 22.098009510037208 ], [ -159.673853042457949, 22.09756683186442 ], [ -159.673035851734028, 22.096722069766251 ], [ -159.672109526721897, 22.097036106193563 ], [ -159.671536652309015, 22.096443867119881 ], [ -159.670465969303109, 22.096507747139825 ], [ -159.669484376666446, 22.096229684074952 ], [ -159.669186188729299, 22.095058688567811 ], [ -159.668305089913019, 22.094331510731298 ], [ -159.669037601732981, 22.093345038777365 ], [ -159.668325510830499, 22.092757310849954 ], [ -159.669821967296485, 22.091861717131934 ], [ -159.669749086243286, 22.090800562357657 ], [ -159.669797090168004, 22.089989751845732 ], [ -159.66798091471307, 22.089475206809873 ], [ -159.668331411948827, 22.08886771598327 ], [ -159.667410443204318, 22.08810754510678 ], [ -159.666996756580716, 22.0876798248139 ], [ -159.666516767518118, 22.087283654266109 ], [ -159.666570021216046, 22.086385002154451 ], [ -159.665356799313116, 22.085672806952804 ], [ -159.66580194836169, 22.084901304450163 ], [ -159.664620026336678, 22.083925712880351 ], [ -159.66420636045882, 22.083497984797564 ], [ -159.663193377232773, 22.083210943977519 ], [ -159.662744823326335, 22.081877788010676 ], [ -159.661996870378857, 22.080888969845017 ], [ -159.662945495965999, 22.080092045551929 ], [ -159.663331451310768, 22.079423166662945 ], [ -159.66326175080593, 22.078407499932464 ], [ -159.663689636513197, 22.077665930754268 ], [ -159.661814399400242, 22.076564978891774 ], [ -159.662237073141284, 22.07389731928831 ], [ -159.661833324100343, 22.073479816264495 ], [ -159.660639580832225, 22.073141514497198 ], [ -159.660667425511292, 22.072671745944323 ], [ -159.659775687566224, 22.072419012683373 ], [ -159.659808240491856, 22.071869493472544 ], [ -159.659754750905648, 22.071089794025259 ], [ -159.66008640082481, 22.0702164689285 ], [ -159.659466213271031, 22.06970446891015 ], [ -159.660074398079786, 22.068885410902439 ], [ -159.659758107017467, 22.068624283282478 ], [ -159.65978822365264, 22.068115830556355 ], [ -159.659480757498983, 22.067797861996254 ], [ -159.658318372602366, 22.067306237900706 ], [ -159.658295459492507, 22.06697239950471 ], [ -159.658895121434654, 22.067003284376653 ], [ -159.659175475130041, 22.066427375001922 ], [ -159.660312702359761, 22.066485962641085 ], [ -159.660815765220974, 22.065161062512839 ], [ -159.659974172736639, 22.064805120421589 ], [ -159.660916977726828, 22.064013012411422 ], [ -159.661187549491586, 22.063183602034577 ], [ -159.661692543620518, 22.062308282641116 ], [ -159.660324862314781, 22.06172982981311 ], [ -159.660598497246156, 22.061559849464818 ], [ -159.661562108403245, 22.061278202152 ], [ -159.66260858635485, 22.059868720121226 ], [ -159.662024741474511, 22.059386687470528 ], [ -159.662085782503397, 22.058356659463858 ], [ -159.661742997487636, 22.057774663612204 ], [ -159.661771463158601, 22.057294552956783 ], [ -159.661464366884957, 22.05667795533266 ], [ -159.66115485736978, 22.056152413277648 ], [ -159.660863212407207, 22.055285407101369 ], [ -159.660276364154242, 22.054800848652064 ], [ -159.659975083157235, 22.054195836747429 ], [ -159.659286351105095, 22.053627189324708 ], [ -159.659908915548726, 22.052548101514279 ], [ -159.659188404846617, 22.051101190488385 ], [ -159.657391563863996, 22.050591845686579 ], [ -159.657329154118145, 22.049681249688483 ], [ -159.658454415174873, 22.049614182763904 ], [ -159.659652142710996, 22.050603181493099 ], [ -159.659983930336267, 22.051589626697197 ], [ -159.66057076406247, 22.052074186735908 ], [ -159.660984325117454, 22.052501928179048 ], [ -159.661446721985982, 22.052883716323098 ], [ -159.661723716834189, 22.053439892835431 ], [ -159.662470494162051, 22.054056481412434 ], [ -159.663494455343795, 22.055585650033237 ], [ -159.663779217750488, 22.057506644317197 ], [ -159.665039003007536, 22.056678721106103 ], [ -159.665812969455402, 22.057493933556138 ], [ -159.664963396611057, 22.05884720373437 ], [ -159.664096614115834, 22.060014708165014 ], [ -159.664530158495523, 22.060313943971096 ], [ -159.666170867772195, 22.059897167510748 ], [ -159.66714871945598, 22.059947507502489 ], [ -159.667564925429076, 22.059092382798941 ], [ -159.668008597160991, 22.058962687326957 ], [ -159.668109665422463, 22.05929271485995 ], [ -159.668363513900204, 22.059054021509606 ], [ -159.668008597160991, 22.058962687326957 ], [ -159.668216358830392, 22.057874046665184 ], [ -159.669489468109077, 22.05720506870351 ], [ -159.67017201904639, 22.057617211107971 ], [ -159.669893642046731, 22.058607255836961 ], [ -159.668744767192209, 22.05953811631408 ], [ -159.66833839045691, 22.061667670626232 ], [ -159.665859343075311, 22.063342333950782 ], [ -159.666135256122402, 22.063454853466144 ], [ -159.667967944210886, 22.063137404642138 ], [ -159.668653991811198, 22.063185965080692 ], [ -159.670122984156251, 22.061995758154623 ], [ -159.671455373713997, 22.060541264014564 ], [ -159.672049015622491, 22.061766860421361 ], [ -159.672528566734769, 22.061800786041722 ], [ -159.673680312814668, 22.061709749739983 ], [ -159.673124726870356, 22.062610588660462 ], [ -159.672396739686604, 22.062916975533899 ], [ -159.67194511867018, 22.063679374784122 ], [ -159.671678675809829, 22.064242659602758 ], [ -159.671066711632761, 22.065054695001955 ], [ -159.671974454718026, 22.065305382890223 ], [ -159.672109693980133, 22.065450412085443 ], [ -159.671755635839162, 22.065544649253351 ], [ -159.672011735755746, 22.065781254105929 ], [ -159.672109693980133, 22.065450412085443 ], [ -159.672846806567406, 22.065321945796242 ], [ -159.673736244114195, 22.06485456862919 ], [ -159.675191882834071, 22.065603768839654 ], [ -159.67603533972121, 22.065537079685733 ], [ -159.677067999607516, 22.065610126129986 ], [ -159.675715537834094, 22.067774871589457 ], [ -159.676907741361958, 22.067680617397471 ], [ -159.677206302567157, 22.068296887808621 ], [ -159.678359694322722, 22.067447203228717 ], [ -159.678793068920783, 22.067194532613186 ], [ -159.679237239408309, 22.068547794313815 ], [ -159.679596346492872, 22.068833568004905 ], [ -159.679523898548041, 22.069723355000075 ], [ -159.678201976954739, 22.070158067480392 ], [ -159.677577094869719, 22.068868195532666 ], [ -159.676936022720668, 22.069229310541733 ], [ -159.6775492577992, 22.070764697121511 ], [ -159.678386037957438, 22.070698535712253 ], [ -159.680131239923867, 22.070821952822818 ], [ -159.681875190585458, 22.070684029130973 ], [ -159.682166057660794, 22.070704585460732 ], [ -159.682466118097693, 22.070680853610625 ], [ -159.682739482459652, 22.070973925319645 ], [ -159.683509343969632, 22.07091302916702 ], [ -159.684780758003939, 22.070244849190026 ], [ -159.685644378268506, 22.070689233097369 ], [ -159.686265338549674, 22.070944383399308 ], [ -159.685079812304821, 22.071905054449207 ], [ -159.684649890514976, 22.073258020741729 ], [ -159.684295822182776, 22.073352285245292 ], [ -159.684551956852658, 22.073588869353415 ], [ -159.684649890514976, 22.073258020741729 ], [ -159.685509893429128, 22.072757470518692 ], [ -159.686240331331277, 22.07312347147894 ], [ -159.687130197206727, 22.07337550477537 ], [ -159.687831714806805, 22.073727013541028 ], [ -159.687409881900464, 22.074458411616138 ], [ -159.686798079044991, 22.075961916395503 ], [ -159.685241517436282, 22.076893808914196 ], [ -159.683933686043673, 22.077183189822318 ], [ -159.682748338617216, 22.078047289572705 ], [ -159.681903253822128, 22.078003886347858 ], [ -159.680759498774563, 22.078870114422074 ], [ -159.68191414431675, 22.078801138342357 ], [ -159.682751138740088, 22.078844128553854 ], [ -159.684321269226842, 22.078311620141843 ], [ -159.684813924980631, 22.078820880761853 ], [ -159.685600173773764, 22.079469745852514 ], [ -159.686161887703577, 22.078878502921661 ], [ -159.687422059515796, 22.080181168255145 ], [ -159.688129384205354, 22.079819071688213 ], [ -159.687413781786262, 22.078235775367926 ], [ -159.688186332113986, 22.077586570235255 ], [ -159.691254911894333, 22.076907475830701 ], [ -159.692014167180986, 22.078431019777334 ], [ -159.690578107238679, 22.079052691713549 ], [ -159.691231269371542, 22.079591691377143 ], [ -159.691508641177279, 22.080190289730826 ], [ -159.690929433814119, 22.08067704750275 ], [ -159.690656371285343, 22.080964472643359 ], [ -159.690350503038388, 22.08122153284231 ], [ -159.690078523023971, 22.081732233103207 ], [ -159.691962267018312, 22.082051683521492 ], [ -159.692393427879665, 22.082739169637527 ], [ -159.690573945089596, 22.08311773006281 ], [ -159.689787353174722, 22.082304698081181 ], [ -159.688628772441973, 22.082599144832219 ], [ -159.686868961148605, 22.08286231531482 ], [ -159.686595886131414, 22.083149733917562 ], [ -159.685714585290498, 22.083890301540762 ], [ -159.684503580445522, 22.084227335850656 ], [ -159.683980511174553, 22.083686623996563 ], [ -159.683521625894969, 22.08371405032694 ], [ -159.683105054014845, 22.082878082858784 ], [ -159.682745025763836, 22.082623817644183 ], [ -159.683138458357291, 22.084634844630408 ], [ -159.685057279221041, 22.085178285616443 ], [ -159.685792166606035, 22.085937928820396 ], [ -159.688646737636191, 22.085520955155818 ], [ -159.688627252194493, 22.085850979008033 ], [ -159.689594497372156, 22.086259784295205 ], [ -159.689197807620502, 22.086947509466601 ], [ -159.68988756974241, 22.08751668003999 ], [ -159.691348150147803, 22.087429339806032 ], [ -159.690602785167584, 22.088055700220867 ], [ -159.688749835197939, 22.087960610883698 ], [ -159.687168188055068, 22.0885815279517 ], [ -159.686034955211426, 22.08801374423264 ], [ -159.684875206762683, 22.088143662480203 ], [ -159.686041730251901, 22.088828231712679 ], [ -159.686607209419293, 22.089962954109467 ], [ -159.687840019094324, 22.090446795114119 ], [ -159.688365175115592, 22.089894009160602 ], [ -159.688649241886708, 22.090187619692706 ], [ -159.688966809866372, 22.090449675736497 ], [ -159.688616583300615, 22.090743989896342 ], [ -159.687932912191428, 22.090708888609221 ], [ -159.685622050668087, 22.090846994230574 ], [ -159.686375346261457, 22.092125140099707 ], [ -159.687503230133217, 22.092057723533827 ], [ -159.688125904347487, 22.092089692210642 ], [ -159.688664132765979, 22.09316965218801 ], [ -159.689814275307981, 22.093100901656324 ], [ -159.691032987454008, 22.092299865001113 ], [ -159.691909477356347, 22.092344839558713 ], [ -159.691862057483092, 22.093147644998517 ], [ -159.691881235214424, 22.093426043822383 ], [ -159.689852509567913, 22.093787801187712 ], [ -159.690531690425928, 22.094940091872818 ], [ -159.691316202341682, 22.095587361602856 ], [ -159.690706504200818, 22.096408688628543 ], [ -159.691916477872155, 22.096920036224475 ], [ -159.691883193211225, 22.097483869353422 ], [ -159.691976148226217, 22.098833743201485 ], [ -159.690479405294212, 22.099108298024632 ], [ -159.688842880929855, 22.098445281133859 ], [ -159.688741734352902, 22.098115269915812 ], [ -159.688487853151599, 22.098353994672209 ], [ -159.688842880929855, 22.098445281133859 ], [ -159.6889978327969, 22.099335267461466 ], [ -159.69069971855447, 22.100419720794942 ], [ -159.689829152801224, 22.100719974614048 ], [ -159.688423136126772, 22.100176603012393 ], [ -159.688038448978403, 22.100258682105569 ], [ -159.68819284011397, 22.100887196423567 ], [ -159.688020548149012, 22.101618966811298 ], [ -159.689022155005404, 22.101405295201715 ], [ -159.689743803336796, 22.102369916306767 ], [ -159.690780156498562, 22.102613093387088 ], [ -159.691018889956013, 22.102849895872094 ], [ -159.690136899051225, 22.103161688087422 ], [ -159.690311621968419, 22.103872855677242 ], [ -159.691369734631081, 22.104236716063795 ], [ -159.691609298629487, 22.104643124435079 ], [ -159.690151688286221, 22.105158392120391 ], [ -159.689635530030785, 22.106461825164104 ], [ -159.689292516756865, 22.106684666938179 ], [ -159.689175821069398, 22.107116500826507 ], [ -159.688821672204483, 22.107210768565469 ], [ -159.689077877007321, 22.107447351118953 ], [ -159.689175821069398, 22.107116500826507 ], [ -159.690437136232106, 22.106932260115101 ], [ -159.691642722680172, 22.107712262935109 ], [ -159.690481000560538, 22.108051931533229 ], [ -159.689916735516618, 22.108276569788966 ], [ -159.691645591366154, 22.109290899542014 ], [ -159.692541140415784, 22.109669326111483 ], [ -159.692885099732791, 22.110359318586774 ], [ -159.692744364974999, 22.110752540798501 ], [ -159.691667236284587, 22.110213032276 ], [ -159.689696296752288, 22.110548006308882 ], [ -159.689053670584741, 22.110226112216235 ], [ -159.688154746925477, 22.109846241512397 ], [ -159.687304671683592, 22.109420422404359 ], [ -159.686431114682648, 22.10921081486001 ], [ -159.68703260938517, 22.109707060172536 ], [ -159.686968291279783, 22.110795080231821 ], [ -159.687303069876947, 22.110775070841576 ], [ -159.687783454592505, 22.110799730679165 ], [ -159.688759730947424, 22.112952795384558 ], [ -159.689940701910984, 22.113203578917187 ], [ -159.691531604034424, 22.115002806472983 ], [ -159.690865094198898, 22.115562775980852 ], [ -159.692862434198531, 22.115901400758442 ], [ -159.69313825801828, 22.116166477001212 ], [ -159.688988473918215, 22.116486823557381 ], [ -159.688488217273942, 22.116461159721435 ], [ -159.688058489928153, 22.116606883443854 ], [ -159.687957330960984, 22.116276872753716 ], [ -159.687703416839582, 22.116515604903597 ], [ -159.688058489928153, 22.116606883443854 ], [ -159.687925911982404, 22.117024052714861 ], [ -159.687599777915665, 22.117863196639544 ], [ -159.688472037333213, 22.117794198625976 ], [ -159.689072950779035, 22.118103293063101 ], [ -159.689949499751123, 22.118463294148402 ], [ -159.690293395034359, 22.121150682623373 ], [ -159.691038874184471, 22.121743658356575 ], [ -159.690468469552485, 22.122205781023851 ], [ -159.68882208644149, 22.121878452136166 ], [ -159.685912466607988, 22.121694731045618 ], [ -159.686993808911097, 22.122554893358416 ], [ -159.687352217703733, 22.123147959177846 ], [ -159.68648136536288, 22.123514423304623 ], [ -159.685476680002836, 22.124042263037282 ], [ -159.684417843503525, 22.123497653286016 ], [ -159.684482784402263, 22.124210443517992 ], [ -159.684448931919718, 22.124626716332134 ], [ -159.685346094063732, 22.124874287179136 ], [ -159.685816382689723, 22.125378297581143 ], [ -159.686321822330086, 22.125683245089409 ], [ -159.68737043365627, 22.125132338013614 ], [ -159.688235897907674, 22.125424333107045 ], [ -159.689131399973604, 22.125671410165708 ], [ -159.690655791691682, 22.126261990486498 ], [ -159.690546744685577, 22.127602492023481 ], [ -159.690002427034699, 22.127564059684317 ], [ -159.689704732855176, 22.127587607534245 ], [ -159.688557885010795, 22.127200708856542 ], [ -159.68652254250074, 22.12754383593089 ], [ -159.688355516034392, 22.128602790439089 ], [ -159.689129792059191, 22.129795006341872 ], [ -159.687883311207742, 22.130319531367714 ], [ -159.687176438347336, 22.130269608356237 ], [ -159.686529280107209, 22.128934598313808 ], [ -159.685179298343456, 22.128418396791812 ], [ -159.685700649917152, 22.129279873328098 ], [ -159.685639416929519, 22.130032495374138 ], [ -159.68567643078012, 22.130438867994346 ], [ -159.68563902803109, 22.130898775994098 ], [ -159.68478232372334, 22.130838264953169 ], [ -159.684346152901412, 22.130872755677586 ], [ -159.683903414769446, 22.130841478249646 ], [ -159.683629976832577, 22.130918946929093 ], [ -159.685266787311321, 22.132220885336693 ], [ -159.686214849205157, 22.132145897272164 ], [ -159.68714409856014, 22.133141650259095 ], [ -159.687098957150937, 22.133696366377219 ], [ -159.685852919825749, 22.13435781482346 ], [ -159.684768123550924, 22.13379988694831 ], [ -159.683826935885662, 22.133874316981974 ], [ -159.683148359748088, 22.134614834307165 ], [ -159.680690094526568, 22.134924956130686 ], [ -159.68162622639349, 22.135465799484681 ], [ -159.68041776574205, 22.13706880888363 ], [ -159.680560290416281, 22.137361175827696 ], [ -159.681639685087021, 22.136794188139387 ], [ -159.682762881492579, 22.136873541191601 ], [ -159.684023483376393, 22.137698347778322 ], [ -159.684521087322253, 22.138724780227051 ], [ -159.685685812084756, 22.138422545939701 ], [ -159.686039872598229, 22.138447557605929 ], [ -159.685969187061119, 22.139316291497114 ], [ -159.685267462909763, 22.139884658279698 ], [ -159.68454417787683, 22.139512661666622 ], [ -159.683755966454413, 22.139188954237856 ], [ -159.682726755334642, 22.139729585385421 ], [ -159.683147235331205, 22.14252472172349 ], [ -159.682802294720886, 22.142500360583647 ], [ -159.682230092083387, 22.142545596961398 ], [ -159.681939095105463, 22.142233754319573 ], [ -159.681311574397853, 22.141734659003749 ], [ -159.680563247681363, 22.140932773689837 ], [ -159.680191132540187, 22.141719177490224 ], [ -159.679641695952739, 22.142164146621038 ], [ -159.680551393654468, 22.14253776943097 ], [ -159.681416492191119, 22.143464784155075 ], [ -159.681927432070921, 22.144310169323589 ], [ -159.681009193519287, 22.144696488998232 ], [ -159.681689452025324, 22.145237521094302 ], [ -159.68222787403468, 22.146286508791167 ], [ -159.677878317339804, 22.145979165882579 ], [ -159.677005295936141, 22.14469346770532 ], [ -159.676668153256003, 22.144444011993336 ], [ -159.676716577026383, 22.144975766243473 ], [ -159.676635163699672, 22.145975228579747 ], [ -159.677149691236366, 22.146735589864573 ], [ -159.675404203760849, 22.146539776575182 ], [ -159.673922444840173, 22.146717706006083 ], [ -159.672909554196394, 22.145548536720671 ], [ -159.672545283572106, 22.144753077491472 ], [ -159.67074305310183, 22.145406961923516 ], [ -159.67064191163746, 22.145076941157992 ], [ -159.670387917348791, 22.145315647575352 ], [ -159.67074305310183, 22.145406961923516 ], [ -159.670886254244948, 22.145544595378094 ], [ -159.671986047515105, 22.145872060582011 ], [ -159.672347272532846, 22.146893674682861 ], [ -159.672948905219755, 22.147969876218607 ], [ -159.67192803633381, 22.148599400633874 ], [ -159.672945215405377, 22.149053932931032 ], [ -159.673641296711736, 22.149384349617925 ], [ -159.675265896281985, 22.148858820067023 ], [ -159.674982999774073, 22.149321958041789 ], [ -159.674047514164528, 22.150773494336921 ], [ -159.674986221566712, 22.151219074240785 ], [ -159.675860889329726, 22.151609904691608 ], [ -159.675067556777861, 22.152568404226006 ], [ -159.674118599896047, 22.152306736182311 ], [ -159.673541247804252, 22.152032677147879 ], [ -159.672435497136206, 22.151538566269217 ], [ -159.671784724472104, 22.150961272269704 ], [ -159.671388817058954, 22.150580773306963 ], [ -159.670331342887152, 22.151232844418104 ], [ -159.670047547255791, 22.151510454773899 ], [ -159.669752050618087, 22.15177726136206 ], [ -159.669181448903345, 22.152335411588723 ], [ -159.668611193060372, 22.15178736748145 ], [ -159.668589510808772, 22.152054149416678 ], [ -159.668604011511462, 22.15259774017467 ], [ -159.668589806116358, 22.153424856935651 ], [ -159.66969555047433, 22.153399296082171 ], [ -159.671521835251383, 22.153668537423314 ], [ -159.672093668875846, 22.154754259113286 ], [ -159.672680541237838, 22.155804029331382 ], [ -159.67131614104207, 22.155212770437206 ], [ -159.670342534317399, 22.154750614573871 ], [ -159.668967780518415, 22.154782395019247 ], [ -159.668019289410694, 22.154499979550977 ], [ -159.665147319745699, 22.15342844457539 ], [ -159.663974496775154, 22.153410933312006 ], [ -159.663132254772279, 22.15381944898056 ], [ -159.661910372543986, 22.153435385034587 ], [ -159.659284908872877, 22.15318042528795 ], [ -159.658152891580443, 22.152642958911557 ], [ -159.655853235038194, 22.152995627640408 ], [ -159.65540351117815, 22.154660248103252 ], [ -159.65581489796935, 22.156203381755212 ], [ -159.65669590610571, 22.156985029210059 ], [ -159.656684192857654, 22.157660018555951 ], [ -159.656695029367143, 22.158066503389282 ], [ -159.656676716532672, 22.159125509599228 ], [ -159.656986381461536, 22.159423137413096 ], [ -159.658625456245403, 22.160320544707421 ], [ -159.658145464172719, 22.160789933976599 ], [ -159.655678005767498, 22.160752978805327 ], [ -159.653980905632267, 22.16114557105697 ], [ -159.653058360587835, 22.162047721967589 ], [ -159.65233552190989, 22.161063473648756 ], [ -159.653496702695548, 22.160707329768165 ], [ -159.653504665425885, 22.160247472008688 ], [ -159.653493837733549, 22.159840986852174 ], [ -159.653505450314498, 22.159171688345321 ], [ -159.651797846699282, 22.158360899721313 ], [ -159.651456298305732, 22.158355771891475 ], [ -159.651162609553523, 22.158362527687199 ], [ -159.650859094982422, 22.158070810672381 ], [ -159.64970664370648, 22.158097315665724 ], [ -159.649149351332056, 22.157561623609233 ], [ -159.648538857178011, 22.157288740698259 ], [ -159.648548300439757, 22.156745415597225 ], [ -159.647369031522828, 22.155938349634663 ], [ -159.646939463423962, 22.155525394812425 ], [ -159.646492498796562, 22.155128768253363 ], [ -159.646090743790893, 22.154365620165354 ], [ -159.645032868369128, 22.154050469445288 ], [ -159.644746497686015, 22.15377515648483 ], [ -159.64444852877719, 22.153510740187549 ], [ -159.643981236605896, 22.153061501300972 ], [ -159.643488555086549, 22.154979275249193 ], [ -159.639653377159249, 22.155576357818589 ], [ -159.639222694124101, 22.155965056754692 ], [ -159.638666556275325, 22.156508836673414 ], [ -159.638067109745577, 22.156522580340795 ], [ -159.637775039772123, 22.156241744137372 ], [ -159.637063575067117, 22.155923656550055 ], [ -159.637670797254088, 22.154814318804132 ], [ -159.636931932635747, 22.154103984050092 ], [ -159.636309155816321, 22.153808183851254 ], [ -159.635576338728924, 22.153824977567691 ], [ -159.635139040464452, 22.152994209451137 ], [ -159.634257221436599, 22.153014405948621 ], [ -159.634271452453788, 22.152195757353763 ], [ -159.633971686858558, 22.152191224110197 ], [ -159.633678009191925, 22.152197948138298 ], [ -159.633391521361233, 22.151922507597014 ], [ -159.633093434557253, 22.151657962931012 ], [ -159.633107510757583, 22.150850819565004 ], [ -159.632228396064846, 22.150837513827828 ], [ -159.631642112339335, 22.151121764216306 ], [ -159.631057502734166, 22.151112910900981 ], [ -159.629896933026572, 22.151139463416747 ], [ -159.628615135243962, 22.15053061772257 ], [ -159.625850693364356, 22.150900964939819 ], [ -159.624021724598293, 22.152551446913723 ], [ -159.623501771602633, 22.154966887998285 ], [ -159.623529164170463, 22.156009013886852 ], [ -159.622959596816685, 22.156565794590694 ], [ -159.62235157640032, 22.15684342890339 ], [ -159.622372979381254, 22.157656019411025 ], [ -159.621821040785136, 22.157668612363913 ], [ -159.621734392089735, 22.154372887415956 ], [ -159.622077296724086, 22.151666594272456 ], [ -159.623324797226275, 22.149878131975257 ], [ -159.626268586895918, 22.148451137273135 ], [ -159.628136146587991, 22.148408450096355 ], [ -159.629154470353285, 22.148423888053735 ], [ -159.630660036079803, 22.148389449073033 ], [ -159.634621780148905, 22.149203488811697 ], [ -159.636470982286369, 22.149231443832438 ], [ -159.637451167293818, 22.148930898922597 ], [ -159.638029846495698, 22.148650321725764 ], [ -159.638867490168479, 22.149455670116094 ], [ -159.639489882270368, 22.149465067019019 ], [ -159.640617113352732, 22.148918496860176 ], [ -159.641016191362553, 22.149241676624076 ], [ -159.642013656186521, 22.15020070639833 ], [ -159.643007329445311, 22.15082244218376 ], [ -159.64471049548078, 22.150783339051536 ], [ -159.645864872053806, 22.151331555511984 ], [ -159.646476041433658, 22.150250481665509 ], [ -159.646846775640398, 22.14732038186829 ], [ -159.648032542306566, 22.146956720499876 ], [ -159.647224914019034, 22.145422637296075 ], [ -159.643978014170642, 22.145373760098131 ], [ -159.642938796510066, 22.145397617839087 ], [ -159.642964977892461, 22.14389002411874 ], [ -159.641498385990388, 22.143234292367545 ], [ -159.642002685859637, 22.142722062035023 ], [ -159.643525418475662, 22.141853601564154 ], [ -159.644906847940831, 22.142509709817059 ], [ -159.64594334952659, 22.141023171862241 ], [ -159.647013825213719, 22.141039277137942 ], [ -159.647481609810512, 22.139676722701765 ], [ -159.649647336898454, 22.140252824231993 ], [ -159.649620149866109, 22.141819939409963 ], [ -159.65072113813514, 22.142508791567533 ], [ -159.651103658350195, 22.141809601577975 ], [ -159.651064644773527, 22.140337303180125 ], [ -159.651088161487536, 22.138979455427567 ], [ -159.650097205288915, 22.138536431802159 ], [ -159.653066177696786, 22.136705954215586 ], [ -159.654835111485539, 22.1346462931768 ], [ -159.653895747902538, 22.13395973119999 ], [ -159.652238413748762, 22.134776601968692 ], [ -159.651490545367238, 22.135451828854308 ], [ -159.651064840796806, 22.135868187773642 ], [ -159.650188785945687, 22.136408294401996 ], [ -159.648981959468443, 22.137177442327136 ], [ -159.647076605702807, 22.13761820346549 ], [ -159.642648463672543, 22.140237868353346 ], [ -159.640896085493182, 22.14064316024734 ], [ -159.639962392434796, 22.141095916955571 ], [ -159.638281468229366, 22.140797048835797 ], [ -159.637719258768925, 22.138686946104279 ], [ -159.636626544307518, 22.136610778579005 ], [ -159.634993098753142, 22.134484559250097 ], [ -159.630378923967015, 22.130536681974498 ], [ -159.628039107673487, 22.129072115272166 ], [ -159.623375041517505, 22.1268560603779 ], [ -159.619019742218995, 22.125417620546795 ], [ -159.609123470030056, 22.122297297891585 ], [ -159.599050814539936, 22.118357171881573 ], [ -159.59089315067564, 22.114105744424197 ], [ -159.584873956527701, 22.11124377711587 ], [ -159.580390826328852, 22.109905825115842 ], [ -159.57766779978337, 22.108255987458985 ], [ -159.576474284473761, 22.106628594756835 ], [ -159.577044525269599, 22.105244624300351 ], [ -159.578258581154302, 22.103027926318006 ], [ -159.579719594970015, 22.099848080321102 ], [ -159.581058611262733, 22.094390559591634 ], [ -159.58219998026604, 22.085808285693016 ], [ -159.581846132396834, 22.074836833454828 ], [ -159.581213594175296, 22.072457891070041 ], [ -159.57658867040638, 22.061420250581463 ], [ -159.573700985514876, 22.055924785326109 ], [ -159.569658182621026, 22.049592582642362 ], [ -159.570427013128125, 22.048898793389107 ], [ -159.569837715351355, 22.047313118369473 ], [ -159.570594304521677, 22.046897476766702 ], [ -159.57244536756275, 22.04644833230196 ], [ -159.573308151226314, 22.046461723278682 ], [ -159.573611475526917, 22.045907724832556 ], [ -159.574171290178555, 22.044821659903537 ], [ -159.574480325158618, 22.04508617584154 ], [ -159.575020852915173, 22.046114966706522 ], [ -159.576219899910399, 22.045351088914479 ], [ -159.577946101915956, 22.045030622640947 ], [ -159.577967028986961, 22.04385700332837 ], [ -159.577949697288346, 22.043189524952446 ], [ -159.579672278265662, 22.042092022142096 ], [ -159.580289377162501, 22.043442516153462 ], [ -159.579698992861154, 22.044520934689508 ], [ -159.579727440105472, 22.04561505977389 ], [ -159.57825481840112, 22.046944113678315 ], [ -159.578283347852448, 22.048043498977638 ], [ -159.577685387435025, 22.048872548624537 ], [ -159.578266814570526, 22.049389354850199 ], [ -159.578564389254467, 22.049955680213277 ], [ -159.57899879099449, 22.050341824518195 ], [ -159.578000105157628, 22.051318226203033 ], [ -159.577125288599092, 22.052107706445149 ], [ -159.578622490470423, 22.051780562019346 ], [ -159.580002939876948, 22.050534723650568 ], [ -159.580314653079625, 22.04967520117571 ], [ -159.579727699556429, 22.048622905316446 ], [ -159.580527646354028, 22.048575754523128 ], [ -159.581570668014535, 22.048591886707907 ], [ -159.582333820355871, 22.047497661871443 ], [ -159.583609408418596, 22.046609078488196 ], [ -159.58312919624521, 22.045748070645882 ], [ -159.583492123430119, 22.04504378911426 ], [ -159.584937544600024, 22.044383665031198 ], [ -159.584649817119953, 22.043695053474984 ], [ -159.584309967451588, 22.043085814230423 ], [ -159.585747975494542, 22.042199529901378 ], [ -159.58664945915919, 22.040450088101412 ], [ -159.586961012029548, 22.04016888127514 ], [ -159.587588869464327, 22.03955492026024 ], [ -159.587539749838697, 22.042321758703807 ], [ -159.588149906122936, 22.043708754923244 ], [ -159.588125896788512, 22.045060807825578 ], [ -159.588714537065414, 22.044485212121515 ], [ -159.58900919817134, 22.044768957182814 ], [ -159.589888405715783, 22.045031424580767 ], [ -159.589869122529478, 22.046115561525923 ], [ -159.590755813364666, 22.045323043788834 ], [ -159.590377402202506, 22.044579006785977 ], [ -159.589440801090745, 22.042900036367403 ], [ -159.590158548692784, 22.041507090383991 ], [ -159.590601687543852, 22.041107093616095 ], [ -159.591226564038521, 22.040496008006368 ], [ -159.593368625988177, 22.041514976984686 ], [ -159.593319373835158, 22.039626035149279 ], [ -159.594222879369283, 22.039050271602132 ], [ -159.594928649102457, 22.040699748548498 ], [ -159.595683157380904, 22.041763538451839 ], [ -159.596129618339518, 22.042160312671726 ], [ -159.59675387945876, 22.042761360711669 ], [ -159.597868334738905, 22.042221002290287 ], [ -159.598604967579149, 22.042571384699936 ], [ -159.599739894073082, 22.042545628102484 ], [ -159.600341977771876, 22.042832014406653 ], [ -159.60203438981523, 22.042011337032104 ], [ -159.602088419360825, 22.042552393997283 ], [ -159.601454256351303, 22.043711195121066 ], [ -159.602397217665072, 22.044997064826717 ], [ -159.601231568296384, 22.044979182776984 ], [ -159.600160057165908, 22.046027098396543 ], [ -159.599186226757212, 22.046627402607836 ], [ -159.600474950391344, 22.047012047762539 ], [ -159.601237911920919, 22.047690035191081 ], [ -159.601223935077172, 22.048480878362739 ], [ -159.601528252688297, 22.04905983990345 ], [ -159.60294539994166, 22.049376369245483 ], [ -159.602312362790542, 22.050605092173253 ], [ -159.600955942201352, 22.051224712692783 ], [ -159.600381474216135, 22.051503270932916 ], [ -159.599220043707476, 22.051859309214606 ], [ -159.599505754084873, 22.052048529529337 ], [ -159.601553837927327, 22.052307408816134 ], [ -159.601539693764181, 22.053108574385572 ], [ -159.601935887914436, 22.053489999554522 ], [ -159.60303779681351, 22.052955672859508 ], [ -159.604744980844117, 22.053465138198693 ], [ -159.60446318127336, 22.054198493994772 ], [ -159.603907118668133, 22.054700512319755 ], [ -159.603589738218574, 22.055280388779167 ], [ -159.603314043260411, 22.057455025457809 ], [ -159.602527088112026, 22.058165442786038 ], [ -159.603733464990654, 22.058739140120842 ], [ -159.607673218644123, 22.058799510781366 ], [ -159.60920893269838, 22.057704213285543 ], [ -159.609423235580124, 22.057970717533728 ], [ -159.608847201319691, 22.059560214672977 ], [ -159.609142791700066, 22.060160217581419 ], [ -159.610591217674369, 22.060127260841117 ], [ -159.610881428441161, 22.060679242550506 ], [ -159.611760630297539, 22.060941556277456 ], [ -159.612046746316082, 22.061216936036843 ], [ -159.612946778794338, 22.061485467851174 ], [ -159.60986258336996, 22.062431150124958 ], [ -159.609153221298413, 22.063124899937819 ], [ -159.608285913888409, 22.063521114323208 ], [ -159.608278314407585, 22.063951548489612 ], [ -159.608868250096833, 22.064475654098764 ], [ -159.60916017455321, 22.066106136145457 ], [ -159.610039407302537, 22.066368458254665 ], [ -159.611056244014975, 22.06685194068552 ], [ -159.611912387749527, 22.06562402290016 ], [ -159.613231309035939, 22.066214364291113 ], [ -159.612949346049248, 22.066905055554418 ], [ -159.612643669260081, 22.067463681345114 ], [ -159.612665257426954, 22.068289011588394 ], [ -159.610350119195857, 22.068253630329785 ], [ -159.609737165149397, 22.069103741627757 ], [ -159.609765606403727, 22.070189979890507 ], [ -159.608878552557911, 22.070990722635241 ], [ -159.608907146855131, 22.072080897336132 ], [ -159.607180135458918, 22.072054464468042 ], [ -159.606570693222039, 22.072604579043148 ], [ -159.606598766437742, 22.073676460779915 ], [ -159.606291947147724, 22.073976478632819 ], [ -159.605481319217375, 22.074346746170448 ], [ -159.605278821103525, 22.075739171522329 ] ], [ [ -159.639643043221668, 22.151765315097371 ], [ -159.639986099059655, 22.153599663739698 ], [ -159.640868440090884, 22.153474667100181 ], [ -159.64122505081744, 22.151899700112729 ], [ -159.639643043221668, 22.151765315097371 ] ], [ [ -159.65008793472532, 22.145490572004888 ], [ -159.65020337935124, 22.146470862564644 ], [ -159.650654913876394, 22.146675718110082 ], [ -159.650292099787947, 22.145606633921329 ], [ -159.65008793472532, 22.145490572004888 ] ], [ [ -159.686463905897227, 22.087614494953485 ], [ -159.686565039016699, 22.087944508329791 ], [ -159.686818905440532, 22.087705786653448 ], [ -159.686463905897227, 22.087614494953485 ] ] ] } },
{ "type": "Feature", "properties": { "ID": 16, "GRIDCODE": 2 }, "geometry": { "type": "Polygon", "coordinates": [ [ [ -159.565574494592624, 22.036040516991108 ], [ -159.565149381630818, 22.036776239969388 ], [ -159.563979532003515, 22.037024980124233 ], [ -159.563688591146672, 22.036965238968428 ], [ -159.562882947452437, 22.037136524417566 ], [ -159.562749779823378, 22.036592150223633 ], [ -159.564240176785887, 22.036155818908973 ], [ -159.565574494592624, 22.036040516991108 ] ] ] } },
{ "type": "Feature", "properties": { "ID": 17, "GRIDCODE": 2 }, "geometry": { "type": "Polygon", "coordinates": [ [ [ -159.565574494592624, 22.036040516991108 ], [ -159.565672683375539, 22.035709732285582 ], [ -159.565928556199026, 22.035946509222001 ], [ -159.565574494592624, 22.036040516991108 ] ] ] } },
{ "type": "Feature", "properties": { "ID": 18, "GRIDCODE": 2 }, "geometry": { "type": "Polygon", "coordinates": [ [ [ -159.566443354413792, 22.035224435697732 ], [ -159.566798152122914, 22.035315993166623 ], [ -159.566544170423811, 22.035554532639825 ], [ -159.566443354413792, 22.035224435697732 ] ] ] } },
{ "type": "Feature", "properties": { "ID": 19, "GRIDCODE": 2 }, "geometry": { "type": "Polygon", "coordinates": [ [ [ -159.568471737291929, 22.033591251120033 ], [ -159.569168262260405, 22.034003560153209 ], [ -159.567777411361675, 22.034512524993204 ], [ -159.56760687160741, 22.033926184672968 ], [ -159.568148371714841, 22.03406602384009 ], [ -159.568471737291929, 22.033591251120033 ] ] ] } },
{ "type": "Feature", "properties": { "ID": 20, "GRIDCODE": 2 }, "geometry": { "type": "Polygon", "coordinates": [ [ [ -159.576234932980327, 22.012424070358559 ], [ -159.576589679313741, 22.012515607962911 ], [ -159.576335754092185, 22.012754162048889 ], [ -159.576234932980327, 22.012424070358559 ] ] ] } },
{ "type": "Feature", "properties": { "ID": 21, "GRIDCODE": 2 }, "geometry": { "type": "Polygon", "coordinates": [ [ [ -159.56891137614258, 21.998085208963371 ], [ -159.568557410110088, 21.998179221563337 ], [ -159.568813218708073, 21.998415996407179 ], [ -159.56891137614258, 21.998085208963371 ], [ -159.570132098754812, 21.998220040458587 ], [ -159.569618543115297, 21.99902076336851 ], [ -159.56983284089398, 22.000339374871412 ], [ -159.569002532945007, 22.000659652803982 ], [ -159.569088220919184, 22.001186819912515 ], [ -159.570590465593284, 22.002017625873361 ], [ -159.569099894698297, 22.00231636306416 ], [ -159.568516392691976, 22.003660091054368 ], [ -159.56782493894957, 22.004536559640677 ], [ -159.567946922672462, 22.005287169124596 ], [ -159.566532387960535, 22.005570632959241 ], [ -159.567370222894823, 22.006616262652589 ], [ -159.567317926848204, 22.006955012541273 ], [ -159.565352912605249, 22.006691169494665 ], [ -159.565009418452547, 22.00785798241953 ], [ -159.563563871238756, 22.007663855633655 ], [ -159.563286950402926, 22.008910335047272 ], [ -159.562414547252843, 22.008793167523905 ], [ -159.561999457325584, 22.008851826884335 ], [ -159.562554884976976, 22.010155117474504 ], [ -159.561530301220245, 22.010424942728299 ], [ -159.560987678830372, 22.010732731691007 ], [ -159.560364674969719, 22.010972987211424 ], [ -159.560501460865623, 22.011814930716668 ], [ -159.559793874032664, 22.012328072080415 ], [ -159.558881490356441, 22.013438668341688 ], [ -159.55903812006045, 22.014402312323579 ], [ -159.559627547516385, 22.014823384040728 ], [ -159.56012342245009, 22.015941447345515 ], [ -159.560456025880455, 22.014444549590731 ], [ -159.560355160648385, 22.013823520275622 ], [ -159.561997360554301, 22.013557607107291 ], [ -159.562098149772822, 22.013887708195213 ], [ -159.562352101338604, 22.013649175646169 ], [ -159.561997360554301, 22.013557607107291 ], [ -159.562193697925835, 22.012601076806593 ], [ -159.562720257838095, 22.012609294711851 ], [ -159.563013653820548, 22.012602712602476 ], [ -159.563448524105041, 22.013021638057811 ], [ -159.563879929041974, 22.012599834382279 ], [ -159.564175346984314, 22.012333216681316 ], [ -159.564731721353297, 22.011789246761602 ], [ -159.564779431657684, 22.012816401470129 ], [ -159.564464049250773, 22.013686018347951 ], [ -159.564763068546256, 22.013951929547826 ], [ -159.565051136002893, 22.01422945744978 ], [ -159.566508643281622, 22.013398393332068 ], [ -159.567083249563524, 22.0134073409336 ], [ -159.567672243548657, 22.013394103268439 ], [ -159.56692314942498, 22.015134732110468 ], [ -159.567654377886385, 22.015839131018396 ], [ -159.569129380174189, 22.015568415191144 ], [ -159.570255633158496, 22.01502244719639 ], [ -159.570757117158081, 22.015429392471642 ], [ -159.569420949996442, 22.016382137228462 ], [ -159.568807378880081, 22.016090098318976 ], [ -159.567413521003147, 22.016121446505192 ], [ -159.565638155204084, 22.015845406370786 ], [ -159.565051078210161, 22.01613000464739 ], [ -159.564475396414537, 22.016121037278779 ], [ -159.563900781271883, 22.016399567217931 ], [ -159.563302866396185, 22.016672600536172 ], [ -159.563324145684305, 22.017495980307825 ], [ -159.562448741811608, 22.018285997197346 ], [ -159.562463141905909, 22.018841930224507 ], [ -159.561580213252569, 22.019112411815811 ], [ -159.56159083835297, 22.019521595698638 ], [ -159.561583499272416, 22.019928161285254 ], [ -159.561590609205467, 22.020201661737538 ], [ -159.561295955877739, 22.020739729317494 ], [ -159.56130340393392, 22.021027124029832 ], [ -159.560135961551424, 22.02100890229578 ], [ -159.559789479497056, 22.022355378365202 ], [ -159.558253425175735, 22.022389848329809 ], [ -159.557244872942903, 22.022374092053148 ], [ -159.556944562209651, 22.022922576300999 ], [ -159.556517532698905, 22.023750937376487 ], [ -159.555214939958631, 22.023730575869575 ], [ -159.554919779955128, 22.024019078730802 ], [ -159.554626316347111, 22.024014497560138 ], [ -159.554332825164437, 22.024021065385408 ], [ -159.550644717262088, 22.015393859281787 ], [ -159.548757177478336, 22.011499800547064 ], [ -159.548770454572121, 22.010764454606356 ], [ -159.548271785243145, 22.009869766412251 ], [ -159.548764800573451, 22.009387846690043 ], [ -159.549773757885163, 22.009403655432994 ], [ -159.550209692916837, 22.009393905382225 ], [ -159.550514338673025, 22.009398672496541 ], [ -159.551085176032927, 22.008840605457866 ], [ -159.551957462655736, 22.009681125549985 ], [ -159.553398731698678, 22.009648839978208 ], [ -159.553419534368231, 22.010456095712897 ], [ -159.553124326994833, 22.010744711342902 ], [ -159.55253583492447, 22.011013389291321 ], [ -159.552836954698932, 22.011553552453993 ], [ -159.552829478861582, 22.011967926852449 ], [ -159.55371788816737, 22.012366159661894 ], [ -159.553700552650241, 22.013328875151515 ], [ -159.554580371312227, 22.012902486842922 ], [ -159.554900494930649, 22.012907491067207 ], [ -159.554865393627239, 22.011546534088328 ], [ -159.555451758379746, 22.011278847571713 ], [ -159.555444485966945, 22.010996827659877 ], [ -159.556316848416401, 22.011010461528816 ], [ -159.557081852922494, 22.010262538402632 ], [ -159.558335773913655, 22.010859515524388 ], [ -159.558352850746388, 22.00991119240409 ], [ -159.558338877761088, 22.009369185195929 ], [ -159.558936843048969, 22.009096120319207 ], [ -159.558922693333955, 22.008545759936279 ], [ -159.56008009879352, 22.008563827920618 ], [ -159.560375075345604, 22.008275415851465 ], [ -159.561572119557098, 22.007998952935665 ], [ -159.562547156760189, 22.007045641799341 ], [ -159.562990270199634, 22.006645718672857 ], [ -159.563273998041012, 22.006368291051256 ], [ -159.563830022912214, 22.005866408699028 ], [ -159.56414760318242, 22.005286389133623 ], [ -159.564133866950897, 22.004755762714947 ], [ -159.564429180967863, 22.004467028040494 ], [ -159.565002473954166, 22.00447595502402 ], [ -159.565594331153591, 22.003655291020284 ], [ -159.565566343649095, 22.002574040623088 ], [ -159.566382484177581, 22.002201307279936 ], [ -159.566793803203126, 21.999788662107377 ], [ -159.567628065476327, 21.999035637657165 ], [ -159.567600063733039, 21.997954238432509 ], [ -159.567607386046092, 21.997547671880845 ], [ -159.567575112563361, 21.996301923862646 ], [ -159.567885371176459, 21.996600826365647 ], [ -159.568182864769341, 21.996865397765021 ], [ -159.568470926740133, 21.997682907883345 ], [ -159.56876842369914, 21.997947478114508 ], [ -159.56891137614258, 21.998085208963371 ] ] ] } }
]
}
