{
"type": "FeatureCollection",
"name": "panlong",
"crs": { "type": "name", "properties": { "name": "urn:ogc:def:crs:OGC:1.3:CRS84" } },
"features": [
{ "type": "Feature", "properties": { "ID": 1, "GRIDCODE": 1 }, "geometry": { "type": "Polygon", "coordinates": [ [ [ -155.708012767151672, 20.082538270611852 ], [ -155.709038580805498, 20.082693183398501 ], [ -155.710144279136614, 20.083257562706457 ], [ -155.711433470058012, 20.083679667441871 ], [ -155.712855038205959, 20.084169142760178 ], [ -155.715216306172124, 20.085374546380105 ], [ -155.716727623510536, 20.084447105547678 ], [ -155.717581663896652, 20.084479392572959 ], [ -155.717581096792401, 20.083727928432282 ], [ -155.719041907581783, 20.083423268460209 ], [ -155.719655215305551, 20.084680179828762 ], [ -155.718886564953493, 20.085707264698947 ], [ -155.720331488191931, 20.088490352208122 ], [ -155.719382714723196, 20.088839444504817 ], [ -155.718459260774608, 20.087450108419045 ], [ -155.717080870059107, 20.0874510315831 ], [ -155.716378667728975, 20.087424343261635 ], [ -155.714642007208482, 20.087950040199946 ], [ -155.713497395260788, 20.087906637799559 ], [ -155.713199332136583, 20.088188099782958 ], [ -155.71287374131532, 20.088447498744873 ], [ -155.71206483585172, 20.087620156864791 ], [ -155.711211008031114, 20.08706801740658 ], [ -155.710655624440989, 20.086484423046446 ], [ -155.711426545006702, 20.08513682783418 ], [ -155.710687490119142, 20.084061579327013 ], [ -155.708992749920782, 20.083506838510115 ], [ -155.70819220760103, 20.08309819829293 ], [ -155.708012767151672, 20.082538270611852 ] ] ] } },
{ "type": "Feature", "properties": { "ID": 2, "GRIDCODE": 1 }, "geometry": { "type": "Polygon", "coordinates": [ [ [ -155.722139864681225, 20.078469209880772 ], [ -155.723335144347033, 20.078684034226846 ], [ -155.723859026401101, 20.080514367479431 ], [ -155.722902427775495, 20.080031766973487 ], [ -155.722250188786774, 20.079165603106482 ], [ -155.722139864681225, 20.078469209880772 ] ] ] } },
{ "type": "Feature", "properties": { "ID": 3, "GRIDCODE": 1 }, "geometry": { "type": "Polygon", "coordinates": [ [ [ -155.317472879843109, 19.897800805243723 ], [ -155.317732120733126, 19.898021603176918 ], [ -155.318775049017574, 19.901471797870634 ], [ -155.316586997673056, 19.900987409688977 ], [ -155.31701977742253, 19.899290149825585 ], [ -155.317472879843109, 19.897800805243723 ] ] ] } },
{ "type": "Feature", "properties": { "ID": 4, "GRIDCODE": 1 }, "geometry": { "type": "Polygon", "coordinates": [ [ [ -155.331338744078636, 19.742719827789479 ], [ -155.331027965594814, 19.743564341475409 ], [ -155.32458371167067, 19.756097482390416 ], [ -155.319501866267018, 19.766182064117988 ], [ -155.318629456629338, 19.766941752626916 ], [ -155.318627891358034, 19.768005911152422 ], [ -155.317697684957722, 19.769141335903065 ], [ -155.315405315825672, 19.77013632996173 ], [ -155.315404643271961, 19.770772291081325 ], [ -155.314114393253504, 19.771535492792985 ], [ -155.314466861265942, 19.77390903243316 ], [ -155.31485942091723, 19.775948230958157 ], [ -155.314410926751577, 19.77633864291597 ], [ -155.313680180842056, 19.777345193330856 ], [ -155.310633110669784, 19.779627398674467 ], [ -155.310567374697371, 19.781098080495937 ], [ -155.311142363740629, 19.781689892276269 ], [ -155.311553890224587, 19.78208060971296 ], [ -155.312016718260139, 19.78448603469872 ], [ -155.311333963531155, 19.786024592859437 ], [ -155.310732681453715, 19.786548226696937 ], [ -155.310730521167187, 19.787901273969872 ], [ -155.310116614465784, 19.788971800881228 ], [ -155.310115541782295, 19.789502547755951 ], [ -155.309494952962837, 19.79110423021833 ], [ -155.309494348836409, 19.791420881517407 ], [ -155.308338463601729, 19.792427328118521 ], [ -155.307998188020974, 19.793304463530429 ], [ -155.307995336107183, 19.795387562763047 ], [ -155.307667708879563, 19.795958339091058 ], [ -155.307374846688617, 19.796498907533003 ], [ -155.307071061140618, 19.797028676122995 ], [ -155.306771945372105, 19.797839783706117 ], [ -155.305817623685442, 19.799112058534693 ], [ -155.306125943801447, 19.800803783800863 ], [ -155.306661088502892, 19.802396588428625 ], [ -155.306299472442333, 19.803107805904293 ], [ -155.305312995531693, 19.804826910633302 ], [ -155.305649802731324, 19.809876693862854 ], [ -155.305227934575015, 19.812032783853443 ], [ -155.303855374962808, 19.812666217118601 ], [ -155.303265739102841, 19.812922022908339 ], [ -155.303263807826539, 19.814139993463055 ], [ -155.302093546381229, 19.814647818997766 ], [ -155.302394754234456, 19.817296520905742 ], [ -155.30340030905387, 19.81833079119566 ], [ -155.304305579791475, 19.81863000481599 ], [ -155.305101625785852, 19.819449258287008 ], [ -155.30624235322756, 19.820002337235366 ], [ -155.306805834732614, 19.82109589535321 ], [ -155.306890251946101, 19.830245168306963 ], [ -155.307814636772378, 19.851372056473188 ], [ -155.308060835380189, 19.854854364842584 ], [ -155.309828017421353, 19.869405399296017 ], [ -155.312801821540262, 19.882750238537302 ], [ -155.31653991682245, 19.894720038071434 ], [ -155.31495945705467, 19.89459767266462 ], [ -155.314557801512251, 19.893818305041407 ], [ -155.314275459940291, 19.891917759468914 ], [ -155.313451527106736, 19.892166058273506 ], [ -155.312592868778353, 19.892562183774455 ], [ -155.312593803942008, 19.892015577001303 ], [ -155.312622883805773, 19.89136382358264 ], [ -155.312344465864925, 19.890789747572125 ], [ -155.312056286613796, 19.890516271775514 ], [ -155.313236197723256, 19.889110739874688 ], [ -155.312966624934205, 19.888637292350644 ], [ -155.312411062774657, 19.8881095416289 ], [ -155.312133723572884, 19.887537338712189 ], [ -155.311574844267113, 19.886719023314374 ], [ -155.311634191267387, 19.885388316240391 ], [ -155.310328416553006, 19.883787431749212 ], [ -155.310804803420581, 19.882908387914497 ], [ -155.311335780673232, 19.882446523242699 ], [ -155.309983799845895, 19.881538007358479 ], [ -155.3094124021911, 19.881260768076078 ], [ -155.308864411194037, 19.88069722001034 ], [ -155.307937076381535, 19.879816536047937 ], [ -155.308330543573959, 19.878802029014398 ], [ -155.308331342577787, 19.878526618679757 ], [ -155.308645774843654, 19.877715057559659 ], [ -155.307795292294998, 19.877713793918751 ], [ -155.307229384195608, 19.8771765680629 ], [ -155.306878834860186, 19.875353377747256 ], [ -155.307412417623596, 19.874850606414906 ], [ -155.30843725900607, 19.873958896435997 ], [ -155.308170157528536, 19.873380296464816 ], [ -155.307319099278146, 19.872826582295346 ], [ -155.306771140637466, 19.872263033154486 ], [ -155.306080060255368, 19.871606376636723 ], [ -155.30565979794244, 19.870356117268376 ], [ -155.305395022117153, 19.868569863732784 ], [ -155.304563961972832, 19.868167221253767 ], [ -155.305470582003153, 19.866179557508762 ], [ -155.304320772070753, 19.865186140669824 ], [ -155.303202815784033, 19.866239778733728 ], [ -155.30169449507386, 19.86586349672562 ], [ -155.300651368857757, 19.86487306949839 ], [ -155.300327812101415, 19.863190267216087 ], [ -155.302961576250368, 19.863296010088384 ], [ -155.30328092120385, 19.861910711140403 ], [ -155.304461728403879, 19.860337917595292 ], [ -155.303697468009318, 19.859490219812269 ], [ -155.303062768602132, 19.859464616104695 ], [ -155.302038799223766, 19.859937104609383 ], [ -155.300477894517229, 19.859421751348385 ], [ -155.300489876647362, 19.859146310661959 ], [ -155.299954713676271, 19.857553210648323 ], [ -155.300254887214805, 19.856705154807809 ], [ -155.300981338180719, 19.855112103223064 ], [ -155.300157581959837, 19.853002070984928 ], [ -155.299760155164904, 19.852624552175161 ], [ -155.299843693685858, 19.850758576424163 ], [ -155.299261202357314, 19.850459152205058 ], [ -155.298404010028833, 19.850175955393443 ], [ -155.298130077299504, 19.849894307484515 ], [ -155.297011638272551, 19.848831735589929 ], [ -155.297012226437033, 19.848517731900056 ], [ -155.297918376677984, 19.847437778652829 ], [ -155.297919989904784, 19.846237255276574 ], [ -155.298611357761132, 19.841242956223528 ], [ -155.298921556514358, 19.840442685026463 ], [ -155.299233380912767, 19.839090538405628 ], [ -155.299556133152123, 19.83774866165065 ], [ -155.299556934475902, 19.837473252744925 ], [ -155.300260811369242, 19.836535510248009 ], [ -155.299048902759182, 19.834953210180714 ], [ -155.29935285516504, 19.834204613655491 ], [ -155.300203528569682, 19.833464460288557 ], [ -155.300253442597381, 19.83234766960301 ], [ -155.300254604497354, 19.831671023771502 ], [ -155.300319294794207, 19.830229949375948 ], [ -155.300030333409381, 19.829633714921165 ], [ -155.299716585052806, 19.829335651944625 ], [ -155.29979271387279, 19.827642121622656 ], [ -155.298547316459604, 19.826832015216684 ], [ -155.299244716610048, 19.825617124272895 ], [ -155.298148908695566, 19.824186582945174 ], [ -155.298160887416799, 19.823910877581351 ], [ -155.296776663934764, 19.822103231550695 ], [ -155.296538806066849, 19.818316878210609 ], [ -155.294862796036455, 19.817892977442309 ], [ -155.294303053890047, 19.817605392892091 ], [ -155.293017536076718, 19.817180603794142 ], [ -155.292469786267333, 19.816617310687274 ], [ -155.291768042232007, 19.815950371777415 ], [ -155.291768989834964, 19.815476461207314 ], [ -155.292930133520741, 19.815146144689532 ], [ -155.293235641422967, 19.814064541934332 ], [ -155.293642543108547, 19.813355361575432 ], [ -155.293227017625696, 19.811667746925217 ], [ -155.293870113492517, 19.811371059533762 ], [ -155.294453550089713, 19.811117800714687 ], [ -155.294454430533762, 19.810598159549421 ], [ -155.294759035506303, 19.810036192063464 ], [ -155.295632743550726, 19.808513596628142 ], [ -155.295690747262256, 19.807216179448261 ], [ -155.295691779502619, 19.806810199870402 ], [ -155.295716045229966, 19.806269369006642 ], [ -155.295717830319148, 19.804987436586746 ], [ -155.296109071269541, 19.803361509874236 ], [ -155.295337657571594, 19.802231635381503 ], [ -155.296904626801222, 19.800363672309441 ], [ -155.297320357897291, 19.798957107678632 ], [ -155.297325776594164, 19.795370606088831 ], [ -155.297701755280713, 19.794401462793299 ], [ -155.297423999048732, 19.793275231168344 ], [ -155.297482732860658, 19.791968573104747 ], [ -155.297157573320419, 19.791659706230067 ], [ -155.297229217177744, 19.790060709192879 ], [ -155.297231263590305, 19.788814198553446 ], [ -155.297574383261406, 19.787598814272524 ], [ -155.298460117222191, 19.786055285169283 ], [ -155.298184101681159, 19.785457211891952 ], [ -155.297474247598359, 19.784782476490449 ], [ -155.298224318703433, 19.784129286155146 ], [ -155.298510920721469, 19.783859272196821 ], [ -155.299665850024155, 19.78361782549127 ], [ -155.299667076094721, 19.78308179999739 ], [ -155.30026879357726, 19.782032737572507 ], [ -155.299992775014971, 19.781434666913857 ], [ -155.299162701336996, 19.780645903832774 ], [ -155.299474682653454, 19.779277878693005 ], [ -155.299772192280358, 19.779018660086528 ], [ -155.300075540815584, 19.778458495530291 ], [ -155.301197158275727, 19.777481782811424 ], [ -155.30161551475183, 19.776753505938689 ], [ -155.301061769597084, 19.775679716648774 ], [ -155.301581516861063, 19.774720139135145 ], [ -155.301885269366181, 19.774190110780896 ], [ -155.301886341889627, 19.773660160202173 ], [ -155.302327623675097, 19.773244258488457 ], [ -155.303316406898745, 19.772382929472951 ], [ -155.303656200414906, 19.771790997015991 ], [ -155.304143851452949, 19.770889952875429 ], [ -155.305137761825279, 19.770458775272783 ], [ -155.305981486061484, 19.76966288770566 ], [ -155.307155431890664, 19.768640419025587 ], [ -155.307599792399117, 19.766370045541336 ], [ -155.308345299145486, 19.765666741660581 ], [ -155.309528126356639, 19.76515352903553 ], [ -155.309528496171964, 19.764604264132217 ], [ -155.309832222259416, 19.764339864142158 ], [ -155.310406717316113, 19.763278025784974 ], [ -155.311283679979653, 19.762515037834184 ], [ -155.311900732400289, 19.761374507734768 ], [ -155.312777125119936, 19.760611233778071 ], [ -155.31377943188221, 19.759665785170633 ], [ -155.314821049442685, 19.75875867426323 ], [ -155.315989745138125, 19.757424110836563 ], [ -155.317156697670555, 19.756407489255281 ], [ -155.317559185940127, 19.754055052863794 ], [ -155.319791143133443, 19.753588470060524 ], [ -155.319827826662845, 19.75276900885962 ], [ -155.319830613151339, 19.750896551795758 ], [ -155.320723430639703, 19.750483800535928 ], [ -155.321025791276156, 19.750495836353224 ], [ -155.321863624425731, 19.749705012028631 ], [ -155.322489642530343, 19.749433466392855 ], [ -155.324419802932454, 19.747611990398738 ], [ -155.32608088870785, 19.747613871035842 ], [ -155.326780438160142, 19.747641720443781 ], [ -155.327352445972849, 19.74714357100267 ], [ -155.32798405813574, 19.746041851128666 ], [ -155.327986111493914, 19.744684283689978 ], [ -155.328292078714838, 19.744684749126233 ], [ -155.328848812347132, 19.744706749426189 ], [ -155.329306868379405, 19.744307491876285 ], [ -155.330838559306585, 19.742862089387629 ], [ -155.331338744078636, 19.742719827789479 ] ] ] } },
{ "type": "Feature", "properties": { "ID": 5, "GRIDCODE": 1 }, "geometry": { "type": "Polygon", "coordinates": [ [ [ -155.331338744078636, 19.742719827789479 ], [ -155.331483983146768, 19.741838083913549 ], [ -155.332036351737855, 19.741635564626954 ], [ -155.331588907579317, 19.742596756447423 ], [ -155.331338744078636, 19.742719827789479 ] ] ] } },
{ "type": "Feature", "properties": { "ID": 6, "GRIDCODE": 2 }, "geometry": { "type": "Polygon", "coordinates": [ [ [ -155.351521930059533, 19.672213853872758 ], [ -155.351175930531099, 19.672114035161215 ], [ -155.351431777926166, 19.671882125966398 ], [ -155.351521930059533, 19.672213853872758 ] ] ] } },
{ "type": "Feature", "properties": { "ID": 7, "GRIDCODE": 2 }, "geometry": { "type": "Polygon", "coordinates": [ [ [ -155.351521930059533, 19.672213853872758 ], [ -155.352422515550529, 19.672050563117278 ], [ -155.354200910471548, 19.672187420021832 ], [ -155.354537942617867, 19.671845339741786 ], [ -155.355101210864575, 19.671888767686138 ], [ -155.355530194538517, 19.671873162111702 ], [ -155.356052236134644, 19.67191337067797 ], [ -155.35710974704196, 19.672485728410749 ], [ -155.358441939608099, 19.672437698128338 ], [ -155.357501189937921, 19.677557902504272 ], [ -155.356545276621688, 19.682086720187389 ], [ -155.355779234375831, 19.682443347032638 ], [ -155.354291925378419, 19.68012050625947 ], [ -155.354396558785453, 19.678901649767166 ], [ -155.353512085757842, 19.678623033597926 ], [ -155.351804193477932, 19.677908956490235 ], [ -155.351902185447727, 19.67676213312749 ], [ -155.351567848340409, 19.676147354861765 ], [ -155.351311411120861, 19.675543148150982 ], [ -155.352056233064076, 19.674939477535951 ], [ -155.351503436322815, 19.673374717909216 ], [ -155.351955173184905, 19.672626043936116 ], [ -155.351653691829881, 19.672359540330415 ], [ -155.351521930059533, 19.672213853872758 ] ] ] } },
{ "type": "Feature", "properties": { "ID": 8, "GRIDCODE": 2 }, "geometry": { "type": "Polygon", "coordinates": [ [ [ -155.352568767597148, 19.663843957715656 ], [ -155.35410489231316, 19.664250792789847 ], [ -155.353486852215468, 19.665074871762393 ], [ -155.351795390337401, 19.665292149539884 ], [ -155.351047066366704, 19.665732392981948 ], [ -155.349360472412627, 19.66605468754738 ], [ -155.34960274008165, 19.665584334763061 ], [ -155.350538988245489, 19.665274008570847 ], [ -155.351191242483736, 19.664418388235848 ], [ -155.352448556057794, 19.664001704386155 ], [ -155.352568767597148, 19.663843957715656 ] ] ] } },
{ "type": "Feature", "properties": { "ID": 9, "GRIDCODE": 2 }, "geometry": { "type": "Polygon", "coordinates": [ [ [ -155.358876613152432, 19.662889288129485 ], [ -155.359286716305746, 19.663238870312526 ], [ -155.358873778261568, 19.666742523034376 ], [ -155.357511421881384, 19.66681849968456 ], [ -155.35723399351545, 19.666500154454564 ], [ -155.356284791195492, 19.666075652849116 ], [ -155.356686794295086, 19.665426400138916 ], [ -155.356982018886868, 19.664834455331018 ], [ -155.358139322341486, 19.664373141057659 ], [ -155.358422539021973, 19.663546743510373 ], [ -155.358876613152432, 19.662889288129485 ] ] ] } },
{ "type": "Feature", "properties": { "ID": 10, "GRIDCODE": 2 }, "geometry": { "type": "Polygon", "coordinates": [ [ [ -155.346322255119873, 19.662092824153305 ], [ -155.347016351794224, 19.66229621649277 ], [ -155.346502803499618, 19.662744390859444 ], [ -155.346322255119873, 19.662092824153305 ] ] ] } },
{ "type": "Feature", "properties": { "ID": 11, "GRIDCODE": 2 }, "geometry": { "type": "Polygon", "coordinates": [ [ [ -155.351677521607741, 19.652727834731344 ], [ -155.352402096321498, 19.65286547159981 ], [ -155.352939813721633, 19.653171924487275 ], [ -155.353589677437782, 19.653454748048119 ], [ -155.353476905904301, 19.654320020374001 ], [ -155.352507909786453, 19.654206499458052 ], [ -155.353239514042826, 19.656179321146162 ], [ -155.352986973313165, 19.658115764311432 ], [ -155.349800520053662, 19.657742524932356 ], [ -155.34852551625238, 19.658400177245735 ], [ -155.348568594761929, 19.658912548037918 ], [ -155.349390741553947, 19.658488615391473 ], [ -155.351145029891114, 19.658278443142283 ], [ -155.351670325118647, 19.658764399997274 ], [ -155.34931007486685, 19.659314883226074 ], [ -155.348815104011749, 19.659855169740119 ], [ -155.347354765028257, 19.660071297363693 ], [ -155.347071502040563, 19.660380888860626 ], [ -155.346816477360903, 19.65978966221634 ], [ -155.346443386126765, 19.659483103584705 ], [ -155.345719593012916, 19.657759957746908 ], [ -155.346848857962385, 19.65690930208449 ], [ -155.347155039423143, 19.65627768395343 ], [ -155.347966963288684, 19.654999207287759 ], [ -155.348518806705272, 19.654583523816239 ], [ -155.349315885350165, 19.653713139400136 ], [ -155.351080159309845, 19.653379981520786 ], [ -155.351677521607741, 19.652727834731344 ] ] ] } },
{ "type": "Feature", "properties": { "ID": 12, "GRIDCODE": 2 }, "geometry": { "type": "Polygon", "coordinates": [ [ [ -155.340662535726551, 19.647090100409176 ], [ -155.341030029041491, 19.647248258851246 ], [ -155.340762922064613, 19.647707257074131 ], [ -155.340662535726551, 19.647090100409176 ] ] ] } },
{ "type": "Feature", "properties": { "ID": 13, "GRIDCODE": 2 }, "geometry": { "type": "Polygon", "coordinates": [ [ [ -155.340662535726551, 19.647090100409176 ], [ -155.339755342811259, 19.64646919322054 ], [ -155.341554975866757, 19.645410443608561 ], [ -155.341774832036862, 19.646443456313904 ], [ -155.340788882381673, 19.646661805516132 ], [ -155.340662535726551, 19.647090100409176 ] ] ] } },
{ "type": "Feature", "properties": { "ID": 14, "GRIDCODE": 2 }, "geometry": { "type": "Polygon", "coordinates": [ [ [ -155.351575632239275, 19.644605265176754 ], [ -155.352275679687153, 19.644764868225991 ], [ -155.35514695081477, 19.645073743436281 ], [ -155.35539864558433, 19.645640308577768 ], [ -155.355937150367282, 19.646602594070778 ], [ -155.355981763583856, 19.647319861119744 ], [ -155.355638143600288, 19.648622694915737 ], [ -155.353913602959494, 19.649076723357322 ], [ -155.354165089725768, 19.649677121620858 ], [ -155.356154199897389, 19.649566286168692 ], [ -155.356180383717742, 19.649987911351925 ], [ -155.353852156620491, 19.651299894294819 ], [ -155.353010064572771, 19.65070838587264 ], [ -155.352329896459821, 19.651050108820399 ], [ -155.350876592722443, 19.650909826798287 ], [ -155.348704555000211, 19.652000749355317 ], [ -155.347535344235922, 19.652227565638555 ], [ -155.347258236713714, 19.652783383551526 ], [ -155.346603682579087, 19.653619121690344 ], [ -155.346651988485604, 19.654393028663339 ], [ -155.346039946294638, 19.655174645989941 ], [ -155.345115123867458, 19.656509232088233 ], [ -155.344242634922693, 19.656077517223824 ], [ -155.343463048313254, 19.655412959240699 ], [ -155.343211389407315, 19.654846382097158 ], [ -155.342363844375598, 19.653660485896491 ], [ -155.341699922681954, 19.652473834399622 ], [ -155.342512891955067, 19.651838538931344 ], [ -155.342413593962902, 19.650238599166869 ], [ -155.342528723848915, 19.649173286344421 ], [ -155.342187398740322, 19.649140430200205 ], [ -155.341385057431296, 19.649185149719894 ], [ -155.340753878749098, 19.648302359101574 ], [ -155.342269116034174, 19.648072058080579 ], [ -155.342805342509365, 19.647507779629116 ], [ -155.343789768003205, 19.647602892794527 ], [ -155.345393876864449, 19.645913377730125 ], [ -155.347201249317351, 19.646087860424029 ], [ -155.348300267409627, 19.645730615965093 ], [ -155.3490339431672, 19.646573702270469 ], [ -155.349981668095808, 19.646071686603349 ], [ -155.350388106030124, 19.645643785625357 ], [ -155.351169200099747, 19.645033169810549 ], [ -155.351575632239275, 19.644605265176754 ] ] ] } },
{ "type": "Feature", "properties": { "ID": 15, "GRIDCODE": 2 }, "geometry": { "type": "Polygon", "coordinates": [ [ [ -155.346198810489881, 19.642330526022842 ], [ -155.347214032356817, 19.642469065331678 ], [ -155.347748593988513, 19.642789737948871 ], [ -155.348461981953932, 19.642704583692282 ], [ -155.349165878460184, 19.642964724317629 ], [ -155.347343004460299, 19.644239582118814 ], [ -155.345686170087134, 19.64397300439003 ], [ -155.345831754927929, 19.643162862285692 ], [ -155.346198810489881, 19.642330526022842 ] ] ] } },
{ "type": "Feature", "properties": { "ID": 16, "GRIDCODE": 2 }, "geometry": { "type": "Polygon", "coordinates": [ [ [ -155.349686860000702, 19.63969460105427 ], [ -155.350130944205659, 19.639821517702636 ], [ -155.35037278577812, 19.640132006159106 ], [ -155.350934463928013, 19.640561334617658 ], [ -155.350638725938182, 19.641301028600942 ], [ -155.349796418178869, 19.641165493803161 ], [ -155.348972814021522, 19.641263746391452 ], [ -155.348892762353671, 19.640658898712239 ], [ -155.349686860000702, 19.63969460105427 ] ] ] } },
{ "type": "Feature", "properties": { "ID": 17, "GRIDCODE": 2 }, "geometry": { "type": "Polygon", "coordinates": [ [ [ -155.341727939223233, 19.637908644547526 ], [ -155.34385975983335, 19.638313647128868 ], [ -155.344120054782849, 19.63891713932458 ], [ -155.34474829603559, 19.639190557703671 ], [ -155.343562372743662, 19.639494206942388 ], [ -155.343816095668558, 19.639722999591719 ], [ -155.346379966222088, 19.64004847853122 ], [ -155.345721196036237, 19.641343818718429 ], [ -155.344344854765467, 19.641603683005588 ], [ -155.343346303479052, 19.641936252712711 ], [ -155.340406270572117, 19.641490193316731 ], [ -155.339645523470864, 19.641547917030767 ], [ -155.338661596774301, 19.641432707106059 ], [ -155.339099312668679, 19.642552632811395 ], [ -155.341742341187995, 19.642981037364375 ], [ -155.341119726093638, 19.643516856888088 ], [ -155.337248843125508, 19.643025348067098 ], [ -155.337148568528505, 19.641838814106837 ], [ -155.337719042124888, 19.641215772879622 ], [ -155.33880620302034, 19.640937379907879 ], [ -155.340047131846688, 19.639120236312593 ], [ -155.341212425566823, 19.638471495463623 ], [ -155.341727939223233, 19.637908644547526 ] ] ] } },
{ "type": "Feature", "properties": { "ID": 18, "GRIDCODE": 2 }, "geometry": { "type": "Polygon", "coordinates": [ [ [ -155.356140399425584, 19.632246425972259 ], [ -155.356486322367118, 19.632346222261006 ], [ -155.356230554002622, 19.632578150676689 ], [ -155.356140399425584, 19.632246425972259 ] ] ] } },
{ "type": "Feature", "properties": { "ID": 19, "GRIDCODE": 2 }, "geometry": { "type": "Polygon", "coordinates": [ [ [ -155.334761126651273, 19.630187643781724 ], [ -155.335107024788527, 19.630287478497483 ], [ -155.33485123486426, 19.630519372055073 ], [ -155.334761126651273, 19.630187643781724 ] ] ] } },
{ "type": "Feature", "properties": { "ID": 20, "GRIDCODE": 2 }, "geometry": { "type": "Polygon", "coordinates": [ [ [ -155.351851007639141, 19.632430097413707 ], [ -155.350931901798788, 19.632558940748982 ], [ -155.350286593803162, 19.632941818060768 ], [ -155.351543197096561, 19.63279180984571 ], [ -155.351851007639141, 19.632430097413707 ], [ -155.353174856722461, 19.632588076065055 ], [ -155.353698521101592, 19.633168088868509 ], [ -155.354406055621638, 19.633142526540087 ], [ -155.35487561811874, 19.63317848453914 ], [ -155.354803634126796, 19.63401841937905 ], [ -155.353686266048811, 19.633932575638056 ], [ -155.351701049428186, 19.635409860056587 ], [ -155.348821849624841, 19.635188289269308 ], [ -155.347971330609909, 19.633790102511984 ], [ -155.348707408169219, 19.633193642812152 ], [ -155.349122032630106, 19.632772250733588 ], [ -155.349696861531896, 19.632816440089442 ], [ -155.3503742738705, 19.631852935060675 ], [ -155.351172295870697, 19.631205909892639 ], [ -155.353538266074281, 19.628802699950494 ], [ -155.354148940979826, 19.627061982764246 ], [ -155.354121407993546, 19.626378898141283 ], [ -155.354465260266892, 19.626100383589119 ], [ -155.355051769911512, 19.626145318157921 ], [ -155.354948791789155, 19.627345185804305 ], [ -155.354133828047338, 19.629361170969194 ], [ -155.355012870239904, 19.630610030475818 ], [ -155.355461998789366, 19.631006924855985 ], [ -155.355837937059675, 19.631828186990795 ], [ -155.352047468011392, 19.632230279173996 ], [ -155.351851007639141, 19.632430097413707 ] ] ] } },
{ "type": "Feature", "properties": { "ID": 21, "GRIDCODE": 2 }, "geometry": { "type": "Polygon", "coordinates": [ [ [ -155.347155871758559, 19.625296987595753 ], [ -155.348333701416152, 19.625642086127439 ], [ -155.347823769543027, 19.627662642234519 ], [ -155.346575074615686, 19.627489768651564 ], [ -155.345214154729319, 19.628355304221014 ], [ -155.344070537153726, 19.629184274651166 ], [ -155.343093664215075, 19.62861299597327 ], [ -155.341379465581042, 19.629407605663115 ], [ -155.340745532035328, 19.630125329364535 ], [ -155.339621213247398, 19.630741603718427 ], [ -155.338841220951394, 19.631625255282078 ], [ -155.33550102108282, 19.631094862779385 ], [ -155.335408752942499, 19.630243935101927 ], [ -155.336046149633034, 19.629522074951716 ], [ -155.338110830294767, 19.629142531429352 ], [ -155.338956664785115, 19.628528788757162 ], [ -155.339390400471729, 19.627609535473255 ], [ -155.340800931472359, 19.627805049197008 ], [ -155.342742726019338, 19.626740955260022 ], [ -155.343507206869191, 19.625874939562717 ], [ -155.34385649645489, 19.625923544276457 ], [ -155.344285945476543, 19.625881788744568 ], [ -155.344723123330141, 19.625942223758535 ], [ -155.345626110937729, 19.625463889310577 ], [ -155.345513012727082, 19.626195921883699 ], [ -155.346747594772353, 19.625759214396368 ], [ -155.347155871758559, 19.625296987595753 ] ] ] } },
{ "type": "Feature", "properties": { "ID": 22, "GRIDCODE": 2 }, "geometry": { "type": "Polygon", "coordinates": [ [ [ -155.342104524786066, 19.60868270418716 ], [ -155.34220957509055, 19.608354946491733 ], [ -155.342454585110886, 19.608597038494739 ], [ -155.342104524786066, 19.60868270418716 ] ] ] } },
{ "type": "Feature", "properties": { "ID": 23, "GRIDCODE": 2 }, "geometry": { "type": "Polygon", "coordinates": [ [ [ -155.342104524786066, 19.60868270418716 ], [ -155.342365959756393, 19.609505351660093 ], [ -155.342793578575368, 19.609912137700924 ], [ -155.343054814759881, 19.610743768319569 ], [ -155.341329823201136, 19.61123578358572 ], [ -155.34046940532258, 19.611636199658012 ], [ -155.341317016280357, 19.612047567817651 ], [ -155.342157547934193, 19.612525401688639 ], [ -155.341007542268102, 19.612853317692821 ], [ -155.34100687024636, 19.613129272239789 ], [ -155.338426732294323, 19.613762459820471 ], [ -155.339269381601326, 19.614171358430326 ], [ -155.339543062872252, 19.61445316034769 ], [ -155.339986032919086, 19.614453451413869 ], [ -155.339395826556, 19.615484778821482 ], [ -155.338233444033136, 19.615816121983965 ], [ -155.336935173712419, 19.615472481948188 ], [ -155.336291920186881, 19.614143778689332 ], [ -155.334820374461003, 19.613815364191002 ], [ -155.332206957401183, 19.614758372912803 ], [ -155.33315388783285, 19.615217798725975 ], [ -155.333510404326944, 19.615954368584696 ], [ -155.333941659188525, 19.615954700717246 ], [ -155.334800619701554, 19.615988860193589 ], [ -155.334342282732109, 19.61678838690392 ], [ -155.33520135088736, 19.617604717399352 ], [ -155.334846183557772, 19.617914418297548 ], [ -155.332904879034231, 19.61756002081167 ], [ -155.331717256015651, 19.617822604449799 ], [ -155.330900646773983, 19.61779035026764 ], [ -155.330606079501678, 19.617789891370052 ], [ -155.330605260993394, 19.618734343220599 ], [ -155.33057533723769, 19.619412808917875 ], [ -155.330860147621621, 19.619965529194442 ], [ -155.330153767678951, 19.620581553294741 ], [ -155.328629498530688, 19.619797614652725 ], [ -155.328339921598854, 19.61746741035639 ], [ -155.328050951229869, 19.616607446391914 ], [ -155.326959300602653, 19.615569583721079 ], [ -155.326682203799521, 19.614997456859399 ], [ -155.325283666357564, 19.613668103042603 ], [ -155.325056636498573, 19.611116345185593 ], [ -155.325690820786321, 19.608473008162605 ], [ -155.324853703226211, 19.607676918512322 ], [ -155.324576623022239, 19.607104791394622 ], [ -155.324015698356675, 19.606282621074786 ], [ -155.32460111897737, 19.606027867614657 ], [ -155.325294027863123, 19.605707373382469 ], [ -155.328604214108879, 19.605839178476796 ], [ -155.329558581804406, 19.605550963225951 ], [ -155.331462548962719, 19.605626533984708 ], [ -155.332375198993589, 19.60562769266539 ], [ -155.33347064337292, 19.605120817506354 ], [ -155.33501547660893, 19.60479702125701 ], [ -155.335638986175098, 19.606084613334318 ], [ -155.335152948212595, 19.606508490047457 ], [ -155.334591414278577, 19.607038676189458 ], [ -155.33370703164266, 19.607291073046518 ], [ -155.333569277188047, 19.608370985207088 ], [ -155.335720781845396, 19.607594581811565 ], [ -155.336678701297416, 19.60582109388292 ], [ -155.337488344126058, 19.60546909034133 ], [ -155.338044743453679, 19.604943282178141 ], [ -155.339511702460584, 19.604707735407398 ], [ -155.340898602257369, 19.605420841324499 ], [ -155.340876795571035, 19.605915766295645 ], [ -155.339395550368039, 19.606338183018963 ], [ -155.338093756596948, 19.606940815659904 ], [ -155.338566142231173, 19.60739002142013 ], [ -155.338841675233681, 19.607958930374693 ], [ -155.340003159980398, 19.607960092940715 ], [ -155.341022638577272, 19.609009365791561 ], [ -155.342104524786066, 19.60868270418716 ] ] ] } },
{ "type": "Feature", "properties": { "ID": 24, "GRIDCODE": 2 }, "geometry": { "type": "Polygon", "coordinates": [ [ [ -155.323657628330238, 19.603434513027238 ], [ -155.328058790607628, 19.603646495849489 ], [ -155.326101887658695, 19.604330300820301 ], [ -155.324785269262435, 19.604087718531787 ], [ -155.32435544394977, 19.604148723402211 ], [ -155.323928791813813, 19.604070223882527 ], [ -155.323332745645956, 19.604154792514855 ], [ -155.323657628330238, 19.603434513027238 ] ] ] } },
{ "type": "Feature", "properties": { "ID": 25, "GRIDCODE": 2 }, "geometry": { "type": "Polygon", "coordinates": [ [ [ -155.329180293004697, 19.599216392065784 ], [ -155.330721301123958, 19.599378131860878 ], [ -155.330469124961695, 19.600214898168726 ], [ -155.328413283195005, 19.600393953974855 ], [ -155.328040121714679, 19.600883289966877 ], [ -155.327436693822108, 19.600998650775519 ], [ -155.326764892177977, 19.600538744143346 ], [ -155.32789974040648, 19.60016249302754 ], [ -155.328362608819674, 19.599554979235318 ], [ -155.329034034187146, 19.599712208893202 ], [ -155.329180293004697, 19.599216392065784 ] ] ] } },
{ "type": "Feature", "properties": { "ID": 26, "GRIDCODE": 2 }, "geometry": { "type": "Polygon", "coordinates": [ [ [ -155.297609729317713, 19.518450783288614 ], [ -155.29923791191203, 19.518616318350364 ], [ -155.300298107301444, 19.519191017257491 ], [ -155.300793624020201, 19.519173148649251 ], [ -155.301375015177996, 19.521993824627398 ], [ -155.299565122410996, 19.522949301607326 ], [ -155.298362179370685, 19.521616216747493 ], [ -155.297388853775345, 19.52116831391033 ], [ -155.29648120059386, 19.519748230968368 ], [ -155.297609729317713, 19.518450783288614 ] ] ] } },
{ "type": "Feature", "properties": { "ID": 27, "GRIDCODE": 2 }, "geometry": { "type": "Polygon", "coordinates": [ [ [ -155.31317142595438, 19.512002212821496 ], [ -155.313554840601682, 19.512353669705533 ], [ -155.321638058124307, 19.530687466211553 ], [ -155.321143457765629, 19.532064877107697 ], [ -155.320796226469014, 19.532943054652669 ], [ -155.320819533881092, 19.534177441242516 ], [ -155.319326922170717, 19.536629366172267 ], [ -155.318452079710227, 19.537780932630206 ], [ -155.318318145387707, 19.539848988112507 ], [ -155.319014087683996, 19.542428014882887 ], [ -155.319673433753081, 19.54303304448003 ], [ -155.319092791162518, 19.544021437020742 ], [ -155.319460883220955, 19.547728823650104 ], [ -155.318944983302771, 19.549033090638623 ], [ -155.319294088790457, 19.550162574797582 ], [ -155.320068204759821, 19.550528084175355 ], [ -155.319181224545162, 19.552455742733372 ], [ -155.320305793900502, 19.555218509598795 ], [ -155.320320443401727, 19.55599779962359 ], [ -155.320243728418149, 19.557190228766611 ], [ -155.321032064479567, 19.557913408281436 ], [ -155.321089540358514, 19.560932743237181 ], [ -155.320759608191537, 19.561560939370871 ], [ -155.320177389514981, 19.562050496381943 ], [ -155.320413874368711, 19.563719302845069 ], [ -155.320718698992039, 19.564294899405855 ], [ -155.320668683375175, 19.565072605021481 ], [ -155.320673686169698, 19.56534338465206 ], [ -155.320623669104577, 19.566121090096075 ], [ -155.320928497528882, 19.566696687034629 ], [ -155.321177948111711, 19.567795062545766 ], [ -155.321462472933689, 19.56833165207404 ], [ -155.322036528822139, 19.569552959591579 ], [ -155.323951555903648, 19.571308355107984 ], [ -155.323960005934168, 19.571771376597233 ], [ -155.323898813758575, 19.572722259788545 ], [ -155.324710185322232, 19.573466259132424 ], [ -155.32497127020406, 19.57680484033866 ], [ -155.325369044581066, 19.577169541213159 ], [ -155.325181452613236, 19.58007603561229 ], [ -155.325913089322057, 19.58074677384489 ], [ -155.326864097488709, 19.581975764692917 ], [ -155.327405192538066, 19.582809408243516 ], [ -155.328120425893303, 19.583147008241131 ], [ -155.329651131058483, 19.585010051640744 ], [ -155.330071074276532, 19.586857590490606 ], [ -155.33073774271017, 19.587468309371825 ], [ -155.331005680414194, 19.58775502171936 ], [ -155.332958787609726, 19.588385067888623 ], [ -155.33324034203406, 19.589965979636123 ], [ -155.333830366603109, 19.591079747121839 ], [ -155.333694512318459, 19.59318453210733 ], [ -155.334028413474101, 19.593490295751973 ], [ -155.335266391559429, 19.594812599257878 ], [ -155.336512093483321, 19.595400991292699 ], [ -155.337373134441179, 19.596643713483644 ], [ -155.336932114385093, 19.597322807845 ], [ -155.334958248033018, 19.597356906681913 ], [ -155.33234301376487, 19.596573014223836 ], [ -155.331092478307141, 19.596960157431017 ], [ -155.330532588134588, 19.596927597754021 ], [ -155.329823724701299, 19.597264975706533 ], [ -155.327442097910421, 19.597126789469051 ], [ -155.326788173802015, 19.597402892383194 ], [ -155.326507456073216, 19.597678415276356 ], [ -155.325062986296331, 19.597909034326953 ], [ -155.324258509409617, 19.598697239538563 ], [ -155.323325483728325, 19.598956261631347 ], [ -155.321640935301986, 19.60012693732617 ], [ -155.321325942134308, 19.599456758909692 ], [ -155.320762057088814, 19.598643775212992 ], [ -155.319899729648597, 19.597316376975538 ], [ -155.318515173884748, 19.596973772822302 ], [ -155.317961771935643, 19.596681203843087 ], [ -155.316231589775043, 19.595863909975996 ], [ -155.316311573200778, 19.594630323423246 ], [ -155.315980238439238, 19.592768990238277 ], [ -155.314931155435687, 19.591806763159457 ], [ -155.315237654903427, 19.590399918533141 ], [ -155.315843751964564, 19.588867829679366 ], [ -155.315539642965433, 19.587795027925541 ], [ -155.314397729604394, 19.586036586268026 ], [ -155.313361548414946, 19.585489357204661 ], [ -155.312499955897209, 19.585211615271422 ], [ -155.312244393895213, 19.584383783494975 ], [ -155.31140132681162, 19.583293863073742 ], [ -155.311466132104329, 19.582286238593472 ], [ -155.311159065175559, 19.581393648000102 ], [ -155.311210790388401, 19.580592726939294 ], [ -155.310676997077962, 19.580103619958276 ], [ -155.310636000329907, 19.577938438515528 ], [ -155.310985810645548, 19.577053484942365 ], [ -155.310406937459049, 19.576217975174931 ], [ -155.311306547859573, 19.575461641992934 ], [ -155.311286052781469, 19.574378521928669 ], [ -155.312181673397106, 19.573625272520751 ], [ -155.309916940725145, 19.572976494899947 ], [ -155.310545973162249, 19.572149067718694 ], [ -155.310526056235318, 19.571114068207073 ], [ -155.310940930590959, 19.570065237432825 ], [ -155.310266768180639, 19.569447174524218 ], [ -155.310363004181198, 19.567965190329598 ], [ -155.310062558642471, 19.566440193175609 ], [ -155.3100952766695, 19.565934404740545 ], [ -155.309556618994094, 19.565440443765429 ], [ -155.309257907689101, 19.564573930476808 ], [ -155.309020872739012, 19.562934454993904 ], [ -155.308436096972514, 19.562090895937171 ], [ -155.308501487761646, 19.561081434239654 ], [ -155.308184557872181, 19.559105944841132 ], [ -155.308319629593257, 19.557020761950554 ], [ -155.306537663578325, 19.55666019944595 ], [ -155.306641932392552, 19.555046219122154 ], [ -155.306092943236877, 19.554542526545063 ], [ -155.305792691251554, 19.55367148719624 ], [ -155.306333913521655, 19.551873232061219 ], [ -155.305855948243874, 19.550969741503195 ], [ -155.305873365100211, 19.550694930386715 ], [ -155.305863428727349, 19.550176639432809 ], [ -155.306189464933169, 19.549353319538376 ], [ -155.306628923150214, 19.548128688309355 ], [ -155.307392261535398, 19.546198842601608 ], [ -155.307108134096751, 19.545819527013922 ], [ -155.305455212122212, 19.545038420194722 ], [ -155.305434460972577, 19.543942346020188 ], [ -155.305993631726693, 19.542529055120863 ], [ -155.30612803122753, 19.540447824896031 ], [ -155.30581315396114, 19.539852185791993 ], [ -155.305882062158048, 19.538785436936898 ], [ -155.305861563743775, 19.537702319442786 ], [ -155.306064879899367, 19.534553017216229 ], [ -155.305697192571472, 19.533362876365576 ], [ -155.305322499579205, 19.533019242633795 ], [ -155.305710687486794, 19.532280454496341 ], [ -155.306537270491276, 19.53119326067619 ], [ -155.306924655477786, 19.529607271393868 ], [ -155.306914498060962, 19.529049061006059 ], [ -155.307554317838765, 19.527959359771739 ], [ -155.307534739371363, 19.526932825987782 ], [ -155.308757601065338, 19.523840307435073 ], [ -155.308542388554883, 19.521240701863331 ], [ -155.308262565139017, 19.520428242181698 ], [ -155.308600956811489, 19.519572117189501 ], [ -155.308562169527534, 19.517525927278299 ], [ -155.309217381258776, 19.516663586725134 ], [ -155.309504106518119, 19.51611752074168 ], [ -155.310481777794593, 19.515295067735028 ], [ -155.311190895192823, 19.512721209875217 ], [ -155.3127665633844, 19.512399171804233 ], [ -155.31317142595438, 19.512002212821496 ] ] ] } },
{ "type": "Feature", "properties": { "ID": 28, "GRIDCODE": 1 }, "geometry": { "type": "Polygon", "coordinates": [ [ [ -155.491500663905072, 19.343917346416418 ], [ -155.490453285456169, 19.34556324943167 ], [ -155.488364384193943, 19.347772259506232 ], [ -155.488449943833359, 19.34627437326267 ], [ -155.489320264431768, 19.345354217959709 ], [ -155.490381536732912, 19.344751289317763 ], [ -155.491059769612036, 19.34403416076006 ], [ -155.491500663905072, 19.343917346416418 ] ] ] } },
{ "type": "Feature", "properties": { "ID": 29, "GRIDCODE": 1 }, "geometry": { "type": "Polygon", "coordinates": [ [ [ -155.491500663905072, 19.343917346416418 ], [ -155.491605162850504, 19.343589419404086 ], [ -155.491850101410364, 19.343831286331039 ], [ -155.491500663905072, 19.343917346416418 ] ] ] } },
{ "type": "Feature", "properties": { "ID": 30, "GRIDCODE": 1 }, "geometry": { "type": "Polygon", "coordinates": [ [ [ -155.502075558245849, 19.329501817161656 ], [ -155.501226061657377, 19.330837530619462 ], [ -155.49186425431057, 19.343508226999781 ], [ -155.49196434914063, 19.342240357087846 ], [ -155.493458371733396, 19.339815466599031 ], [ -155.493427153941099, 19.339321538395733 ], [ -155.494493133681488, 19.336697242633935 ], [ -155.496440956445014, 19.334432010477936 ], [ -155.498278664604101, 19.332103825189435 ], [ -155.499625330612076, 19.331224486188763 ], [ -155.501634707651618, 19.329618664580238 ], [ -155.502075558245849, 19.329501817161656 ] ] ] } },
{ "type": "Feature", "properties": { "ID": 31, "GRIDCODE": 1 }, "geometry": { "type": "Polygon", "coordinates": [ [ [ -155.502366393481992, 19.329236679161887 ], [ -155.502360626158207, 19.329507292312272 ], [ -155.502075558245849, 19.329501817161656 ], [ -155.502081326037342, 19.329231204093844 ], [ -155.502366393481992, 19.329236679161887 ] ] ] } },
{ "type": "Feature", "properties": { "ID": 32, "GRIDCODE": 1 }, "geometry": { "type": "Polygon", "coordinates": [ [ [ -155.502366393481992, 19.329236679161887 ], [ -155.502470857266246, 19.328908740596663 ], [ -155.502715796228586, 19.329150592263996 ], [ -155.502366393481992, 19.329236679161887 ] ] ] } },
{ "type": "Feature", "properties": { "ID": 33, "GRIDCODE": 1 }, "geometry": { "type": "Polygon", "coordinates": [ [ [ -155.506466784247721, 19.324171609827616 ], [ -155.506337733625116, 19.324791749177809 ], [ -155.506101764562544, 19.324311604021368 ], [ -155.506466784247721, 19.324171609827616 ] ] ] } },
{ "type": "Feature", "properties": { "ID": 34, "GRIDCODE": 1 }, "geometry": { "type": "Polygon", "coordinates": [ [ [ -155.5067576026334, 19.323906462084157 ], [ -155.506751844256002, 19.324177076665862 ], [ -155.506466784247721, 19.324171609827616 ], [ -155.506472543092713, 19.323900995328383 ], [ -155.5067576026334, 19.323906462084157 ] ] ] } },
{ "type": "Feature", "properties": { "ID": 35, "GRIDCODE": 1 }, "geometry": { "type": "Polygon", "coordinates": [ [ [ -155.507635808768441, 19.322840400274117 ], [ -155.507141190682205, 19.323731395488334 ], [ -155.5067576026334, 19.323906462084157 ], [ -155.50703028069023, 19.322975521522434 ], [ -155.507635808768441, 19.322840400274117 ] ] ] } },
{ "type": "Feature", "properties": { "ID": 36, "GRIDCODE": 1 }, "geometry": { "type": "Polygon", "coordinates": [ [ [ -155.507926622849652, 19.322575249964011 ], [ -155.507920866824975, 19.322845864923881 ], [ -155.507635808768441, 19.322840400274117 ], [ -155.507641565260684, 19.322569785396681 ], [ -155.507926622849652, 19.322575249964011 ] ] ] } },
{ "type": "Feature", "properties": { "ID": 37, "GRIDCODE": 1 }, "geometry": { "type": "Polygon", "coordinates": [ [ [ -155.508223191360031, 19.322039483973672 ], [ -155.50821168053514, 19.322580714087309 ], [ -155.507926622849652, 19.322575249964011 ], [ -155.507938134609617, 19.322034020015238 ], [ -155.508223191360031, 19.322039483973672 ] ] ] } },
{ "type": "Feature", "properties": { "ID": 38, "GRIDCODE": 1 }, "geometry": { "type": "Polygon", "coordinates": [ [ [ -155.50851400300715, 19.321774332334329 ], [ -155.508508248206937, 19.322044947488088 ], [ -155.508223191360031, 19.322039483973672 ], [ -155.508228946627725, 19.321768868902346 ], [ -155.50851400300715, 19.321774332334329 ] ] ] } },
{ "type": "Feature", "properties": { "ID": 39, "GRIDCODE": 1 }, "geometry": { "type": "Polygon", "coordinates": [ [ [ -155.50939218535035, 19.320708258265551 ], [ -155.50889758443455, 19.321599260925765 ], [ -155.50851400300715, 19.321774332334329 ], [ -155.508684809574419, 19.320866286693111 ], [ -155.50939218535035, 19.320708258265551 ] ] ] } },
{ "type": "Feature", "properties": { "ID": 40, "GRIDCODE": 1 }, "geometry": { "type": "Polygon", "coordinates": [ [ [ -155.50968299269357, 19.32044310406015 ], [ -155.509677240245594, 19.320713719591897 ], [ -155.50939218535035, 19.320708258265551 ], [ -155.509397938265835, 19.320437642816209 ], [ -155.50968299269357, 19.32044310406015 ] ] ] } },
{ "type": "Feature", "properties": { "ID": 41, "GRIDCODE": 1 }, "geometry": { "type": "Polygon", "coordinates": [ [ [ -155.581887740877221, 19.235445160229911 ], [ -155.583121723348086, 19.235672864607295 ], [ -155.583261561814368, 19.236944853434636 ], [ -155.582115749520341, 19.23626323891531 ], [ -155.581887740877221, 19.235445160229911 ] ] ] } },
{ "type": "Feature", "properties": { "ID": 42, "GRIDCODE": 1 }, "geometry": { "type": "Polygon", "coordinates": [ [ [ -155.50968299269357, 19.32044310406015 ], [ -155.5099274618415, 19.319370700545328 ], [ -155.510436033160573, 19.318424440840602 ], [ -155.510738045013568, 19.317893795912287 ], [ -155.510738061640467, 19.317368735783418 ], [ -155.511331428615819, 19.31654650406908 ], [ -155.512227010567898, 19.315471753673599 ], [ -155.512226800586689, 19.314668559370038 ], [ -155.514005928876571, 19.312532820939552 ], [ -155.514005544339199, 19.311343624628073 ], [ -155.516041161429769, 19.309873718226964 ], [ -155.516343696055344, 19.308791303167769 ], [ -155.516663024129031, 19.308230041157408 ], [ -155.516663148468183, 19.3071733071626 ], [ -155.516965114918833, 19.306642644980251 ], [ -155.517536218344304, 19.305579633602573 ], [ -155.518417477196436, 19.304807811543796 ], [ -155.518441985346499, 19.304229281169786 ], [ -155.518038629400962, 19.303447465490937 ], [ -155.519057789019939, 19.302080237403388 ], [ -155.519909446472155, 19.300495654000748 ], [ -155.520386096933976, 19.300077771132511 ], [ -155.520814039484293, 19.299671912151322 ], [ -155.522261779892347, 19.298892628982987 ], [ -155.522823756020017, 19.295150679830606 ], [ -155.526304886789063, 19.293411529051728 ], [ -155.526663133977479, 19.292744434131816 ], [ -155.527814927622217, 19.291734995859287 ], [ -155.528248169725714, 19.29054848487835 ], [ -155.529753384427607, 19.289890250397306 ], [ -155.531331795242522, 19.28850686082205 ], [ -155.530473511299306, 19.288091054045847 ], [ -155.530756059670352, 19.287948899621409 ], [ -155.531605156345705, 19.287981699437726 ], [ -155.531901778678673, 19.287700214754803 ], [ -155.533041063567907, 19.287201819192749 ], [ -155.533366641815206, 19.286629527916386 ], [ -155.533366715813344, 19.285833197331371 ], [ -155.53366858183449, 19.285302491898985 ], [ -155.533970931924671, 19.284220020006259 ], [ -155.534829312266794, 19.28346748530614 ], [ -155.53486563545809, 19.282615263092996 ], [ -155.534865388390273, 19.282098117720196 ], [ -155.535313382034843, 19.281264815337746 ], [ -155.535766146892001, 19.280469144710036 ], [ -155.536338738293665, 19.279403691882806 ], [ -155.538039645847647, 19.278886564833776 ], [ -155.54036587238582, 19.278661260859884 ], [ -155.541221084671122, 19.278401183086743 ], [ -155.541544349726536, 19.278413653823449 ], [ -155.542668774866115, 19.277345938802508 ], [ -155.54354056586763, 19.276826268413217 ], [ -155.544401441343524, 19.276295810872242 ], [ -155.546500002138174, 19.276011912346497 ], [ -155.547849358086637, 19.275421406869029 ], [ -155.54870465047793, 19.275023544192578 ], [ -155.549603235807382, 19.274765035645906 ], [ -155.550437261192286, 19.2739733488581 ], [ -155.550881428631016, 19.273583568823675 ], [ -155.552097232817715, 19.272428937649249 ], [ -155.553302826316923, 19.271867661170603 ], [ -155.554047873149557, 19.271867182918616 ], [ -155.555833030856718, 19.271935501905435 ], [ -155.557361709233049, 19.270595310630068 ], [ -155.557931804938988, 19.270053743394641 ], [ -155.558533951964961, 19.269790125406143 ], [ -155.559088698130637, 19.269263334681312 ], [ -155.560003767530645, 19.269000055231924 ], [ -155.561254410338222, 19.267812427456747 ], [ -155.561978732910831, 19.26717698057293 ], [ -155.562279985678714, 19.266616057281613 ], [ -155.562576066856053, 19.266356179722496 ], [ -155.563157506558724, 19.265549618582977 ], [ -155.564656769101987, 19.264893310916108 ], [ -155.565638770017358, 19.263167572652744 ], [ -155.566074969065937, 19.262355623592438 ], [ -155.566376677068746, 19.261825104109466 ], [ -155.566688618466003, 19.261244276891617 ], [ -155.567857250442245, 19.260219500467056 ], [ -155.568718620855265, 19.258614942680161 ], [ -155.569020595937104, 19.258084157204813 ], [ -155.569020289459786, 19.257777982302457 ], [ -155.569914639192177, 19.256206026399006 ], [ -155.570205409953076, 19.255664715994524 ], [ -155.570945801429588, 19.255015245173283 ], [ -155.572655776424313, 19.253390360857615 ], [ -155.574377242245276, 19.251880683382932 ], [ -155.574882894360343, 19.25006688540352 ], [ -155.576066204372211, 19.24954863203903 ], [ -155.576905660518548, 19.248751072746497 ], [ -155.579067776393373, 19.248392050533297 ], [ -155.579817052463, 19.246103172570709 ], [ -155.579816682421438, 19.245812328570647 ], [ -155.580443904012952, 19.244709627884401 ], [ -155.580442560465428, 19.24286807403767 ], [ -155.581360389380876, 19.24176498643304 ], [ -155.581359231555695, 19.239927135871664 ], [ -155.581961510612558, 19.239354605381571 ], [ -155.583516650348173, 19.238673496385058 ], [ -155.583991165605795, 19.236970911087891 ], [ -155.584978133327013, 19.235644614145606 ], [ -155.585471839844445, 19.234291121759409 ], [ -155.58576782392521, 19.23403119119838 ], [ -155.587130445871907, 19.23273621483607 ], [ -155.587795900963414, 19.232444571788935 ], [ -155.588522376996735, 19.231436219525051 ], [ -155.589466193989182, 19.231022584573978 ], [ -155.589841000525297, 19.230045741086517 ], [ -155.589840601502061, 19.229526188008641 ], [ -155.590142554715925, 19.228963092757223 ], [ -155.590658765923109, 19.228982761608187 ], [ -155.592986238068619, 19.228596210013517 ], [ -155.593025201608043, 19.227665981397056 ], [ -155.593023481612335, 19.225443133810558 ], [ -155.593967391912543, 19.224132358985468 ], [ -155.594829713547739, 19.22337582974351 ], [ -155.596221987148795, 19.222052230477434 ], [ -155.597136753520601, 19.221788714123321 ], [ -155.598217675097374, 19.220134091019037 ], [ -155.60053031726963, 19.217581428282475 ], [ -155.601510673262652, 19.216996532705249 ], [ -155.601897936621299, 19.216274500573665 ], [ -155.602951167893764, 19.215813102560343 ], [ -155.602974486486517, 19.215261197636693 ], [ -155.602973378918477, 19.214178182652908 ], [ -155.603856678042092, 19.213791093623861 ], [ -155.604219889909217, 19.213114349542384 ], [ -155.605339690586732, 19.212446083324686 ], [ -155.605884437221107, 19.211928170099931 ], [ -155.606659027942413, 19.211588757307723 ], [ -155.607182564190452, 19.210612498503391 ], [ -155.608194284329983, 19.210611679081577 ], [ -155.609012473914277, 19.210642699735288 ], [ -155.609928282587958, 19.210378862537603 ], [ -155.610487201958563, 19.209847446001593 ], [ -155.611637783328746, 19.209603281002693 ], [ -155.612247224837461, 19.208467040958897 ], [ -155.614681977890172, 19.206673397558848 ], [ -155.616484120205541, 19.205597787579656 ], [ -155.617027591552613, 19.204106001611297 ], [ -155.618368186576419, 19.203278314954471 ], [ -155.619815289985866, 19.202971348481565 ], [ -155.621495810054654, 19.201116076964841 ], [ -155.62279425723537, 19.200741825902021 ], [ -155.623221687954981, 19.200335644389437 ], [ -155.624092841020513, 19.199815483911117 ], [ -155.624578169058736, 19.199354046626546 ], [ -155.627527975237854, 19.199066500876629 ], [ -155.628097799197917, 19.198800948598059 ], [ -155.628963413704241, 19.198551414331341 ], [ -155.629823630323926, 19.198020445088911 ], [ -155.632180794302144, 19.19775179363063 ], [ -155.633306575685168, 19.197258210438928 ], [ -155.634677900239637, 19.195953689526373 ], [ -155.635576248116848, 19.195694674179098 ], [ -155.636431210821513, 19.195434064258418 ], [ -155.636720976699252, 19.195445201073259 ], [ -155.637575937138166, 19.195184585323418 ], [ -155.639462343760556, 19.194784240932051 ], [ -155.639876905696781, 19.194419817986081 ], [ -155.640161823532765, 19.194148997759953 ], [ -155.641312279078505, 19.193904622280165 ], [ -155.642986095758431, 19.192871040628216 ], [ -155.647321691873913, 19.1926405332384 ], [ -155.648186741286537, 19.191880836254317 ], [ -155.648199272598077, 19.191578312518541 ], [ -155.6473601950307, 19.190782150723312 ], [ -155.648850801772937, 19.189667416262552 ], [ -155.651933930321974, 19.189783529364682 ], [ -155.651957185434014, 19.189225776473393 ], [ -155.65139223903671, 19.188689799530998 ], [ -155.651962324766345, 19.1884080380939 ], [ -155.652531838250894, 19.188429547081807 ], [ -155.652822402791486, 19.188153253258722 ], [ -155.65368794103523, 19.187903587580774 ], [ -155.654735220674638, 19.187584256500138 ], [ -155.65844718812528, 19.188255898963487 ], [ -155.659670201945801, 19.188012721443375 ], [ -155.660889390108878, 19.186511110476701 ], [ -155.663350124481212, 19.185431891290243 ], [ -155.663718434119261, 19.185108075162496 ], [ -155.664500362828903, 19.184021010827124 ], [ -155.665728365003417, 19.184067150175505 ], [ -155.665740157141414, 19.183785760629569 ], [ -155.665166075891932, 19.183507991768369 ], [ -155.665613702778643, 19.183114485549005 ], [ -155.666593697112575, 19.182181993950486 ], [ -155.669446574842254, 19.182561991115286 ], [ -155.668870401546684, 19.183576933405469 ], [ -155.670678831944997, 19.183890336104714 ], [ -155.659314897378749, 19.194705739153935 ], [ -155.65210607760875, 19.201020824956384 ], [ -155.650006163219302, 19.201626011708832 ], [ -155.648712213710638, 19.202424929079477 ], [ -155.648261328716302, 19.202425403800209 ], [ -155.647700111106673, 19.202404291402999 ], [ -155.646000481334283, 19.203197083110012 ], [ -155.644281787355766, 19.203132283683971 ], [ -155.643404275248429, 19.203967080229216 ], [ -155.641463097386548, 19.20389368040049 ], [ -155.640812991339089, 19.204178955222641 ], [ -155.639695924912161, 19.205241489223539 ], [ -155.638232337297012, 19.204949158592445 ], [ -155.637356777858457, 19.20464646241356 ], [ -155.636246263187815, 19.204647484939947 ], [ -155.6348715903504, 19.20459552418879 ], [ -155.633948030088163, 19.205406682282803 ], [ -155.63312467095264, 19.206189798529085 ], [ -155.632307739023588, 19.206547857872081 ], [ -155.631823986046925, 19.207450643628455 ], [ -155.631007045567287, 19.207808695738695 ], [ -155.629635582295066, 19.209113168331225 ], [ -155.628737153390631, 19.209372141645819 ], [ -155.628167290738105, 19.209637690266419 ], [ -155.625022428094411, 19.209845211626305 ], [ -155.624276498626386, 19.210881422394902 ], [ -155.622887819849439, 19.211281507426946 ], [ -155.622419621494174, 19.211692484343914 ], [ -155.622128966091736, 19.211968715233922 ], [ -155.620128780596872, 19.21189293041175 ], [ -155.620129732707795, 19.212717103599211 ], [ -155.619129655015399, 19.214106336423598 ], [ -155.616945565510889, 19.214569677692438 ], [ -155.616660574738376, 19.214840450061558 ], [ -155.616058704171365, 19.215104306306959 ], [ -155.615361825565827, 19.21576671357936 ], [ -155.61477000898492, 19.21628669520835 ], [ -155.614148062796403, 19.216877770867416 ], [ -155.612671998675353, 19.216120436968747 ], [ -155.612124823883676, 19.217001089884086 ], [ -155.612797823025232, 19.217639657058768 ], [ -155.612309309377395, 19.218550480060486 ], [ -155.61172938686974, 19.219059564242237 ], [ -155.611711485427577, 19.219484395627472 ], [ -155.611712239012633, 19.220153089129809 ], [ -155.610837401091231, 19.220560729840347 ], [ -155.609473577221877, 19.218497967383453 ], [ -155.608959936110267, 19.220577243661094 ], [ -155.609515439963388, 19.222816992915501 ], [ -155.608656177661658, 19.222817726877597 ], [ -155.608228972884291, 19.22280161206837 ], [ -155.607403394695382, 19.22280217129034 ], [ -155.606244820085521, 19.222401267715043 ], [ -155.606516591705571, 19.222775150968907 ], [ -155.607355304389614, 19.223571223295043 ], [ -155.606788988138021, 19.223592714797444 ], [ -155.606226339972551, 19.223571174787445 ], [ -155.605644872649208, 19.223842242850964 ], [ -155.605078329046506, 19.223820626933332 ], [ -155.6037921900095, 19.224614557209968 ], [ -155.602938505002641, 19.223965200082368 ], [ -155.602445096536172, 19.222418537202106 ], [ -155.599181247279176, 19.220743731965896 ], [ -155.59912754355588, 19.221107873068284 ], [ -155.601667106665843, 19.222757860666245 ], [ -155.601668792515824, 19.224528595441704 ], [ -155.601048155793791, 19.225620153433439 ], [ -155.601369050716073, 19.225662602237204 ], [ -155.602416483511831, 19.225661961944418 ], [ -155.60388208677989, 19.226143946007777 ], [ -155.603097335623119, 19.227149178513461 ], [ -155.60154501928605, 19.228904800301308 ], [ -155.601038483405176, 19.230293812701529 ], [ -155.598930195451516, 19.231551515476589 ], [ -155.59812790090254, 19.233377888032404 ], [ -155.597169988743019, 19.2342185792434 ], [ -155.596617639889814, 19.235248191194781 ], [ -155.595577446963347, 19.236527567644831 ], [ -155.593497397317549, 19.238353119665494 ], [ -155.591930041496937, 19.239842627765032 ], [ -155.591041801741369, 19.240622177319285 ], [ -155.590399541233666, 19.241513919516539 ], [ -155.589144983613238, 19.242614745069293 ], [ -155.58857661371141, 19.244172556680724 ], [ -155.587532776484323, 19.245164664948685 ], [ -155.58639391171053, 19.2456634735303 ], [ -155.586079886820841, 19.246215490229865 ], [ -155.586080537039578, 19.246748794533961 ], [ -155.585471040495975, 19.24809906231269 ], [ -155.585174727836346, 19.24891104649075 ], [ -155.584303197513179, 19.249430960449796 ], [ -155.583442574062673, 19.249961649287819 ], [ -155.581810554127401, 19.250934786157597 ], [ -155.579093610540156, 19.253317987536686 ], [ -155.57792186095574, 19.254726434143631 ], [ -155.577578404460127, 19.255366186900844 ], [ -155.575010195328701, 19.257618838860797 ], [ -155.575010440832244, 19.258169580490655 ], [ -155.574423402211522, 19.258727289825138 ], [ -155.573842369010777, 19.259236989297534 ], [ -155.573540360928689, 19.260064435940372 ], [ -155.572936338943435, 19.260875904389536 ], [ -155.572936920178648, 19.26187850326205 ], [ -155.571466904913279, 19.263539873980932 ], [ -155.569421175778245, 19.26621415178445 ], [ -155.569125103815907, 19.266474042176146 ], [ -155.568839942700066, 19.266744712732155 ], [ -155.567968269920186, 19.267264525280545 ], [ -155.566514973103494, 19.268866931949031 ], [ -155.565938697825544, 19.26937245677804 ], [ -155.565562419932832, 19.27007342659903 ], [ -155.552065093804288, 19.277924750096826 ], [ -155.548569407448667, 19.280729694871628 ], [ -155.54743413653344, 19.28122642587509 ], [ -155.546863923564672, 19.282287472888829 ], [ -155.546271201227484, 19.282563383453802 ], [ -155.545156145503029, 19.283051226442254 ], [ -155.544823699307244, 19.28334289879319 ], [ -155.544282207111763, 19.28385719306819 ], [ -155.541088930192842, 19.285880601075348 ], [ -155.540740223414417, 19.287130362607005 ], [ -155.536529389641913, 19.290821432552281 ], [ -155.529684039665852, 19.298216545730671 ], [ -155.52181068601169, 19.306735161276794 ], [ -155.516158145292991, 19.312840207463815 ], [ -155.510089352478303, 19.320087100733083 ], [ -155.50968299269357, 19.32044310406015 ] ] ] } }
]
}
