{
"type": "FeatureCollection",
"name": "panniih",
"crs": { "type": "name", "properties": { "name": "urn:ogc:def:crs:OGC:1.3:CRS84" } },
"features": [
{ "type": "Feature", "properties": { "ID": 1, "GRIDCODE": 2 }, "geometry": { "type": "Polygon", "coordinates": [ [ [ -160.09679240553524, 22.01491678156885 ], [ -160.097218647737407, 22.015059502193804 ], [ -160.099276499271639, 22.015296567261952 ], [ -160.100128991156367, 22.015581994130834 ], [ -160.101871837507446, 22.016058546654342 ], [ -160.101944768357043, 22.016834733913225 ], [ -160.101116594501178, 22.01870594083324 ], [ -160.100761173288788, 22.022345096347571 ], [ -160.101416460844774, 22.025984306424309 ], [ -160.101047264739123, 22.027158220959702 ], [ -160.099769180266719, 22.028843270591473 ], [ -160.099932367055999, 22.027758175150105 ], [ -160.100502246457751, 22.026278420383367 ], [ -160.100089305273542, 22.024451761403853 ], [ -160.097896404339622, 22.022112750995298 ], [ -160.094255621687125, 22.021122440439147 ], [ -160.092075660522994, 22.022046929530845 ], [ -160.091776680238269, 22.022683864687746 ], [ -160.090651406391544, 22.024596369171519 ], [ -160.09058898438937, 22.025391707866994 ], [ -160.09071519065256, 22.026735797708703 ], [ -160.089758681853937, 22.026386639876524 ], [ -160.088074015798497, 22.025052740603009 ], [ -160.087418472021653, 22.022880302355389 ], [ -160.08794918678737, 22.021406999622045 ], [ -160.089972110427652, 22.018656338267935 ], [ -160.092867560779837, 22.016152429156872 ], [ -160.093768954027894, 22.015770151139684 ], [ -160.094605028180638, 22.015327832229772 ], [ -160.096659020100645, 22.015063247598793 ], [ -160.09679240553524, 22.01491678156885 ] ], [ [ -160.095358072649873, 22.017365379309609 ], [ -160.095216733478054, 22.017504536860951 ], [ -160.092421637934621, 22.018792069060893 ], [ -160.090815114680282, 22.020019065182442 ], [ -160.089122630687683, 22.022463905163193 ], [ -160.089161406059844, 22.023776655049936 ], [ -160.089591517738967, 22.024582629485238 ], [ -160.09151733251764, 22.021274714904848 ], [ -160.093272860563815, 22.02018471573524 ], [ -160.095584306343824, 22.020213259893147 ], [ -160.098366090962031, 22.020858195347262 ], [ -160.099899831124134, 22.021812634756422 ], [ -160.10016189240585, 22.018820991028129 ], [ -160.100515928502006, 22.017493203717159 ], [ -160.095358072649873, 22.017365379309609 ] ] ] } },
{ "type": "Feature", "properties": { "ID": 2, "GRIDCODE": 2 }, "geometry": { "type": "Polygon", "coordinates": [ [ [ -159.66632275797528, 22.009372415874857 ], [ -159.66667754922122, 22.009463757377635 ], [ -159.666423783854839, 22.009702447409076 ], [ -159.66632275797528, 22.009372415874857 ] ] ] } },
{ "type": "Feature", "properties": { "ID": 3, "GRIDCODE": 2 }, "geometry": { "type": "Polygon", "coordinates": [ [ [ -159.62621210549085, 22.008988478386158 ], [ -159.626630652625551, 22.009287200179124 ], [ -159.625947313704216, 22.00962425779057 ], [ -159.62621210549085, 22.008988478386158 ] ] ] } },
{ "type": "Feature", "properties": { "ID": 4, "GRIDCODE": 2 }, "geometry": { "type": "Polygon", "coordinates": [ [ [ -159.646994318728304, 21.977197888320962 ], [ -159.647349018193921, 21.977289274260965 ], [ -159.647095275342906, 21.977527934706202 ], [ -159.646994318728304, 21.977197888320962 ] ] ] } },
{ "type": "Feature", "properties": { "ID": 5, "GRIDCODE": 2 }, "geometry": { "type": "Polygon", "coordinates": [ [ [ -159.68620599270227, 21.973786356873866 ], [ -159.68610812421565, 21.974117208549949 ], [ -159.685852170715805, 21.973880619495496 ], [ -159.68620599270227, 21.973786356873866 ] ] ] } },
{ "type": "Feature", "properties": { "ID": 6, "GRIDCODE": 2 }, "geometry": { "type": "Polygon", "coordinates": [ [ [ -159.644325357144254, 21.965283262447713 ], [ -159.644227396194935, 21.965614091768305 ], [ -159.6439715258376, 21.965377435068305 ], [ -159.644325357144254, 21.965283262447713 ] ] ] } },
{ "type": "Feature", "properties": { "ID": 7, "GRIDCODE": 2 }, "geometry": { "type": "Polygon", "coordinates": [ [ [ -159.690489796251228, 21.958320032690821 ], [ -159.690587644781033, 21.957989178315135 ], [ -159.690843576728838, 21.958225777518397 ], [ -159.690489796251228, 21.958320032690821 ] ] ] } },
{ "type": "Feature", "properties": { "ID": 8, "GRIDCODE": 2 }, "geometry": { "type": "Polygon", "coordinates": [ [ [ -159.58768339037411, 21.898551600607863 ], [ -159.588037859014463, 21.898643104251303 ], [ -159.587784150826366, 21.898881691003556 ], [ -159.58768339037411, 21.898551600607863 ] ] ] } },
{ "type": "Feature", "properties": { "ID": 9, "GRIDCODE": 2 }, "geometry": { "type": "Polygon", "coordinates": [ [ [ -159.588552417474403, 21.898006435728789 ], [ -159.588906885264777, 21.898097937524437 ], [ -159.58865317949892, 21.898336525578252 ], [ -159.588552417474403, 21.898006435728789 ] ] ] } },
{ "type": "Feature", "properties": { "ID": 10, "GRIDCODE": 2 }, "geometry": { "type": "Polygon", "coordinates": [ [ [ -159.589421437900853, 21.897461266372868 ], [ -159.589775904841105, 21.897552766320821 ], [ -159.589522201497431, 21.897791355676056 ], [ -159.589421437900853, 21.897461266372868 ] ] ] } },
{ "type": "Feature", "properties": { "ID": 11, "GRIDCODE": 2 }, "geometry": { "type": "Polygon", "coordinates": [ [ [ -159.690489796251228, 21.958320032690821 ], [ -159.690792456428085, 21.959176892786544 ], [ -159.693622629135007, 21.959533289013244 ], [ -159.694952435041813, 21.959502358405839 ], [ -159.695869014722234, 21.959790675174709 ], [ -159.699362556471243, 21.960041434251718 ], [ -159.701923338026035, 21.960335676210491 ], [ -159.704528733843233, 21.960274894646009 ], [ -159.706308380871405, 21.960692213720989 ], [ -159.70895519611679, 21.96217391875323 ], [ -159.710628407427976, 21.963090670241176 ], [ -159.711101581908082, 21.963989859830747 ], [ -159.714578147049593, 21.96707667704057 ], [ -159.719742337144424, 21.968355092846846 ], [ -159.724392241003756, 21.969695181147458 ], [ -159.726146314561817, 21.970085827314325 ], [ -159.728926959671725, 21.970737430040362 ], [ -159.731236566756166, 21.971147322776517 ], [ -159.732537472000047, 21.971556194776937 ], [ -159.733997439367016, 21.97181526993684 ], [ -159.736240259849268, 21.972880282021364 ], [ -159.742159799915697, 21.974408840831707 ], [ -159.745540050478468, 21.974906386123457 ], [ -159.749225172102825, 21.975928201804475 ], [ -159.752064470866856, 21.976820169813788 ], [ -159.754366482577495, 21.977414374116329 ], [ -159.756787445927728, 21.978256206696688 ], [ -159.759411682383643, 21.979897700859713 ], [ -159.760984478080445, 21.981409380228563 ], [ -159.763506555347305, 21.984549764031751 ], [ -159.764792557886011, 21.98699087890477 ], [ -159.766243932325835, 21.990578676796869 ], [ -159.768546522767338, 21.995311824398186 ], [ -159.769576917728472, 21.998223131944751 ], [ -159.770302359132472, 22.000167545430795 ], [ -159.772700361319153, 22.004455252205428 ], [ -159.774646186258991, 22.00695147435912 ], [ -159.777373179484869, 22.007939570310405 ], [ -159.78161791575198, 22.011480493018837 ], [ -159.782823325603744, 22.013175900600146 ], [ -159.784787005118574, 22.014917178656543 ], [ -159.785231092486754, 22.016981994784611 ], [ -159.785682468827218, 22.018191274209133 ], [ -159.785974803169495, 22.019550387944189 ], [ -159.787009883519374, 22.022061516157368 ], [ -159.787720772606718, 22.029103318797883 ], [ -159.78702021207414, 22.033055445878276 ], [ -159.786127861909449, 22.036372763442056 ], [ -159.785799124393037, 22.039335516432576 ], [ -159.785510061179338, 22.040686563971992 ], [ -159.785224737160604, 22.042960662686621 ], [ -159.783940412642323, 22.046518243536404 ], [ -159.78334339851861, 22.048263888188298 ], [ -159.784111686162873, 22.04963683273736 ], [ -159.784416740294745, 22.05021543442723 ], [ -159.784397811924066, 22.051371615055395 ], [ -159.783551309933387, 22.054517821597774 ], [ -159.783275391952401, 22.056150669220134 ], [ -159.782983291679898, 22.056959691845829 ], [ -159.782509454577593, 22.058345047163527 ], [ -159.783290591577497, 22.060437290215681 ], [ -159.783891565796978, 22.063502256824155 ], [ -159.783278710781957, 22.065199640969155 ], [ -159.778695279428092, 22.069346650219739 ], [ -159.77639010632484, 22.069777497275513 ], [ -159.772604144349515, 22.072483490768516 ], [ -159.769652833001004, 22.074965371769299 ], [ -159.767177127682203, 22.078111116040763 ], [ -159.765023282837006, 22.080416363982 ], [ -159.762187424998103, 22.082533494971546 ], [ -159.760455840019262, 22.083902068020162 ], [ -159.758510026814179, 22.084990857240307 ], [ -159.757520914646136, 22.086412278064252 ], [ -159.754991300213192, 22.088699950820761 ], [ -159.753238741293444, 22.08978239400119 ], [ -159.750494487624678, 22.092750416923064 ], [ -159.74959341516842, 22.093565204739296 ], [ -159.74888460261775, 22.094259560978614 ], [ -159.74820228397553, 22.094876494173878 ], [ -159.745393816240039, 22.096836618278022 ], [ -159.744436661221954, 22.098211748837073 ], [ -159.743422457552612, 22.103182139455949 ], [ -159.743083398450182, 22.103802882537018 ], [ -159.740852714937091, 22.105819621406003 ], [ -159.740480906456639, 22.106542685110941 ], [ -159.740543383820011, 22.108846717489595 ], [ -159.740223097543293, 22.110035374136327 ], [ -159.738843705840594, 22.111282352546354 ], [ -159.738078597269322, 22.112381384542985 ], [ -159.73765563549054, 22.117070654184602 ], [ -159.737331722579256, 22.119208335443645 ], [ -159.736213808382871, 22.120594955125842 ], [ -159.735929276387566, 22.121425648010515 ], [ -159.735634099529079, 22.119863527689869 ], [ -159.736790114661943, 22.118429646134185 ], [ -159.737125620912451, 22.116785985000359 ], [ -159.737045270736189, 22.113821098016654 ], [ -159.737346461430064, 22.113548829043641 ], [ -159.737912433560865, 22.111643727810382 ], [ -159.738626913578514, 22.109979286399682 ], [ -159.736735012754536, 22.108944296052471 ], [ -159.736449106344338, 22.108773900123477 ], [ -159.73950336881714, 22.108203958436071 ], [ -159.740543916459018, 22.105555049362767 ], [ -159.741569253710537, 22.103677908763508 ], [ -159.740775301478919, 22.102973960675705 ], [ -159.740782009323596, 22.102572366815203 ], [ -159.742682786520959, 22.101509196218704 ], [ -159.743391530752064, 22.100490990396882 ], [ -159.743370458762996, 22.099714624467069 ], [ -159.743666948939932, 22.098614236247769 ], [ -159.743941970370344, 22.096710437693364 ], [ -159.744615995502414, 22.094845662297033 ], [ -159.743056794291505, 22.09428073347485 ], [ -159.742764661629764, 22.092916023293633 ], [ -159.743600807016264, 22.092928118044149 ], [ -159.745996840684313, 22.092590652757611 ], [ -159.746750764551251, 22.091124156381529 ], [ -159.746232294755032, 22.090197382867803 ], [ -159.747087719317221, 22.089423861610836 ], [ -159.74784695686543, 22.087946947872208 ], [ -159.745127604057643, 22.086732705818008 ], [ -159.744766653465177, 22.08649419949214 ], [ -159.745927969419341, 22.08613713146103 ], [ -159.74679306460078, 22.085856739044385 ], [ -159.748542222920065, 22.085583148280389 ], [ -159.749112658573694, 22.084571845742591 ], [ -159.747654047733079, 22.083690089230597 ], [ -159.746491595266065, 22.082718651761894 ], [ -159.749397429225581, 22.082327020483273 ], [ -159.7503716164656, 22.0817050219562 ], [ -159.751117641894695, 22.078790473931178 ], [ -159.75170515517587, 22.077714555366367 ], [ -159.752274162630385, 22.07549149347312 ], [ -159.752260546839494, 22.074991371023394 ], [ -159.752551526535427, 22.073910990381922 ], [ -159.752830698336112, 22.072820209235324 ], [ -159.753269152048972, 22.071606749414819 ], [ -159.754085181399404, 22.069222734611593 ], [ -159.754904127198643, 22.066022737409902 ], [ -159.752723697799979, 22.066074269749311 ], [ -159.751055346784653, 22.065902708242231 ], [ -159.753054233022937, 22.064987403231235 ], [ -159.754238489089659, 22.064141154313408 ], [ -159.755662160444217, 22.063261684298801 ], [ -159.754215946803726, 22.061979251349214 ], [ -159.755682216062695, 22.061158721409477 ], [ -159.755982894359221, 22.060864099254264 ], [ -159.755954269841311, 22.059812514959084 ], [ -159.756252161923385, 22.058987944581684 ], [ -159.756552762941851, 22.05690530407859 ], [ -159.756201190033096, 22.051323580547884 ], [ -159.756222448038756, 22.050041769631093 ], [ -159.756185577998593, 22.048686848276034 ], [ -159.75620234674912, 22.047675364798305 ], [ -159.755875749144451, 22.045383720199339 ], [ -159.751994436766523, 22.04547543428847 ], [ -159.754986471847872, 22.042768864797182 ], [ -159.752669723027623, 22.042428201584741 ], [ -159.748662417766752, 22.042522812468473 ], [ -159.748314597948138, 22.042344710034257 ], [ -159.749184622834861, 22.041946278967419 ], [ -159.75076543451047, 22.041042612464015 ], [ -159.754219106556121, 22.040117297999011 ], [ -159.754758361043883, 22.039067891294753 ], [ -159.754023734286108, 22.03758776830637 ], [ -159.749874688995874, 22.038267178207672 ], [ -159.747711099172221, 22.038140799839478 ], [ -159.749449637505393, 22.037066725068602 ], [ -159.749757905143127, 22.036764619364778 ], [ -159.751508012220569, 22.035683373980184 ], [ -159.75224424114441, 22.034961886711077 ], [ -159.752623344814367, 22.03363626444299 ], [ -159.751740715375547, 22.031635844900055 ], [ -159.751441527055022, 22.028921600243777 ], [ -159.750851997102188, 22.026819933813645 ], [ -159.750548086647541, 22.024860405989234 ], [ -159.75012022664589, 22.023334986197273 ], [ -159.74887169068586, 22.022579893611944 ], [ -159.747367690918821, 22.023067561670896 ], [ -159.746759138582604, 22.022911601682299 ], [ -159.748790081658228, 22.021074275156735 ], [ -159.748774632903036, 22.020504433750361 ], [ -159.74812615460354, 22.019344710493634 ], [ -159.747017372713458, 22.017835455308163 ], [ -159.746655972317683, 22.016813995756429 ], [ -159.745549941271662, 22.015131938317669 ], [ -159.745262251998014, 22.014585781031702 ], [ -159.743422427024086, 22.012562246124222 ], [ -159.742931476814533, 22.013517707037007 ], [ -159.74262607421025, 22.014077176603912 ], [ -159.741054091335542, 22.014797108269569 ], [ -159.74163828645743, 22.011507221791831 ], [ -159.742420824614527, 22.010419433497479 ], [ -159.741884357924249, 22.009459859268166 ], [ -159.741452863838759, 22.008640611834583 ], [ -159.741153623750989, 22.008105349875454 ], [ -159.740722138152563, 22.007286100153451 ], [ -159.73931837363159, 22.006436911846741 ], [ -159.738360653394551, 22.004204282235602 ], [ -159.737272852262464, 22.002880722310149 ], [ -159.736047740968473, 22.002436917618894 ], [ -159.732175816285718, 22.004769888104246 ], [ -159.731836762098311, 22.003768356462153 ], [ -159.73240987447798, 22.002182184714581 ], [ -159.732690470962012, 22.001362442781495 ], [ -159.733302872027025, 21.999934860628663 ], [ -159.73236854487368, 21.9978159603357 ], [ -159.730633960330408, 21.997040706097263 ], [ -159.729112481282726, 21.996318312953683 ], [ -159.727897713770005, 21.994430413151395 ], [ -159.727148641670283, 21.995164470895944 ], [ -159.725289482864696, 21.996313013505581 ], [ -159.723442227926483, 21.998415649282574 ], [ -159.7219234667335, 21.999789392006434 ], [ -159.721941640881141, 22.000464252010399 ], [ -159.721934087002268, 22.00091331338033 ], [ -159.721327448801276, 22.002591918741398 ], [ -159.720763054371247, 22.003625552102775 ], [ -159.72006001929887, 22.00426139895082 ], [ -159.719634902331791, 22.00467793587519 ], [ -159.719162015322183, 22.005105631947398 ], [ -159.717527031316905, 22.006036854755308 ], [ -159.717942309824707, 22.00449573633739 ], [ -159.719044085297327, 22.002783377554305 ], [ -159.719319292642808, 22.000879594343626 ], [ -159.719613122852707, 22.000066580571957 ], [ -159.719226936801874, 21.999723807282496 ], [ -159.719892694424317, 21.998172288482088 ], [ -159.720173797143161, 21.997439871754079 ], [ -159.719020857753435, 21.998176112870411 ], [ -159.717480465330397, 21.999038006141468 ], [ -159.71430173051715, 22.000015312129314 ], [ -159.714723410682211, 21.998848713232736 ], [ -159.718348545671546, 21.99496914540741 ], [ -159.720280062336514, 21.993620669471401 ], [ -159.720924757625454, 21.992366396604208 ], [ -159.722948597619848, 21.991439665569263 ], [ -159.722463956451747, 21.990572377321261 ], [ -159.722019671422515, 21.989315713004363 ], [ -159.720647998484679, 21.988098158723556 ], [ -159.718104039338129, 21.98815774731376 ], [ -159.717281077828602, 21.987766889656537 ], [ -159.715699090668693, 21.988279632017978 ], [ -159.711444055963142, 21.991803544934772 ], [ -159.71113357951657, 21.990037324743806 ], [ -159.711955971654078, 21.987761994774846 ], [ -159.713435528423304, 21.985462465657697 ], [ -159.713717819520639, 21.984965626557894 ], [ -159.711972721546914, 21.98465575215209 ], [ -159.711211878287003, 21.984294352393096 ], [ -159.709368659253016, 21.985751119964018 ], [ -159.70754474459693, 21.986837659157729 ], [ -159.70872966265847, 21.982745785877459 ], [ -159.70655451411838, 21.982796569835056 ], [ -159.703852402986712, 21.984850181837924 ], [ -159.701019148766335, 21.98614718733447 ], [ -159.700650825391534, 21.98574833026024 ], [ -159.702412707061171, 21.98330005409942 ], [ -159.7032102859242, 21.981748645365339 ], [ -159.704232319967844, 21.980328357118925 ], [ -159.702721404907692, 21.980363599892392 ], [ -159.702367793012229, 21.980342831627429 ], [ -159.70410599680406, 21.97926924007125 ], [ -159.704490138402747, 21.978892883981651 ], [ -159.704082880739918, 21.978163776204411 ], [ -159.702929875099642, 21.977648143719986 ], [ -159.701679616935991, 21.976865468692509 ], [ -159.699728275244127, 21.976577731232219 ], [ -159.698548586767515, 21.976301079741514 ], [ -159.697971900658047, 21.976314516803413 ], [ -159.697413506713048, 21.977400652405894 ], [ -159.696972853032236, 21.978207455203872 ], [ -159.696549725386291, 21.979030459743669 ], [ -159.695936536361614, 21.979882489813875 ], [ -159.695396666801855, 21.980932511828648 ], [ -159.69423357786178, 21.982375658824463 ], [ -159.693087827058548, 21.984194557552602 ], [ -159.69253008413807, 21.985004556153413 ], [ -159.692204216585367, 21.981753652136888 ], [ -159.691900582045463, 21.981484008492515 ], [ -159.691910495868996, 21.980902037387054 ], [ -159.692482992239633, 21.979318691844909 ], [ -159.692763779272127, 21.97849901102461 ], [ -159.693231500147391, 21.977205456910514 ], [ -159.693623598247399, 21.976045102565884 ], [ -159.692461181951273, 21.976072143601538 ], [ -159.692488546239417, 21.974466316480118 ], [ -159.690794118455244, 21.973905338379662 ], [ -159.68930593601678, 21.97604345705475 ], [ -159.687188185206793, 21.978251426303334 ], [ -159.687267959880842, 21.973578844931414 ], [ -159.68620599270227, 21.973786356873866 ], [ -159.686058031387915, 21.972490877925427 ], [ -159.684671833467149, 21.972600598374697 ], [ -159.683804094909846, 21.97443642211795 ], [ -159.682670805811568, 21.972095617162971 ], [ -159.681831747267694, 21.971510953484039 ], [ -159.680579418396746, 21.972879011936218 ], [ -159.679680027101938, 21.974231671817066 ], [ -159.678597361357589, 21.974155029021773 ], [ -159.679093508350633, 21.972877423750141 ], [ -159.679354165413201, 21.971137632094969 ], [ -159.678378470976696, 21.970360536567686 ], [ -159.675621817330466, 21.969598763125653 ], [ -159.673856748111945, 21.970300682519213 ], [ -159.673515986029372, 21.968929622453118 ], [ -159.671246617256998, 21.967616662034619 ], [ -159.668565010007029, 21.965675311470999 ], [ -159.667421030370406, 21.967544914902899 ], [ -159.666861904766506, 21.966944874416725 ], [ -159.666548547061154, 21.966695270135176 ], [ -159.665617166151463, 21.965496408429349 ], [ -159.664497262004829, 21.964604265712417 ], [ -159.664590436598587, 21.963460551561141 ], [ -159.663937144196353, 21.963182525039777 ], [ -159.662438207012769, 21.965728098437225 ], [ -159.662578593858626, 21.967273800449043 ], [ -159.662025830798797, 21.969190259664988 ], [ -159.660656445267762, 21.971008304582163 ], [ -159.659596488152602, 21.971310621205106 ], [ -159.657869570538452, 21.972702037500845 ], [ -159.657304475492964, 21.973675633854402 ], [ -159.658762691348613, 21.97483729318061 ], [ -159.660404751284005, 21.976599601708379 ], [ -159.66080696039279, 21.97899202899081 ], [ -159.661401657923051, 21.979976150612906 ], [ -159.661673956983122, 21.980538821894328 ], [ -159.662035318063829, 21.980510268764274 ], [ -159.663987753306884, 21.981515960509824 ], [ -159.664295989349256, 21.982152804943095 ], [ -159.664698400588492, 21.982818662428741 ], [ -159.664152407497625, 21.983740741460313 ], [ -159.665203174562862, 21.985110249778291 ], [ -159.665481064893328, 21.987026440904632 ], [ -159.665795730775812, 21.987547064598747 ], [ -159.666292540774265, 21.988573414472967 ], [ -159.667836228792027, 21.988893892339629 ], [ -159.668241746253642, 21.989329016017404 ], [ -159.668757298284618, 21.989739604991382 ], [ -159.668692592126121, 21.990534165530622 ], [ -159.669008779415435, 21.991057307156044 ], [ -159.66957479555893, 21.99243026563704 ], [ -159.670423120525612, 21.993105865835922 ], [ -159.669872939234637, 21.994035043360579 ], [ -159.669609333535533, 21.995178508769257 ], [ -159.67077404469984, 21.995657503595915 ], [ -159.671303270594649, 21.997271125319372 ], [ -159.671678345159478, 21.997569809978916 ], [ -159.671612848723527, 21.998374381781272 ], [ -159.671694824759584, 21.999276377278029 ], [ -159.671188083991751, 22.002413402151699 ], [ -159.670344508565307, 22.002768584389965 ], [ -159.669610273539718, 22.003872451776701 ], [ -159.669678136047594, 22.004619027638164 ], [ -159.66856629452505, 22.004936158098936 ], [ -159.668210707330218, 22.0068000834926 ], [ -159.667899608177947, 22.007052226406181 ], [ -159.666466959271929, 22.008616639678262 ], [ -159.66632275797528, 22.009372415874857 ], [ -159.665656542178851, 22.009974520094396 ], [ -159.665320462174094, 22.011953922046281 ], [ -159.665025239097787, 22.012220717597923 ], [ -159.664731785210051, 22.012791033812686 ], [ -159.664749261060109, 22.013449514725249 ], [ -159.662703380548891, 22.01392337191653 ], [ -159.662744035311647, 22.015455819861728 ], [ -159.661553990094973, 22.017108239205982 ], [ -159.661575539607213, 22.017921056935084 ], [ -159.661275785079937, 22.018469424822221 ], [ -159.660996000742045, 22.019560072611693 ], [ -159.660668830114702, 22.020464053038214 ], [ -159.660065712903645, 22.021567366677072 ], [ -159.658971730222419, 22.023086267716394 ], [ -159.658985957612202, 22.023622980196983 ], [ -159.658651594687427, 22.024234623155763 ], [ -159.657793830460946, 22.025009684530161 ], [ -159.656076401350617, 22.025536930276754 ], [ -159.65525764810269, 22.025934335141365 ], [ -159.654911012607869, 22.026945210197734 ], [ -159.654256730675201, 22.028141855315734 ], [ -159.652672111153464, 22.028531783474005 ], [ -159.65376433310422, 22.027177737762198 ], [ -159.654060206790575, 22.026314985782644 ], [ -159.65463939262483, 22.02525560876008 ], [ -159.655851777886483, 22.024701203727034 ], [ -159.656965736485148, 22.023610811718392 ], [ -159.657798176715232, 22.01954184006436 ], [ -159.659511797075311, 22.016407001178333 ], [ -159.659987503044249, 22.013606103543893 ], [ -159.660416464412123, 22.012420781695141 ], [ -159.663145978288838, 22.00995407523471 ], [ -159.662548500932047, 22.008349091293184 ], [ -159.663308548086036, 22.00729371730187 ], [ -159.665211960751918, 22.005573482195295 ], [ -159.666536854016869, 22.003471357812131 ], [ -159.667300921139599, 22.001641553681278 ], [ -159.667906082629003, 22.000534235305555 ], [ -159.667870685795407, 21.999202734012098 ], [ -159.667880032112066, 21.998660648488535 ], [ -159.66786047929773, 21.997924543959439 ], [ -159.664751323339175, 21.998931099902677 ], [ -159.665834673731013, 21.997587582292518 ], [ -159.666115574123438, 21.996752113700293 ], [ -159.664985565801743, 21.995748382021162 ], [ -159.664368831292961, 21.994851393823172 ], [ -159.664979722016284, 21.993733574642299 ], [ -159.666102913163797, 21.992718384684437 ], [ -159.666087806740052, 21.99214971575817 ], [ -159.664774851749314, 21.992180019883499 ], [ -159.664339614000625, 21.993026053454169 ], [ -159.663338673459862, 21.99393073302339 ], [ -159.662430063891946, 21.994820394142266 ], [ -159.660785502019706, 21.996047165164985 ], [ -159.659735104573969, 21.997075607838379 ], [ -159.658279051700163, 21.997741616226875 ], [ -159.657696917132967, 21.997501644321428 ], [ -159.659448243632482, 21.996522571318739 ], [ -159.66002704177825, 21.995397620394751 ], [ -159.661028013924096, 21.994492960416331 ], [ -159.661464719067453, 21.994065359289667 ], [ -159.661450659129883, 21.99353484782425 ], [ -159.661750447671466, 21.992706373207348 ], [ -159.662903342557826, 21.992178974704398 ], [ -159.663548155771309, 21.990925594050001 ], [ -159.662031436191739, 21.988208708467777 ], [ -159.661360800284228, 21.986309230269846 ], [ -159.660574021977794, 21.987838499911675 ], [ -159.660251409148799, 21.988118878799781 ], [ -159.660270173939068, 21.98702990848653 ], [ -159.659672069866957, 21.985958439327007 ], [ -159.659045217621355, 21.984766475219821 ], [ -159.657043026943967, 21.982987716773902 ], [ -159.656756987340543, 21.982712411290922 ], [ -159.654996920545898, 21.981646198127802 ], [ -159.6544248556566, 21.98109557907722 ], [ -159.653950295188508, 21.98067394475661 ], [ -159.653540705293835, 21.978388853087942 ], [ -159.652950042856787, 21.977583554713213 ], [ -159.651724517917216, 21.975252719677972 ], [ -159.649992483790982, 21.972445814421746 ], [ -159.648776845069875, 21.973036030497894 ], [ -159.647163164946278, 21.974615882079203 ], [ -159.646994318728304, 21.977197888320962 ], [ -159.646569581609356, 21.976820467349441 ], [ -159.645652517309117, 21.975393270472015 ], [ -159.644318440979816, 21.978359130471912 ], [ -159.641569992072192, 21.980588851068322 ], [ -159.64047160960817, 21.980614050355094 ], [ -159.639899266133028, 21.980605398234655 ], [ -159.639398742731402, 21.981521017680357 ], [ -159.640184817633724, 21.982219585334342 ], [ -159.640232429422099, 21.984024619509629 ], [ -159.63851085745307, 21.987369732426714 ], [ -159.637343183494892, 21.987936487633103 ], [ -159.635357986693833, 21.988396000713692 ], [ -159.634127435415024, 21.989921639726862 ], [ -159.634100970818423, 21.991438236510302 ], [ -159.634454991533261, 21.992072744927302 ], [ -159.633854937915174, 21.995004036027897 ], [ -159.633289875781799, 21.997096159423471 ], [ -159.632999941750114, 21.998801689821022 ], [ -159.632707087563404, 21.999610469304972 ], [ -159.632364411183914, 22.000945229636535 ], [ -159.631271823453403, 22.002331676683465 ], [ -159.630109464687735, 22.003685846530143 ], [ -159.629704903845152, 22.004865029510665 ], [ -159.628961159384517, 22.005592856101561 ], [ -159.628084612585099, 22.005861815280056 ], [ -159.627659288766949, 22.007938859780825 ], [ -159.626406281340792, 22.008737885431636 ], [ -159.626936263078505, 22.007768811219947 ], [ -159.627210328084288, 22.005323111715487 ], [ -159.628078784119992, 22.004538605345527 ], [ -159.625989842980005, 22.004312853906541 ], [ -159.624626640498491, 22.005544282536491 ], [ -159.624176418144486, 22.006418789402737 ], [ -159.623737837656421, 22.005689844962266 ], [ -159.623694166180769, 22.004027566315685 ], [ -159.62429451163834, 22.003166037116266 ], [ -159.624880422204455, 22.002898206040278 ], [ -159.625787528928157, 22.002319728137184 ], [ -159.629218801337515, 22.001266847220787 ], [ -159.630682367451215, 21.998184087406276 ], [ -159.630595382577042, 21.994878373591252 ], [ -159.630645097954101, 21.99203241622503 ], [ -159.630630853899504, 21.991490420157682 ], [ -159.630644997511752, 21.99067728948835 ], [ -159.630616686589519, 21.989601120856815 ], [ -159.630923660761198, 21.989323803678129 ], [ -159.631206021089412, 21.988775240853027 ], [ -159.63350893268219, 21.986091940716509 ], [ -159.633867103294335, 21.985396137394208 ], [ -159.634965711922888, 21.984695352452405 ], [ -159.636416700426452, 21.984249993322827 ], [ -159.636127849693338, 21.983335724151715 ], [ -159.635250750839106, 21.982139638624776 ], [ -159.635752894146009, 21.979908482351018 ], [ -159.638631314381485, 21.977090826428604 ], [ -159.639840818837712, 21.97710912609578 ], [ -159.641609752070735, 21.975875344301461 ], [ -159.641321891187232, 21.975184745366704 ], [ -159.640850741229798, 21.974340358352503 ], [ -159.642800400945703, 21.971754022559409 ], [ -159.645343653435532, 21.969979963837147 ], [ -159.64536645173834, 21.96866699481431 ], [ -159.64534530498787, 21.967864538397027 ], [ -159.645931956021712, 21.966499014362377 ], [ -159.645924690117425, 21.966225569059247 ], [ -159.645938656452586, 21.965423553389599 ], [ -159.645343285871974, 21.965140427323949 ], [ -159.644325357144254, 21.965283262447713 ], [ -159.644486401375957, 21.96358898405073 ], [ -159.643003566973846, 21.963257949897347 ], [ -159.644114908211748, 21.960834030490471 ], [ -159.641013095368464, 21.960531932125864 ], [ -159.642095820999401, 21.959471885700033 ], [ -159.643219787908635, 21.958957792206565 ], [ -159.642400239128477, 21.957840138868072 ], [ -159.642427980946678, 21.95624775206575 ], [ -159.642104551949956, 21.955936403633956 ], [ -159.640596075426231, 21.957082045708351 ], [ -159.638666506852701, 21.958272950278889 ], [ -159.638070486290559, 21.960011098185014 ], [ -159.636930494053956, 21.960564490066005 ], [ -159.635731312787158, 21.960842114437483 ], [ -159.63516672977795, 21.961939255432913 ], [ -159.634303160158311, 21.963518942033584 ], [ -159.634283543269134, 21.964644792119358 ], [ -159.634311609706828, 21.965709880619041 ], [ -159.633537934907139, 21.9668205775451 ], [ -159.631706853101406, 21.966792777970458 ], [ -159.630849170627272, 21.967632362587924 ], [ -159.630242105528083, 21.967909954835225 ], [ -159.628959747883044, 21.968727950738931 ], [ -159.628195837157023, 21.968184505249507 ], [ -159.631393549314481, 21.965466295297958 ], [ -159.632299383763041, 21.965188260120993 ], [ -159.632256666627512, 21.963566104915021 ], [ -159.63283306040077, 21.961973970919768 ], [ -159.633149672341915, 21.959146857741001 ], [ -159.634840815291057, 21.957618585791536 ], [ -159.635875290387645, 21.955608320966586 ], [ -159.637093326700239, 21.955051226452333 ], [ -159.637641256366351, 21.953537281539305 ], [ -159.636282703404135, 21.953516677159126 ], [ -159.635161051486079, 21.953542390128469 ], [ -159.632909856683227, 21.953013425652625 ], [ -159.632378402012648, 21.95667515777685 ], [ -159.630779558970517, 21.957889279002146 ], [ -159.630277901514773, 21.954634948720418 ], [ -159.628414834397432, 21.954911558053571 ], [ -159.627306965214672, 21.955996028450286 ], [ -159.626992499578677, 21.955731628161942 ], [ -159.626567692756481, 21.954923212566751 ], [ -159.624995750086583, 21.954899259466362 ], [ -159.621972819275612, 21.957251416695517 ], [ -159.621418201041877, 21.958328922136879 ], [ -159.620324363448219, 21.959003841755067 ], [ -159.619768406366575, 21.959547994291253 ], [ -159.619734114825036, 21.958493990546437 ], [ -159.620029122122133, 21.957920848971352 ], [ -159.621420792173325, 21.955645474824923 ], [ -159.622004954068615, 21.953942794832141 ], [ -159.622882810802508, 21.952237146704988 ], [ -159.62635090271641, 21.950821648419826 ], [ -159.628423736360133, 21.950853202609935 ], [ -159.627730583748075, 21.948874861596344 ], [ -159.626386995204228, 21.947580899172859 ], [ -159.624656603578643, 21.947620438525526 ], [ -159.624043181636921, 21.947075090799267 ], [ -159.624066808867497, 21.945727937968243 ], [ -159.622143478666857, 21.944649798639656 ], [ -159.61960839162785, 21.944329392863409 ], [ -159.618262354883456, 21.943032955071757 ], [ -159.616482423124779, 21.942756571347569 ], [ -159.616044431007424, 21.942766551020675 ], [ -159.615451384907431, 21.942757491200719 ], [ -159.615975671352771, 21.943697671897169 ], [ -159.61534748318789, 21.944918094192506 ], [ -159.614739280996758, 21.945213299924273 ], [ -159.614015640262863, 21.94520224227826 ], [ -159.613326231865329, 21.946541493455726 ], [ -159.611790749559077, 21.947707322615841 ], [ -159.612143521766711, 21.945730074869076 ], [ -159.612122992671488, 21.944943899969946 ], [ -159.612137255784319, 21.944133476845519 ], [ -159.610527442349877, 21.944431700209943 ], [ -159.609526811376298, 21.946261609423296 ], [ -159.609518815015122, 21.946715259738951 ], [ -159.609570078302909, 21.94867469330579 ], [ -159.608195649085275, 21.950647350443482 ], [ -159.608084864477149, 21.950382158761489 ], [ -159.607634811191531, 21.947459391700676 ], [ -159.606906558409975, 21.947133091456081 ], [ -159.607484808348573, 21.946075726430749 ], [ -159.607509265048265, 21.944686717892218 ], [ -159.606630500582128, 21.944706704914445 ], [ -159.605998263899949, 21.944405752380309 ], [ -159.604721571444941, 21.944434772422174 ], [ -159.603241243168355, 21.944412025139279 ], [ -159.601389028358852, 21.945733954772219 ], [ -159.602094527297794, 21.943844133781546 ], [ -159.604246763405058, 21.94279976417749 ], [ -159.608346756955399, 21.942250324582957 ], [ -159.608332702300316, 21.941713945241176 ], [ -159.608929579104768, 21.941424264027365 ], [ -159.609766688077514, 21.941437107086241 ], [ -159.612096689361351, 21.940371761936362 ], [ -159.612116368543411, 21.939252342534076 ], [ -159.612095159303692, 21.938439338039856 ], [ -159.612113691104838, 21.93738324630662 ], [ -159.611701928745219, 21.936275291729661 ], [ -159.612782852332458, 21.936688924030459 ], [ -159.613844437484858, 21.937354559385234 ], [ -159.614127650057952, 21.936251690062129 ], [ -159.616151329864266, 21.935326321616301 ], [ -159.616168133107237, 21.934369820296912 ], [ -159.615574228702684, 21.934087188098474 ], [ -159.614518238887911, 21.933614093992542 ], [ -159.616156579139442, 21.93300410426836 ], [ -159.616135711838382, 21.932209526875663 ], [ -159.616726368632612, 21.93136157423405 ], [ -159.617891940139401, 21.931379397588596 ], [ -159.61845923835395, 21.930824026357161 ], [ -159.619031449228203, 21.930306913434688 ], [ -159.619053180266235, 21.929067587128191 ], [ -159.618596705725395, 21.926103712734029 ], [ -159.617661535617003, 21.925202830652985 ], [ -159.616089397205599, 21.924217086612547 ], [ -159.613895222643265, 21.922986740437587 ], [ -159.611456393430302, 21.923408786835104 ], [ -159.610029581023099, 21.924061251814617 ], [ -159.609398750773096, 21.924937021942409 ], [ -159.608858433817659, 21.925986776927942 ], [ -159.608269254573571, 21.926804689200907 ], [ -159.608310923106643, 21.928399506351198 ], [ -159.607247987152647, 21.929717320493328 ], [ -159.607750141494108, 21.931515692246435 ], [ -159.606552974593399, 21.931138284963751 ], [ -159.605973757879269, 21.931419389365058 ], [ -159.605392178863042, 21.931142563267578 ], [ -159.604519852496935, 21.931424741608929 ], [ -159.603952028744317, 21.93087762543707 ], [ -159.603502370635567, 21.930887845460028 ], [ -159.602630854084651, 21.930874466796627 ], [ -159.601322795600225, 21.930904168675369 ], [ -159.600982691359121, 21.929001827249003 ], [ -159.600156577064865, 21.928989129487626 ], [ -159.59972566924182, 21.929410908539392 ], [ -159.599282895202776, 21.92981092702437 ], [ -159.598999387127122, 21.930088414566292 ], [ -159.598131209029816, 21.930872767455249 ], [ -159.598746896809047, 21.932101536030082 ], [ -159.600761835562253, 21.933323573504968 ], [ -159.600460675671656, 21.933874207687463 ], [ -159.600861440482248, 21.934952721356883 ], [ -159.600455381815948, 21.934961946809686 ], [ -159.599614828792056, 21.934152028870361 ], [ -159.598569169283962, 21.934135955670889 ], [ -159.597857223208734, 21.935518733700704 ], [ -159.597273356081701, 21.935509739715467 ], [ -159.596930741770763, 21.936175089967431 ], [ -159.594926968200184, 21.937452998777992 ], [ -159.594970497876346, 21.934992774271109 ], [ -159.59433733320904, 21.934691315417219 ], [ -159.59291548891423, 21.934723545990739 ], [ -159.590052271537388, 21.934679324491047 ], [ -159.589173688283381, 21.935539068155396 ], [ -159.588586763493112, 21.935062635474679 ], [ -159.588146724467862, 21.934224623194236 ], [ -159.586018842829048, 21.936608025851498 ], [ -159.587113066504827, 21.938101694226933 ], [ -159.587138674497254, 21.939087919716702 ], [ -159.585494331269871, 21.937933079359571 ], [ -159.584248762028807, 21.938537367773868 ], [ -159.584201461215315, 21.936714807221826 ], [ -159.584491475195392, 21.934720827055468 ], [ -159.585262093277464, 21.933312056516076 ], [ -159.584558909792037, 21.932634438297924 ], [ -159.583018414505261, 21.933132505116518 ], [ -159.582015387702882, 21.933116969271488 ], [ -159.581013650551512, 21.933139569299435 ], [ -159.580704240436262, 21.93286433981925 ], [ -159.58012576308829, 21.932047868684613 ], [ -159.579531009676629, 21.931518759551363 ], [ -159.578959434257911, 21.930967863020758 ], [ -159.577500128630277, 21.930707391802109 ], [ -159.576911405872522, 21.930139939632333 ], [ -159.575185878287641, 21.930178871192872 ], [ -159.574875567088185, 21.929621950770851 ], [ -159.574899597612216, 21.928277207226088 ], [ -159.573838660732804, 21.927960058118856 ], [ -159.574868966622574, 21.926530345089613 ], [ -159.574287497198156, 21.926102309248243 ], [ -159.573913588282664, 21.927191140668484 ], [ -159.573172758690589, 21.926796576267439 ], [ -159.572831787626143, 21.925574160894946 ], [ -159.572542772575673, 21.9244856227795 ], [ -159.571937957815351, 21.923659750013638 ], [ -159.571335147813812, 21.921948256777824 ], [ -159.565221439415097, 21.90907837291693 ], [ -159.562430007110436, 21.90491753377324 ], [ -159.556236206246552, 21.898945233570931 ], [ -159.548402124155984, 21.893380801887652 ], [ -159.535970127716666, 21.888873817550945 ], [ -159.523218097300827, 21.885652547169098 ], [ -159.525883720769968, 21.884435030714346 ], [ -159.526201478815551, 21.882887621522393 ], [ -159.526781410905301, 21.883447154473352 ], [ -159.52842327679511, 21.883938600298979 ], [ -159.529099922786429, 21.88586217417242 ], [ -159.529987617449137, 21.885876226237702 ], [ -159.530568365823768, 21.885863272781222 ], [ -159.531129872197567, 21.886934078478713 ], [ -159.534784053714844, 21.886991863102622 ], [ -159.536463382328833, 21.88644929949988 ], [ -159.53752359824, 21.887472072002385 ], [ -159.537979574770134, 21.887479251262263 ], [ -159.53856032837902, 21.887466302591005 ], [ -159.539286374099703, 21.887477756020637 ], [ -159.542081956972396, 21.887415310421115 ], [ -159.542775033632324, 21.887726308860323 ], [ -159.543258842058833, 21.888192997799457 ], [ -159.547699725902731, 21.888262852272778 ], [ -159.54983391851988, 21.887446615267152 ], [ -159.551462886006476, 21.887410134609816 ], [ -159.553151872353936, 21.888597379237805 ], [ -159.554248361251553, 21.889119874483889 ], [ -159.554974001682695, 21.888767921626354 ], [ -159.555261579022726, 21.889045262280685 ], [ -159.558229710006771, 21.889373585900685 ], [ -159.560205875394615, 21.89011386478748 ], [ -159.56101890068723, 21.889719471143835 ], [ -159.561597363138702, 21.890822037351018 ], [ -159.563698548523632, 21.891450450365767 ], [ -159.564565036039113, 21.891723938543365 ], [ -159.566272565727672, 21.892234595210894 ], [ -159.567480238561188, 21.893063645506498 ], [ -159.569009588115222, 21.894138354799594 ], [ -159.570178191975572, 21.894156577814982 ], [ -159.572418265858971, 21.893323007873317 ], [ -159.573003414194375, 21.893039089876932 ], [ -159.573578387434111, 21.893048038857259 ], [ -159.574738193719327, 21.892766313539418 ], [ -159.575025033820253, 21.893042893416329 ], [ -159.575607938215228, 21.893561644236293 ], [ -159.575328866549086, 21.894939046147549 ], [ -159.573592651538377, 21.896507500624107 ], [ -159.57508882397704, 21.897633879344863 ], [ -159.576999095302597, 21.895764356538386 ], [ -159.57823399904467, 21.895464378146709 ], [ -159.578520993467492, 21.895741050332116 ], [ -159.578816913347737, 21.895734385743058 ], [ -159.57969336386779, 21.89628434673984 ], [ -159.580268403121693, 21.896271369759429 ], [ -159.580840907452881, 21.896280268740536 ], [ -159.581428951608814, 21.895994921201375 ], [ -159.582019293125825, 21.896276106787759 ], [ -159.582856009579302, 21.896257199610258 ], [ -159.583466958191593, 21.896531160656135 ], [ -159.583802996896566, 21.898105729300827 ], [ -159.585217183755816, 21.898422158968284 ], [ -159.586100435882486, 21.898700799074213 ], [ -159.587245001304893, 21.898674916929391 ], [ -159.587252407358505, 21.898959683774418 ], [ -159.587237999855915, 21.899769781398227 ], [ -159.588083729755937, 21.899782874215752 ], [ -159.589571801174571, 21.899421294808938 ], [ -159.589288617953144, 21.899768209485067 ], [ -159.587839214371854, 21.900430851516937 ], [ -159.588445349508476, 21.90144286423957 ], [ -159.589298623555834, 21.902202016696574 ], [ -159.590443527572376, 21.903818103722191 ], [ -159.591473578520777, 21.903834024253623 ], [ -159.595214609868009, 21.903478970712126 ], [ -159.597123736323681, 21.902606064122232 ], [ -159.597436991546431, 21.899814665836729 ], [ -159.599155209096239, 21.899287403090675 ], [ -159.598724051438239, 21.898322006288698 ], [ -159.597031569850401, 21.895832741250853 ], [ -159.597489437181025, 21.894943219388747 ], [ -159.598291437922995, 21.894576507511061 ], [ -159.599661110402764, 21.893235663927239 ], [ -159.600586596923307, 21.892951633085371 ], [ -159.60273101679951, 21.892130707584457 ], [ -159.604359559313025, 21.892390341564131 ], [ -159.605060686968699, 21.893379909397773 ], [ -159.606393473549502, 21.894014466144721 ], [ -159.607967709483091, 21.89472007945578 ], [ -159.607300738245641, 21.895322895178456 ], [ -159.607271634594923, 21.896972172720389 ], [ -159.607639965918878, 21.898291717595214 ], [ -159.607000665255043, 21.898869484229312 ], [ -159.60812331462003, 21.90001331086712 ], [ -159.608453349946217, 21.899690243987312 ], [ -159.609295452707045, 21.900501672265897 ], [ -159.611498074669385, 21.900994140201973 ], [ -159.613686488985536, 21.901576356724565 ], [ -159.613981921298375, 21.90156963053445 ], [ -159.615139408129579, 21.901841862648794 ], [ -159.616626507102382, 21.90210699598769 ], [ -159.617753261460336, 21.903192642620812 ], [ -159.618920314710522, 21.904230653172327 ], [ -159.619222749087982, 21.905088456736244 ], [ -159.620389228484413, 21.905611133405991 ], [ -159.620863611600726, 21.906956811559617 ], [ -159.622394820685344, 21.906980207845454 ], [ -159.623006313101541, 21.906683276164028 ], [ -159.623601905043699, 21.907523550752881 ], [ -159.625909299419732, 21.90747085412189 ], [ -159.625920519134837, 21.907896642207604 ], [ -159.625894472297688, 21.909384683988208 ], [ -159.62737499360577, 21.909113443295318 ], [ -159.628229678920235, 21.908698445761942 ], [ -159.628247551163128, 21.909378429352916 ], [ -159.628220731636588, 21.910911104688566 ], [ -159.630188287952336, 21.911498571688192 ], [ -159.630872143295079, 21.911804926845566 ], [ -159.631240526497663, 21.913190348666163 ], [ -159.633456611992415, 21.913139648240147 ], [ -159.634297090650591, 21.913886963826677 ], [ -159.635818919067276, 21.915742353662644 ], [ -159.635832565090908, 21.916260502406605 ], [ -159.6358237457884, 21.916765768853494 ], [ -159.637315323315107, 21.918584337910559 ], [ -159.637283863068831, 21.920390703342211 ], [ -159.637626944505797, 21.921680492600963 ], [ -159.639636230158999, 21.923154242665042 ], [ -159.639990833397945, 21.924159587844031 ], [ -159.642461176527576, 21.925057592263872 ], [ -159.642855239914098, 21.926174733842679 ], [ -159.644285611953933, 21.927446291070915 ], [ -159.644885465178731, 21.929059249590559 ], [ -159.644602216114777, 21.929373900560808 ], [ -159.644303093516214, 21.929644280244084 ], [ -159.644895110724775, 21.929909379989105 ], [ -159.646009192484058, 21.930982199173076 ], [ -159.648495274789809, 21.931625860404164 ], [ -159.649631299667902, 21.934680283843452 ], [ -159.648905044881019, 21.938756721596818 ], [ -159.651919060549261, 21.941246659962918 ], [ -159.655604696253675, 21.941537664494643 ], [ -159.657727635779793, 21.942331176989768 ], [ -159.660524908752535, 21.942638691512872 ], [ -159.661306115213449, 21.945891729979284 ], [ -159.662074374658516, 21.946631310281226 ], [ -159.663046817937612, 21.947220489382843 ], [ -159.663997589892489, 21.948135728451646 ], [ -159.665306258322801, 21.949298537342592 ], [ -159.665370902881847, 21.951735883113944 ], [ -159.664807453094511, 21.952287791147715 ], [ -159.662150081106148, 21.954356622553835 ], [ -159.662133535277803, 21.95531728767903 ], [ -159.662919448850147, 21.954964749312985 ], [ -159.665902918747634, 21.952042700453429 ], [ -159.667580540740374, 21.953219543198756 ], [ -159.669458302575691, 21.954112253227844 ], [ -159.671529418757842, 21.954886106786525 ], [ -159.675519331139952, 21.956075861257091 ], [ -159.677253493572238, 21.956621621568186 ], [ -159.679591893335527, 21.957143161262291 ], [ -159.681560184887218, 21.957605031011123 ], [ -159.686784746932659, 21.958016537355675 ], [ -159.689729597107288, 21.958566327994919 ], [ -159.690489796251228, 21.958320032690821 ] ], [ [ -159.637587087198227, 21.952842358021236 ], [ -159.63774651, 21.953185848795798 ], [ -159.63825572810245, 21.952949601450818 ], [ -159.637587087198227, 21.952842358021236 ] ], [ [ -159.605978512629292, 21.898214237421801 ], [ -159.605852669277965, 21.898367650933682 ], [ -159.605256991942952, 21.898800240386702 ], [ -159.60473142249046, 21.900776167078114 ], [ -159.606701462168132, 21.900497060850153 ], [ -159.606976919471066, 21.898368736600659 ], [ -159.605978512629292, 21.898214237421801 ] ], [ [ -159.604238301878553, 21.89876269331517 ], [ -159.60399471025886, 21.899275506035622 ], [ -159.604378975327961, 21.900410949996836 ], [ -159.604920023913252, 21.898909897444558 ], [ -159.604238301878553, 21.89876269331517 ] ] ] } },
{ "type": "Feature", "properties": { "ID": 12, "GRIDCODE": 2 }, "geometry": { "type": "Polygon", "coordinates": [ [ [ -160.15062746068395, 21.87904812319611 ], [ -160.150530723886106, 21.879379214086295 ], [ -160.150274217276348, 21.879143350243055 ], [ -160.15062746068395, 21.87904812319611 ] ] ] } },
{ "type": "Feature", "properties": { "ID": 13, "GRIDCODE": 2 }, "geometry": { "type": "Polygon", "coordinates": [ [ [ -159.454875836349458, 21.872139749340924 ], [ -159.45525373890581, 21.872289442397189 ], [ -159.454994121007843, 21.872755372333643 ], [ -159.454875836349458, 21.872139749340924 ] ] ] } },
{ "type": "Feature", "properties": { "ID": 14, "GRIDCODE": 2 }, "geometry": { "type": "Polygon", "coordinates": [ [ [ -159.443830028968847, 21.868375377668162 ], [ -159.444268890871712, 21.868506999824188 ], [ -159.445653031977059, 21.8689450514416 ], [ -159.446881425303161, 21.870131573888042 ], [ -159.448339899841926, 21.870393221363379 ], [ -159.448768026964245, 21.870806747810505 ], [ -159.449362051222096, 21.871336347362156 ], [ -159.449790184102682, 21.871749871008277 ], [ -159.45038421603013, 21.87227946668369 ], [ -159.451172729700602, 21.873041051462156 ], [ -159.453137351136178, 21.872407369505925 ], [ -159.453848583791569, 21.873094248580216 ], [ -159.454719364044905, 21.873075238833884 ], [ -159.455603595062115, 21.873631144056592 ], [ -159.456771746004847, 21.873893518612 ], [ -159.459260781690659, 21.87555390019422 ], [ -159.461565223309492, 21.875503555907983 ], [ -159.462021162502509, 21.875510946248575 ], [ -159.462580408751194, 21.876051016243942 ], [ -159.463748591241483, 21.876313340687023 ], [ -159.464324428921884, 21.876588179332515 ], [ -159.465202239448558, 21.876851311502318 ], [ -159.466354565716131, 21.877401272318483 ], [ -159.466946207440714, 21.877388347384063 ], [ -159.467232628133388, 21.877935129540344 ], [ -159.467866273966905, 21.878801984687264 ], [ -159.468404372463198, 21.879281548224455 ], [ -159.468999643807933, 21.879856298848427 ], [ -159.468964766081825, 21.878468769444133 ], [ -159.47063153148278, 21.87819648860874 ], [ -159.471053611976231, 21.8793979641231 ], [ -159.47224370057495, 21.880121340112346 ], [ -159.473050081489902, 21.880899904038255 ], [ -159.473654489943698, 21.881163775362321 ], [ -159.474210716399, 21.880620106514471 ], [ -159.474511709632992, 21.880353631465038 ], [ -159.4756653248551, 21.881423125693392 ], [ -159.4373375527272, 21.883051938837458 ], [ -159.430732542601049, 21.883900945317656 ], [ -159.418182253737911, 21.887100753030612 ], [ -159.418193798341917, 21.886488643995708 ], [ -159.417887401090667, 21.885111216551966 ], [ -159.418181961374842, 21.884300769913914 ], [ -159.418536747584966, 21.882579493930315 ], [ -159.419575771328539, 21.881642683986371 ], [ -159.426528358508989, 21.88127183877334 ], [ -159.42907913890096, 21.880298425871409 ], [ -159.429486160344794, 21.879116580871294 ], [ -159.430130549759184, 21.877940963854051 ], [ -159.432466006411147, 21.875224990712276 ], [ -159.433577777349967, 21.874222360436132 ], [ -159.434402516078165, 21.874235903527836 ], [ -159.435185726056915, 21.873856696291284 ], [ -159.436088500893646, 21.874728755973845 ], [ -159.439434094028968, 21.87391900196091 ], [ -159.441103780486287, 21.872287567004307 ], [ -159.441064006872409, 21.870694413954837 ], [ -159.441371106629333, 21.87041746104968 ], [ -159.441654810383369, 21.870140239434591 ], [ -159.442240538552056, 21.869873059051589 ], [ -159.442711980048244, 21.868959298289703 ], [ -159.443688181075743, 21.868513990373273 ], [ -159.443830028968847, 21.868375377668162 ] ] ] } },
{ "type": "Feature", "properties": { "ID": 15, "GRIDCODE": 2 }, "geometry": { "type": "Polygon", "coordinates": [ [ [ -160.204093466894619, 21.780022284027719 ], [ -160.203060321975158, 21.780147872986969 ], [ -160.20281235909215, 21.780726546346976 ], [ -160.202477980240189, 21.781253546770724 ], [ -160.202897346767458, 21.781891607814995 ], [ -160.201813762722878, 21.783279105777087 ], [ -160.200768620576611, 21.783687546186179 ], [ -160.199220563862411, 21.78477703278638 ], [ -160.200245753442204, 21.785160246101093 ], [ -160.201332738634136, 21.785002127132845 ], [ -160.202226083364934, 21.784489953076719 ], [ -160.202841746409291, 21.784249340503152 ], [ -160.203789656493683, 21.78358220624057 ], [ -160.204236681004062, 21.78203631121605 ], [ -160.204636868437291, 21.781405581698422 ], [ -160.204223393835491, 21.78044527219803 ], [ -160.204093466894619, 21.780022284027719 ], [ -160.204834779838819, 21.78056794781746 ], [ -160.205659373285386, 21.782356519446758 ], [ -160.206177907781949, 21.784001663610653 ], [ -160.207123774512922, 21.783884763495536 ], [ -160.207458446897249, 21.782758223568941 ], [ -160.208520369453908, 21.781951157471354 ], [ -160.209532575615981, 21.782496968404057 ], [ -160.211018120280897, 21.781951137085791 ], [ -160.213189581705421, 21.782317133997836 ], [ -160.213842454061819, 21.782236419761478 ], [ -160.214968998861906, 21.782843846819109 ], [ -160.215573027850525, 21.784153747368812 ], [ -160.215897293312111, 21.784392390373736 ], [ -160.216157871901231, 21.784691444118522 ], [ -160.216551429594034, 21.784981082952466 ], [ -160.217425824750137, 21.786877231104057 ], [ -160.217943222195004, 21.786813244479976 ], [ -160.21863692466394, 21.787187238501655 ], [ -160.220691353020527, 21.787719466644532 ], [ -160.222264075718044, 21.790095193565335 ], [ -160.222463441144129, 21.790727416958596 ], [ -160.222110471617412, 21.790822786852001 ], [ -160.222366916383123, 21.791058543308868 ], [ -160.222463441144129, 21.790727416958596 ], [ -160.223683155694687, 21.791405942375057 ], [ -160.2243576108159, 21.791388077642889 ], [ -160.225517122782975, 21.791656468040866 ], [ -160.227879386151216, 21.791356618142476 ], [ -160.229715291209885, 21.790456001023276 ], [ -160.231023627591526, 21.791073174232377 ], [ -160.231330357231144, 21.791065033455403 ], [ -160.231898483087122, 21.791608551281691 ], [ -160.232518840702483, 21.791883921115765 ], [ -160.23199269486912, 21.796541357636787 ], [ -160.233858213459058, 21.800272842160997 ], [ -160.234306678504225, 21.80107007951646 ], [ -160.235152831773604, 21.80266618656621 ], [ -160.236128824240467, 21.803527949350823 ], [ -160.237814309899306, 21.804024802180816 ], [ -160.239266417519588, 21.804832329511129 ], [ -160.242004691737918, 21.805089372431201 ], [ -160.24305061517461, 21.806185339395658 ], [ -160.241631472568798, 21.807479314505699 ], [ -160.241331474715395, 21.808068785166792 ], [ -160.241040114548298, 21.808607543890879 ], [ -160.240763105712972, 21.809465125219322 ], [ -160.241357125451401, 21.811044133392731 ], [ -160.241648567229106, 21.811860357808598 ], [ -160.242379984716621, 21.813505977653726 ], [ -160.244553043323435, 21.813448193965804 ], [ -160.245465603970615, 21.814015823605668 ], [ -160.24605831984718, 21.815133578045035 ], [ -160.246028673207718, 21.817380074624808 ], [ -160.246070015686911, 21.818734744138119 ], [ -160.246056800696266, 21.819736160597071 ], [ -160.24549263104339, 21.820779381053853 ], [ -160.245523762736354, 21.821799550249473 ], [ -160.245211336100937, 21.823597356955876 ], [ -160.245287568730731, 21.826095424605178 ], [ -160.244974208499855, 21.827276681679557 ], [ -160.244700046301546, 21.828933440464503 ], [ -160.243113666975802, 21.831866613635011 ], [ -160.243588001600699, 21.833538437686002 ], [ -160.244748417809205, 21.834053285553182 ], [ -160.245045854548636, 21.835553592783491 ], [ -160.244178557032285, 21.835954555713592 ], [ -160.243583045108295, 21.836246681539819 ], [ -160.243615687588317, 21.837316492202 ], [ -160.243606738355652, 21.837994049391124 ], [ -160.243635673896051, 21.838942316747996 ], [ -160.243628514829254, 21.839484362400256 ], [ -160.243650781795537, 21.840214083632464 ], [ -160.245965705511452, 21.840547993869404 ], [ -160.246784708660329, 21.840934106668371 ], [ -160.245970152529168, 21.842440132738258 ], [ -160.245995198809766, 21.84326043943307 ], [ -160.245986261950264, 21.843937995762534 ], [ -160.246014498295068, 21.844862746425683 ], [ -160.245428710779834, 21.846242956604502 ], [ -160.245101545543662, 21.847541422114926 ], [ -160.243123052142607, 21.848157323502814 ], [ -160.241337216547009, 21.849579941877444 ], [ -160.239062786288855, 21.852302839570079 ], [ -160.238518557576526, 21.852798902705267 ], [ -160.238176454868409, 21.853136710607075 ], [ -160.237089380946315, 21.854712029417989 ], [ -160.236222028592408, 21.855797094342826 ], [ -160.235654315652226, 21.85661976374082 ], [ -160.234550410293735, 21.858166578785575 ], [ -160.233309867735898, 21.860247866691765 ], [ -160.232174867286886, 21.862998436951784 ], [ -160.232276613159513, 21.866339903642444 ], [ -160.233170675923844, 21.868350929280936 ], [ -160.233148125467892, 21.870050113927402 ], [ -160.233176154012966, 21.870970303504567 ], [ -160.23287583551496, 21.871811208483091 ], [ -160.232884234879975, 21.872087004075414 ], [ -160.232270464446799, 21.873532550516142 ], [ -160.232338071121859, 21.875752408869307 ], [ -160.231461588366869, 21.876157418495378 ], [ -160.230765636700312, 21.876844442558756 ], [ -160.229073343589818, 21.879011249645338 ], [ -160.228592992143177, 21.88140959889461 ], [ -160.228686783346689, 21.884491275393618 ], [ -160.228321757124689, 21.88516579760708 ], [ -160.227768583867544, 21.885669835715689 ], [ -160.226818424515614, 21.886607704061856 ], [ -160.225767533522628, 21.88867112111447 ], [ -160.225321376483947, 21.889495500599558 ], [ -160.224607456924986, 21.889487216159701 ], [ -160.22265108393421, 21.89044627160073 ], [ -160.219587094405597, 21.892417971799887 ], [ -160.216943013584057, 21.89384296705628 ], [ -160.214215614869204, 21.896073618670169 ], [ -160.211994805386325, 21.897815867292625 ], [ -160.210537923840803, 21.898488763423089 ], [ -160.210154492090396, 21.900008560966082 ], [ -160.208803990401549, 21.900849107031799 ], [ -160.208454051370694, 21.9015359496915 ], [ -160.208160111642684, 21.901803679105587 ], [ -160.207769045008007, 21.902571241375352 ], [ -160.206372174989497, 21.903005581055226 ], [ -160.204781189582945, 21.904150645700462 ], [ -160.203388262232863, 21.905524985008114 ], [ -160.200389395480471, 21.909453882108711 ], [ -160.200095424454332, 21.909721598285671 ], [ -160.198845365334222, 21.91095486234093 ], [ -160.197805331216045, 21.912995675610592 ], [ -160.195663446926574, 21.91588464593104 ], [ -160.193184707703779, 21.916817789919612 ], [ -160.191134794284352, 21.917663072934069 ], [ -160.188612669405813, 21.920889752674761 ], [ -160.187427144702411, 21.921969173170218 ], [ -160.187115113508725, 21.923524433858983 ], [ -160.187159770937456, 21.925004639248051 ], [ -160.185926508777214, 21.925573926036982 ], [ -160.183762226346545, 21.925548335922887 ], [ -160.180823796378974, 21.925881151119903 ], [ -160.178750496321811, 21.926683217758654 ], [ -160.177296958471203, 21.92723020233997 ], [ -160.176723965495967, 21.927510826581663 ], [ -160.176409794878225, 21.92750708714842 ], [ -160.172381050083573, 21.9291677410795 ], [ -160.170053935078613, 21.929449892162189 ], [ -160.16793349996567, 21.930143954090116 ], [ -160.16600915995727, 21.931381043763828 ], [ -160.165136396833674, 21.931923803662439 ], [ -160.163946384396411, 21.932779666841597 ], [ -160.162843352870254, 21.934942528132872 ], [ -160.164006959490877, 21.935969856080192 ], [ -160.16430799509547, 21.937204485459219 ], [ -160.161994369285168, 21.938450012048818 ], [ -160.161133265685066, 21.939003520476582 ], [ -160.160478838471334, 21.939305440711866 ], [ -160.158663618167452, 21.93928371167047 ], [ -160.156906882343549, 21.939329532166877 ], [ -160.154274260748849, 21.939978764383696 ], [ -160.152432700726536, 21.940690755099457 ], [ -160.15126718589778, 21.940964498117708 ], [ -160.150113383232508, 21.941249001611471 ], [ -160.148293399866787, 21.941593696426335 ], [ -160.14230794286766, 21.944261581835434 ], [ -160.140631104594036, 21.945082260185824 ], [ -160.137867640789267, 21.946121309323924 ], [ -160.135136182322725, 21.947246334527986 ], [ -160.133322442767451, 21.948411665169019 ], [ -160.132737777500921, 21.948681272207711 ], [ -160.131876493390564, 21.949234634155989 ], [ -160.131261772153522, 21.949518105695294 ], [ -160.127716260074152, 21.952336479847332 ], [ -160.127256605928153, 21.952789405626881 ], [ -160.12696239764287, 21.953056999544877 ], [ -160.12639740163209, 21.953613726511129 ], [ -160.125772966600607, 21.954181676561568 ], [ -160.124651292895038, 21.954698842759921 ], [ -160.123943204120394, 21.955045285266259 ], [ -160.122071323398075, 21.958178528669208 ], [ -160.12062479172522, 21.959875378301398 ], [ -160.119746317296432, 21.960997892305176 ], [ -160.119193102906195, 21.963184027000462 ], [ -160.119229922235036, 21.964423161097361 ], [ -160.118858464572185, 21.966180068232308 ], [ -160.118073894195561, 21.968022788905024 ], [ -160.117795596099683, 21.968843111246237 ], [ -160.117211326178989, 21.969920240400093 ], [ -160.116380225826674, 21.971548259458654 ], [ -160.114924958979032, 21.972871570498011 ], [ -160.11385336058359, 21.974970549868672 ], [ -160.113473328509826, 21.976859233228168 ], [ -160.113516541894398, 21.978315122080712 ], [ -160.113234364551886, 21.980792712474681 ], [ -160.112975033349102, 21.984051903485227 ], [ -160.11201116356338, 21.985254684978482 ], [ -160.110434163919365, 21.98668846587352 ], [ -160.109519075895605, 21.988019522968997 ], [ -160.110400087567029, 21.989212934983126 ], [ -160.110700532497646, 21.989779979000634 ], [ -160.110668707160443, 21.99203799666228 ], [ -160.109797336830098, 21.993643994370469 ], [ -160.107408602632688, 21.994204207651123 ], [ -160.106384337120829, 21.995212932121309 ], [ -160.103803483386315, 21.997024195573861 ], [ -160.101442854115476, 21.995777341587541 ], [ -160.100402170858899, 21.995247750350842 ], [ -160.098052968886236, 21.997042402259897 ], [ -160.097100920440539, 21.997979876811652 ], [ -160.092903711352363, 22.001492990182971 ], [ -160.091895241239541, 22.003467246631295 ], [ -160.091938723621666, 22.004939087341967 ], [ -160.091048189924834, 22.004518764214339 ], [ -160.0896555604931, 22.004554523189498 ], [ -160.088351522226361, 22.004147948595946 ], [ -160.08784153466911, 22.003185162168688 ], [ -160.087246491008386, 22.002920819865022 ], [ -160.087257982026813, 22.002115562558906 ], [ -160.086951586315479, 22.00157047947301 ], [ -160.086578400716434, 21.999852793165068 ], [ -160.08552857415637, 21.998925447792615 ], [ -160.083732446855294, 21.998610764871824 ], [ -160.082508977273363, 21.998326952299035 ], [ -160.08103396079602, 21.998364751199865 ], [ -160.078692973974057, 21.998940712101081 ], [ -160.07690860920053, 21.998918481052289 ], [ -160.076190638339057, 21.998936856715801 ], [ -160.075366686534039, 21.998547832562114 ], [ -160.074151019330174, 21.998944803153631 ], [ -160.072984857610692, 21.999218014428507 ], [ -160.07141788433961, 21.999983821604857 ], [ -160.070452646403623, 22.001872770371747 ], [ -160.068910612940215, 22.002225651932573 ], [ -160.068066941546306, 22.001418140721725 ], [ -160.067435118153952, 22.001137357624184 ], [ -160.066605878469716, 22.000343638550589 ], [ -160.065130997673776, 21.999040487163036 ], [ -160.063100910505028, 21.998745803607047 ], [ -160.061926060788409, 21.998379263823512 ], [ -160.061947711529143, 21.996880020335542 ], [ -160.061284045321145, 21.995776533213938 ], [ -160.058518760935129, 21.996456529152326 ], [ -160.057851943002646, 21.99552217668522 ], [ -160.057555888839516, 21.995529709704165 ], [ -160.056366223594438, 21.994967844634665 ], [ -160.055795414846273, 21.993889605024872 ], [ -160.054916622834185, 21.993112996554078 ], [ -160.05432181979296, 21.991989351977036 ], [ -160.054336935552215, 21.990945928852462 ], [ -160.053220462484461, 21.989432374270727 ], [ -160.052030285825253, 21.987591478247712 ], [ -160.051442338926734, 21.985940423322507 ], [ -160.049721974538727, 21.981787025764095 ], [ -160.050475826610551, 21.980398860671091 ], [ -160.050781670354581, 21.978882326612752 ], [ -160.051916528994212, 21.978359810374297 ], [ -160.052799320238478, 21.977928455589989 ], [ -160.053456919322571, 21.976641744516467 ], [ -160.057712748585686, 21.976059661651899 ], [ -160.057705569417124, 21.976555650490198 ], [ -160.057713901569457, 21.976840148030838 ], [ -160.059378490288935, 21.977580165412562 ], [ -160.062036705633574, 21.976712293845324 ], [ -160.064267760444068, 21.974049797419273 ], [ -160.064788833601057, 21.971464701384484 ], [ -160.065802113139171, 21.970543900898061 ], [ -160.066367410118062, 21.969987371182956 ], [ -160.068117473892698, 21.968396979685881 ], [ -160.06941908677058, 21.965849317149122 ], [ -160.069816973330774, 21.964279272463394 ], [ -160.070122975015806, 21.964001163480113 ], [ -160.070099267490576, 21.963193913433109 ], [ -160.070427532030237, 21.961643888675276 ], [ -160.070081665548003, 21.961028212566283 ], [ -160.070375440159324, 21.960487002682463 ], [ -160.070928689066363, 21.958857934052411 ], [ -160.071811718227423, 21.958309603313705 ], [ -160.072868386679232, 21.957631314342969 ], [ -160.07445219483543, 21.956071852128694 ], [ -160.076141027890401, 21.953374973120965 ], [ -160.081969386144635, 21.957700994064776 ], [ -160.086284803362076, 21.959443291618747 ], [ -160.091099878790175, 21.960364711768012 ], [ -160.095496526969498, 21.960012931903261 ], [ -160.098207483364206, 21.959127102513964 ], [ -160.100682520841275, 21.957916661968866 ], [ -160.108828477111985, 21.953233204564402 ], [ -160.120569823161276, 21.944208341917687 ], [ -160.121957789755299, 21.943882614683623 ], [ -160.121940749314433, 21.943309400758061 ], [ -160.123961249316778, 21.941471562759652 ], [ -160.126005619519361, 21.942228954610616 ], [ -160.126936253131902, 21.942503665907733 ], [ -160.128082164343482, 21.942473969983244 ], [ -160.128013591741848, 21.940170271841691 ], [ -160.130686264599547, 21.94078977616007 ], [ -160.133707532984829, 21.939545423468168 ], [ -160.134980795368904, 21.938727305946596 ], [ -160.136193611093518, 21.938350832630103 ], [ -160.137669215566092, 21.937628686901451 ], [ -160.139367980312642, 21.936407409033208 ], [ -160.139893665118848, 21.935326015662458 ], [ -160.137372449780969, 21.934206284372877 ], [ -160.133893840961719, 21.933702606403099 ], [ -160.135435151376186, 21.931893908711501 ], [ -160.139654655328115, 21.931479382549643 ], [ -160.141942852614505, 21.932326920115045 ], [ -160.144041014693357, 21.932613964884382 ], [ -160.146729991965202, 21.929963400877362 ], [ -160.146163026665562, 21.928955107361801 ], [ -160.143316530590397, 21.927475427368591 ], [ -160.140900393841548, 21.925971670571037 ], [ -160.141615308967374, 21.924971661900646 ], [ -160.143847553639546, 21.921233301517375 ], [ -160.144541190668008, 21.920420899764203 ], [ -160.147136772053898, 21.922230280603671 ], [ -160.1497167477159, 21.923089374499536 ], [ -160.151430017331194, 21.922528771386428 ], [ -160.15198149913644, 21.92144752601892 ], [ -160.153231063661963, 21.92067052758539 ], [ -160.153706552758422, 21.919267435170347 ], [ -160.154795271182053, 21.917907508392556 ], [ -160.152995999522005, 21.915729107592785 ], [ -160.15026572162904, 21.914309824785366 ], [ -160.149870246336064, 21.913563501685644 ], [ -160.148875040461775, 21.912684510401146 ], [ -160.149916382927728, 21.910236445563058 ], [ -160.150732766014045, 21.910621689777511 ], [ -160.152424060851331, 21.911372800078304 ], [ -160.153649842550635, 21.912227260674296 ], [ -160.155111989451939, 21.912753575179853 ], [ -160.156234111378211, 21.913283060463154 ], [ -160.159455626446515, 21.911910019394728 ], [ -160.161201687791674, 21.911632129890638 ], [ -160.164090426161152, 21.910400818676955 ], [ -160.165849516088599, 21.909135520320213 ], [ -160.166394332409368, 21.908066981128993 ], [ -160.1674022416056, 21.907440061167183 ], [ -160.168404570041417, 21.905292939636382 ], [ -160.164604936480913, 21.905392256563463 ], [ -160.165218027909106, 21.904834173636871 ], [ -160.166217471372818, 21.903848558048761 ], [ -160.165492401833745, 21.901919680896199 ], [ -160.165125542470946, 21.900560201417584 ], [ -160.164007293101946, 21.900230290861781 ], [ -160.164021126724577, 21.899224133130403 ], [ -160.166328210613557, 21.899942893263951 ], [ -160.167788062941781, 21.90019811556958 ], [ -160.168632469378252, 21.901005913873284 ], [ -160.170241363879995, 21.901264686750029 ], [ -160.171330119789729, 21.899522970148105 ], [ -160.172482031075617, 21.897910739079379 ], [ -160.173502399975291, 21.896981766085077 ], [ -160.175888930790649, 21.894425144234514 ], [ -160.175853073424548, 21.893232931782158 ], [ -160.1758586688577, 21.892823845974558 ], [ -160.175241448175228, 21.89198789805986 ], [ -160.17323584477009, 21.892040411734357 ], [ -160.172093682655628, 21.892026780123036 ], [ -160.17149876796006, 21.892318190591737 ], [ -160.17004332550502, 21.892594115348487 ], [ -160.168889518274625, 21.892878835811167 ], [ -160.168451437117511, 21.892873609332121 ], [ -160.167983306532477, 21.892885830089252 ], [ -160.165616927823919, 21.894044823826381 ], [ -160.164252148171755, 21.89389331100158 ], [ -160.166007233008372, 21.892801554380441 ], [ -160.165969438098955, 21.891541732572644 ], [ -160.165973272974696, 21.891262468417899 ], [ -160.167101631824522, 21.891275975968689 ], [ -160.168138517560891, 21.890936488781445 ], [ -160.168859796948169, 21.889892526530634 ], [ -160.169447791648594, 21.889357202397974 ], [ -160.170328860081554, 21.88848818937911 ], [ -160.170289425868532, 21.887175087439402 ], [ -160.170295097241251, 21.88676133598776 ], [ -160.173032249152527, 21.886325436016694 ], [ -160.174117997364306, 21.884588323105795 ], [ -160.175588162449657, 21.884131439646232 ], [ -160.175181871852402, 21.883050606532326 ], [ -160.173743331703065, 21.883088289826915 ], [ -160.172869383277714, 21.883077843554155 ], [ -160.17229896435046, 21.883640510992681 ], [ -160.171132744366844, 21.884002907982982 ], [ -160.1699850713415, 21.8847409655809 ], [ -160.166781713451286, 21.88502926856172 ], [ -160.166790493629662, 21.884389650385632 ], [ -160.168627153052199, 21.883818946574298 ], [ -160.169674388575316, 21.882961560705986 ], [ -160.168653061626685, 21.881578051344437 ], [ -160.170159553144174, 21.880640820772374 ], [ -160.170523136949356, 21.879567271660488 ], [ -160.1710999938079, 21.879042045492845 ], [ -160.171801728193827, 21.878026230527105 ], [ -160.17573782117455, 21.875996185239604 ], [ -160.175685292849238, 21.874249055707622 ], [ -160.17339384558349, 21.875502723177121 ], [ -160.172809553573813, 21.875772458708653 ], [ -160.171664379861312, 21.876333458420817 ], [ -160.170169095742182, 21.877023737681856 ], [ -160.168451041977704, 21.876067882471542 ], [ -160.168462318137983, 21.875245837095317 ], [ -160.167384265264474, 21.874293632723791 ], [ -160.17032343432561, 21.873602721500241 ], [ -160.169882042155137, 21.872817700113306 ], [ -160.169570082215557, 21.872228954786848 ], [ -160.167535889438113, 21.872567677163133 ], [ -160.166984729341408, 21.873111333386277 ], [ -160.165421274627477, 21.872241417920957 ], [ -160.164047129896204, 21.872691310210961 ], [ -160.162292555824905, 21.875631543608833 ], [ -160.161170351333624, 21.876125915913416 ], [ -160.159918010800965, 21.874927541907677 ], [ -160.15642518993829, 21.877346646159619 ], [ -160.155998296739426, 21.878606727084694 ], [ -160.15541395655822, 21.878876402793626 ], [ -160.154249741099562, 21.879713877570275 ], [ -160.153345529147174, 21.879702976521383 ], [ -160.151647603186063, 21.879173781420636 ], [ -160.15062746068395, 21.87904812319611 ], [ -160.151283709375832, 21.878400968090531 ], [ -160.152627243696486, 21.877565302682253 ], [ -160.153079721504696, 21.876730176774601 ], [ -160.153496639203155, 21.875499614526714 ], [ -160.154215489169729, 21.874845228531804 ], [ -160.154739728844817, 21.871840527582204 ], [ -160.152714599253187, 21.872170535638354 ], [ -160.151582255925234, 21.873201359105305 ], [ -160.150208993058101, 21.874555638694197 ], [ -160.148141750801614, 21.875355143701253 ], [ -160.145893703932927, 21.87578103758058 ], [ -160.142968546826552, 21.877836619586692 ], [ -160.142329972317498, 21.881677683648068 ], [ -160.141255922800923, 21.88099475664588 ], [ -160.140156955100906, 21.87891986761214 ], [ -160.138602295112122, 21.878185895465375 ], [ -160.137111597847195, 21.879424238244461 ], [ -160.136270591614277, 21.880641017335094 ], [ -160.135150597116393, 21.882207929714308 ], [ -160.134282863335784, 21.884247682480002 ], [ -160.134264956945856, 21.885531063485153 ], [ -160.135435151254654, 21.885876571971945 ], [ -160.133868319078431, 21.886885200213893 ], [ -160.13228905676192, 21.886260376563389 ], [ -160.131949667538464, 21.885001384575165 ], [ -160.131349983803233, 21.883404665967145 ], [ -160.131361666001396, 21.882569116060751 ], [ -160.13128174901621, 21.879883425239047 ], [ -160.132903346973421, 21.876891483149532 ], [ -160.131296959952635, 21.876610216434969 ], [ -160.12990251311345, 21.876175371933506 ], [ -160.129279523566311, 21.878515653648623 ], [ -160.128955637465793, 21.8811501599819 ], [ -160.126438933920099, 21.884157950544296 ], [ -160.123935630393134, 21.88559828310099 ], [ -160.118304692434606, 21.885279208054417 ], [ -160.118585677539613, 21.884821701840753 ], [ -160.120587324141411, 21.882472576355998 ], [ -160.11971962056586, 21.881296378468985 ], [ -160.118498354813028, 21.87940765300926 ], [ -160.116972778656361, 21.879706476428755 ], [ -160.115366548633631, 21.88159149441034 ], [ -160.113472678824479, 21.884848678549201 ], [ -160.112201016674447, 21.884881487817118 ], [ -160.111760734432664, 21.883247322937482 ], [ -160.111028185869429, 21.883788848902622 ], [ -160.10896552083625, 21.885428775356701 ], [ -160.105360323880433, 21.885174964216699 ], [ -160.105795648386049, 21.883011054710753 ], [ -160.106936417793037, 21.880330930127528 ], [ -160.10641386863918, 21.880265499267754 ], [ -160.105500880019974, 21.881096088928743 ], [ -160.104670538469065, 21.882723220094135 ], [ -160.103771157719052, 21.883301065516495 ], [ -160.102991877907755, 21.883660391965268 ], [ -160.101168546102627, 21.885838743818724 ], [ -160.094895315697585, 21.886546176913928 ], [ -160.09449712172767, 21.88579383481434 ], [ -160.092797504167805, 21.886885635825102 ], [ -160.091198738397594, 21.8869266734775 ], [ -160.093044785204427, 21.885540647742442 ], [ -160.095905757431552, 21.883353594199082 ], [ -160.096809039061668, 21.883741682302023 ], [ -160.096799628090309, 21.884404568602235 ], [ -160.097099771653092, 21.884971672566472 ], [ -160.097978672503388, 21.885231394046354 ], [ -160.098793493429127, 21.885616322149922 ], [ -160.099132192255325, 21.884952694218661 ], [ -160.099426321167442, 21.884685151610228 ], [ -160.099706662999154, 21.884135845258655 ], [ -160.100579408761149, 21.883593431258706 ], [ -160.10231908018352, 21.882210431412432 ], [ -160.103182047621431, 21.882221094649424 ], [ -160.104270902388151, 21.880646491157776 ], [ -160.105147398456154, 21.879782674426032 ], [ -160.105774350905563, 21.879493567931071 ], [ -160.106791508932048, 21.878491113006792 ], [ -160.108950263203013, 21.879450745684121 ], [ -160.109262575640059, 21.880006695307824 ], [ -160.109831269676249, 21.881080958628765 ], [ -160.110704987229951, 21.881091708695241 ], [ -160.111157995947394, 21.880679566821726 ], [ -160.113237170694674, 21.878630285277033 ], [ -160.11360926836818, 21.878893348400059 ], [ -160.114202867930771, 21.87946171032597 ], [ -160.115754183946478, 21.877932635528413 ], [ -160.117128850870699, 21.877505928880989 ], [ -160.119345798479316, 21.876420858129098 ], [ -160.119979774456141, 21.876682126979976 ], [ -160.121109769434639, 21.877215785188952 ], [ -160.121731561488559, 21.877223395177289 ], [ -160.122562380841202, 21.876404394679472 ], [ -160.124223432465385, 21.876075021670726 ], [ -160.124813580071105, 21.877731118591932 ], [ -160.12706946635754, 21.877758637926245 ], [ -160.127662957954215, 21.874806128846231 ], [ -160.128376554811638, 21.874456798822322 ], [ -160.129831913466745, 21.874181246309288 ], [ -160.130744121409634, 21.873882812661474 ], [ -160.132979058048903, 21.873909999981851 ], [ -160.134682395830737, 21.873076105499088 ], [ -160.136493456066916, 21.872774887794311 ], [ -160.136931292826688, 21.872780203323362 ], [ -160.137366711842589, 21.872768894461611 ], [ -160.138207711136459, 21.872779130726212 ], [ -160.139605252746605, 21.872321812870414 ], [ -160.140261885600324, 21.873561623374354 ], [ -160.140595612504796, 21.873565664753148 ], [ -160.142882098139552, 21.873001793529379 ], [ -160.144627730338499, 21.872724097783795 ], [ -160.146039838888584, 21.870918066583531 ], [ -160.14721744803137, 21.870532645276366 ], [ -160.14838362916575, 21.870170419217384 ], [ -160.149531308113438, 21.869432511120824 ], [ -160.150136870734201, 21.86915304913337 ], [ -160.150691704853671, 21.868605881909932 ], [ -160.151551604187176, 21.868616249703116 ], [ -160.152135444223688, 21.868330316173985 ], [ -160.153901166388806, 21.867781779799952 ], [ -160.154737359204745, 21.866957095569198 ], [ -160.158321188283509, 21.864147100777782 ], [ -160.159916208973357, 21.862573854319084 ], [ -160.161357155980454, 21.861261862696882 ], [ -160.162673235066222, 21.858419676735064 ], [ -160.16336979731534, 21.857411343461248 ], [ -160.16594017654495, 21.854198930945685 ], [ -160.166525571782131, 21.852782025134278 ], [ -160.166851101245214, 21.852180985307413 ], [ -160.166795932022325, 21.850341168964906 ], [ -160.167729529344626, 21.849760270367629 ], [ -160.168526677021873, 21.848973841091365 ], [ -160.168820600072706, 21.84870618221289 ], [ -160.169102811591642, 21.848427755255411 ], [ -160.16939673245156, 21.848160095429506 ], [ -160.169678941785065, 21.847881667564799 ], [ -160.170232192644932, 21.847377819600521 ], [ -160.170546776995621, 21.84679693106829 ], [ -160.171058655811692, 21.845792525390397 ], [ -160.172851290943868, 21.842834835026633 ], [ -160.172807611395939, 21.841380070672574 ], [ -160.173735552165454, 21.839335140787693 ], [ -160.173373163538088, 21.838370723394306 ], [ -160.174984088628975, 21.838065197890039 ], [ -160.178325033780084, 21.834291288217148 ], [ -160.181414714599271, 21.82996457600883 ], [ -160.182448423168353, 21.827935682767585 ], [ -160.184264297506815, 21.825090751060461 ], [ -160.184580921241974, 21.824469266109777 ], [ -160.18512424240302, 21.823974309161596 ], [ -160.187182071101688, 21.820750088724186 ], [ -160.187154861248615, 21.819846475074012 ], [ -160.187158550948595, 21.81957544796095 ], [ -160.187149999738409, 21.819291474912649 ], [ -160.187732223434551, 21.818761032051963 ], [ -160.188277610911626, 21.817690406147605 ], [ -160.18974128545679, 21.816036559262617 ], [ -160.190016681972963, 21.81494514698085 ], [ -160.190586315369018, 21.813892732503518 ], [ -160.190869351417348, 21.812770994613825 ], [ -160.191160909431176, 21.812232315680774 ], [ -160.191532756493785, 21.810758548353881 ], [ -160.192303738234756, 21.810056063070398 ], [ -160.192840599274319, 21.809002025675216 ], [ -160.193157237850414, 21.808689470287494 ], [ -160.193725614657808, 21.808171546647909 ], [ -160.19407212426762, 21.806867035030805 ], [ -160.193422767902234, 21.805711971048623 ], [ -160.19313385147575, 21.805166632122923 ], [ -160.192545515630314, 21.804120092314815 ], [ -160.19252901213784, 21.803572420901734 ], [ -160.193251131638789, 21.802859566761761 ], [ -160.193985578760646, 21.802190320738564 ], [ -160.195141014320313, 21.800516395693414 ], [ -160.195849670458756, 21.799870617701348 ], [ -160.196272777767149, 21.799452915270326 ], [ -160.198178394472762, 21.798019328774906 ], [ -160.198581939418631, 21.797273598075471 ], [ -160.198861749078986, 21.796724141507344 ], [ -160.199994740471652, 21.794630350404102 ], [ -160.200345902162127, 21.792878007286458 ], [ -160.200856759138617, 21.792373645666043 ], [ -160.20115050005731, 21.792105935401835 ], [ -160.201412220019847, 21.789388602696455 ], [ -160.20284895451627, 21.787699582323015 ], [ -160.202474716293182, 21.78706724771213 ], [ -160.198194089450624, 21.785526190350257 ], [ -160.198467930181295, 21.784260967649352 ], [ -160.20102281474837, 21.781932365514784 ], [ -160.201342217461359, 21.780988091813946 ], [ -160.201633677233076, 21.780449397081849 ], [ -160.202090526202284, 21.779098746482692 ], [ -160.203100716182831, 21.779072144262919 ], [ -160.204093466894619, 21.780022284027719 ] ] ] } }
]
}
