{
"type": "FeatureCollection",
"name": "pepkipa",
"crs": { "type": "name", "properties": { "name": "urn:ogc:def:crs:OGC:1.3:CRS84" } },
"features": [
{ "type": "Feature", "properties": { "ID": 1, "GRIDCODE": 1 }, "geometry": { "type": "Polygon", "coordinates": [ [ [ -156.607092848737352, 20.964462038152295 ], [ -156.607764355408875, 20.964599242402254 ], [ -156.607498868335426, 20.965371423863246 ], [ -156.60714278657494, 20.965164311429163 ], [ -156.60730123446686, 20.964870908111102 ], [ -156.607092848737352, 20.964462038152295 ] ] ] } },
{ "type": "Feature", "properties": { "ID": 2, "GRIDCODE": 1 }, "geometry": { "type": "Polygon", "coordinates": [ [ [ -156.5987829863478, 20.961094424666221 ], [ -156.599155353555886, 20.961250328703571 ], [ -156.59888860207721, 20.961711505279389 ], [ -156.5987829863478, 20.961094424666221 ] ] ] } },
{ "type": "Feature", "properties": { "ID": 3, "GRIDCODE": 1 }, "geometry": { "type": "Polygon", "coordinates": [ [ [ -156.620041242990197, 20.948118755515132 ], [ -156.62039115387131, 20.948216363191637 ], [ -156.620134844570089, 20.948450348716769 ], [ -156.620041242990197, 20.948118755515132 ] ] ] } },
{ "type": "Feature", "properties": { "ID": 4, "GRIDCODE": 1 }, "geometry": { "type": "Polygon", "coordinates": [ [ [ -156.620041242990197, 20.948118755515132 ], [ -156.619691332634545, 20.948021147162265 ], [ -156.619947641749576, 20.947787162289789 ], [ -156.620041242990197, 20.948118755515132 ] ] ] } },
{ "type": "Feature", "properties": { "ID": 5, "GRIDCODE": 2 }, "geometry": { "type": "Polygon", "coordinates": [ [ [ -156.250464036625857, 20.864828752441642 ], [ -156.250918539619732, 20.864965395479871 ], [ -156.252576515046457, 20.866916217278192 ], [ -156.251869393153299, 20.867579176438763 ], [ -156.250884838758907, 20.866044243780802 ], [ -156.250579951493506, 20.865788604271657 ], [ -156.250464036625857, 20.864828752441642 ] ] ] } },
{ "type": "Feature", "properties": { "ID": 6, "GRIDCODE": 1 }, "geometry": { "type": "Polygon", "coordinates": [ [ [ -156.598572452013627, 20.847586931134543 ], [ -156.599586979461236, 20.847728937757914 ], [ -156.601002393124759, 20.848305916825758 ], [ -156.604957039714833, 20.848710634326771 ], [ -156.605579762226967, 20.850421708276262 ], [ -156.60511029633048, 20.851508380445516 ], [ -156.600930813861737, 20.854467655975267 ], [ -156.598431795466212, 20.854849129495058 ], [ -156.597494555704742, 20.854037970329802 ], [ -156.595798563809893, 20.850378102122292 ], [ -156.596197530512285, 20.848896958636796 ], [ -156.597837680345663, 20.847975291775438 ], [ -156.598434283090086, 20.847728112079292 ], [ -156.598572452013627, 20.847586931134543 ] ] ] } },
{ "type": "Feature", "properties": { "ID": 7, "GRIDCODE": 1 }, "geometry": { "type": "Polygon", "coordinates": [ [ [ -156.583623413042204, 20.863359225968537 ], [ -156.583270760367441, 20.863446966542444 ], [ -156.583519366349691, 20.863688038886675 ], [ -156.583623413042204, 20.863359225968537 ], [ -156.584080305670966, 20.863476258722649 ], [ -156.584492649491182, 20.864056141911004 ], [ -156.58422574389499, 20.865100494791388 ], [ -156.584552841239287, 20.865379181546164 ], [ -156.585334295138352, 20.864348970614831 ], [ -156.58632412058347, 20.86401678486061 ], [ -156.587792893394891, 20.864959043660665 ], [ -156.58804840425114, 20.864344935970642 ], [ -156.588796975391972, 20.864244910161247 ], [ -156.588890474419628, 20.864576511794457 ], [ -156.589146670201359, 20.864342562017935 ], [ -156.588796975391972, 20.864244910161247 ], [ -156.58894475650294, 20.863838007604762 ], [ -156.597887032882795, 20.863698212965812 ], [ -156.605427535903402, 20.862449456500485 ], [ -156.609317644752451, 20.862866295744745 ], [ -156.610816702939871, 20.863575988818013 ], [ -156.612345608037117, 20.864998381388425 ], [ -156.615077816603844, 20.869218342519311 ], [ -156.615088216049656, 20.870948764063229 ], [ -156.6142269497158, 20.871766769662035 ], [ -156.613030369642672, 20.87203710562666 ], [ -156.610191183501058, 20.87251702165964 ], [ -156.608068545997668, 20.873783094440352 ], [ -156.606947798860716, 20.875288160044569 ], [ -156.606881085781538, 20.877064715640227 ], [ -156.60820655778204, 20.879340377399345 ], [ -156.610005970066908, 20.880663543493647 ], [ -156.611691834588527, 20.881461699832169 ], [ -156.612847919573909, 20.882938546898984 ], [ -156.612855273002538, 20.884164694444706 ], [ -156.612381543863989, 20.885800519323041 ], [ -156.613308357425836, 20.889619903813649 ], [ -156.615667389739741, 20.894499611316249 ], [ -156.618968178353782, 20.90665955312577 ], [ -156.621807880803203, 20.919963951859934 ], [ -156.6223870630551, 20.928508843331009 ], [ -156.620623824664904, 20.928027523326328 ], [ -156.619151697547068, 20.92665872408508 ], [ -156.618517583088249, 20.925751076620255 ], [ -156.618572040214616, 20.924301192315372 ], [ -156.618243791127156, 20.925205595270253 ], [ -156.617708842345962, 20.926146925972883 ], [ -156.618319964449796, 20.928009799171544 ], [ -156.620717859236294, 20.930701820953164 ], [ -156.617055278859226, 20.930580467953195 ], [ -156.615551394942145, 20.931129289986075 ], [ -156.613785230309077, 20.929748532402375 ], [ -156.613836960890808, 20.930020151334528 ], [ -156.61411835337654, 20.930831746580832 ], [ -156.614098411408833, 20.931361750859669 ], [ -156.61448338359682, 20.931749668229724 ], [ -156.61640284358441, 20.932217892678494 ], [ -156.617545957473197, 20.932510046903495 ], [ -156.618700504809112, 20.932791771520588 ], [ -156.619843629072477, 20.933083911162651 ], [ -156.622433451955317, 20.933418037267632 ], [ -156.622001644296375, 20.941929780901376 ], [ -156.621045868787832, 20.944941413880208 ], [ -156.620099780608655, 20.944061556558751 ], [ -156.619265161284318, 20.943220948951936 ], [ -156.61854055403802, 20.942547083668515 ], [ -156.618036629711753, 20.942039655821382 ], [ -156.617121931850392, 20.941438261440954 ], [ -156.616828198761027, 20.941439712498521 ], [ -156.616257703071909, 20.941153436537395 ], [ -156.615921200454693, 20.941472802068155 ], [ -156.613259293160496, 20.939355311780634 ], [ -156.613165710638782, 20.939023716474544 ], [ -156.612909408497103, 20.939257691783315 ], [ -156.613259293160496, 20.939355311780634 ], [ -156.613391285025926, 20.93976866016904 ], [ -156.614862105241201, 20.94173894121203 ], [ -156.616526747769939, 20.94278204096582 ], [ -156.617614612937274, 20.943918654998225 ], [ -156.617923033231136, 20.945569236800665 ], [ -156.618777424766989, 20.946335128412215 ], [ -156.619045734148813, 20.946890984126348 ], [ -156.619341270889834, 20.947434786023866 ], [ -156.618737075558812, 20.947692482656709 ], [ -156.619286865154351, 20.948185735721111 ], [ -156.61985697277953, 20.950296444940392 ], [ -156.618886266097405, 20.949796256585781 ], [ -156.617911100018318, 20.948777754415829 ], [ -156.61721551428198, 20.948457457012331 ], [ -156.616332069655584, 20.947534407552052 ], [ -156.615315447692865, 20.946006326576974 ], [ -156.615024218831252, 20.946613222541281 ], [ -156.615717042640426, 20.947888897731545 ], [ -156.614668583545722, 20.948173963279462 ], [ -156.614143070637567, 20.947624820231447 ], [ -156.613635224001314, 20.947169440067743 ], [ -156.612425490214378, 20.946827906749579 ], [ -156.613289293541527, 20.94760255366446 ], [ -156.614625933313846, 20.94899901456829 ], [ -156.61498089931527, 20.948990753295622 ], [ -156.615296614912864, 20.94900694188129 ], [ -156.61582286265957, 20.950096692298178 ], [ -156.616406621780214, 20.950365433027581 ], [ -156.616670636719164, 20.951192127415514 ], [ -156.616961796145233, 20.951727671079208 ], [ -156.61722283277345, 20.952742680238369 ], [ -156.616504298538473, 20.952945462439114 ], [ -156.616410703461042, 20.952613867900364 ], [ -156.616154380370602, 20.952847846014546 ], [ -156.616504298538473, 20.952945462439114 ], [ -156.61649142350791, 20.953757968105474 ], [ -156.615626465621148, 20.95374587136001 ], [ -156.615635052150935, 20.953204201266612 ], [ -156.615058415973778, 20.953196134564045 ], [ -156.615067004301494, 20.952654464660579 ], [ -156.614202053656811, 20.952642361298565 ], [ -156.614092884852312, 20.951748255820959 ], [ -156.613817390414681, 20.952445049300433 ], [ -156.614202053656811, 20.952642361298565 ], [ -156.614326336310654, 20.953063008983218 ], [ -156.614637224093116, 20.953313122727877 ], [ -156.615221218735684, 20.953993901871431 ], [ -156.615161858594007, 20.954469518570338 ], [ -156.615764738362316, 20.954954267447924 ], [ -156.61601071212263, 20.955959808133883 ], [ -156.614802926933351, 20.956431791409052 ], [ -156.6148666211798, 20.957121427739889 ], [ -156.614776909718472, 20.957841324046615 ], [ -156.613091798629995, 20.958167593847104 ], [ -156.612709385872222, 20.958963148990339 ], [ -156.612148610132635, 20.958309669841867 ], [ -156.61228609156521, 20.957207118949302 ], [ -156.611963817681755, 20.954392602459443 ], [ -156.611050914395804, 20.952842140717173 ], [ -156.610431098617681, 20.952343647755061 ], [ -156.609738469135891, 20.951536201305764 ], [ -156.608538343104613, 20.951634050052402 ], [ -156.60804037787932, 20.951053530217877 ], [ -156.607441194794973, 20.950799359843273 ], [ -156.606875648182609, 20.950484417571332 ], [ -156.606600112615553, 20.950951836010482 ], [ -156.60745944569652, 20.951316272130775 ], [ -156.608177611678883, 20.952447359021317 ], [ -156.608751170606155, 20.952400644804623 ], [ -156.609198926096184, 20.953411931896074 ], [ -156.609014905039714, 20.954890009318554 ], [ -156.60745431435538, 20.955764124357614 ], [ -156.607658310474449, 20.957970910115382 ], [ -156.608506716123344, 20.95865317370691 ], [ -156.608144992670987, 20.95922652463446 ], [ -156.608241364736529, 20.96026780266131 ], [ -156.607462871169275, 20.960572079803519 ], [ -156.608453286350851, 20.961906192554579 ], [ -156.608121315412262, 20.962432209844366 ], [ -156.607742834020002, 20.963580046765959 ], [ -156.60616364978938, 20.964571866933941 ], [ -156.604152261224499, 20.963451955208928 ], [ -156.603644929771747, 20.963493364904195 ], [ -156.602716458185597, 20.964511628982461 ], [ -156.602359515708628, 20.963705700194026 ], [ -156.601771949167528, 20.963233024849124 ], [ -156.601477681668996, 20.961164648225736 ], [ -156.600938508866108, 20.960731010888633 ], [ -156.600448291690498, 20.960159440549781 ], [ -156.6000352261361, 20.958759743684826 ], [ -156.600558843685718, 20.957096523076203 ], [ -156.598825349398282, 20.958088882539261 ], [ -156.598990798550687, 20.95987965946177 ], [ -156.598281643922832, 20.960126670575072 ], [ -156.597811065316847, 20.959578253348486 ], [ -156.597078978539457, 20.959445052186371 ], [ -156.596985425010757, 20.959113450934911 ], [ -156.596729062666668, 20.959347395669894 ], [ -156.597078978539457, 20.959445052186371 ], [ -156.596857478790099, 20.960369946163926 ], [ -156.597674399969122, 20.96074626933029 ], [ -156.597199989410541, 20.961213113047254 ], [ -156.596762686779272, 20.961190677029844 ], [ -156.595788432666211, 20.961213176951013 ], [ -156.594668868499554, 20.960636282678614 ], [ -156.594233927647622, 20.962244118036164 ], [ -156.593708651131976, 20.961119405533175 ], [ -156.593754047544337, 20.960341762090025 ], [ -156.593462690835935, 20.95980552041021 ], [ -156.593189006967435, 20.959238576479773 ], [ -156.592621585994522, 20.960325106642504 ], [ -156.592025398275212, 20.959514326336123 ], [ -156.591609468910548, 20.958826061826407 ], [ -156.591962348157182, 20.958738326136576 ], [ -156.591713587096535, 20.958497251976848 ], [ -156.591609468910548, 20.958826061826407 ], [ -156.590901644786697, 20.95904250575709 ], [ -156.590892118675214, 20.957369405625307 ], [ -156.591217511766558, 20.956518342489289 ], [ -156.590850706413107, 20.955084761697098 ], [ -156.591245785530845, 20.954348568359073 ], [ -156.592129919986576, 20.953162153137477 ], [ -156.591564490972843, 20.951592835109402 ], [ -156.590743683250111, 20.950038954177792 ], [ -156.591035540703245, 20.949469550253369 ], [ -156.591942219343622, 20.947875526896027 ], [ -156.591646750211311, 20.947316342965866 ], [ -156.5912399741363, 20.946497921712712 ], [ -156.590786266362329, 20.94702800384438 ], [ -156.59049483731846, 20.947570959592483 ], [ -156.589584718426607, 20.948113369689466 ], [ -156.588760873269393, 20.94889508252858 ], [ -156.588162119887642, 20.948898120875747 ], [ -156.587824091216532, 20.947130033184244 ], [ -156.58734531723826, 20.94616667489462 ], [ -156.586783449744303, 20.945643924883097 ], [ -156.586779495118378, 20.944942303464103 ], [ -156.586795059437719, 20.944533674012582 ], [ -156.586498246124023, 20.943972083185255 ], [ -156.586548098419797, 20.942654575775084 ], [ -156.585977172251603, 20.941573909241793 ], [ -156.586299428116916, 20.939108705714059 ], [ -156.587177121788756, 20.937160469667859 ], [ -156.585669184730506, 20.935757693127151 ], [ -156.5866844764071, 20.933972511665075 ], [ -156.58553635440478, 20.933241869249574 ], [ -156.585522262783684, 20.930731429056319 ], [ -156.586739141566653, 20.929665477181103 ], [ -156.586235785437907, 20.928078112995291 ], [ -156.58583598155036, 20.927321024235148 ], [ -156.586471655766786, 20.926203330481883 ], [ -156.586838125208203, 20.925244917257562 ], [ -156.586829031174688, 20.923685839335366 ], [ -156.587428461585887, 20.922632043390859 ], [ -156.586756827586754, 20.921267824836583 ], [ -156.586310581644966, 20.920422649994553 ], [ -156.58603672713383, 20.919871570712424 ], [ -156.584918015459436, 20.919877172975404 ], [ -156.583717048182535, 20.919112843700926 ], [ -156.583842803188219, 20.91578258127015 ], [ -156.583488697109487, 20.916585216597905 ], [ -156.583493250723251, 20.917372294300922 ], [ -156.582879629683106, 20.918977181228527 ], [ -156.583212545012941, 20.920040593072944 ], [ -156.585129381773868, 20.920655272892809 ], [ -156.585710029540934, 20.921195217785261 ], [ -156.586148141312293, 20.922460107981024 ], [ -156.585378815634016, 20.923133993020876 ], [ -156.5853894609142, 20.924981839770179 ], [ -156.58451684628352, 20.92580980863433 ], [ -156.583345550301061, 20.925527624442442 ], [ -156.582800245818191, 20.924978119067823 ], [ -156.582760088889216, 20.925375024526268 ], [ -156.583622145074401, 20.926609814752837 ], [ -156.583894709444195, 20.927732819508385 ], [ -156.584632820361549, 20.92913026397294 ], [ -156.582718449848699, 20.929969527159859 ], [ -156.582676871030912, 20.931068770605311 ], [ -156.582680683300168, 20.931743406160663 ], [ -156.582134627886632, 20.932221631148295 ], [ -156.58272943347643, 20.934547445760369 ], [ -156.582033418465528, 20.935771138864265 ], [ -156.582302508141453, 20.936619369877025 ], [ -156.582867657611928, 20.937145219793191 ], [ -156.582255940814946, 20.939869396311305 ], [ -156.58165511171768, 20.941441115770289 ], [ -156.5816433211549, 20.941754297824026 ], [ -156.581645520957522, 20.942160664548894 ], [ -156.581624992689854, 20.942702154109686 ], [ -156.581628113001926, 20.943243979008582 ], [ -156.581555059560145, 20.94517885612332 ], [ -156.582141532515266, 20.94664003423053 ], [ -156.582701235205747, 20.947699786797784 ], [ -156.582400648053806, 20.948810830987568 ], [ -156.582092564394969, 20.949617016344195 ], [ -156.582653636493689, 20.950679699032229 ], [ -156.582919405931364, 20.952068870225421 ], [ -156.583219581787773, 20.953560377444326 ], [ -156.582734666331675, 20.955626049573333 ], [ -156.583155011954943, 20.956421930538042 ], [ -156.583119796935364, 20.95735142575564 ], [ -156.583122917130169, 20.957893250333754 ], [ -156.583107659431278, 20.958299369188794 ], [ -156.583110658072911, 20.958848731414459 ], [ -156.582031076767549, 20.960746313415747 ], [ -156.582537397957083, 20.962291009140138 ], [ -156.583604890335124, 20.964002255560658 ], [ -156.582998858071193, 20.965067431817186 ], [ -156.582698649513759, 20.966152023259113 ], [ -156.582400411107841, 20.966413390569343 ], [ -156.582107543726806, 20.966690970477355 ], [ -156.581531328262571, 20.96667181347437 ], [ -156.580770536893539, 20.967026342704305 ], [ -156.580099012869908, 20.966401881380239 ], [ -156.58068347085387, 20.965576349752919 ], [ -156.581639436363844, 20.964293671651888 ], [ -156.580723460595522, 20.963441545448369 ], [ -156.581037173358851, 20.961518026348848 ], [ -156.581341491886548, 20.960983211779887 ], [ -156.581054517092269, 20.960440004288422 ], [ -156.580639152236699, 20.958266989833803 ], [ -156.580496530920328, 20.958554372745052 ], [ -156.580502551327214, 20.959597939234857 ], [ -156.579906850241628, 20.96042370970596 ], [ -156.579320295176188, 20.960680977518297 ], [ -156.578739721934056, 20.960951422878793 ], [ -156.578207042119232, 20.958755310702958 ], [ -156.577613346712951, 20.959578455532817 ], [ -156.577315114751372, 20.959839814525424 ], [ -156.576738185646974, 20.960915168317985 ], [ -156.576159065668094, 20.960396369736859 ], [ -156.576154997156351, 20.959687873487781 ], [ -156.577047021788616, 20.959296870020815 ], [ -156.577042614052772, 20.958486785087754 ], [ -156.577346841514952, 20.958220220776472 ], [ -156.577642703031074, 20.95740646742059 ], [ -156.577945291078862, 20.95687427984128 ], [ -156.578247242510457, 20.956311528044957 ], [ -156.579114471849778, 20.955552315415645 ], [ -156.57883100464926, 20.955526993479037 ], [ -156.578252506983603, 20.955529885642356 ], [ -156.576955492176978, 20.955486585417699 ], [ -156.576512434760332, 20.95631213317461 ], [ -156.576065096675507, 20.95670403709811 ], [ -156.575077262614116, 20.957640874442156 ], [ -156.575056290966046, 20.956828173687008 ], [ -156.575858528657619, 20.955751664582266 ], [ -156.57507950070962, 20.955755529527309 ], [ -156.574613112874488, 20.955285419458587 ], [ -156.573913738334312, 20.956514306410558 ], [ -156.574182804998458, 20.957362547528959 ], [ -156.574479311431105, 20.957924020867139 ], [ -156.574444041555807, 20.958853508886772 ], [ -156.574446458066092, 20.959262389652757 ], [ -156.574125892066746, 20.959825529234021 ], [ -156.574137430274391, 20.961868337403914 ], [ -156.573798144603245, 20.963311729492098 ], [ -156.573802741408826, 20.964091393323312 ], [ -156.573357599776386, 20.964920999308198 ], [ -156.572204655177302, 20.963032429313461 ], [ -156.571635516166566, 20.964093190459259 ], [ -156.571482970260803, 20.963825418836098 ], [ -156.571213484486691, 20.9630036222322 ], [ -156.570810666476831, 20.961840785340652 ], [ -156.57184562437979, 20.960291314435292 ], [ -156.571840415617515, 20.959358209503005 ], [ -156.57185602622306, 20.958949586142605 ], [ -156.571305113759024, 20.957906460876607 ], [ -156.570844807968058, 20.956502339051887 ], [ -156.570443522014614, 20.956762216777445 ], [ -156.570010590576572, 20.957568709450833 ], [ -156.569000388191938, 20.957186461412693 ], [ -156.569345440650125, 20.955474920215799 ], [ -156.572489994358222, 20.955039991993857 ], [ -156.572214022113201, 20.954620337316396 ], [ -156.571243941660583, 20.95416090052311 ], [ -156.571937226045179, 20.953554003426074 ], [ -156.571258426912607, 20.953194082624517 ], [ -156.570012882595734, 20.9535748598813 ], [ -156.569348954818906, 20.952957218036556 ], [ -156.570239506215898, 20.951888609429101 ], [ -156.570844146380438, 20.951050567776747 ], [ -156.571677956619055, 20.950320545532271 ], [ -156.572155605379862, 20.949480689024465 ], [ -156.572592851106634, 20.948666180322459 ], [ -156.573186413734788, 20.947622819441744 ], [ -156.572229074258189, 20.945678049190377 ], [ -156.571581620979799, 20.945681130407618 ], [ -156.571557617847191, 20.941340086517052 ], [ -156.57159310491798, 20.940397242502613 ], [ -156.571318305673913, 20.938318278285109 ], [ -156.570767020287008, 20.936726362503393 ], [ -156.57046907945525, 20.934825897114685 ], [ -156.569847671752001, 20.935730369152697 ], [ -156.57021584989829, 20.940187157404498 ], [ -156.569769306749834, 20.944211717254348 ], [ -156.568884053474505, 20.94617547228588 ], [ -156.568887085933625, 20.946719805292833 ], [ -156.568866468846693, 20.947263801056959 ], [ -156.569174144249757, 20.94784633874907 ], [ -156.566229519013064, 20.950206079293569 ], [ -156.565130499276705, 20.950860859460011 ], [ -156.564336330004664, 20.952340850814029 ], [ -156.563886774462588, 20.952068830153639 ], [ -156.56361295915039, 20.951517851327743 ], [ -156.563323325636844, 20.951248115003608 ], [ -156.562232715386671, 20.950148973800168 ], [ -156.561890390996865, 20.950680694221319 ], [ -156.561892116326447, 20.950956500009852 ], [ -156.56158452705381, 20.951760000201993 ], [ -156.561587364415772, 20.952279858277947 ], [ -156.561090221353851, 20.953206301031152 ], [ -156.560112543632926, 20.953634881617354 ], [ -156.55934430550235, 20.954363266503762 ], [ -156.558380308678608, 20.9538789802961 ], [ -156.556818630963534, 20.955359969353569 ], [ -156.555478795408163, 20.956185293513105 ], [ -156.55461833529472, 20.954910579377312 ], [ -156.553314281388111, 20.954592012734995 ], [ -156.552898204481693, 20.953803804313392 ], [ -156.554112321466363, 20.952985161034778 ], [ -156.555664846696317, 20.951512662892718 ], [ -156.556696853565342, 20.950877092203047 ], [ -156.557568157576384, 20.950495284580697 ], [ -156.556959490849579, 20.950328634165384 ], [ -156.55584620556985, 20.950333971763026 ], [ -156.55547853322301, 20.949963373978647 ], [ -156.553807294667735, 20.951117385268745 ], [ -156.553235657636151, 20.951098203301907 ], [ -156.552649863893606, 20.951101037284797 ], [ -156.552958894989274, 20.950557882130575 ], [ -156.553250459504255, 20.950015004590092 ], [ -156.553836912528425, 20.948984186534986 ], [ -156.553864826445846, 20.948254596891783 ], [ -156.552989730880654, 20.948662123855925 ], [ -156.55183763678275, 20.94916698603333 ], [ -156.55128189635289, 20.949694162446296 ], [ -156.550661034716114, 20.949983244010703 ], [ -156.549802320107574, 20.94995450310752 ], [ -156.549280328403711, 20.950449222371073 ], [ -156.548866936922337, 20.949186995976891 ], [ -156.547811213276731, 20.950188162103178 ], [ -156.547516618753207, 20.948307304849941 ], [ -156.547082222941299, 20.947902796423399 ], [ -156.546664984669746, 20.947482397256497 ], [ -156.546164296618429, 20.947016221925825 ], [ -156.547271256468747, 20.945324039626467 ], [ -156.547569503229795, 20.945062735141413 ], [ -156.547858663158451, 20.9447887338874 ], [ -156.548789606437708, 20.945256460536697 ], [ -156.549596341349542, 20.944550103775782 ], [ -156.550676890991724, 20.94352546998228 ], [ -156.551537490218408, 20.943124622549316 ], [ -156.553763521113041, 20.943694638999759 ], [ -156.554236852907025, 20.943246027644101 ], [ -156.555378100274169, 20.943284216651136 ], [ -156.555398813249639, 20.942737185547006 ], [ -156.554837359380542, 20.942214478359858 ], [ -156.554832743489641, 20.941371992742525 ], [ -156.554843652709792, 20.941081819317247 ], [ -156.553401231382907, 20.941088776126872 ], [ -156.55311752890637, 20.94080297369015 ], [ -156.551972954629235, 20.940260780327758 ], [ -156.552547013794481, 20.939695503046721 ], [ -156.553591929804014, 20.938780778619815 ], [ -156.552568639451636, 20.937828577786547 ], [ -156.553273618023184, 20.937211606671994 ], [ -156.553868324467743, 20.935062569401481 ], [ -156.554978227948908, 20.934010014570923 ], [ -156.558130560007157, 20.933450301824998 ], [ -156.558132495881239, 20.933834438884972 ], [ -156.558072386211222, 20.935422526444022 ], [ -156.558454718461121, 20.935807876125573 ], [ -156.560741666949099, 20.933326157290157 ], [ -156.560737313108859, 20.93251726850464 ], [ -156.560757629344153, 20.931975784061343 ], [ -156.56074957977151, 20.930491078533414 ], [ -156.561653081301728, 20.930095016906094 ], [ -156.561940183762545, 20.929822941388451 ], [ -156.563198783364754, 20.929458927790503 ], [ -156.565615070563467, 20.927343112805541 ], [ -156.564919675773979, 20.926641816762604 ], [ -156.56378154065456, 20.92607030334602 ], [ -156.560370487313321, 20.925473445394505 ], [ -156.559242316309053, 20.925435620349681 ], [ -156.557189183098785, 20.925781753307067 ], [ -156.555727236049989, 20.926463034440175 ], [ -156.557714027463931, 20.924079158247654 ], [ -156.558005513745798, 20.92353626431029 ], [ -156.558314166649239, 20.922993747549061 ], [ -156.558306813654923, 20.921675447342505 ], [ -156.558633135345417, 20.921102098995966 ], [ -156.558630244591512, 20.920568086648252 ], [ -156.558645553041941, 20.920161974438777 ], [ -156.558641843122814, 20.919487348084012 ], [ -156.559213906300926, 20.918986292767549 ], [ -156.559256230515587, 20.917868163957124 ], [ -156.559251811615241, 20.917063241793848 ], [ -156.559561969786813, 20.91679163015586 ], [ -156.560092667110467, 20.91628839202027 ], [ -156.561595992992267, 20.915460966913312 ], [ -156.563230099815911, 20.915111167904563 ], [ -156.563933962954223, 20.913874174522945 ], [ -156.563931020753415, 20.913342011371896 ], [ -156.566273347709114, 20.911464382289672 ], [ -156.567438145181399, 20.910953621113308 ], [ -156.56778435187627, 20.9097023844257 ], [ -156.568741863287187, 20.909282571729843 ], [ -156.568255312505357, 20.908361259876497 ], [ -156.568938454226583, 20.907444302227603 ], [ -156.570096080050973, 20.905838748332808 ], [ -156.571856823047568, 20.904890282152145 ], [ -156.570520435162052, 20.904592318093034 ], [ -156.568548174480725, 20.90580811893043 ], [ -156.568375713153927, 20.905521679312695 ], [ -156.568416425845101, 20.904445976546835 ], [ -156.567828973325476, 20.904719743678992 ], [ -156.567410570080483, 20.904705848285595 ], [ -156.566553121767072, 20.907405036057288 ], [ -156.566343212981877, 20.907136446479591 ], [ -156.565627236315663, 20.906075753247542 ], [ -156.56506876395369, 20.905896633963653 ], [ -156.564975303196633, 20.905565023362421 ], [ -156.564718996810882, 20.905798925323143 ], [ -156.56506876395369, 20.905896633963653 ], [ -156.56521993311236, 20.906333163764298 ], [ -156.56519005605395, 20.907119876083595 ], [ -156.565573868042492, 20.907846748395691 ], [ -156.564311930379858, 20.908951988459439 ], [ -156.563805455684445, 20.910345632393689 ], [ -156.563282566761586, 20.90998474618473 ], [ -156.562627945449435, 20.907985537381645 ], [ -156.562309482448086, 20.907344509636399 ], [ -156.562018565014711, 20.906793421322007 ], [ -156.562057714480574, 20.905765054279147 ], [ -156.561775226969644, 20.904362004773873 ], [ -156.561795799466722, 20.903820918582326 ], [ -156.561491753729513, 20.904082175177777 ], [ -156.560890207685958, 20.905975093222999 ], [ -156.560564216903884, 20.906548322657855 ], [ -156.560574318770733, 20.908394817907922 ], [ -156.559981448146175, 20.908671123369817 ], [ -156.559690783785072, 20.908661414306327 ], [ -156.558669872164188, 20.90866639690471 ], [ -156.55944272593328, 20.906002162229765 ], [ -156.5587259123877, 20.906526814154166 ], [ -156.55798173217363, 20.907558853418521 ], [ -156.557386588811283, 20.908357713359351 ], [ -156.556804323145883, 20.909959761607368 ], [ -156.555890293014556, 20.911186042564015 ], [ -156.555895460013488, 20.912117556045171 ], [ -156.555596943935825, 20.91240070321096 ], [ -156.555298780618983, 20.912662030398518 ], [ -156.554719410976617, 20.914256437456302 ], [ -156.554265338470032, 20.914686949713765 ], [ -156.552776313011265, 20.915117573472255 ], [ -156.552103037645878, 20.916372278244591 ], [ -156.55117913774879, 20.917611876531705 ], [ -156.551182074049905, 20.918158849919035 ], [ -156.551166430477764, 20.91856707135052 ], [ -156.551618024077584, 20.921305296242885 ], [ -156.54860445982365, 20.921813332909323 ], [ -156.547056164541772, 20.923890318013868 ], [ -156.547034416400322, 20.924465108228784 ], [ -156.54705645333911, 20.928540744538836 ], [ -156.546279706056907, 20.930677876470011 ], [ -156.545638520919795, 20.930680954475143 ], [ -156.545203733145996, 20.930666366134307 ], [ -156.544323100266922, 20.930935423759696 ], [ -156.543760550407029, 20.930916479540649 ], [ -156.543469384675689, 20.930917842566132 ], [ -156.542602169546569, 20.93034718263474 ], [ -156.541184764385747, 20.931691500398379 ], [ -156.540284512657763, 20.931695717693881 ], [ -156.540310999959672, 20.931005000494732 ], [ -156.540307180180037, 20.930325221315002 ], [ -156.540887815852983, 20.929305341333063 ], [ -156.540982488826586, 20.926817953785385 ], [ -156.538358396680906, 20.926435030787559 ], [ -156.538809943357506, 20.925302454735093 ], [ -156.539386494001974, 20.924755906096902 ], [ -156.539834094144794, 20.92436410125606 ], [ -156.53983027548486, 20.923684189579614 ], [ -156.539856294287375, 20.923004707992877 ], [ -156.538988559734236, 20.92245214742848 ], [ -156.539008933419069, 20.921911598241199 ], [ -156.539005095130392, 20.921164097579016 ], [ -156.541220796548885, 20.919669660472653 ], [ -156.542519677867404, 20.918438036770738 ], [ -156.54513952667142, 20.918175354731723 ], [ -156.545867285511292, 20.917538101700902 ], [ -156.54455931006396, 20.917118254046382 ], [ -156.543709805842695, 20.916691635677619 ], [ -156.542831419374949, 20.916275443705032 ], [ -156.543823087672934, 20.915407089516144 ], [ -156.54345182347376, 20.914658929035095 ], [ -156.542322481900044, 20.914664233839783 ], [ -156.541732603212296, 20.914115160910022 ], [ -156.542606267364476, 20.911711728765511 ], [ -156.543215348255302, 20.911134149244294 ], [ -156.543801748641812, 20.910876991446841 ], [ -156.544088839482328, 20.910604944999353 ], [ -156.545431178190597, 20.909429599488018 ], [ -156.547009300053958, 20.90793264494804 ], [ -156.548718246666851, 20.907183546375123 ], [ -156.549631084579687, 20.90662127846841 ], [ -156.55194171879171, 20.906351787275575 ], [ -156.550807822086426, 20.905289149484091 ], [ -156.548400143684091, 20.905208308579439 ], [ -156.544992581671636, 20.906021879359216 ], [ -156.543608520203549, 20.906666889273247 ], [ -156.543593488264719, 20.903874091538903 ], [ -156.546348724927384, 20.903493216319557 ], [ -156.548433720710477, 20.901515054171675 ], [ -156.549148510721324, 20.901201915103663 ], [ -156.54914569550121, 20.900682190558641 ], [ -156.550023473390439, 20.899849320615257 ], [ -156.55119232311003, 20.898825786047681 ], [ -156.55122227509986, 20.898038553567147 ], [ -156.549493157514235, 20.897679911122413 ], [ -156.549058473922827, 20.89768200795951 ], [ -156.548623779764142, 20.897667437664733 ], [ -156.548048241881048, 20.897935487115561 ], [ -156.547440634726655, 20.898202015865945 ], [ -156.546738704942015, 20.898867564892733 ], [ -156.546291485392857, 20.899259402231486 ], [ -156.545447437243809, 20.900059933644233 ], [ -156.541959577891788, 20.899744182530309 ], [ -156.541284767959013, 20.898744178092297 ], [ -156.537791398399463, 20.895491915672977 ], [ -156.5374260515228, 20.894799385178295 ], [ -156.537958376661464, 20.89433327317213 ], [ -156.536310942726232, 20.893804525465466 ], [ -156.536295963085792, 20.891032502063766 ], [ -156.539362383489504, 20.888574834742847 ], [ -156.541781874983457, 20.888656215064429 ], [ -156.542307971820605, 20.886755280517601 ], [ -156.543326473156696, 20.886750348817671 ], [ -156.544181613389043, 20.888152782452188 ], [ -156.545237262713243, 20.889135495086457 ], [ -156.545870496492739, 20.890043224042067 ], [ -156.546959260529405, 20.891657060978162 ], [ -156.548498381537343, 20.892789812154106 ], [ -156.548426604423724, 20.891056853698217 ], [ -156.547894365133828, 20.888973653672284 ], [ -156.547922968808081, 20.88821801523585 ], [ -156.547373025142122, 20.886272384590011 ], [ -156.546943748544805, 20.885458854500044 ], [ -156.550081817884603, 20.885888372992177 ], [ -156.550832740956906, 20.886587464309795 ], [ -156.551394134222022, 20.887153552257214 ], [ -156.551970668709373, 20.887150833529486 ], [ -156.552512296019614, 20.888241876234254 ], [ -156.552814734935225, 20.888252027361357 ], [ -156.55338057778701, 20.888249283378947 ], [ -156.553986629571426, 20.889117709726676 ], [ -156.554510288275793, 20.890172380961292 ], [ -156.555371782255065, 20.890721192696436 ], [ -156.556208800353318, 20.89156500820846 ], [ -156.556515845496705, 20.891273777094817 ], [ -156.557950708248626, 20.891321802102066 ], [ -156.557393468429325, 20.890479216335326 ], [ -156.556627006497706, 20.889380606154692 ], [ -156.557552057283772, 20.889411686962553 ], [ -156.558840842212277, 20.889405368514183 ], [ -156.559322233884757, 20.889890532069682 ], [ -156.560000541853981, 20.888625535379276 ], [ -156.560589782828913, 20.888899545558299 ], [ -156.561148731678287, 20.889463057044015 ], [ -156.561729921349865, 20.888911584710115 ], [ -156.562875547585605, 20.889298547619372 ], [ -156.562899583543043, 20.888664259068427 ], [ -156.562895689774621, 20.887929179230355 ], [ -156.564617768140636, 20.888510718645591 ], [ -156.56464211613806, 20.887874052759436 ], [ -156.56417627375933, 20.886529236968784 ], [ -156.566510209265203, 20.884916779206403 ], [ -156.566995233421181, 20.884932943312457 ], [ -156.5675588169251, 20.883882008556906 ], [ -156.569939387199867, 20.881973213141652 ], [ -156.571348294473324, 20.882020352528098 ], [ -156.571658358400128, 20.881748444197658 ], [ -156.571947630331607, 20.88147412353338 ], [ -156.57321329725616, 20.882307017493289 ], [ -156.572881518517164, 20.880725506469265 ], [ -156.572260576525252, 20.880147527721917 ], [ -156.574561922464056, 20.880429923196345 ], [ -156.575443448435323, 20.880872573806169 ], [ -156.576594176213121, 20.880186664210701 ], [ -156.576010105229443, 20.879643082160563 ], [ -156.575476889467296, 20.87910551053411 ], [ -156.574436822922451, 20.879070783757626 ], [ -156.573980511059602, 20.879073038634942 ], [ -156.572287042922028, 20.878501396798299 ], [ -156.57141978645717, 20.878223082404013 ], [ -156.571732400766251, 20.87714435769692 ], [ -156.572032437885213, 20.876059765678036 ], [ -156.573938650830229, 20.875651521360108 ], [ -156.574381730586367, 20.875263243518408 ], [ -156.572932603654976, 20.875270455872077 ], [ -156.572053840860576, 20.87471090722676 ], [ -156.572084672623731, 20.873896027587094 ], [ -156.572075688083686, 20.872283650578481 ], [ -156.572692647088132, 20.871198396672497 ], [ -156.572983958827251, 20.870655458775403 ], [ -156.573288381375733, 20.870119716585517 ], [ -156.572996926893637, 20.869848260900312 ], [ -156.572715244885586, 20.869564245491667 ], [ -156.571888881279278, 20.871105110159466 ], [ -156.571299448015054, 20.869304999055306 ], [ -156.570246693299538, 20.868243518768441 ], [ -156.567929617358715, 20.867079670449176 ], [ -156.566135056375771, 20.866765660461326 ], [ -156.55893017881678, 20.866397382966451 ], [ -156.558641049522777, 20.866106098125336 ], [ -156.557781993753451, 20.866110235430916 ], [ -156.556625157235828, 20.865348901942689 ], [ -156.5566313964176, 20.866459925167252 ], [ -156.555212752563733, 20.865980809276873 ], [ -156.554866278116862, 20.867233608739284 ], [ -156.552253493832154, 20.869287282769022 ], [ -156.551401987525907, 20.86925882391883 ], [ -156.551093438474368, 20.869801604148719 ], [ -156.55079160026844, 20.870364320115904 ], [ -156.550205441407201, 20.870877726328782 ], [ -156.550211155369311, 20.871948527849543 ], [ -156.546424909068151, 20.873510437001801 ], [ -156.544127147307364, 20.873521495393145 ], [ -156.543653487690506, 20.872566985978992 ], [ -156.542416795594221, 20.873740427758129 ], [ -156.53607210087003, 20.872927594335465 ], [ -156.534058390537467, 20.872281270414778 ], [ -156.533749676216615, 20.87107172406348 ], [ -156.534890071089251, 20.866384050496674 ], [ -156.536705131330365, 20.865538024015091 ], [ -156.537044863409875, 20.865536435318422 ], [ -156.541651638472217, 20.865879416583223 ], [ -156.541938925841407, 20.86560697167646 ], [ -156.543983294601929, 20.864710722115504 ], [ -156.551798761042448, 20.860386710471648 ], [ -156.552712273966193, 20.859520055970858 ], [ -156.553581727979974, 20.859549157140343 ], [ -156.554213117497483, 20.85895014084036 ], [ -156.555753630945446, 20.859964180347777 ], [ -156.55643332138996, 20.859319154075934 ], [ -156.556885910690852, 20.859316887974625 ], [ -156.557840313759016, 20.859348900003653 ], [ -156.559049677249675, 20.858998977359839 ], [ -156.55733399634201, 20.858513529578392 ], [ -156.555892038969688, 20.858227338492814 ], [ -156.555582813300731, 20.857283011348837 ], [ -156.554201528258517, 20.857927001149264 ], [ -156.554176181961168, 20.857388830102423 ], [ -156.554217279140573, 20.856309831957788 ], [ -156.55362211115488, 20.85602778969756 ], [ -156.553256946445572, 20.85235010002123 ], [ -156.551118444810214, 20.85060966226899 ], [ -156.545977407294828, 20.848617985028447 ], [ -156.54512859378886, 20.847009323503443 ], [ -156.545786266026681, 20.845690639195215 ], [ -156.54774807015869, 20.842751555654296 ], [ -156.548390561907695, 20.841324972446269 ], [ -156.549222932043222, 20.839033018355877 ], [ -156.549862440720716, 20.837840765721236 ], [ -156.55242024265641, 20.836263654927599 ], [ -156.554178081760796, 20.83572596280289 ], [ -156.55564482376812, 20.835718732413891 ], [ -156.557250830207636, 20.836741744816763 ], [ -156.55765328527977, 20.838743178924034 ], [ -156.55790321637889, 20.844284236081034 ], [ -156.559497360902668, 20.845333652606332 ], [ -156.564238367665894, 20.847305745129599 ], [ -156.564989657010699, 20.848063234879156 ], [ -156.565855330555252, 20.848341147882444 ], [ -156.56785330531747, 20.849187513774066 ], [ -156.569309239713135, 20.849476310340247 ], [ -156.569858954347666, 20.850030660291463 ], [ -156.571012426067995, 20.849492554481902 ], [ -156.572184928129218, 20.84897812210361 ], [ -156.573883505370645, 20.847930678265843 ], [ -156.57505486884304, 20.84792479163352 ], [ -156.57678317751936, 20.848743559435896 ], [ -156.577242065581345, 20.850068009314633 ], [ -156.576742617561422, 20.852293416308612 ], [ -156.576140340907045, 20.852821379734173 ], [ -156.576145642962189, 20.853772221678646 ], [ -156.576130408065666, 20.854178343603738 ], [ -156.576131934754073, 20.854451770190671 ], [ -156.575240933734648, 20.855521390766093 ], [ -156.576358466372199, 20.856050700953276 ], [ -156.576367826298565, 20.857713881518244 ], [ -156.57462641335232, 20.858477805922618 ], [ -156.574615618781536, 20.858764681453017 ], [ -156.576871773597219, 20.859142804578482 ], [ -156.577183811185705, 20.860429594953466 ], [ -156.578235829886268, 20.859780752306865 ], [ -156.579149833294764, 20.860702129050647 ], [ -156.58348869525031, 20.862948338427575 ], [ -156.583623413042204, 20.863359225968537 ] ] ] } },
{ "type": "Feature", "properties": { "ID": 8, "GRIDCODE": 2 }, "geometry": { "type": "Polygon", "coordinates": [ [ [ -156.038651954952797, 20.763532315447474 ], [ -156.040773069070553, 20.763735895546795 ], [ -156.041660393149442, 20.765124120434955 ], [ -156.042958958855451, 20.765696169548381 ], [ -156.042492774308897, 20.766186905899868 ], [ -156.041486576110429, 20.76581955756366 ], [ -156.039752805268478, 20.766384696988361 ], [ -156.039311415452119, 20.765660802211915 ], [ -156.039420854929347, 20.764619141297437 ], [ -156.037595592187301, 20.764195860496141 ], [ -156.038515890131322, 20.763675419766535 ], [ -156.038651954952797, 20.763532315447474 ] ] ] } },
{ "type": "Feature", "properties": { "ID": 9, "GRIDCODE": 2 }, "geometry": { "type": "Polygon", "coordinates": [ [ [ -156.124305384945302, 20.725719518301577 ], [ -156.12465435544965, 20.725818052304756 ], [ -156.124397788105085, 20.726051258535993 ], [ -156.124305384945302, 20.725719518301577 ] ] ] } },
{ "type": "Feature", "properties": { "ID": 10, "GRIDCODE": 2 }, "geometry": { "type": "Polygon", "coordinates": [ [ [ -156.12897933240302, 20.70684011124532 ], [ -156.129084181721055, 20.706511664235908 ], [ -156.129331758008647, 20.70675329283856 ], [ -156.12897933240302, 20.70684011124532 ] ] ] } },
{ "type": "Feature", "properties": { "ID": 11, "GRIDCODE": 2 }, "geometry": { "type": "Polygon", "coordinates": [ [ [ -156.071147784495281, 20.675805358244386 ], [ -156.071852530755876, 20.676261110595242 ], [ -156.073215146456477, 20.675749516921734 ], [ -156.073849827517876, 20.676078582460967 ], [ -156.073153708638841, 20.677033245650094 ], [ -156.071265428729731, 20.67660114991569 ], [ -156.071147784495281, 20.675805358244386 ] ] ] } },
{ "type": "Feature", "properties": { "ID": 12, "GRIDCODE": 2 }, "geometry": { "type": "Polygon", "coordinates": [ [ [ -156.12897933240302, 20.70684011124532 ], [ -156.128642684632098, 20.707760022064296 ], [ -156.124951596105745, 20.714217794878124 ], [ -156.124537957531885, 20.714984862789947 ], [ -156.123756770145121, 20.718423443842227 ], [ -156.124197612013546, 20.723954737281414 ], [ -156.124247010054034, 20.725580486964542 ], [ -156.123329191443901, 20.724211031811095 ], [ -156.123017214495746, 20.723940281377249 ], [ -156.123022217955196, 20.725698052765178 ], [ -156.122973776093801, 20.7268923955898 ], [ -156.123625390063438, 20.728484582455327 ], [ -156.122931671256339, 20.729089593304636 ], [ -156.122934089685998, 20.729913202371051 ], [ -156.123522187157903, 20.730464023005197 ], [ -156.123467072391151, 20.731817863474785 ], [ -156.122666997001431, 20.732515905158486 ], [ -156.117932964771342, 20.733056916624751 ], [ -156.116243337797982, 20.732481122363467 ], [ -156.115708695312662, 20.731395488449476 ], [ -156.115180844208652, 20.73090092909268 ], [ -156.113558146962873, 20.730281406962643 ], [ -156.112677909652803, 20.731913221943966 ], [ -156.11326527043218, 20.733034394345413 ], [ -156.112193191183309, 20.734315467656643 ], [ -156.111607419207672, 20.735139236981965 ], [ -156.112456237081432, 20.735934481938525 ], [ -156.112444949580635, 20.736218069583177 ], [ -156.112445709160284, 20.73651865352198 ], [ -156.113439280019293, 20.737449487926803 ], [ -156.115465763189832, 20.737891063017614 ], [ -156.117775128536579, 20.737054539323395 ], [ -156.118750316564075, 20.737547998276643 ], [ -156.119615979534132, 20.737961332908625 ], [ -156.118918413905476, 20.74008683814532 ], [ -156.119574288652871, 20.740399992426582 ], [ -156.119537339403337, 20.741311669376774 ], [ -156.120777277283423, 20.740935477021473 ], [ -156.120441215417571, 20.739604311107744 ], [ -156.120452722640067, 20.739323237709716 ], [ -156.121045243798193, 20.739344537437145 ], [ -156.121587551542319, 20.739894732350468 ], [ -156.122580359833222, 20.7402164281763 ], [ -156.122136652499933, 20.740992365515904 ], [ -156.122138377608508, 20.741539984688217 ], [ -156.122998719971321, 20.741537861920264 ], [ -156.123618222599504, 20.741560134334883 ], [ -156.125288553677279, 20.742405175755682 ], [ -156.126444683401957, 20.742402298286272 ], [ -156.128150947882972, 20.742983706150671 ], [ -156.128473721578814, 20.742982885493067 ], [ -156.12960285476251, 20.742459448325324 ], [ -156.130170694358696, 20.742746630690959 ], [ -156.130605088639186, 20.742745554408337 ], [ -156.131036639234395, 20.742761091404827 ], [ -156.131609646259562, 20.742759682173709 ], [ -156.132457121537016, 20.743619351554312 ], [ -156.134163783177513, 20.743615163140802 ], [ -156.135651367180373, 20.743927716918215 ], [ -156.136790051777524, 20.742851637099257 ], [ -156.137326869983156, 20.742383203886444 ], [ -156.137638082835053, 20.743683523183783 ], [ -156.139072659026937, 20.744243771790014 ], [ -156.139637465021252, 20.744529287804994 ], [ -156.14107205837135, 20.745089521435876 ], [ -156.143486487813732, 20.746876941549079 ], [ -156.152698449001463, 20.751271421220093 ], [ -156.163889979192078, 20.755346135746233 ], [ -156.170681304886614, 20.758244055775879 ], [ -156.177065472775524, 20.760309458623489 ], [ -156.193568825404242, 20.765698278914932 ], [ -156.202626343631152, 20.769394576856172 ], [ -156.206292990421588, 20.771568462787194 ], [ -156.208775867446633, 20.772270867763865 ], [ -156.211709479745963, 20.773268853077493 ], [ -156.219940673957382, 20.777943912082822 ], [ -156.229948479465577, 20.785851479510132 ], [ -156.244744535863077, 20.799558633671595 ], [ -156.252869509711672, 20.808013804312555 ], [ -156.258141202985513, 20.814713609323746 ], [ -156.262579298101855, 20.820351649472045 ], [ -156.272387718732205, 20.836089554419043 ], [ -156.27678802071469, 20.842919071581051 ], [ -156.278641035326245, 20.845970152225096 ], [ -156.279155369854067, 20.847549969057507 ], [ -156.279444260268491, 20.847820116496898 ], [ -156.282237376833734, 20.85303594380936 ], [ -156.282195248207984, 20.854095907695655 ], [ -156.282200208055713, 20.855432093058482 ], [ -156.28187249037012, 20.856005738199677 ], [ -156.280685507574844, 20.855964128510138 ], [ -156.279013500685323, 20.855120646523897 ], [ -156.278445634856837, 20.85512245845408 ], [ -156.278137433351588, 20.855111604271443 ], [ -156.277594133966915, 20.854561800559736 ], [ -156.277154970347624, 20.854151455266621 ], [ -156.276670906018808, 20.854609264054286 ], [ -156.275264901495007, 20.854246604074575 ], [ -156.274725485511453, 20.853700689492392 ], [ -156.274142369802377, 20.854252131216203 ], [ -156.275676251937995, 20.854982105370013 ], [ -156.276110997646697, 20.856605626933064 ], [ -156.274087926331845, 20.856943564910026 ], [ -156.273795632517277, 20.857485883988961 ], [ -156.272643560411808, 20.857988840716672 ], [ -156.2720618498725, 20.858538972762229 ], [ -156.270652154780976, 20.858784684372935 ], [ -156.27034290254187, 20.85714900612702 ], [ -156.269744639660757, 20.857150964564418 ], [ -156.268319254913678, 20.85849895324256 ], [ -156.267127769555543, 20.858457043544391 ], [ -156.266580361039757, 20.857902909998231 ], [ -156.26628076010968, 20.858723212399106 ], [ -156.264811471174653, 20.85775243992002 ], [ -156.264319253043993, 20.855704262432987 ], [ -156.263598711861022, 20.855559963066963 ], [ -156.263505951530135, 20.855228258736723 ], [ -156.263249326374279, 20.855461669279194 ], [ -156.263598711861022, 20.855559963066963 ], [ -156.263739314592357, 20.855969003570003 ], [ -156.263356594651157, 20.856639457105622 ], [ -156.263713739022364, 20.857319629338196 ], [ -156.264115181887604, 20.858552905132228 ], [ -156.265109673630434, 20.85948223803231 ], [ -156.264031847478407, 20.86052932529428 ], [ -156.262809050231112, 20.861096937778008 ], [ -156.261354513241599, 20.859995579706784 ], [ -156.26100028292305, 20.858906542984045 ], [ -156.260490429511577, 20.859976453096046 ], [ -156.260123405274726, 20.861595620790244 ], [ -156.259156992389194, 20.860577708595752 ], [ -156.259657414560593, 20.858864669641839 ], [ -156.259655020096147, 20.85820524978535 ], [ -156.259692595693991, 20.857265710626113 ], [ -156.259392103500602, 20.856984898246409 ], [ -156.259114683978368, 20.856704190608454 ], [ -156.258276114400246, 20.856706755046037 ], [ -156.257390467674526, 20.856140297733816 ], [ -156.257036272543843, 20.855051256528579 ], [ -156.256640181602307, 20.856519055912116 ], [ -156.257105022972667, 20.856953400900782 ], [ -156.257072982890691, 20.857757606459089 ], [ -156.257074839861787, 20.858290985892204 ], [ -156.256339572369939, 20.858632292207311 ], [ -156.255446757248308, 20.858181557253356 ], [ -156.254754838115502, 20.85878526712267 ], [ -156.255027048442685, 20.859352475313226 ], [ -156.255892026303627, 20.85963190420517 ], [ -156.256164530306648, 20.860183246244326 ], [ -156.256731202512384, 20.860712856929698 ], [ -156.255770545858923, 20.861905384140282 ], [ -156.254607799162727, 20.861318595028703 ], [ -156.254124225779606, 20.861775545282253 ], [ -156.252931867516565, 20.862028693353672 ], [ -156.251530352179969, 20.863353630624655 ], [ -156.251213360183812, 20.863082986540434 ], [ -156.250766095910393, 20.862177584036818 ], [ -156.249113880578165, 20.863314780119069 ], [ -156.247135641242522, 20.862791790053649 ], [ -156.245729590185249, 20.861892630493742 ], [ -156.245085555068556, 20.861240603755348 ], [ -156.243657265668844, 20.862117521470879 ], [ -156.242601920368543, 20.861584886890512 ], [ -156.240296677242668, 20.861282159584661 ], [ -156.239059438726827, 20.860464359369736 ], [ -156.237866002576084, 20.860422212996749 ], [ -156.236798643110973, 20.860425471359942 ], [ -156.234863235658594, 20.859027711911271 ], [ -156.233731619585001, 20.858191615849559 ], [ -156.23303173500409, 20.857858281334615 ], [ -156.231628347904518, 20.855838025825015 ], [ -156.231382001382428, 20.852604104877887 ], [ -156.231670040044378, 20.852608765533073 ], [ -156.231674997895311, 20.852338009366221 ], [ -156.232043365430144, 20.852196781041002 ], [ -156.23180313343704, 20.851717211641571 ], [ -156.231674997895311, 20.852338009366221 ], [ -156.231386959747624, 20.852333348777051 ], [ -156.231382001382428, 20.852604104877887 ], [ -156.231229971410244, 20.852731905361519 ], [ -156.230933157795647, 20.85382076192699 ], [ -156.230619173798885, 20.854617873272282 ], [ -156.230320854387031, 20.855711596470449 ], [ -156.22974388612343, 20.855412507679056 ], [ -156.229231008721939, 20.855915193101083 ], [ -156.228897209840483, 20.854860826616928 ], [ -156.228314370236603, 20.854590732132088 ], [ -156.228412505758797, 20.85296743946293 ], [ -156.227728158426544, 20.853231155285116 ], [ -156.227186916888513, 20.853761675322733 ], [ -156.225272608777402, 20.85341629636423 ], [ -156.224585216550253, 20.85370758839661 ], [ -156.224120177229224, 20.854163557989249 ], [ -156.223471459858217, 20.852961648489774 ], [ -156.223132379520962, 20.851890923256942 ], [ -156.221565011134004, 20.851164059252678 ], [ -156.22119972339226, 20.85040262036734 ], [ -156.220624138376593, 20.849586587149556 ], [ -156.221222207017291, 20.848566784699607 ], [ -156.220482478941307, 20.848476482979283 ], [ -156.219943539190268, 20.849845704338865 ], [ -156.22042006285173, 20.851198361050312 ], [ -156.220021775960305, 20.851206701761701 ], [ -156.218895470428635, 20.850365184458955 ], [ -156.217397834059426, 20.850071060528307 ], [ -156.216359146857343, 20.848980088245252 ], [ -156.216012434239332, 20.849243959209847 ], [ -156.2160442109587, 20.850589652436955 ], [ -156.21542765944244, 20.850319101348095 ], [ -156.215156057041213, 20.850033532680722 ], [ -156.213138111307984, 20.849469195202474 ], [ -156.213185381818249, 20.848690525919626 ], [ -156.212876242269942, 20.848365860308007 ], [ -156.212055028973509, 20.849170536600308 ], [ -156.211708235681101, 20.848904368039484 ], [ -156.211308055971244, 20.848069875616584 ], [ -156.210874119451773, 20.847265777227307 ], [ -156.210603724167868, 20.846701983790755 ], [ -156.209780788546482, 20.847508472278172 ], [ -156.208276998071284, 20.845706476348571 ], [ -156.208791911997366, 20.843981837184124 ], [ -156.207761882998426, 20.845155482276379 ], [ -156.207711300597936, 20.845990296687692 ], [ -156.20773320781197, 20.846921904981578 ], [ -156.204556597897181, 20.846988269384443 ], [ -156.204543249756, 20.846431841028128 ], [ -156.20661309968159, 20.843983583052804 ], [ -156.206338909828276, 20.843656833306991 ], [ -156.20576099100569, 20.843932381358204 ], [ -156.20488088025877, 20.844178527528083 ], [ -156.203992324721412, 20.844455211079797 ], [ -156.203441424839497, 20.844425580585643 ], [ -156.203148142990472, 20.844431764244163 ], [ -156.202875465074953, 20.844145368107036 ], [ -156.20143495785041, 20.844175510080714 ], [ -156.201853920325647, 20.843702322049257 ], [ -156.202889068878164, 20.84283163384449 ], [ -156.202610515864222, 20.842787012166653 ], [ -156.201748417104767, 20.84280492269767 ], [ -156.202105248011094, 20.841781384670551 ], [ -156.204077742619006, 20.840945313791352 ], [ -156.204518664442588, 20.840104975057105 ], [ -156.205063621573174, 20.839176276300233 ], [ -156.204697742836601, 20.838498379513215 ], [ -156.204424140224859, 20.837927386136467 ], [ -156.203861040038248, 20.839990027480585 ], [ -156.203429743791929, 20.840811743085318 ], [ -156.202923605186101, 20.840355304959264 ], [ -156.202975775426864, 20.839496584057212 ], [ -156.201841386377396, 20.840608052592327 ], [ -156.201494631462054, 20.840341867329691 ], [ -156.201228082800299, 20.839785531699324 ], [ -156.200922577668194, 20.839510101814941 ], [ -156.20097117283126, 20.838708320338576 ], [ -156.200367843762734, 20.838958970903146 ], [ -156.200081306436033, 20.83923979463022 ], [ -156.199227361733108, 20.838666442619864 ], [ -156.198122355163633, 20.8391930636339 ], [ -156.198018261169437, 20.838160007195039 ], [ -156.198619561500635, 20.837654237528664 ], [ -156.198985297991413, 20.837031280190789 ], [ -156.198969436718812, 20.836368357246634 ], [ -156.199007828898658, 20.83573819214806 ], [ -156.198715822848271, 20.835129334308785 ], [ -156.198423030708881, 20.835687496546111 ], [ -156.198118959920805, 20.835943036715637 ], [ -156.197756470828182, 20.837271686760761 ], [ -156.196643918933461, 20.837294863917695 ], [ -156.19609861373587, 20.836722055861124 ], [ -156.195522217484466, 20.836734037863334 ], [ -156.194723593063088, 20.835894841513085 ], [ -156.192939827008956, 20.835597683744503 ], [ -156.192412208799311, 20.835043140566071 ], [ -156.190091780035175, 20.834483118292695 ], [ -156.190084901659162, 20.834186917747093 ], [ -156.190884572485004, 20.833134044086243 ], [ -156.190398923010576, 20.833107958770093 ], [ -156.189827607400815, 20.83311987396171 ], [ -156.18954559706458, 20.832823389424473 ], [ -156.189000515393076, 20.83233176225777 ], [ -156.188568936166064, 20.831106473221396 ], [ -156.189688982438867, 20.829722442609352 ], [ -156.191638867372291, 20.828082240562981 ], [ -156.191249720411236, 20.82793515408904 ], [ -156.189994713998857, 20.828286296346132 ], [ -156.188740782449941, 20.829018564937662 ], [ -156.187267839775075, 20.8301061275933 ], [ -156.187353429066803, 20.828694539891636 ], [ -156.1851883541257, 20.830043527085397 ], [ -156.184935275373533, 20.829372080656924 ], [ -156.18552520198017, 20.827874233078859 ], [ -156.183905598851652, 20.827907910501157 ], [ -156.183033417633311, 20.826991157319799 ], [ -156.182179815165483, 20.82782742109417 ], [ -156.181358489154491, 20.827156406288402 ], [ -156.181016470712223, 20.826443158954675 ], [ -156.18016516842448, 20.826460882505003 ], [ -156.179795396318923, 20.825410625004018 ], [ -156.18100889584494, 20.822015229918872 ], [ -156.182272070651976, 20.821479941586116 ], [ -156.184157555260839, 20.820169099267851 ], [ -156.186649932307319, 20.818713345930661 ], [ -156.187355330609591, 20.818022067407949 ], [ -156.187811118892029, 20.817638777243669 ], [ -156.189275039946551, 20.815756675772047 ], [ -156.190524848442294, 20.815407030117868 ], [ -156.19207104251447, 20.8141063909863 ], [ -156.193336373751237, 20.810564401279525 ], [ -156.194565678888551, 20.810043264264106 ], [ -156.19417810367753, 20.809418557306433 ], [ -156.191665548419053, 20.80892474186502 ], [ -156.190443960268254, 20.80810439591118 ], [ -156.188776885633132, 20.808449054726257 ], [ -156.187242420882086, 20.809180562233244 ], [ -156.186007115824452, 20.808539809324333 ], [ -156.184500525399784, 20.809178386431267 ], [ -156.183645446696772, 20.809586052887106 ], [ -156.182757757752825, 20.809962234209191 ], [ -156.182255797889553, 20.810454380502851 ], [ -156.181601923314844, 20.8107660308292 ], [ -156.180141056171806, 20.811273341378822 ], [ -156.179571177302705, 20.811545106261821 ], [ -156.176968995808835, 20.812647855520559 ], [ -156.171942610881047, 20.816825606991927 ], [ -156.171401370794598, 20.816556160162008 ], [ -156.171120388660682, 20.81468694238924 ], [ -156.169962641547784, 20.814624582025026 ], [ -156.169994416707226, 20.815980165324685 ], [ -156.169386029451459, 20.815992728354143 ], [ -156.168840905152393, 20.815419852704679 ], [ -156.168327915292394, 20.815430417990903 ], [ -156.167029557505259, 20.815020172199397 ], [ -156.166394713279857, 20.814447393373868 ], [ -156.165737060799273, 20.813755881298796 ], [ -156.165266940306594, 20.813730649000391 ], [ -156.164350435278976, 20.813749602159611 ], [ -156.16399323625717, 20.812620848896369 ], [ -156.162892425935894, 20.81264362093588 ], [ -156.162556250047118, 20.810813554114365 ], [ -156.161985315588993, 20.811786106028737 ], [ -156.16142147410477, 20.812860067664886 ], [ -156.159973370026279, 20.812412777226267 ], [ -156.15994745899846, 20.811304187409316 ], [ -156.160277952528219, 20.81067452161529 ], [ -156.160870388870876, 20.809665569802707 ], [ -156.160903656972522, 20.809121032517528 ], [ -156.157770525408381, 20.811174602895459 ], [ -156.157102261166983, 20.810901685908533 ], [ -156.157628570415, 20.809565418106278 ], [ -156.157131492724659, 20.80953865981439 ], [ -156.156848958366766, 20.809815508545462 ], [ -156.155969006287648, 20.810061417490676 ], [ -156.154870631648521, 20.810584834123581 ], [ -156.154518467253098, 20.81003085951653 ], [ -156.154566866785586, 20.809235985449252 ], [ -156.153963605889345, 20.809486477756749 ], [ -156.152865230425192, 20.810009881231192 ], [ -156.151806476867648, 20.809098491565141 ], [ -156.150838091060677, 20.807809604812572 ], [ -156.149705230666115, 20.806787083080341 ], [ -156.149993594785741, 20.806170624562036 ], [ -156.150469845720579, 20.805359593165218 ], [ -156.149708437237024, 20.805375364665409 ], [ -156.149742274546782, 20.804817486657662 ], [ -156.149732760139045, 20.804411093584818 ], [ -156.149922150974817, 20.801309560139909 ], [ -156.149509677788416, 20.801287362694818 ], [ -156.149067597483366, 20.803272968605619 ], [ -156.14780879990812, 20.80450603924902 ], [ -156.146578907159778, 20.804531456631423 ], [ -156.1458786414656, 20.803795003966904 ], [ -156.14520853375717, 20.803189966464167 ], [ -156.144876974938853, 20.802575094000638 ], [ -156.144610694535601, 20.802018699518889 ], [ -156.142713876857528, 20.801645393491075 ], [ -156.142316304729832, 20.800907494264067 ], [ -156.142053804537426, 20.800076635321375 ], [ -156.140604018286552, 20.80060851837662 ], [ -156.138756632569994, 20.800508800500758 ], [ -156.137308941746994, 20.800958834355523 ], [ -156.136585512338428, 20.80030553636411 ], [ -156.136179089394972, 20.799457325008873 ], [ -156.135720267686452, 20.799432601675427 ], [ -156.135300434178646, 20.800232098856359 ], [ -156.134414135707544, 20.800250213718972 ], [ -156.133694855866707, 20.800211345512945 ], [ -156.132980468710599, 20.800226111922971 ], [ -156.131700440678401, 20.799365793189548 ], [ -156.129966650047521, 20.79907627241435 ], [ -156.129407395125924, 20.798785775333567 ], [ -156.128537348711944, 20.798510700595013 ], [ -156.127418570628748, 20.797929691892101 ], [ -156.124838947243177, 20.797113931168912 ], [ -156.124303171477635, 20.796550349120956 ], [ -156.123683976888259, 20.796262797050407 ], [ -156.122082317547921, 20.795431003659299 ], [ -156.1205375955021, 20.795126714775442 ], [ -156.119526933472827, 20.794601824009057 ], [ -156.11796706562788, 20.794000258386777 ], [ -156.117125105019738, 20.793434155879563 ], [ -156.114732288115931, 20.792962694262506 ], [ -156.113973692543112, 20.792568695842732 ], [ -156.11280981747862, 20.792028099495951 ], [ -156.112010530351597, 20.791186983616651 ], [ -156.109163258751067, 20.790555329286299 ], [ -156.107272583427857, 20.789284413478136 ], [ -156.105120216731592, 20.788096734477264 ], [ -156.104848941822723, 20.787811025796387 ], [ -156.103559846560756, 20.787499140245835 ], [ -156.101985623693196, 20.786950225490681 ], [ -156.098993910288016, 20.786599614567667 ], [ -156.097311198453099, 20.784358747345397 ], [ -156.096093577777708, 20.783077425626949 ], [ -156.094854933079858, 20.782777706216905 ], [ -156.093300099904241, 20.781969870558441 ], [ -156.091720547443799, 20.781631030889336 ], [ -156.090274953312075, 20.781346020198722 ], [ -156.089933149966583, 20.780986235185583 ], [ -156.087268758017245, 20.781040327997761 ], [ -156.085957531238904, 20.780158549610718 ], [ -156.084579069968356, 20.7801864376564 ], [ -156.083419972978987, 20.779584121652181 ], [ -156.082256328193381, 20.779043341607117 ], [ -156.081697254338053, 20.77875270761033 ], [ -156.080824600450029, 20.778347116728181 ], [ -156.079472310546919, 20.77764443157389 ], [ -156.07912173540214, 20.777625373176981 ], [ -156.078828887387232, 20.777631363083152 ], [ -156.078268990753202, 20.777340308332558 ], [ -156.076828691182186, 20.776784469879466 ], [ -156.075986998356683, 20.776218193604809 ], [ -156.074541501870925, 20.775933059636863 ], [ -156.074239713434707, 20.775615318784681 ], [ -156.072849768544586, 20.77564344937058 ], [ -156.071942545503305, 20.775326748267794 ], [ -156.071386681252278, 20.775338022871512 ], [ -156.070114955131118, 20.774894232099054 ], [ -156.067083492168791, 20.774451704791858 ], [ -156.066594603082706, 20.773936771674951 ], [ -156.065372694729774, 20.773870261005797 ], [ -156.064562820196045, 20.773886690626099 ], [ -156.063596972751526, 20.773549639560247 ], [ -156.062095942879836, 20.77357988282051 ], [ -156.060201358443862, 20.772979905111125 ], [ -156.0595243192314, 20.772627945061405 ], [ -156.057853557088947, 20.773146611096898 ], [ -156.056182046264382, 20.772369392281242 ], [ -156.055910739184071, 20.771801835015211 ], [ -156.055134918822063, 20.77181748288168 ], [ -156.054783143516175, 20.770701904960131 ], [ -156.054278968728994, 20.771195064934446 ], [ -156.052844517778425, 20.770288598315979 ], [ -156.051650561956677, 20.769031215951529 ], [ -156.051213434806925, 20.769039970929708 ], [ -156.050781996408858, 20.769016426277361 ], [ -156.050493951550862, 20.769022319539786 ], [ -156.049702701883263, 20.768979101348179 ], [ -156.049044103452019, 20.76925762657098 ], [ -156.048311310663735, 20.769606409176625 ], [ -156.045734476359854, 20.769465944678245 ], [ -156.045065001474228, 20.769479411513224 ], [ -156.044217808832883, 20.768713498719666 ], [ -156.043921776127803, 20.766732238032898 ], [ -156.043358084948892, 20.765371281857917 ], [ -156.043909769953814, 20.764907931779593 ], [ -156.042562264916171, 20.764481160053148 ], [ -156.043262589271052, 20.763892903748658 ], [ -156.043685945304759, 20.763478516244383 ], [ -156.044981710486923, 20.763211639443064 ], [ -156.043662661355086, 20.762377969657951 ], [ -156.043807696443025, 20.760025599439267 ], [ -156.043456961918338, 20.759656327230584 ], [ -156.041786799789008, 20.758879409582526 ], [ -156.041353697206347, 20.758423294901355 ], [ -156.039782994673118, 20.757925489674932 ], [ -156.039769147224547, 20.757323081218303 ], [ -156.039794577977744, 20.756912552625565 ], [ -156.039206359815267, 20.756380637184574 ], [ -156.03981354719545, 20.755347290949754 ], [ -156.039517335114084, 20.754980142485046 ], [ -156.038098360775876, 20.755008566811235 ], [ -156.037379372970577, 20.754969322530712 ], [ -156.036386513886868, 20.754989215664953 ], [ -156.035832504300942, 20.754405386171481 ], [ -156.035482332589964, 20.754412432532842 ], [ -156.031589073670062, 20.752261401504946 ], [ -156.031105086823743, 20.751361554603573 ], [ -156.030440092181095, 20.749970259600751 ], [ -156.029587277545374, 20.749199037859942 ], [ -156.029304214733855, 20.748606918572335 ], [ -156.029015296156444, 20.748069968997427 ], [ -156.02904779178192, 20.747543735073307 ], [ -156.028168718185924, 20.746951883966489 ], [ -156.02759863074661, 20.746963309506036 ], [ -156.026682659076471, 20.746346747801859 ], [ -156.02502304760074, 20.745574632449934 ], [ -156.024470214441209, 20.744992116432563 ], [ -156.022884852497697, 20.745023756824807 ], [ -156.02131425211445, 20.744416848640842 ], [ -156.021048524452397, 20.743860324941263 ], [ -156.020286394994571, 20.743171163604206 ], [ -156.020819123766046, 20.741392557620333 ], [ -156.020807540968065, 20.740878918469981 ], [ -156.021133493808009, 20.739537702660805 ], [ -156.021115467215481, 20.738735828408181 ], [ -156.021445882559163, 20.738458060464669 ], [ -156.021153489322046, 20.737914166001207 ], [ -156.021201618480717, 20.737136181459118 ], [ -156.020898644006337, 20.736816889834323 ], [ -156.020332940747807, 20.736305280135557 ], [ -156.020908613288327, 20.735733856687684 ], [ -156.021212717513606, 20.73547863996194 ], [ -156.022075252772709, 20.733837835716042 ], [ -156.023303090076496, 20.732806441404239 ], [ -156.02327328333439, 20.731485236428075 ], [ -156.023588538458995, 20.731176655021958 ], [ -156.024754657678358, 20.730683402702173 ], [ -156.025366868906076, 20.728974375813987 ], [ -156.026540626423071, 20.727988427704691 ], [ -156.027155925739606, 20.727126761008648 ], [ -156.027976995249105, 20.726437106997277 ], [ -156.028314710990401, 20.725581875384449 ], [ -156.02861256136552, 20.724493496681461 ], [ -156.029482478079927, 20.723762760919385 ], [ -156.029959031963614, 20.722432446549671 ], [ -156.030959450304721, 20.721956246923213 ], [ -156.031846866899173, 20.721580831840772 ], [ -156.03219629602458, 20.720915935576496 ], [ -156.033210025499898, 20.721443301123792 ], [ -156.033804565791115, 20.720431826898629 ], [ -156.032185650128952, 20.71896776169099 ], [ -156.032522659199913, 20.717930161701922 ], [ -156.033638795961423, 20.717398816124888 ], [ -156.034930900894182, 20.716852116343226 ], [ -156.035714001704633, 20.715148226472802 ], [ -156.036126279919984, 20.713996344717131 ], [ -156.037479848201372, 20.713423573696115 ], [ -156.038350441161612, 20.712204470687894 ], [ -156.039494552134812, 20.710852682667809 ], [ -156.039559836904346, 20.709793195193186 ], [ -156.039550590312103, 20.709386827753253 ], [ -156.039575622511819, 20.708981050146587 ], [ -156.039566375630613, 20.708574682675238 ], [ -156.039591762835755, 20.708165076478956 ], [ -156.039313399306593, 20.707086055980319 ], [ -156.038875289666407, 20.705202712559835 ], [ -156.037031644645111, 20.704806552688201 ], [ -156.034194924922843, 20.704863334414696 ], [ -156.033765794126367, 20.702262401472417 ], [ -156.035266773025342, 20.700160437603294 ], [ -156.036302255261603, 20.699722346022227 ], [ -156.036278210863344, 20.698660925721672 ], [ -156.037415461790829, 20.698119456105982 ], [ -156.03881224110566, 20.697831695462764 ], [ -156.039497469332701, 20.696527800150292 ], [ -156.039807157572653, 20.697064424123006 ], [ -156.040344595693739, 20.698189286081913 ], [ -156.041740548370825, 20.698161185798465 ], [ -156.042223210579209, 20.698329743041828 ], [ -156.042315420152363, 20.698661505017181 ], [ -156.042572045000867, 20.698428430222485 ], [ -156.042223210579209, 20.698329743041828 ], [ -156.042092961910669, 20.697916138357026 ], [ -156.040972129660702, 20.697207428463166 ], [ -156.040957113828853, 20.696547741597303 ], [ -156.040982135520863, 20.696141962554396 ], [ -156.040960635075294, 20.695193771495941 ], [ -156.042150552988971, 20.694948572294969 ], [ -156.043008974937123, 20.694681802934987 ], [ -156.043572994092472, 20.694712514943621 ], [ -156.044225413919349, 20.69440200321332 ], [ -156.045632232470382, 20.694478648058926 ], [ -156.044458923250403, 20.693070358297593 ], [ -156.04534045754724, 20.693118415388078 ], [ -156.045080155786593, 20.692280502245996 ], [ -156.044705265713873, 20.69158382706069 ], [ -156.045399123344396, 20.690671448291383 ], [ -156.046159734415141, 20.689605898484629 ], [ -156.047263503592092, 20.689583707225118 ], [ -156.048567099525087, 20.690461059067331 ], [ -156.048873465483126, 20.689341162683831 ], [ -156.049463392398621, 20.688845491566862 ], [ -156.049978164488323, 20.688341257749194 ], [ -156.051983094306081, 20.689690761436555 ], [ -156.051699670967679, 20.688244594973163 ], [ -156.051138432051886, 20.687736871742555 ], [ -156.051697236854466, 20.686175673067535 ], [ -156.052382286459562, 20.686718703405791 ], [ -156.05265562887854, 20.687290916307923 ], [ -156.052962391437944, 20.685915810005206 ], [ -156.053260530364469, 20.685932019351139 ], [ -156.053830008655808, 20.684340447864184 ], [ -156.054729997396294, 20.683779976350412 ], [ -156.0558969594085, 20.683539434453603 ], [ -156.056794596476607, 20.683260430650783 ], [ -156.057878405949594, 20.684401988630476 ], [ -156.058176873518164, 20.684109699336261 ], [ -156.058480809168856, 20.683854395314842 ], [ -156.058873516255801, 20.683469565451698 ], [ -156.060537372082024, 20.684334732540762 ], [ -156.05999321859727, 20.682225212439825 ], [ -156.061374965919612, 20.682300363858772 ], [ -156.062609199485621, 20.68040432354837 ], [ -156.063248931024134, 20.681054440321301 ], [ -156.06480887166046, 20.683420741230801 ], [ -156.065380033129145, 20.684232593151652 ], [ -156.065663158756536, 20.684824659288882 ], [ -156.066266152704003, 20.685370075292056 ], [ -156.067778670220065, 20.687664012185039 ], [ -156.068796103637794, 20.68896054825851 ], [ -156.070945360234361, 20.693545252416211 ], [ -156.07152254219011, 20.69461769052835 ], [ -156.072056711732529, 20.695735015996423 ], [ -156.072766959072538, 20.695396679314428 ], [ -156.073212250460159, 20.696327762173834 ], [ -156.074388359556878, 20.695175778183486 ], [ -156.076667545778434, 20.695299656087691 ], [ -156.076420210679771, 20.693292658508842 ], [ -156.075794490509452, 20.691510906420458 ], [ -156.07595670889188, 20.688870196618439 ], [ -156.075287038710627, 20.685995984679153 ], [ -156.074202954635865, 20.684260131771168 ], [ -156.073486992628744, 20.681662422604898 ], [ -156.072984172907638, 20.680230658931752 ], [ -156.073957594641513, 20.679412148357439 ], [ -156.074473381069481, 20.677970051555064 ], [ -156.076158895665657, 20.677385107844842 ], [ -156.076702185870971, 20.676852701967814 ], [ -156.07890788000671, 20.678349971139966 ], [ -156.079851074548941, 20.679343430834319 ], [ -156.080878975278949, 20.680272602142182 ], [ -156.082602901848333, 20.682087886679373 ], [ -156.082984963687693, 20.681830419832611 ], [ -156.08240906336431, 20.681011661232933 ], [ -156.082148356901058, 20.680184488656881 ], [ -156.081859605212941, 20.679648283209101 ], [ -156.081609260753197, 20.678279657853679 ], [ -156.080834124418459, 20.675610881843728 ], [ -156.106049450014012, 20.677228269745903 ], [ -156.111587947514607, 20.678425392748633 ], [ -156.113368882946531, 20.679253158647089 ], [ -156.114657018717537, 20.680417129405164 ], [ -156.114944526448824, 20.683477264737224 ], [ -156.116132981322892, 20.684728157288028 ], [ -156.118857291211043, 20.685312354815121 ], [ -156.120332953046045, 20.68489972922826 ], [ -156.122984705674526, 20.683431918977419 ], [ -156.124746695773354, 20.683989498398436 ], [ -156.126113997179857, 20.685224802936244 ], [ -156.130612087648501, 20.692496969209813 ], [ -156.132725605813846, 20.695187646065165 ], [ -156.13359781434167, 20.698187570650937 ], [ -156.132845620384984, 20.700790307194175 ], [ -156.12787503892099, 20.702005208046831 ], [ -156.1274754831081, 20.702341298348362 ], [ -156.127188591273296, 20.702888467383719 ], [ -156.125694486002487, 20.703197021523817 ], [ -156.124282148923243, 20.704385245631972 ], [ -156.125532252125907, 20.705330335517967 ], [ -156.127597070136176, 20.706402743535108 ], [ -156.12897933240302, 20.70684011124532 ] ] ] } }
]
}
