{
"type": "FeatureCollection",
"name": "phybrac",
"crs": { "type": "name", "properties": { "name": "urn:ogc:def:crs:OGC:1.3:CRS84" } },
"features": [
{ "type": "Feature", "properties": { "ID": 1, "GRIDCODE": 2 }, "geometry": { "type": "Polygon", "coordinates": [ [ [ -156.604098066767818, 20.953313330144468 ], [ -156.604669774493715, 20.953471493705315 ], [ -156.604859050444844, 20.954813938560509 ], [ -156.604741837136345, 20.955489525088264 ], [ -156.604875687746812, 20.956439533066106 ], [ -156.604665448700445, 20.957650969260786 ], [ -156.605283534175527, 20.959195335065164 ], [ -156.60491633247139, 20.959545986974856 ], [ -156.603571116134646, 20.957787301625018 ], [ -156.603807713935225, 20.956424522010689 ], [ -156.603546828914205, 20.954574864662547 ], [ -156.604098066767818, 20.953313330144468 ] ] ] } },
{ "type": "Feature", "properties": { "ID": 2, "GRIDCODE": 2 }, "geometry": { "type": "Polygon", "coordinates": [ [ [ -156.572320751763442, 20.867262554772875 ], [ -156.572216677582304, 20.867591357999061 ], [ -156.571968085734483, 20.867350270448441 ], [ -156.572320751763442, 20.867262554772875 ] ] ] } },
{ "type": "Feature", "properties": { "ID": 3, "GRIDCODE": 2 }, "geometry": { "type": "Polygon", "coordinates": [ [ [ -156.573175331219346, 20.849937642917258 ], [ -156.573268789622205, 20.850269249377639 ], [ -156.573524980287971, 20.850035322652474 ], [ -156.573175331219346, 20.849937642917258 ], [ -156.573622693197194, 20.848979199206465 ], [ -156.574154079774246, 20.850080615338253 ], [ -156.574474639058479, 20.850097063104709 ], [ -156.57475657492472, 20.849819452850728 ], [ -156.575060118603119, 20.849563179337018 ], [ -156.575345825312667, 20.849015126341722 ], [ -156.576791547100697, 20.848712990942303 ], [ -156.576548578811014, 20.846594132671513 ], [ -156.575708869071548, 20.845046437853476 ], [ -156.576122102320255, 20.844143452107563 ], [ -156.57672579894853, 20.844174485145459 ], [ -156.577158209975295, 20.844164468593981 ], [ -156.577716354085027, 20.84419326617045 ], [ -156.577748984428865, 20.843631705690289 ], [ -156.577182209902702, 20.843122772592778 ], [ -156.577166116630593, 20.842511053174029 ], [ -156.578084398357333, 20.841735045911246 ], [ -156.577363657703216, 20.841088092735152 ], [ -156.578077582704879, 20.840385249066472 ], [ -156.579151775525048, 20.840082195097807 ], [ -156.579559611958928, 20.839039310107793 ], [ -156.578414985180586, 20.838011643258159 ], [ -156.578850586009764, 20.83792428703854 ], [ -156.5837259403948, 20.839647482475684 ], [ -156.586402408610951, 20.841551727513782 ], [ -156.586425119151414, 20.842421341234559 ], [ -156.585676897415652, 20.842382881639807 ], [ -156.585247837288279, 20.843205780193351 ], [ -156.584634810361564, 20.843723839786591 ], [ -156.584963851419673, 20.844019216238653 ], [ -156.584350820024213, 20.844537274351612 ], [ -156.583849899609163, 20.845030722458045 ], [ -156.58317524656394, 20.845353995064738 ], [ -156.5823440623804, 20.84531130613351 ], [ -156.581870698596646, 20.846122457164 ], [ -156.581441899973129, 20.846944553300286 ], [ -156.580986888412184, 20.847328986768343 ], [ -156.580564579649746, 20.847744832683983 ], [ -156.579957797128628, 20.848257405230481 ], [ -156.57890358121017, 20.849295378687287 ], [ -156.576637035642847, 20.850505066016211 ], [ -156.574701687641181, 20.852539893011961 ], [ -156.574721588235747, 20.853299412329132 ], [ -156.574414388633414, 20.853888294895839 ], [ -156.573831807970834, 20.854380550297069 ], [ -156.573813939783633, 20.854687298446848 ], [ -156.573824584224695, 20.855093786535384 ], [ -156.57375397581913, 20.856301876388894 ], [ -156.574542635100613, 20.856665428289809 ], [ -156.57348678011229, 20.857115523165721 ], [ -156.572715075566975, 20.858202559534078 ], [ -156.572041024481649, 20.858167863913977 ], [ -156.572024320480523, 20.858454390475078 ], [ -156.572031225405055, 20.858725379541632 ], [ -156.572015262384241, 20.859000805829123 ], [ -156.572867835898222, 20.859766319176618 ], [ -156.572581303821636, 20.860363690390191 ], [ -156.571710747989982, 20.86073492169189 ], [ -156.572845133044922, 20.861180107096896 ], [ -156.573746290385969, 20.861462326569594 ], [ -156.574525480886848, 20.862277187847269 ], [ -156.575005892517794, 20.861909935813973 ], [ -156.575448952163555, 20.860660300392606 ], [ -156.576415042533796, 20.861158367091605 ], [ -156.577993933745176, 20.861703729265074 ], [ -156.57976090742531, 20.860856670677027 ], [ -156.579771689071322, 20.861273081840736 ], [ -156.579730082322641, 20.861990727779681 ], [ -156.580037754147014, 20.862954313914464 ], [ -156.581160431089131, 20.864538272814872 ], [ -156.581427911649286, 20.865376027789143 ], [ -156.582058036580293, 20.86536152452188 ], [ -156.581978489409437, 20.866726898613237 ], [ -156.582540366372058, 20.867231389207983 ], [ -156.583017939729331, 20.868220388640765 ], [ -156.583931870924204, 20.867320626783968 ], [ -156.585096409819357, 20.86729368843088 ], [ -156.585723103516102, 20.867582555617858 ], [ -156.586811710463877, 20.868309674659852 ], [ -156.58688426547323, 20.867062315201316 ], [ -156.586869045299693, 20.866482087661598 ], [ -156.588044569586685, 20.866542450907296 ], [ -156.588777745172706, 20.866190891895251 ], [ -156.589481998466823, 20.866822894833138 ], [ -156.58975994481932, 20.867113578079479 ], [ -156.590147118337285, 20.86673240196976 ], [ -156.590915933789091, 20.867128674160188 ], [ -156.591203946887759, 20.866576261006681 ], [ -156.591932019556964, 20.866456224935078 ], [ -156.592025526494467, 20.866787825578594 ], [ -156.592281722065991, 20.866553871049092 ], [ -156.591932019556964, 20.866456224935078 ], [ -156.591792960192493, 20.866316174676626 ], [ -156.591195291034978, 20.865759754212636 ], [ -156.592408566578314, 20.865800116492721 ], [ -156.591242063812103, 20.864714799933054 ], [ -156.59181754575863, 20.864420263757722 ], [ -156.592692115814884, 20.864166971188641 ], [ -156.59268734580732, 20.86335329603051 ], [ -156.594720768556073, 20.862632311273575 ], [ -156.594753541317431, 20.861757920765108 ], [ -156.594383290309679, 20.861413435321676 ], [ -156.593503890377832, 20.859284308774885 ], [ -156.593929406998598, 20.858490308674021 ], [ -156.594231703566862, 20.857958061699875 ], [ -156.594544457909137, 20.856060906694502 ], [ -156.595697827565374, 20.855049886431015 ], [ -156.596317205439419, 20.852911799412823 ], [ -156.594681758023029, 20.851870716545111 ], [ -156.594339520681331, 20.851181923625369 ], [ -156.594054308265669, 20.850641416009847 ], [ -156.593780520614274, 20.850090486865763 ], [ -156.593491002298776, 20.849820812580148 ], [ -156.593217217958255, 20.849269882830644 ], [ -156.59293009991859, 20.848725775713277 ], [ -156.593791165296125, 20.847970965732706 ], [ -156.594115944589703, 20.84712065215485 ], [ -156.594464711450229, 20.846159697782564 ], [ -156.595295715163132, 20.845772042114188 ], [ -156.595866133229549, 20.845790900824294 ], [ -156.596157311123818, 20.84524764456895 ], [ -156.597603600190013, 20.845295725686512 ], [ -156.597597406282688, 20.844197243103697 ], [ -156.600136014618897, 20.843419898932797 ], [ -156.602704703759144, 20.843406683053946 ], [ -156.606109373767424, 20.845018727440454 ], [ -156.608414620016418, 20.847163627358803 ], [ -156.610180900846586, 20.850507843746424 ], [ -156.610187685509942, 20.851663483389785 ], [ -156.609314609991458, 20.851668088142286 ], [ -156.609017573204994, 20.851658250712067 ], [ -156.609022344612811, 20.852460028974392 ], [ -156.60858661292292, 20.852873909858577 ], [ -156.608146455574968, 20.852464323512038 ], [ -156.607445602945603, 20.851758105518421 ], [ -156.606860437867709, 20.852313674079472 ], [ -156.6064135084074, 20.852705699501175 ], [ -156.606122352342993, 20.853248710485257 ], [ -156.605668984991894, 20.854046987821921 ], [ -156.605112457941914, 20.855085615693131 ], [ -156.603540195018553, 20.85429615327352 ], [ -156.603501929380371, 20.854561883702882 ], [ -156.603506787772289, 20.855373978020118 ], [ -156.602322414929631, 20.855893754580556 ], [ -156.601743214374494, 20.856443698319982 ], [ -156.60116712789744, 20.856424644122178 ], [ -156.600317600231421, 20.857231502632796 ], [ -156.59986050092175, 20.857216228911916 ], [ -156.59857730683737, 20.857222826670714 ], [ -156.598135482240053, 20.856777611052244 ], [ -156.595968825451564, 20.857440821454617 ], [ -156.595113978901225, 20.857412406433493 ], [ -156.594788240527663, 20.857985462622622 ], [ -156.595955001958174, 20.859071021618107 ], [ -156.595904910957245, 20.860397807236364 ], [ -156.597071762283718, 20.860983635065342 ], [ -156.597066926929898, 20.860172470093051 ], [ -156.598352508735132, 20.85937942437485 ], [ -156.599649794296113, 20.85937276298861 ], [ -156.600252470785648, 20.859933589918001 ], [ -156.600797081454004, 20.860482489815073 ], [ -156.601963910969459, 20.860521203584845 ], [ -156.602265832360615, 20.859957983275681 ], [ -156.602832609585391, 20.860529409868676 ], [ -156.603268183463143, 20.859329180124703 ], [ -156.603721664940991, 20.858898501166173 ], [ -156.604156550019127, 20.858912924829909 ], [ -156.604732997384644, 20.858909885142229 ], [ -156.605741167006443, 20.858943308549772 ], [ -156.60689715638614, 20.858937392094475 ], [ -156.60686647565646, 20.859755339508247 ], [ -156.607176262960394, 20.859494067187075 ], [ -156.607975763873156, 20.858734885473577 ], [ -156.60832184445988, 20.859790505741099 ], [ -156.609716859396485, 20.859139505987908 ], [ -156.610049638992507, 20.859808963038777 ], [ -156.610340233866452, 20.859532998577269 ], [ -156.610926334894117, 20.859275578086496 ], [ -156.611215209633855, 20.85900143971844 ], [ -156.611818069172529, 20.859304165386142 ], [ -156.613218101528844, 20.859296850840906 ], [ -156.613897908416703, 20.860270346651159 ], [ -156.612710749900003, 20.861696364927745 ], [ -156.614080705038958, 20.86259734815544 ], [ -156.615770690864707, 20.86258850351361 ], [ -156.616058748342994, 20.862598073584099 ], [ -156.616866024082526, 20.862593845629682 ], [ -156.617624378848404, 20.863836146890545 ], [ -156.61727173709636, 20.86392395943173 ], [ -156.617520403496115, 20.864164987634346 ], [ -156.617624378848404, 20.863836146890545 ], [ -156.617835130475754, 20.864018445918571 ], [ -156.619203025980738, 20.866107584150864 ], [ -156.61915528736256, 20.866707974372193 ], [ -156.619578481427709, 20.867466241389536 ], [ -156.620604784204374, 20.868354327261471 ], [ -156.620561915925208, 20.868895923782013 ], [ -156.621309840602748, 20.869231194066305 ], [ -156.621979092352433, 20.872901595030825 ], [ -156.621864880022486, 20.874345502061651 ], [ -156.621350345079264, 20.874309509207016 ], [ -156.620966439567724, 20.874325596643171 ], [ -156.619900654636979, 20.874850972875155 ], [ -156.619262517315207, 20.874513519546053 ], [ -156.616054684350502, 20.875003344472379 ], [ -156.61559003469938, 20.874499779727032 ], [ -156.615027835907057, 20.874523420128707 ], [ -156.614376315652407, 20.874178752333346 ], [ -156.611655953348304, 20.874528999688078 ], [ -156.610115999569814, 20.873604186041341 ], [ -156.609682241274839, 20.874458430419423 ], [ -156.608954872160837, 20.874407520299336 ], [ -156.608123969122943, 20.874442459335498 ], [ -156.606905329969806, 20.873527271525635 ], [ -156.606946306755617, 20.874387489746272 ], [ -156.606918925599388, 20.874729959122707 ], [ -156.604934765397104, 20.874590803391776 ], [ -156.602623028809717, 20.873774423700905 ], [ -156.602341989438429, 20.873888999798442 ], [ -156.603479287621667, 20.874873050552004 ], [ -156.603741478028724, 20.875485313961917 ], [ -156.601187442902727, 20.87654392656157 ], [ -156.602727869162464, 20.876479290513878 ], [ -156.604344930215035, 20.875682524070058 ], [ -156.604994137862434, 20.875727994358815 ], [ -156.606034753265675, 20.876278671527292 ], [ -156.606623364660294, 20.876542464298634 ], [ -156.607464122065693, 20.877112160846572 ], [ -156.607903522258937, 20.87709370640793 ], [ -156.608335395643223, 20.877123954438666 ], [ -156.608623822355213, 20.877111851615833 ], [ -156.608911738175635, 20.877132015887572 ], [ -156.610302891669676, 20.877073557155743 ], [ -156.610628327424905, 20.877426514280607 ], [ -156.610928779988313, 20.877686265695928 ], [ -156.611199149031961, 20.877979458370646 ], [ -156.612408981725679, 20.877693054972443 ], [ -156.613026711950226, 20.877736336432601 ], [ -156.614182390216598, 20.878988831588433 ], [ -156.614967692702322, 20.879668433798162 ], [ -156.616388728665839, 20.879608756783256 ], [ -156.617610594445352, 20.880932921479399 ], [ -156.618395923259612, 20.881612510244217 ], [ -156.620517790928318, 20.881523277629203 ], [ -156.620912289872706, 20.883301244047278 ], [ -156.620100731545165, 20.883962825253942 ], [ -156.618878816415844, 20.88429871458791 ], [ -156.618602437982958, 20.884581105251993 ], [ -156.617985632882437, 20.885083749461678 ], [ -156.617570780823542, 20.885507196429096 ], [ -156.616914170479959, 20.88560650705034 ], [ -156.617404806536825, 20.885856996133462 ], [ -156.617570780823542, 20.885507196429096 ], [ -156.618010748792074, 20.885383038830007 ], [ -156.618868493567447, 20.885113776125017 ], [ -156.621081297053848, 20.884884009390262 ], [ -156.621436425499212, 20.886785235980295 ], [ -156.62201084256813, 20.888401155838789 ], [ -156.621977660112236, 20.888970663992112 ], [ -156.621408075627187, 20.888941440848779 ], [ -156.62037936415652, 20.888965478830347 ], [ -156.618780671197641, 20.889467279582693 ], [ -156.616205304414876, 20.889335342960781 ], [ -156.615077673613229, 20.888582579838026 ], [ -156.608806843342762, 20.888180405018957 ], [ -156.608160145592564, 20.888541455732316 ], [ -156.61408935835135, 20.889292453836273 ], [ -156.615897165739426, 20.890771903117169 ], [ -156.616195390625506, 20.890764952712704 ], [ -156.617271559977524, 20.891319507542548 ], [ -156.619191533387379, 20.891777615162614 ], [ -156.620506210849896, 20.891364978786033 ], [ -156.621071390468217, 20.891656311777385 ], [ -156.623348466957367, 20.891981118571646 ], [ -156.624352152278362, 20.894513580470502 ], [ -156.624754065316637, 20.895771013357905 ], [ -156.62532059110211, 20.897123061476215 ], [ -156.626186780234434, 20.89930863358035 ], [ -156.62361727402299, 20.899561397491876 ], [ -156.622826830417267, 20.899520902167207 ], [ -156.622250058865063, 20.899534303124483 ], [ -156.621097869658797, 20.899475272132619 ], [ -156.620088517531997, 20.89949891066734 ], [ -156.619800472307162, 20.899484050835252 ], [ -156.619449002141693, 20.89949224823042 ], [ -156.617914908975962, 20.900227865442943 ], [ -156.616919659040974, 20.899715046704625 ], [ -156.614165425673008, 20.899400677626794 ], [ -156.613643573041799, 20.899412832364092 ], [ -156.611744293016415, 20.898283260861813 ], [ -156.611455170350752, 20.898905665351847 ], [ -156.612603239694721, 20.899935590575637 ], [ -156.612571861493137, 20.900477340926667 ], [ -156.614596799589918, 20.900766210176517 ], [ -156.615225109882715, 20.901090059275322 ], [ -156.616889705045622, 20.901610905501741 ], [ -156.617866065567227, 20.901947934540942 ], [ -156.619721066957794, 20.901518773066094 ], [ -156.621481265812747, 20.902227017990498 ], [ -156.623348448262107, 20.902811206533737 ], [ -156.624076470734082, 20.902794219159038 ], [ -156.625215361957316, 20.903091670167576 ], [ -156.627689316393145, 20.903404752903715 ], [ -156.62817573522733, 20.904411503965623 ], [ -156.627760584771892, 20.9047623500906 ], [ -156.625961342304549, 20.904670285769303 ], [ -156.62732181413412, 20.905522785418878 ], [ -156.628642890677412, 20.905837958277463 ], [ -156.629565760664832, 20.907987401887954 ], [ -156.628225358169402, 20.908559395650844 ], [ -156.627724898975686, 20.908533793105281 ], [ -156.627301947380829, 20.908950136686556 ], [ -156.626763514223683, 20.909405217711093 ], [ -156.624690779668356, 20.90929914908105 ], [ -156.623392957179931, 20.909329370715088 ], [ -156.621506740953294, 20.909232870029051 ], [ -156.620225017784293, 20.909474004083155 ], [ -156.621949538034755, 20.9098083446403 ], [ -156.622790990352144, 20.910241883437045 ], [ -156.623709474013026, 20.910664982676362 ], [ -156.624475276308374, 20.910647067477829 ], [ -156.62740442838097, 20.911168479587584 ], [ -156.628873752128243, 20.910707279115393 ], [ -156.629453549770716, 20.910737022710009 ], [ -156.629391371259231, 20.911808509038124 ], [ -156.629697879577606, 20.912083265881154 ], [ -156.629965720106952, 20.912668595248093 ], [ -156.629333972384728, 20.913202546758836 ], [ -156.627698636717668, 20.913118985281749 ], [ -156.625557787170578, 20.912257616580881 ], [ -156.624641534751959, 20.91242450001879 ], [ -156.624547936778868, 20.912092909208653 ], [ -156.624291700882907, 20.912326908391194 ], [ -156.624641534751959, 20.91242450001879 ], [ -156.624765826395389, 20.912845141512364 ], [ -156.625564873356012, 20.91318403159076 ], [ -156.625946862596606, 20.914046745397485 ], [ -156.626757941982191, 20.914498231052551 ], [ -156.628837305729718, 20.915333072401776 ], [ -156.626983542064949, 20.915566307476396 ], [ -156.62932034253879, 20.916557235032016 ], [ -156.62846584746805, 20.917235309408778 ], [ -156.62702652933919, 20.916913192781266 ], [ -156.626726566544079, 20.916937726242864 ], [ -156.624666145328064, 20.916365421561263 ], [ -156.624396771591648, 20.916628602266407 ], [ -156.625842004954933, 20.917736266886376 ], [ -156.626992250530776, 20.91807090982293 ], [ -156.628698307462713, 20.919442891418207 ], [ -156.62751753144326, 20.921618532573948 ], [ -156.625369703603553, 20.921103349065177 ], [ -156.625276100658766, 20.920771758292837 ], [ -156.625019849544231, 20.921005757047897 ], [ -156.625369703603553, 20.921103349065177 ], [ -156.625514783260058, 20.921545311222253 ], [ -156.626934476498292, 20.922865576695447 ], [ -156.626880949045443, 20.923153454696642 ], [ -156.625204672284156, 20.922588210512401 ], [ -156.624913789638612, 20.922589718206684 ], [ -156.624324778352161, 20.922570144655925 ], [ -156.625474636481982, 20.92394962807688 ], [ -156.624989263635001, 20.92437488097578 ], [ -156.626192458931058, 20.925140425438993 ], [ -156.625716084573753, 20.926388021038203 ], [ -156.625420553485185, 20.927201891495464 ], [ -156.625117911851646, 20.927734315333701 ], [ -156.625119755476703, 20.928010264574155 ], [ -156.624496414649315, 20.928809120148664 ], [ -156.62334123264597, 20.92822954674806 ], [ -156.622817656774004, 20.927702152432673 ], [ -156.621955682860545, 20.927153639140606 ], [ -156.619863535498979, 20.925695252712991 ], [ -156.619418335684742, 20.923862211360202 ], [ -156.61853652622392, 20.922736032423686 ], [ -156.61683998696509, 20.921656675831915 ], [ -156.616295599000324, 20.920561124277416 ], [ -156.615997674875075, 20.921381688127237 ], [ -156.615679267494357, 20.922215324578758 ], [ -156.615685673438094, 20.923287225393423 ], [ -156.616823973331464, 20.923826001801668 ], [ -156.617390237012671, 20.924126762051497 ], [ -156.615963150539585, 20.924079451283969 ], [ -156.615664907620555, 20.924190097918462 ], [ -156.616789974762753, 20.925992827451889 ], [ -156.616779421150568, 20.926268337889471 ], [ -156.617072989935991, 20.927414486583185 ], [ -156.617779162636424, 20.928750785331669 ], [ -156.618169548477908, 20.929544453069674 ], [ -156.617331444329892, 20.929516746137864 ], [ -156.615850674435364, 20.9297801842505 ], [ -156.615031116878725, 20.928954720481201 ], [ -156.613574436787957, 20.928391107004451 ], [ -156.612800344147274, 20.928002771185319 ], [ -156.612444243602113, 20.927286424065603 ], [ -156.611590904372974, 20.926196191949977 ], [ -156.611316942565452, 20.925645275902813 ], [ -156.611025812749659, 20.92509398693749 ], [ -156.610457840831629, 20.925096881155422 ], [ -156.609854192912536, 20.925076787394474 ], [ -156.610736562986858, 20.925897728621372 ], [ -156.610706225610443, 20.926709724558958 ], [ -156.611286877439085, 20.927541121191094 ], [ -156.61155225191149, 20.928633707567428 ], [ -156.611893500766058, 20.929966902201905 ], [ -156.612672408344508, 20.931082150634495 ], [ -156.613083369046677, 20.931908655238253 ], [ -156.614832952609731, 20.9330217331303 ], [ -156.616357017611961, 20.933013802324744 ], [ -156.617512761174879, 20.933593696055496 ], [ -156.617848722372088, 20.933591906321048 ], [ -156.620157976550047, 20.934182331386651 ], [ -156.620682616756483, 20.934732103718371 ], [ -156.619676744210039, 20.934698759014804 ], [ -156.618947086470826, 20.934702596960395 ], [ -156.618953766825371, 20.93582926335128 ], [ -156.620348545739063, 20.937126092579536 ], [ -156.620917470983898, 20.938117218322741 ], [ -156.620046367538578, 20.938499372976068 ], [ -156.619513475935719, 20.939005025124263 ], [ -156.619100246687793, 20.941184943128437 ], [ -156.617556901289106, 20.939630210126793 ], [ -156.616117972336582, 20.938596626418644 ], [ -156.615400663233345, 20.939277461991392 ], [ -156.614006489305041, 20.937873197054202 ], [ -156.613716779579732, 20.937603539814141 ], [ -156.613167388449085, 20.936236085989371 ], [ -156.612057770563354, 20.934647697797377 ], [ -156.611760332705785, 20.934049231437907 ], [ -156.611293555758579, 20.933777091920081 ], [ -156.611730259949951, 20.935945075478166 ], [ -156.611952019428998, 20.937302655201631 ], [ -156.60979765807582, 20.935132305515335 ], [ -156.608286650847703, 20.934547644866605 ], [ -156.607722924773014, 20.933979829962222 ], [ -156.607421956243968, 20.934880618518363 ], [ -156.609094652674543, 20.936082224670436 ], [ -156.610060987123262, 20.938641621323587 ], [ -156.612814516200899, 20.941672064743251 ], [ -156.612762087969202, 20.942190105319625 ], [ -156.612216611980045, 20.941640678839029 ], [ -156.61135030997977, 20.941362943382988 ], [ -156.608839599135138, 20.939322240881051 ], [ -156.608494262448602, 20.939984317697583 ], [ -156.60907839570757, 20.940527550632137 ], [ -156.609889936713444, 20.942160589603894 ], [ -156.610898471617674, 20.944068867865184 ], [ -156.610237329740812, 20.944046905540414 ], [ -156.609316454228974, 20.942683625948344 ], [ -156.607899388767493, 20.940772785359481 ], [ -156.607515186463189, 20.939999685969905 ], [ -156.606480531444248, 20.939685174587098 ], [ -156.607337435354736, 20.940481971342141 ], [ -156.607025405344814, 20.9412979477598 ], [ -156.607264419865203, 20.944826628761174 ], [ -156.606960225438257, 20.945361634888439 ], [ -156.607253438431854, 20.946207928610299 ], [ -156.607810392127419, 20.94672591853578 ], [ -156.608331689724992, 20.948087702435672 ], [ -156.60683448131195, 20.94733628513665 ], [ -156.606342973048783, 20.947802656258126 ], [ -156.605783646095801, 20.947239258921382 ], [ -156.605205632381853, 20.946965538548962 ], [ -156.604893263265581, 20.946651104622127 ], [ -156.604367995473666, 20.945594012535089 ], [ -156.604082603635248, 20.945053506341218 ], [ -156.603803462987429, 20.944491924091334 ], [ -156.602658362356607, 20.943949914778827 ], [ -156.602380092756647, 20.942803832248895 ], [ -156.601523561628454, 20.942037704150298 ], [ -156.601531231880301, 20.943376405854426 ], [ -156.600757159420965, 20.944415227713062 ], [ -156.601819018727639, 20.944755422034337 ], [ -156.602666285436186, 20.945609116033676 ], [ -156.602585760191573, 20.947746824416239 ], [ -156.602003980178239, 20.947727399763735 ], [ -156.60159821967531, 20.947318527173245 ], [ -156.601951067596758, 20.947230767506877 ], [ -156.601702305945878, 20.946989707933877 ], [ -156.60159821967531, 20.947318527173245 ], [ -156.601446360298382, 20.947446678904214 ], [ -156.601160517625885, 20.947994760942795 ], [ -156.600553067947857, 20.948507761615623 ], [ -156.601039764890885, 20.949404007422622 ], [ -156.60002094692021, 20.950406442609573 ], [ -156.599677484542838, 20.949870138647412 ], [ -156.599145084756117, 20.94876769546217 ], [ -156.59854051980696, 20.948781799403548 ], [ -156.598587395197967, 20.947979834188494 ], [ -156.597674562598883, 20.947370825775916 ], [ -156.597703838253921, 20.948482717973079 ], [ -156.597672062167732, 20.949026568529842 ], [ -156.597957867532756, 20.951691771057668 ], [ -156.597628550452214, 20.952015825700297 ], [ -156.597077072862334, 20.950874220157829 ], [ -156.596491396089249, 20.951450604544767 ], [ -156.595899349104258, 20.95170283127381 ], [ -156.595345136726621, 20.952248306409295 ], [ -156.595005784754193, 20.952230821039965 ], [ -156.594192055108522, 20.953031617879436 ], [ -156.593617058943153, 20.953044797457576 ], [ -156.593588447399867, 20.951946276255835 ], [ -156.593618002739021, 20.951436654838453 ], [ -156.593283859344751, 20.95016080947368 ], [ -156.593700798095796, 20.94909503157881 ], [ -156.593382828328259, 20.94701943693094 ], [ -156.592808099232968, 20.945961220813846 ], [ -156.592862043913982, 20.945035949938212 ], [ -156.592580888791247, 20.943529244772012 ], [ -156.592087141174545, 20.942620314639349 ], [ -156.592602385398607, 20.942185405601116 ], [ -156.592892575813124, 20.941366508623862 ], [ -156.593475469090663, 20.94087421939718 ], [ -156.593520489351846, 20.940101462833081 ], [ -156.59146002962288, 20.941088750316109 ], [ -156.590215161667658, 20.940257696009279 ], [ -156.590597778552848, 20.941335161132383 ], [ -156.590558157272255, 20.942015930994675 ], [ -156.590587013046587, 20.943115777935486 ], [ -156.589976114288106, 20.945373216576492 ], [ -156.58897350878388, 20.945853604745245 ], [ -156.588257325768666, 20.943836791086934 ], [ -156.58798554419414, 20.942380742292393 ], [ -156.587678913979033, 20.941517965466613 ], [ -156.587731297295022, 20.940621511325215 ], [ -156.587708939822619, 20.939767517117581 ], [ -156.588056950533002, 20.938785828344166 ], [ -156.588920630459057, 20.937306681514603 ], [ -156.588657578907913, 20.936430633950806 ], [ -156.587501472492164, 20.935054274062466 ], [ -156.588229056555377, 20.933808117934053 ], [ -156.587016258993941, 20.932720099764289 ], [ -156.586543955176211, 20.930916382593093 ], [ -156.587878734489493, 20.930347313537698 ], [ -156.587630289330008, 20.928560254948142 ], [ -156.586974155672152, 20.927351938090254 ], [ -156.588022266653184, 20.92467252182017 ], [ -156.587982406303496, 20.923152557173058 ], [ -156.588021959196425, 20.922475886674572 ], [ -156.588011291692681, 20.922069398185588 ], [ -156.588038169162047, 20.921604050424907 ], [ -156.587337791648224, 20.920153319094325 ], [ -156.586860007622477, 20.919273176985769 ], [ -156.58696597219739, 20.917455943748067 ], [ -156.586165336441354, 20.917414730540788 ], [ -156.585683524810293, 20.918772691639518 ], [ -156.584972901480569, 20.918789092973579 ], [ -156.584916718235348, 20.91663783242603 ], [ -156.5853891904612, 20.915124586898045 ], [ -156.585741966597823, 20.915036854089383 ], [ -156.585493281081426, 20.914795777701716 ], [ -156.5853891904612, 20.915124586898045 ], [ -156.584709006501157, 20.914911663948477 ], [ -156.584682287072752, 20.913890945474215 ], [ -156.585994484457046, 20.9121557189825 ], [ -156.585593250677164, 20.911736168386987 ], [ -156.585297932304883, 20.911471417454255 ], [ -156.585025463537562, 20.911186354954701 ], [ -156.584719047138748, 20.910911525857756 ], [ -156.584777751325504, 20.909900877558137 ], [ -156.584355661977298, 20.909026413301575 ], [ -156.583884195269491, 20.909002283029388 ], [ -156.583919695754361, 20.910353274880485 ], [ -156.583285846757576, 20.910623396824978 ], [ -156.583599749327732, 20.910905212292722 ], [ -156.583568271396786, 20.911446285144045 ], [ -156.583972724327566, 20.912191537312918 ], [ -156.583274201681377, 20.912526349818719 ], [ -156.582682014320625, 20.91277867264596 ], [ -156.582772873575891, 20.916259482944582 ], [ -156.581963436659208, 20.918329039139902 ], [ -156.582767033683808, 20.91999354469564 ], [ -156.583409750419662, 20.920665323968905 ], [ -156.584557479576517, 20.921695164577272 ], [ -156.584174097297534, 20.924989769955467 ], [ -156.583932243429757, 20.924725771908591 ], [ -156.583509041454391, 20.923848774851152 ], [ -156.582255475480054, 20.923202600328356 ], [ -156.582091523711455, 20.926014473914737 ], [ -156.582451839589481, 20.927142823839731 ], [ -156.583144309501364, 20.928418069784541 ], [ -156.582133560157871, 20.929271711328557 ], [ -156.581825698648828, 20.930926421503866 ], [ -156.580949696432782, 20.932084466904783 ], [ -156.580923596945212, 20.932534743267702 ], [ -156.581145063863147, 20.937415631334787 ], [ -156.58016424064698, 20.942148117246912 ], [ -156.580192738578717, 20.943247954557755 ], [ -156.579747321111569, 20.945642210884582 ], [ -156.579264575462503, 20.946049629100688 ], [ -156.578870005005655, 20.948169876898795 ], [ -156.578384794599543, 20.947662474810528 ], [ -156.578089426733129, 20.947397706773867 ], [ -156.577785336881362, 20.945768049017772 ], [ -156.577237778592632, 20.946562621327104 ], [ -156.57694749269632, 20.947381481927732 ], [ -156.576346421737469, 20.948175818937354 ], [ -156.576365186482406, 20.948898942387267 ], [ -156.57595128639565, 20.950065897536106 ], [ -156.575218715071429, 20.949670309046812 ], [ -156.574907742695586, 20.948696610548858 ], [ -156.574356055406298, 20.947143054255335 ], [ -156.574690447149834, 20.946733408953296 ], [ -156.575595445416837, 20.945969324616378 ], [ -156.577244383808136, 20.944123518296706 ], [ -156.578176767572785, 20.941970835069974 ], [ -156.578785111209669, 20.941457269460816 ], [ -156.578770689619603, 20.940900867341078 ], [ -156.578837617274559, 20.939751196476291 ], [ -156.57791643836967, 20.940894292511473 ], [ -156.577452756078145, 20.940870379107281 ], [ -156.576742059506984, 20.942231660927874 ], [ -156.57643395289557, 20.942758744511167 ], [ -156.576036176226694, 20.943520522853536 ], [ -156.575286514273586, 20.942736877871997 ], [ -156.574995516161124, 20.943023205313231 ], [ -156.574426348892359, 20.942729803758922 ], [ -156.57359730207844, 20.942748828477011 ], [ -156.573564711502826, 20.941504100046277 ], [ -156.573603978138493, 20.940832594346926 ], [ -156.573288970040636, 20.941088684313762 ], [ -156.572997398316318, 20.941375661518819 ], [ -156.572754231264838, 20.939184850896346 ], [ -156.572480726688553, 20.937565940881722 ], [ -156.572230080345832, 20.935926721877628 ], [ -156.571934745266446, 20.935661946143796 ], [ -156.571577298188146, 20.934150434278106 ], [ -156.56994847002656, 20.933724609208447 ], [ -156.569657293213368, 20.934545957572205 ], [ -156.569004288649182, 20.935977071342901 ], [ -156.56904426973415, 20.937511838827536 ], [ -156.569012375902105, 20.938056997215376 ], [ -156.569422951197055, 20.939625219819636 ], [ -156.568687498124916, 20.941033462315094 ], [ -156.568372321964318, 20.941299460271267 ], [ -156.568438624023202, 20.943853607745609 ], [ -156.567666262442856, 20.946968123387137 ], [ -156.567142870565874, 20.946700084935113 ], [ -156.566297335762698, 20.946135528405691 ], [ -156.56569786313986, 20.946149324368761 ], [ -156.56576174836448, 20.945055045231687 ], [ -156.565329356896655, 20.945394095125799 ], [ -156.564857200316339, 20.945858496309558 ], [ -156.564288884648448, 20.945565470636353 ], [ -156.563295085256811, 20.945254326864504 ], [ -156.560866266413854, 20.943865693653638 ], [ -156.560853151904098, 20.943354418129065 ], [ -156.56089719424287, 20.942600320355417 ], [ -156.559742926939492, 20.940603738685205 ], [ -156.558599488352854, 20.940076682940738 ], [ -156.557933459085206, 20.939074336378106 ], [ -156.557170542595173, 20.938681153589506 ], [ -156.55604743896177, 20.938706860789381 ], [ -156.555481766029942, 20.938115184097406 ], [ -156.554618341952107, 20.937340277586195 ], [ -156.555028500905365, 20.935786576237284 ], [ -156.556314907808826, 20.935170516592265 ], [ -156.557175173043419, 20.935150829431276 ], [ -156.557629719681302, 20.937072725590717 ], [ -156.558525675604301, 20.936450396699005 ], [ -156.559810177836283, 20.935187089678308 ], [ -156.561583034195024, 20.933690419046545 ], [ -156.561603313743291, 20.933342311543583 ], [ -156.561596439108882, 20.933071325709772 ], [ -156.561612085350191, 20.932800661774802 ], [ -156.561601491727686, 20.932394178976661 ], [ -156.561633346689405, 20.931852859083598 ], [ -156.561609137600186, 20.930930860272024 ], [ -156.562505166431379, 20.930370276474829 ], [ -156.563097168689467, 20.930118162488547 ], [ -156.563959625602251, 20.929578386004128 ], [ -156.565676360252695, 20.928846967653303 ], [ -156.565802923649471, 20.926678095311942 ], [ -156.564134642451506, 20.925564122224564 ], [ -156.563175088743918, 20.925232578493191 ], [ -156.562726393703088, 20.925242836431355 ], [ -156.558862739888468, 20.924690408960213 ], [ -156.55885402467041, 20.92435947894737 ], [ -156.559496554441068, 20.922951139187447 ], [ -156.559470021721893, 20.921929773026982 ], [ -156.559785455329603, 20.92166339585923 ], [ -156.559758471656011, 20.920617553196053 ], [ -156.560088887774356, 20.920051666968412 ], [ -156.560081596458758, 20.919771680733732 ], [ -156.560979919442559, 20.918439075244745 ], [ -156.560946044291541, 20.917139969554441 ], [ -156.561502797502101, 20.916592259682599 ], [ -156.562156545241976, 20.916279124095063 ], [ -156.563855833535655, 20.91555513369282 ], [ -156.564332749496629, 20.915086032431237 ], [ -156.564788022183933, 20.914701670303799 ], [ -156.566044637849416, 20.912760938490855 ], [ -156.56731466915241, 20.912219802248629 ], [ -156.568600885309564, 20.910692151168679 ], [ -156.568588935178184, 20.910228638752692 ], [ -156.570329695924727, 20.90973782895842 ], [ -156.570366209047933, 20.909114297400119 ], [ -156.570072453565189, 20.908807086147451 ], [ -156.569387506189287, 20.908491396593806 ], [ -156.570330170322279, 20.906686095808539 ], [ -156.570965134560794, 20.906381780374861 ], [ -156.571845245893314, 20.90613372408929 ], [ -156.572747465948481, 20.905701327645176 ], [ -156.575013656931674, 20.906180597176668 ], [ -156.576316052871505, 20.904899261738816 ], [ -156.577466933334762, 20.904408596771141 ], [ -156.576760357916356, 20.903774519033089 ], [ -156.577221799303203, 20.903089685894408 ], [ -156.577574549372002, 20.903001967580185 ], [ -156.577325895986377, 20.902760882187525 ], [ -156.577221799303203, 20.903089685894408 ], [ -156.576767175588429, 20.902947261825208 ], [ -156.576191483270378, 20.901754740279966 ], [ -156.575358102126728, 20.902109963175889 ], [ -156.574282276014344, 20.902783420730071 ], [ -156.572926946706559, 20.903208330672175 ], [ -156.571311503068074, 20.903125051075353 ], [ -156.570492250050108, 20.903143953651533 ], [ -156.571909228110115, 20.901460592859809 ], [ -156.57104365528798, 20.90150688170613 ], [ -156.56983899047728, 20.902260882107285 ], [ -156.567968718613997, 20.902303967434872 ], [ -156.566715980366894, 20.901726489957653 ], [ -156.565635495080016, 20.901169315589701 ], [ -156.564861795229177, 20.901471237533205 ], [ -156.565546619885424, 20.902733728965519 ], [ -156.564179252356951, 20.9032405352979 ], [ -156.563545649265848, 20.901927316908491 ], [ -156.563176501453881, 20.903291043292963 ], [ -156.562947383854578, 20.90302720259449 ], [ -156.562494392838516, 20.902088104017196 ], [ -156.562075591176296, 20.902499966802644 ], [ -156.560930075670399, 20.902988088393982 ], [ -156.56035270587995, 20.903264750771474 ], [ -156.560071163597627, 20.902970264835265 ], [ -156.559773074888597, 20.903263480345323 ], [ -156.558907558033354, 20.903218837991925 ], [ -156.558915215766518, 20.903510998500863 ], [ -156.55837490659232, 20.903967408502936 ], [ -156.557739345870743, 20.905055363445047 ], [ -156.55772020633529, 20.905385366397706 ], [ -156.557734578201291, 20.905940706537301 ], [ -156.55711753528206, 20.906996913527983 ], [ -156.556563750391206, 20.908057858451301 ], [ -156.556201821177694, 20.908363247263093 ], [ -156.555648024071104, 20.909424187930011 ], [ -156.554467432561808, 20.91144528512147 ], [ -156.554444421861405, 20.911839778686254 ], [ -156.554464508818967, 20.912614634023008 ], [ -156.55367915399097, 20.913386944132558 ], [ -156.552982840890195, 20.913720599754939 ], [ -156.552400260827511, 20.913690556238276 ], [ -156.552105808815469, 20.914520289620924 ], [ -156.551802087627181, 20.914776503857784 ], [ -156.550926481699662, 20.916128693553119 ], [ -156.549951356068505, 20.917574682262277 ], [ -156.550023554046419, 20.920355079595979 ], [ -156.548383037473741, 20.920817212725584 ], [ -156.547960419384708, 20.921232945660627 ], [ -156.546913577225411, 20.922116665933927 ], [ -156.545932021873199, 20.923796778975074 ], [ -156.545462237111195, 20.92741708182275 ], [ -156.545257892976906, 20.927153573820235 ], [ -156.544987715433876, 20.926593234535694 ], [ -156.544399729709028, 20.926874705552095 ], [ -156.544126829342957, 20.926308903021287 ], [ -156.543109585066247, 20.926945282567317 ], [ -156.54266323870425, 20.924774950421408 ], [ -156.542732753729041, 20.923585803621396 ], [ -156.542165839913025, 20.923076740647616 ], [ -156.542157690685769, 20.922765132110836 ], [ -156.542469925530952, 20.922230636388583 ], [ -156.542170794511634, 20.921961924875319 ], [ -156.542214554744447, 20.921212463065963 ], [ -156.541882748981891, 20.919943863501565 ], [ -156.543652189296807, 20.919535366162407 ], [ -156.546478629793995, 20.919070357476407 ], [ -156.547406983425134, 20.918286517739453 ], [ -156.547454549549997, 20.917474411455697 ], [ -156.547166397551081, 20.916877047002309 ], [ -156.546294678309664, 20.916603949949586 ], [ -156.546022282100807, 20.916318831632495 ], [ -156.544874940076681, 20.915959229847559 ], [ -156.545172793117814, 20.914681304193309 ], [ -156.545485643613205, 20.913882404582989 ], [ -156.545474874573273, 20.91347182098032 ], [ -156.545529829447787, 20.912534828208265 ], [ -156.544334579923373, 20.913043936010649 ], [ -156.543431681463403, 20.913476425849876 ], [ -156.542306517093948, 20.912466368824944 ], [ -156.544493173867039, 20.911534919303545 ], [ -156.546119116184514, 20.910371054335446 ], [ -156.546541705003449, 20.909955322974781 ], [ -156.546997000830601, 20.909571011071954 ], [ -156.547498267588338, 20.909077707379932 ], [ -156.548152004093708, 20.908764624876785 ], [ -156.548743935835063, 20.908512554146096 ], [ -156.550442494059553, 20.90744981190938 ], [ -156.552786843445972, 20.907063868059385 ], [ -156.55281796262372, 20.90653417984549 ], [ -156.552803673811411, 20.905992201204633 ], [ -156.552833282301123, 20.905486167417322 ], [ -156.550069847970207, 20.903926512191997 ], [ -156.548515078539708, 20.904164771121213 ], [ -156.546306695639373, 20.904674828867492 ], [ -156.546493203811451, 20.904406622419305 ], [ -156.54732154786646, 20.904053723823711 ], [ -156.548640612641378, 20.902417054394945 ], [ -156.549688151077447, 20.901532658074224 ], [ -156.550371247806993, 20.900570809113297 ], [ -156.551788103128501, 20.899374512645185 ], [ -156.551766091510842, 20.898527939920765 ], [ -156.551819524625387, 20.897611948987752 ], [ -156.548584106084661, 20.896765456370133 ], [ -156.545649487584143, 20.898697825369585 ], [ -156.545145678255039, 20.898709367964763 ], [ -156.544236170601295, 20.898394987348517 ], [ -156.543425402081937, 20.898413619090881 ], [ -156.542356850154476, 20.898358303865507 ], [ -156.540613852997836, 20.898904352175343 ], [ -156.540486879437253, 20.898490773105806 ], [ -156.540834997300294, 20.89782399472184 ], [ -156.541563882917359, 20.896576482363049 ], [ -156.539039121655094, 20.897159541726086 ], [ -156.537705744088839, 20.895962348944071 ], [ -156.538276588847197, 20.895620065285762 ], [ -156.539140614739523, 20.895251977954064 ], [ -156.539211659628648, 20.894037324725321 ], [ -156.538883728294422, 20.893742933919768 ], [ -156.538615526902674, 20.893186586328213 ], [ -156.538048941722735, 20.893199453641618 ], [ -156.537467474727549, 20.892899555192599 ], [ -156.536884097926333, 20.892630578128017 ], [ -156.536611203083368, 20.892345045295496 ], [ -156.535445372817492, 20.892371616795494 ], [ -156.53547148132904, 20.891927837774162 ], [ -156.535453519078146, 20.891235156183328 ], [ -156.538392895123451, 20.89075149718262 ], [ -156.538973070414386, 20.890180916470111 ], [ -156.540104845593618, 20.890239406665188 ], [ -156.540941205027138, 20.889062087815901 ], [ -156.541389943902658, 20.88999257160074 ], [ -156.54183317959027, 20.889982414842571 ], [ -156.542667666327588, 20.890025632759546 ], [ -156.542716493847536, 20.889187885068736 ], [ -156.542702517542494, 20.888645912386298 ], [ -156.542734131794958, 20.888104595248372 ], [ -156.542720339629767, 20.887568577244831 ], [ -156.543030936442591, 20.887561535689112 ], [ -156.543649410404157, 20.888492867475215 ], [ -156.544884012693444, 20.88960129657309 ], [ -156.545576359692063, 20.890578258802048 ], [ -156.545844309463178, 20.891134196940527 ], [ -156.546139515034383, 20.891399006002793 ], [ -156.546548331864301, 20.891826681591848 ], [ -156.547138186369324, 20.892356289259723 ], [ -156.548062403966355, 20.893322816150768 ], [ -156.549224202150668, 20.892869401418004 ], [ -156.548752553153946, 20.889550622157412 ], [ -156.548440563130839, 20.887130386958507 ], [ -156.547853257163524, 20.88547441948279 ], [ -156.550167497624415, 20.886523434574247 ], [ -156.552182878732879, 20.889860365408229 ], [ -156.552241594780639, 20.88946836703315 ], [ -156.552209911290532, 20.888245745884895 ], [ -156.553312791837271, 20.889235702987282 ], [ -156.553997564901181, 20.890266625212384 ], [ -156.554793877412664, 20.890981298334864 ], [ -156.555513570208149, 20.892064565147297 ], [ -156.557077447145332, 20.892368401272854 ], [ -156.558273971168035, 20.892985479374101 ], [ -156.558841294964679, 20.891535181021876 ], [ -156.558815942004514, 20.890561843267236 ], [ -156.560565533582661, 20.890521620705684 ], [ -156.56148483377109, 20.891135644219499 ], [ -156.562566181383772, 20.891634122572011 ], [ -156.563078858254272, 20.892170382701359 ], [ -156.564265239955375, 20.892231609618651 ], [ -156.564567878528692, 20.891933554231642 ], [ -156.565447909707871, 20.891685523317371 ], [ -156.565729377459888, 20.891408327145008 ], [ -156.566033314025191, 20.89115168780841 ], [ -156.566007223671306, 20.89015135356799 ], [ -156.566336617285884, 20.889520354477856 ], [ -156.567033868438926, 20.889556208122496 ], [ -156.566376872655695, 20.887704725148151 ], [ -156.566947629657136, 20.887362335800045 ], [ -156.567539449171846, 20.887110187936351 ], [ -156.567842070511745, 20.886812124938022 ], [ -156.568988478804926, 20.886871159501919 ], [ -156.568670608825698, 20.88498786824378 ], [ -156.569019613517327, 20.884693240046126 ], [ -156.569401780469235, 20.883615115250599 ], [ -156.570185566943508, 20.883886832361434 ], [ -156.570468483043101, 20.884182775297266 ], [ -156.571809700910933, 20.884151968867013 ], [ -156.572229364260892, 20.885466749133418 ], [ -156.572761569105978, 20.885017312835096 ], [ -156.573302424983098, 20.884484799087385 ], [ -156.573654977834167, 20.884476709518115 ], [ -156.574191206417481, 20.885037610044069 ], [ -156.575058465061772, 20.885581381628082 ], [ -156.575680166502963, 20.886517156347583 ], [ -156.576222310902722, 20.88558863191324 ], [ -156.576201685733082, 20.884804501449146 ], [ -156.576542947859792, 20.884219808661165 ], [ -156.576516313064445, 20.883196182199978 ], [ -156.576819764590624, 20.882897451424352 ], [ -156.577699728234876, 20.882649349978571 ], [ -156.578708852624828, 20.882017502779554 ], [ -156.579428946224624, 20.882663529510285 ], [ -156.579954120110983, 20.883212749108175 ], [ -156.580554850972874, 20.88275367428108 ], [ -156.580590246963936, 20.882143346160554 ], [ -156.580580514349776, 20.88176702864115 ], [ -156.582304917029575, 20.882362707767044 ], [ -156.582035542312582, 20.881887746473684 ], [ -156.581455021387711, 20.881366849607279 ], [ -156.581472487491254, 20.881067237375365 ], [ -156.580394752373991, 20.880729640406571 ], [ -156.58149271083181, 20.880261593569362 ], [ -156.581189692848966, 20.879989456592547 ], [ -156.581206003363803, 20.879709271929791 ], [ -156.580455949237574, 20.879036110204972 ], [ -156.581119648617403, 20.878475544769277 ], [ -156.579774322175524, 20.877782052732496 ], [ -156.579213132275328, 20.877795006162582 ], [ -156.578925139872524, 20.877780081744124 ], [ -156.578131926598076, 20.877798475548339 ], [ -156.576526651134515, 20.877378649470902 ], [ -156.575232602905686, 20.877998905501485 ], [ -156.573460983145196, 20.877474049504787 ], [ -156.573452784368953, 20.877160980184467 ], [ -156.575773817221602, 20.876933333378602 ], [ -156.576631564368142, 20.876664285221391 ], [ -156.577951171571243, 20.876292123177254 ], [ -156.578373575375707, 20.875876293496745 ], [ -156.578965332983586, 20.875624099443574 ], [ -156.579534906777781, 20.875350954785016 ], [ -156.580730661073829, 20.875101086901935 ], [ -156.580123807943892, 20.874556535369194 ], [ -156.580140118723932, 20.874276350782363 ], [ -156.579571566556922, 20.87376593666874 ], [ -156.580430493883767, 20.873738014828053 ], [ -156.581000561160067, 20.873767376315644 ], [ -156.58104752990954, 20.872961184583822 ], [ -156.58022819219201, 20.872538624495991 ], [ -156.576980968499811, 20.873816147949931 ], [ -156.574918335975525, 20.873379908477425 ], [ -156.57294789816072, 20.873425361631977 ], [ -156.573922087620105, 20.872284328589913 ], [ -156.574545300864543, 20.872316316903177 ], [ -156.57498229676176, 20.87230624541969 ], [ -156.576356113876926, 20.872780867924718 ], [ -156.577277401514152, 20.872339175068085 ], [ -156.579115336088933, 20.871955164078074 ], [ -156.579604632846156, 20.871017275650818 ], [ -156.579902457370338, 20.871032601546432 ], [ -156.580768086288259, 20.870760995124463 ], [ -156.581852899104859, 20.871320371455855 ], [ -156.581196042225059, 20.870242988919706 ], [ -156.580487622587327, 20.870206513215194 ], [ -156.579905905938432, 20.87021997450497 ], [ -156.579632401368002, 20.869934101033138 ], [ -156.579055755415567, 20.869947366728379 ], [ -156.578625572309903, 20.869497638129573 ], [ -156.577932657530823, 20.870179737249121 ], [ -156.576460068885382, 20.870213634713103 ], [ -156.576451958060829, 20.869894613872813 ], [ -156.576475640258906, 20.869488612300287 ], [ -156.57646125489677, 20.868946625504648 ], [ -156.576493018093714, 20.868405292646653 ], [ -156.576482369486655, 20.867998804503056 ], [ -156.576517341919214, 20.867397730437929 ], [ -156.574485038484369, 20.867444579926957 ], [ -156.574988661747909, 20.866929911818673 ], [ -156.57566116702543, 20.866361817340493 ], [ -156.575360121616825, 20.866091817156111 ], [ -156.575011735217373, 20.86536943931247 ], [ -156.573345677850284, 20.866605030814359 ], [ -156.572320751763442, 20.867262554772875 ], [ -156.572465806023075, 20.866853118714378 ], [ -156.573004390467702, 20.865476281502826 ], [ -156.571916736141816, 20.86550145207574 ], [ -156.570817168669379, 20.86544483537245 ], [ -156.570466218418233, 20.865741163707632 ], [ -156.569704523148346, 20.866813904705129 ], [ -156.569448646453225, 20.865591261438883 ], [ -156.570190501734857, 20.864964388738393 ], [ -156.569922692921352, 20.864378592623094 ], [ -156.569623682933837, 20.864385455127657 ], [ -156.56935540287887, 20.86382914804679 ], [ -156.569060200627291, 20.86356437963898 ], [ -156.568710758798375, 20.862839860442374 ], [ -156.567917839578826, 20.863509650496081 ], [ -156.567424878941239, 20.864899947707709 ], [ -156.566551701978682, 20.864854856569238 ], [ -156.565377787993953, 20.865185890533699 ], [ -156.565855798162744, 20.865685930466274 ], [ -156.566708096011666, 20.866451073916203 ], [ -156.566425887100877, 20.866777602786982 ], [ -156.564969721304578, 20.867017450068435 ], [ -156.56458757901504, 20.868095567866643 ], [ -156.564338805896341, 20.867779205753006 ], [ -156.563729001410309, 20.866515671730426 ], [ -156.562399121020121, 20.866167767346997 ], [ -156.561657501300004, 20.866184840752219 ], [ -156.560365277525506, 20.865875948573077 ], [ -156.560411203546494, 20.865088406169008 ], [ -156.560086820563754, 20.864749268208044 ], [ -156.558614577383992, 20.864783152954718 ], [ -156.557289131258557, 20.86339669115803 ], [ -156.556666162669529, 20.863648365477864 ], [ -156.555219053722823, 20.864721559454345 ], [ -156.554129652431385, 20.865185859318473 ], [ -156.554007780466918, 20.867272521370253 ], [ -156.554048240354831, 20.868824093186557 ], [ -156.551178670117196, 20.868676021975475 ], [ -156.550071748561948, 20.869610787761477 ], [ -156.548964867261788, 20.871253450319067 ], [ -156.549606810568065, 20.872437333160764 ], [ -156.549324555173314, 20.872763828819568 ], [ -156.548301263344797, 20.873052188367261 ], [ -156.54785512937022, 20.873815993750526 ], [ -156.547293594456619, 20.874891487408515 ], [ -156.546977310717722, 20.874626380087211 ], [ -156.546656279851561, 20.873267339800417 ], [ -156.546418769869916, 20.873524501685331 ], [ -156.545276056803118, 20.875133420204367 ], [ -156.544939151882829, 20.874561414165633 ], [ -156.545010865220377, 20.873335650352043 ], [ -156.544177403562117, 20.871607626363197 ], [ -156.543602583735321, 20.871577942542014 ], [ -156.54272732340138, 20.872317182538129 ], [ -156.54226104956075, 20.873210172711158 ], [ -156.541813056850771, 20.873187066970932 ], [ -156.541262519344826, 20.874241664788681 ], [ -156.540407802760058, 20.874651043687972 ], [ -156.539854551194935, 20.873503988121286 ], [ -156.537696157142506, 20.872390568055458 ], [ -156.53667866082148, 20.874738885000824 ], [ -156.536320103967, 20.874202265228014 ], [ -156.535672145406778, 20.872858606420525 ], [ -156.534606880605168, 20.873906685749592 ], [ -156.534151674823022, 20.874290973610417 ], [ -156.533723447667171, 20.874712155166069 ], [ -156.533172467022013, 20.874135851241324 ], [ -156.532575315632556, 20.874421927746258 ], [ -156.531948715393298, 20.874098615626785 ], [ -156.530255937294811, 20.874137132159444 ], [ -156.530289517290385, 20.873563839718784 ], [ -156.529994986493051, 20.873020594259522 ], [ -156.530313780480355, 20.87275127254016 ], [ -156.530296232798605, 20.872068649691428 ], [ -156.531184790454517, 20.871690100384427 ], [ -156.531169097486071, 20.871083161216966 ], [ -156.533890544592566, 20.870132139362308 ], [ -156.532730683658855, 20.869597050898406 ], [ -156.531749299796246, 20.868715740757349 ], [ -156.534686813766001, 20.868319113857307 ], [ -156.534300341577477, 20.867769655806885 ], [ -156.53266433889425, 20.866300504258405 ], [ -156.533302031981037, 20.866028765048462 ], [ -156.532346466391289, 20.865170317638093 ], [ -156.534410534387661, 20.865277064010986 ], [ -156.535049690742625, 20.864432088246499 ], [ -156.535995959636949, 20.863099760073762 ], [ -156.536512034407849, 20.863088014280837 ], [ -156.537277730350127, 20.863889079003815 ], [ -156.537935587704908, 20.864192449799663 ], [ -156.538471607316012, 20.864753443429759 ], [ -156.539352859629759, 20.864733320775706 ], [ -156.539985523332092, 20.865685760580636 ], [ -156.540928940021359, 20.866532883894589 ], [ -156.541852974417168, 20.867499427409584 ], [ -156.54251029669112, 20.866435645164504 ], [ -156.542818173862287, 20.864533546316746 ], [ -156.543191050755354, 20.863895414638591 ], [ -156.542844163242762, 20.862917859344357 ], [ -156.542886293080755, 20.862196144443516 ], [ -156.542594141853414, 20.86127968974986 ], [ -156.542238385727188, 20.860276875352227 ], [ -156.543188713185828, 20.860767090413429 ], [ -156.543755177738888, 20.860754193872431 ], [ -156.544249067937614, 20.861778300335082 ], [ -156.545350213012966, 20.862930162990139 ], [ -156.54614096827919, 20.862971004374625 ], [ -156.546945173596612, 20.8615937130992 ], [ -156.546913702772429, 20.86037678246538 ], [ -156.549697770886752, 20.861813048833785 ], [ -156.549166172170999, 20.859779596654519 ], [ -156.549827901735483, 20.859497553425648 ], [ -156.550193408609118, 20.859137856411444 ], [ -156.551830256799917, 20.85979750365912 ], [ -156.552394187820994, 20.859784541810349 ], [ -156.552841276648707, 20.860608760576984 ], [ -156.553714833244015, 20.86241919559145 ], [ -156.554686604099089, 20.862005064955799 ], [ -156.555068794352906, 20.860926974055577 ], [ -156.555559924612368, 20.86146545250223 ], [ -156.555845301868686, 20.862057469353971 ], [ -156.55670842722995, 20.861208193542936 ], [ -156.55714111892047, 20.861357753443137 ], [ -156.557234545414161, 20.861689365496982 ], [ -156.557490779579155, 20.861455467439516 ], [ -156.55714111892047, 20.861357753443137 ], [ -156.557330680636568, 20.860164211092847 ], [ -156.558147688940181, 20.860130109110315 ], [ -156.559229304778341, 20.860702665517412 ], [ -156.560744943138701, 20.860087534320353 ], [ -156.560779884343674, 20.859648895487911 ], [ -156.560754252721892, 20.859109529002581 ], [ -156.562031790892121, 20.858371152706805 ], [ -156.561653474125904, 20.858043683286095 ], [ -156.561390104261761, 20.857482013659954 ], [ -156.560805732851975, 20.857506354407679 ], [ -156.56022241580223, 20.857465366705771 ], [ -156.559675375496028, 20.858541915706347 ], [ -156.55705223841926, 20.857436268355851 ], [ -156.556539146737208, 20.856341550568828 ], [ -156.55421973097549, 20.855392840800882 ], [ -156.554644937801271, 20.853933368668741 ], [ -156.555674823896737, 20.853506830716213 ], [ -156.554827491040015, 20.853051621257279 ], [ -156.553414988578197, 20.853505354825462 ], [ -156.553059202927841, 20.851961441882718 ], [ -156.55280956064891, 20.852484305556167 ], [ -156.55241236689065, 20.853985837786411 ], [ -156.550325452052022, 20.855157643111468 ], [ -156.548295109748523, 20.854852121048278 ], [ -156.548782499182124, 20.854039033624005 ], [ -156.548745424151917, 20.853253351514098 ], [ -156.549154674219636, 20.85291994230219 ], [ -156.548753989796097, 20.852065298292903 ], [ -156.547911660268142, 20.85241419383922 ], [ -156.546788739186667, 20.853127829274268 ], [ -156.545177022282701, 20.8535089306461 ], [ -156.545354812774207, 20.851276926214855 ], [ -156.544486886052852, 20.85131301785562 ], [ -156.544196509254903, 20.85099801886135 ], [ -156.54388774221789, 20.851312885284635 ], [ -156.543334099100434, 20.850711976611439 ], [ -156.543047451364885, 20.851276221436581 ], [ -156.542450764878168, 20.851523197486248 ], [ -156.54204084663229, 20.852329970517992 ], [ -156.540697949436151, 20.851219326993785 ], [ -156.540322216926342, 20.850010413423288 ], [ -156.540674852411883, 20.849922760696693 ], [ -156.540426341980435, 20.849681634672166 ], [ -156.540322216926342, 20.850010413423288 ], [ -156.539608143171165, 20.849585089938035 ], [ -156.538441920373117, 20.850399496635642 ], [ -156.538164382025229, 20.850109275195074 ], [ -156.537356975267841, 20.850127683960988 ], [ -156.536448898228826, 20.849312141796815 ], [ -156.536766092732762, 20.846838920462595 ], [ -156.537842359663813, 20.84620747968232 ], [ -156.536802837025448, 20.845273786037382 ], [ -156.537304839522591, 20.843339702228715 ], [ -156.539317674559271, 20.842772379074788 ], [ -156.538075392397133, 20.841018491152891 ], [ -156.540666597821939, 20.840668449886262 ], [ -156.538336083873446, 20.839593207942222 ], [ -156.539197334684303, 20.837938868830982 ], [ -156.540680538339302, 20.837629241742132 ], [ -156.541559298403371, 20.836886737086729 ], [ -156.539539085658191, 20.836493980680981 ], [ -156.540300021893188, 20.834863454914373 ], [ -156.542468167155306, 20.832729734297356 ], [ -156.54594961813558, 20.830048425036189 ], [ -156.55139675236174, 20.827882822626989 ], [ -156.557290528661127, 20.827097558886909 ], [ -156.562171624670015, 20.827463247638715 ], [ -156.563461464801748, 20.828058035414013 ], [ -156.56459146258959, 20.83014136649388 ], [ -156.565054362747077, 20.832886483764831 ], [ -156.563944588996208, 20.832447567456086 ], [ -156.56351548212578, 20.832062243077004 ], [ -156.562465301924249, 20.830963738308274 ], [ -156.562371752570641, 20.831495986775611 ], [ -156.562400675030943, 20.832600593884326 ], [ -156.561784100513847, 20.832568801892798 ], [ -156.561495849442878, 20.832575544084357 ], [ -156.561190514225416, 20.832559821051618 ], [ -156.561205499493894, 20.833131707809777 ], [ -156.560608705967383, 20.833635888671274 ], [ -156.560316486186309, 20.833923646942289 ], [ -156.559210972801708, 20.833866758058868 ], [ -156.559146394910897, 20.834974660321894 ], [ -156.559153280303548, 20.835245648202743 ], [ -156.559131460352091, 20.835621514135362 ], [ -156.560706224104791, 20.83512770176084 ], [ -156.561735585701427, 20.836051986050379 ], [ -156.561701765085758, 20.836631643125461 ], [ -156.562007999193042, 20.836906496783779 ], [ -156.562377160306255, 20.837292824025255 ], [ -156.563677121452258, 20.836669680083141 ], [ -156.562650880055884, 20.838241264849731 ], [ -156.561970566154827, 20.838531304408978 ], [ -156.561545753291597, 20.839345728956012 ], [ -156.559642010064209, 20.840675567019076 ], [ -156.557941696860695, 20.84167377144901 ], [ -156.557012632175002, 20.842902665299299 ], [ -156.557870156769809, 20.843089761556534 ], [ -156.559415295616276, 20.842518696705937 ], [ -156.561339088003166, 20.842617802321122 ], [ -156.562693306856232, 20.841285018104053 ], [ -156.564806316075391, 20.842093367334364 ], [ -156.564787677510395, 20.842412139156735 ], [ -156.565942498728305, 20.843448899017854 ], [ -156.565613962439613, 20.844821033593057 ], [ -156.566164395381918, 20.845836102414182 ], [ -156.565017489332291, 20.846159594649937 ], [ -156.564162989201463, 20.846569247887743 ], [ -156.563003753737547, 20.847063576061871 ], [ -156.562978526153728, 20.847494021928622 ], [ -156.56326668154361, 20.848595440707253 ], [ -156.562088161077014, 20.849097819480182 ], [ -156.562095249923289, 20.849373836550782 ], [ -156.562045469187581, 20.850227329755267 ], [ -156.562395194573867, 20.849883249582366 ], [ -156.563526133049237, 20.849941547879574 ], [ -156.564700240942187, 20.849206564850423 ], [ -156.564634499140652, 20.850335617142527 ], [ -156.567007329713761, 20.849591349289661 ], [ -156.566900363214245, 20.851429582634754 ], [ -156.568403980141824, 20.851081917721192 ], [ -156.568968060227093, 20.851372991151969 ], [ -156.570130947692405, 20.851650873693721 ], [ -156.569811920131343, 20.852467084937928 ], [ -156.57039829255902, 20.852737439752271 ], [ -156.571159984257008, 20.853534206742626 ], [ -156.571292393185587, 20.851265388794936 ], [ -156.571275260734865, 20.850614901053344 ], [ -156.571847718699217, 20.850051480467709 ], [ -156.573175331219346, 20.849937642917258 ] ] ] } },
{ "type": "Feature", "properties": { "ID": 4, "GRIDCODE": 2 }, "geometry": { "type": "Polygon", "coordinates": [ [ [ -156.049578687549428, 20.764262061258631 ], [ -156.050291859489874, 20.764415273325064 ], [ -156.050871585656893, 20.76440354766309 ], [ -156.051514510251081, 20.764438656962245 ], [ -156.052570917664696, 20.765566734703459 ], [ -156.051833740006231, 20.766186134167505 ], [ -156.051410394945719, 20.766600543446476 ], [ -156.050530604222217, 20.766845921220046 ], [ -156.049164554674292, 20.767270040501355 ], [ -156.048551615146096, 20.765546999031347 ], [ -156.049578687549428, 20.764262061258631 ] ] ] } },
{ "type": "Feature", "properties": { "ID": 5, "GRIDCODE": 2 }, "geometry": { "type": "Polygon", "coordinates": [ [ [ -156.141634753014785, 20.707321627793696 ], [ -156.142042191248606, 20.707628444450176 ], [ -156.141357872596274, 20.707951375238483 ], [ -156.141634753014785, 20.707321627793696 ] ] ] } },
{ "type": "Feature", "properties": { "ID": 6, "GRIDCODE": 2 }, "geometry": { "type": "Polygon", "coordinates": [ [ [ -156.139954053436526, 20.70485628560666 ], [ -156.139849228322589, 20.705184742180528 ], [ -156.13960163555322, 20.70494312703795 ], [ -156.139954053436526, 20.70485628560666 ] ] ] } },
{ "type": "Feature", "properties": { "ID": 7, "GRIDCODE": 2 }, "geometry": { "type": "Polygon", "coordinates": [ [ [ -156.139954053436526, 20.70485628560666 ], [ -156.140160664585324, 20.703672352196318 ], [ -156.139834998232658, 20.703367420398557 ], [ -156.139856867179873, 20.702831293364991 ], [ -156.139567876361241, 20.702279685333153 ], [ -156.138912920160664, 20.700950119417808 ], [ -156.137574481373406, 20.700619485578578 ], [ -156.137034885835448, 20.699524043157247 ], [ -156.136468977957747, 20.698707448604399 ], [ -156.135949863149477, 20.697106137887058 ], [ -156.135396069406426, 20.696049466360822 ], [ -156.134823357974312, 20.694608989004642 ], [ -156.133058016768217, 20.695954210361251 ], [ -156.131223736672439, 20.696480636602828 ], [ -156.128443460017564, 20.696943525947802 ], [ -156.125917999901077, 20.69785864251207 ], [ -156.122365617485883, 20.698737775785503 ], [ -156.121503064872741, 20.699137650697139 ], [ -156.120528167080607, 20.699562749853214 ], [ -156.118887393373143, 20.700033691747013 ], [ -156.117260516173985, 20.700527329822862 ], [ -156.116280240972685, 20.701220752082794 ], [ -156.117712285345277, 20.701904335274477 ], [ -156.118841223742521, 20.702475589905053 ], [ -156.119463242236861, 20.702772558566419 ], [ -156.120565377542562, 20.702769844588357 ], [ -156.121189495644813, 20.7027923193905 ], [ -156.122406821494849, 20.704027536878282 ], [ -156.122839329387716, 20.704432933334648 ], [ -156.123581962657767, 20.706723919980671 ], [ -156.124560582363557, 20.707190939478867 ], [ -156.126094516146253, 20.707187077543534 ], [ -156.126845898289957, 20.707214171701558 ], [ -156.128724998037654, 20.708164983604803 ], [ -156.129082884926333, 20.70883253831617 ], [ -156.127062883008477, 20.709107462228253 ], [ -156.125741356604095, 20.710619603278221 ], [ -156.127857946364799, 20.71260214212365 ], [ -156.128173705739471, 20.71428153514513 ], [ -156.128983017985064, 20.714279440528859 ], [ -156.12956701934371, 20.7143004267073 ], [ -156.129523286493082, 20.715382719544291 ], [ -156.130303058970355, 20.716113117402056 ], [ -156.129655406244723, 20.717246427125417 ], [ -156.128120651769308, 20.717571368563888 ], [ -156.126255451681999, 20.719705990105481 ], [ -156.125406021261625, 20.720446734176818 ], [ -156.12593589627815, 20.722546518496372 ], [ -156.124520904411185, 20.72206426681214 ], [ -156.123663203042014, 20.722066320247421 ], [ -156.123375242139304, 20.72177441792638 ], [ -156.121353615391087, 20.721204238148278 ], [ -156.121358072610747, 20.722826588855387 ], [ -156.121292369246675, 20.724442607543441 ], [ -156.121620796053719, 20.724750133512018 ], [ -156.121551309429776, 20.726462092490532 ], [ -156.119796815655718, 20.728558804475835 ], [ -156.121534734946493, 20.728170573124515 ], [ -156.121504205970098, 20.728922486723494 ], [ -156.12150523544716, 20.729328733955697 ], [ -156.121494169458884, 20.729601616676124 ], [ -156.121768763419908, 20.730689758748419 ], [ -156.120317811591178, 20.730931122033549 ], [ -156.119939115239191, 20.731288691814424 ], [ -156.118243495324265, 20.731979639036229 ], [ -156.116881211130931, 20.730597278663314 ], [ -156.115707741891754, 20.730037014072899 ], [ -156.115030610623023, 20.729350191757078 ], [ -156.113734739632321, 20.728930278988489 ], [ -156.112932410840159, 20.728116120737358 ], [ -156.112277074628594, 20.727822527310646 ], [ -156.110535925330794, 20.728350777981433 ], [ -156.10809243765911, 20.728262749945685 ], [ -156.107675550128647, 20.729401025334692 ], [ -156.1067842415722, 20.730178247560598 ], [ -156.105927691580774, 20.730147432671888 ], [ -156.105389878931447, 20.729055506188068 ], [ -156.104531143244287, 20.72850470078502 ], [ -156.104248730182178, 20.728218284016801 ], [ -156.103402531848332, 20.728220294003481 ], [ -156.102219831299664, 20.729241182313348 ], [ -156.104747808367506, 20.729616742266479 ], [ -156.105365057252868, 20.730064701760114 ], [ -156.104183054219078, 20.731477030043656 ], [ -156.105338371678585, 20.731762809555406 ], [ -156.106065380058595, 20.73250049122932 ], [ -156.103927260088511, 20.733646395505613 ], [ -156.102973678182252, 20.735004508517601 ], [ -156.104105276592804, 20.736064794431833 ], [ -156.104093973531121, 20.736348379685687 ], [ -156.104095439405057, 20.736906302638761 ], [ -156.10523017955299, 20.737448143457279 ], [ -156.10579488357638, 20.737733760631727 ], [ -156.106658822930711, 20.738013835485262 ], [ -156.10863651828484, 20.739571261800318 ], [ -156.112064558626145, 20.740260858285549 ], [ -156.112650449846171, 20.740557257801246 ], [ -156.113226624694562, 20.740832466866788 ], [ -156.113791358995115, 20.741118060880137 ], [ -156.114367538412921, 20.741393266592247 ], [ -156.11521494015517, 20.741954421578132 ], [ -156.115994523271979, 20.74232652777658 ], [ -156.116632875030689, 20.743623101181946 ], [ -156.117393923552157, 20.744335795001781 ], [ -156.116540614420529, 20.744707604861777 ], [ -156.11572928957861, 20.745489251912897 ], [ -156.117423019358341, 20.745485147679204 ], [ -156.118658349403859, 20.74630351645488 ], [ -156.119822925946863, 20.745203137419516 ], [ -156.120652488114132, 20.743665251687407 ], [ -156.120859596075547, 20.743403192171446 ], [ -156.121212618110746, 20.744492385635631 ], [ -156.121789705744561, 20.745032982140163 ], [ -156.122343344970517, 20.745594606608503 ], [ -156.122651365819792, 20.745883279980024 ], [ -156.125012137656, 20.746466689896575 ], [ -156.126130901381345, 20.746463985766422 ], [ -156.129314912192427, 20.745752756955856 ], [ -156.129816168052514, 20.746261251425079 ], [ -156.130559611398439, 20.74695759929644 ], [ -156.134541967628167, 20.747431887631794 ], [ -156.135287351657922, 20.747430036988526 ], [ -156.13585012649861, 20.746898305079334 ], [ -156.136350090330808, 20.746461925046923 ], [ -156.136708370643959, 20.747188722928207 ], [ -156.137095658825473, 20.747928037381417 ], [ -156.138022747542749, 20.748370347524983 ], [ -156.139885676314577, 20.748043670406908 ], [ -156.140581359026783, 20.748068607229492 ], [ -156.141013242290029, 20.748067464256749 ], [ -156.14331495747021, 20.748149921814015 ], [ -156.145618337432239, 20.748144041209148 ], [ -156.146193767315282, 20.748164709224891 ], [ -156.14676961447941, 20.748163166216674 ], [ -156.147057329737606, 20.748173498546045 ], [ -156.148065060661907, 20.748170924141945 ], [ -156.149072068350108, 20.74820694544395 ], [ -156.149359992601092, 20.748206169358571 ], [ -156.15007928300642, 20.748231988499743 ], [ -156.150801343005213, 20.748230080459315 ], [ -156.152230773430603, 20.748530160920286 ], [ -156.15375250317814, 20.748526155159229 ], [ -156.154834535659148, 20.748024247518035 ], [ -156.155113499825376, 20.748306966044975 ], [ -156.15552770575465, 20.74869480556946 ], [ -156.158618896216836, 20.749458070210625 ], [ -156.159557474180417, 20.749455607541424 ], [ -156.159989056279528, 20.749471074260683 ], [ -156.160833441537761, 20.749468766455156 ], [ -156.161431460871995, 20.749771030838218 ], [ -156.162001413045118, 20.749769604249604 ], [ -156.16284900735829, 20.750198044306934 ], [ -156.163736348003823, 20.750621318344812 ], [ -156.164861923248822, 20.750618344290096 ], [ -156.16656587134554, 20.751746166773316 ], [ -156.167445986709652, 20.752165998254245 ], [ -156.169393062326407, 20.751730626665129 ], [ -156.169865509926638, 20.752209583540733 ], [ -156.171161782018743, 20.75262911254848 ], [ -156.171438856693356, 20.752909793476853 ], [ -156.171762751854317, 20.753212932438327 ], [ -156.173736702419347, 20.753207603740687 ], [ -156.174555517800997, 20.754037661091651 ], [ -156.175905162500328, 20.754370888282363 ], [ -156.178096432914742, 20.755670466965196 ], [ -156.178890362918992, 20.754919950574092 ], [ -156.179585571346593, 20.755624840557193 ], [ -156.180324894890163, 20.756316567291368 ], [ -156.181442090844143, 20.756313483003851 ], [ -156.182359982057164, 20.756625955382727 ], [ -156.183609628261308, 20.756622385346251 ], [ -156.185463655231104, 20.756688485311084 ], [ -156.186159386355229, 20.755727513393623 ], [ -156.186848825111014, 20.757125890463517 ], [ -156.18778421023049, 20.756691720555541 ], [ -156.188617204331138, 20.757535969590499 ], [ -156.189651224616028, 20.758503580993072 ], [ -156.191162852994665, 20.758992481993157 ], [ -156.192033066087873, 20.760289329474503 ], [ -156.192917910093797, 20.760856039778979 ], [ -156.193755627762954, 20.760853731220685 ], [ -156.194320896485124, 20.761139222444967 ], [ -156.195474046408378, 20.76168901373293 ], [ -156.196603759003324, 20.76225983865017 ], [ -156.198489341922027, 20.762556157586875 ], [ -156.20065883384126, 20.760966410559178 ], [ -156.201381032191591, 20.760992068291511 ], [ -156.202820828552746, 20.760987889940022 ], [ -156.203830505591412, 20.761023642156928 ], [ -156.204406246517237, 20.760756628578992 ], [ -156.205242257654248, 20.760786238784465 ], [ -156.206138089600529, 20.760514113458836 ], [ -156.207314982565237, 20.760264407207142 ], [ -156.208003791454871, 20.759612936403908 ], [ -156.212057742513309, 20.760732784314992 ], [ -156.213026728335365, 20.761714687485338 ], [ -156.215613278903447, 20.762293032118393 ], [ -156.216583281192129, 20.762622838980743 ], [ -156.218590365557361, 20.764656880825903 ], [ -156.218146841713093, 20.765044179498513 ], [ -156.218434317563521, 20.765592361130174 ], [ -156.218133963006096, 20.765854760097252 ], [ -156.216832476508216, 20.767085620908087 ], [ -156.215725425620093, 20.768615585403989 ], [ -156.214573415874355, 20.769621125116188 ], [ -156.212941114079541, 20.770333475645515 ], [ -156.210448516477356, 20.770619626715373 ], [ -156.209693986872622, 20.771019168714943 ], [ -156.210591502584265, 20.772311625694964 ], [ -156.213667515358622, 20.774178221718984 ], [ -156.214221625629165, 20.774739599179409 ], [ -156.215374961976636, 20.775289275776924 ], [ -156.215744374605777, 20.775663568697048 ], [ -156.217658215658588, 20.776409651827716 ], [ -156.218854730684058, 20.777013963005896 ], [ -156.21935999985746, 20.777525869106036 ], [ -156.219648652902521, 20.777796092582186 ], [ -156.219953202058804, 20.77810439504454 ], [ -156.221688489012791, 20.778099174120655 ], [ -156.222945009498488, 20.777516082173118 ], [ -156.222501199684729, 20.778670269960628 ], [ -156.222502804504899, 20.779212630320323 ], [ -156.224255085071718, 20.780047412623944 ], [ -156.224788334437136, 20.780045855416674 ], [ -156.225355500181109, 20.780065871900938 ], [ -156.225945758259002, 20.779791883153344 ], [ -156.226224920690754, 20.7800745068376 ], [ -156.227089673353532, 20.780354031514303 ], [ -156.227078444032315, 20.780629977163343 ], [ -156.22767816412636, 20.780915663193891 ], [ -156.228228294351169, 20.780913971572168 ], [ -156.228516094639929, 20.780924174889183 ], [ -156.228806909366767, 20.780923317837946 ], [ -156.229084142842225, 20.781204187202185 ], [ -156.229660148158985, 20.781202512211681 ], [ -156.229942910411722, 20.781488759449513 ], [ -156.230519495032496, 20.78176361545642 ], [ -156.230796735786015, 20.782044350349466 ], [ -156.231090364709956, 20.782043535042639 ], [ -156.231972346862591, 20.782936932611804 ], [ -156.233812427714298, 20.782524911086078 ], [ -156.234266500377601, 20.781282248147477 ], [ -156.234559926181646, 20.781292532079409 ], [ -156.235133124242935, 20.780750438476012 ], [ -156.236011332643557, 20.781049180161332 ], [ -156.236584522691516, 20.780507213210104 ], [ -156.236894690814665, 20.780246659134271 ], [ -156.23682995638552, 20.781871179634688 ], [ -156.238228362278818, 20.781866849248232 ], [ -156.23916248962658, 20.782184461470472 ], [ -156.240281332329118, 20.782180905584475 ], [ -156.240868518384275, 20.782477323100881 ], [ -156.242389842836531, 20.782782143484347 ], [ -156.243313778300774, 20.782779270450732 ], [ -156.243889394491191, 20.782799626949714 ], [ -156.244353754971598, 20.782798093195069 ], [ -156.245781850098496, 20.782135062949493 ], [ -156.247205674285624, 20.782854058765452 ], [ -156.256856396219547, 20.789413365455712 ], [ -156.258872400841909, 20.791455093275918 ], [ -156.267530252999023, 20.800553841238894 ], [ -156.275427940711268, 20.811200823481759 ], [ -156.282340964005897, 20.821736301515394 ], [ -156.28811571859822, 20.830356838703462 ], [ -156.287404270940357, 20.830667465606439 ], [ -156.287878747990106, 20.831570440307466 ], [ -156.287432592977694, 20.832352372366898 ], [ -156.285490890601778, 20.831372716266035 ], [ -156.285511457198425, 20.830853435748121 ], [ -156.285357667403247, 20.830314331301036 ], [ -156.284929733913941, 20.831146535004379 ], [ -156.285693395133904, 20.83259975894665 ], [ -156.284868942685165, 20.833280598814053 ], [ -156.28431684565831, 20.832721688083982 ], [ -156.283739290329407, 20.83326797280349 ], [ -156.283424009300006, 20.833528526903905 ], [ -156.282714136069643, 20.832809996702942 ], [ -156.282302273713867, 20.832432634921428 ], [ -156.282309872991021, 20.834453516609738 ], [ -156.281394507653573, 20.834853188220688 ], [ -156.281397483448131, 20.83565849759097 ], [ -156.281071243357587, 20.836199636265878 ], [ -156.280265208505568, 20.835383953135981 ], [ -156.279667398890979, 20.835099246918542 ], [ -156.279394838224476, 20.834547936447713 ], [ -156.279094240090075, 20.833975681654522 ], [ -156.279135983727031, 20.832921398695554 ], [ -156.2791320111304, 20.831859115519229 ], [ -156.279746028156694, 20.831037820548456 ], [ -156.28001001802869, 20.830500323537631 ], [ -156.278784687356733, 20.83106936293343 ], [ -156.277308118372304, 20.834421664545367 ], [ -156.276480933086873, 20.834782904029222 ], [ -156.275781669344013, 20.834758290505356 ], [ -156.274461905729993, 20.835568995599143 ], [ -156.273456445855999, 20.835533678809856 ], [ -156.273996123651074, 20.836561375533218 ], [ -156.273472496669143, 20.836891327881798 ], [ -156.271595579977657, 20.83550469644225 ], [ -156.271305529868755, 20.835800144440682 ], [ -156.272428792259916, 20.83741639077644 ], [ -156.272701329997261, 20.837967709955841 ], [ -156.274105693586023, 20.838865690601025 ], [ -156.273253009263556, 20.840358944353948 ], [ -156.271497691354256, 20.84065207292171 ], [ -156.271886133865564, 20.841391445819522 ], [ -156.270794150147054, 20.842344737142191 ], [ -156.26914742840151, 20.843322628988513 ], [ -156.267940293136036, 20.844153716443611 ], [ -156.265680429077946, 20.844074119722158 ], [ -156.264986415014846, 20.845033064365104 ], [ -156.264396831346261, 20.845413506341796 ], [ -156.263657067270913, 20.844312625800335 ], [ -156.263079398707504, 20.844314498166462 ], [ -156.262469349763023, 20.844006789449534 ], [ -156.261947424022026, 20.843478445865991 ], [ -156.260794491988349, 20.843194446975037 ], [ -156.260152021789878, 20.842238467032189 ], [ -156.25967147649294, 20.841880584969392 ], [ -156.260785502936415, 20.844001537961187 ], [ -156.26083657388881, 20.844273196860584 ], [ -156.258893868018731, 20.842746781530622 ], [ -156.260262229377673, 20.846079752718133 ], [ -156.258702628759266, 20.846405761595186 ], [ -156.258158882237694, 20.845855369040272 ], [ -156.256269765499439, 20.844089755787419 ], [ -156.255580425403821, 20.844741523004362 ], [ -156.255004565627928, 20.844721311723031 ], [ -156.254404062060956, 20.846368593623819 ], [ -156.255256403753492, 20.847991306924499 ], [ -156.255206720224464, 20.849240370194796 ], [ -156.253193972485747, 20.849541069869733 ], [ -156.253789428272285, 20.848498740628457 ], [ -156.25377013950424, 20.847686174771002 ], [ -156.252641917033287, 20.84820974622242 ], [ -156.251455697114068, 20.848456248219922 ], [ -156.251520754569867, 20.846827360636748 ], [ -156.250952098987625, 20.84574491845791 ], [ -156.250963302421582, 20.845469100968238 ], [ -156.250368441936985, 20.845193995133872 ], [ -156.250372778288551, 20.846410198736478 ], [ -156.250345844329019, 20.847086865296689 ], [ -156.250347530687122, 20.847628571798541 ], [ -156.250326293361297, 20.848162107432817 ], [ -156.250713825902892, 20.848899918476125 ], [ -156.250312412552603, 20.849250400648426 ], [ -156.249753291080481, 20.849778730433691 ], [ -156.248882288867605, 20.850158954028203 ], [ -156.247437673711687, 20.849204183538376 ], [ -156.244845447189732, 20.848863856698618 ], [ -156.242975098655279, 20.848869703970763 ], [ -156.241442923624419, 20.848815521128998 ], [ -156.239376873247267, 20.847288760405792 ], [ -156.237908270637377, 20.846589556538344 ], [ -156.236827857291274, 20.84549551058814 ], [ -156.236902488750701, 20.843628095641272 ], [ -156.236296606842302, 20.843342318561806 ], [ -156.236298530554933, 20.843883759917738 ], [ -156.235961721085232, 20.844685807704202 ], [ -156.235143489292966, 20.843857170641531 ], [ -156.234836284554433, 20.844147642439136 ], [ -156.23365507157564, 20.844105940937499 ], [ -156.23256062438162, 20.842997363138441 ], [ -156.231982859984385, 20.843543447308786 ], [ -156.230726757722977, 20.843904389165861 ], [ -156.230263935141579, 20.842966825870846 ], [ -156.228647799600878, 20.843552824349203 ], [ -156.224742338645143, 20.84341456119612 ], [ -156.223933293186917, 20.842595282841099 ], [ -156.222774589214964, 20.842309618399984 ], [ -156.222806916388862, 20.841498960011407 ], [ -156.222409440952219, 20.84112738584523 ], [ -156.221244579230927, 20.841667870329267 ], [ -156.220790461417948, 20.841163658628869 ], [ -156.221409635728634, 20.840080055951447 ], [ -156.22197176892027, 20.83958956297662 ], [ -156.222259223686535, 20.839318102817902 ], [ -156.222576888782697, 20.839040784518627 ], [ -156.221402774564098, 20.839044344812546 ], [ -156.220824145375047, 20.839023843466489 ], [ -156.220536686535553, 20.839295433197712 ], [ -156.219622774535111, 20.839546136881939 ], [ -156.21794967016433, 20.83897728539711 ], [ -156.216508883113022, 20.838688320056765 ], [ -156.216038245439876, 20.838211732664515 ], [ -156.216608301969529, 20.837214498804787 ], [ -156.215382408004018, 20.837586664491198 ], [ -156.214228261546737, 20.837683203639649 ], [ -156.215114335780015, 20.836498968308423 ], [ -156.215291164884121, 20.836231010653218 ], [ -156.213366521287043, 20.837285806519564 ], [ -156.213098409640565, 20.836460742459234 ], [ -156.212522200809843, 20.836462337980013 ], [ -156.211619084347717, 20.835547586667484 ], [ -156.210512868088017, 20.835883580727195 ], [ -156.209701734872368, 20.835473899463434 ], [ -156.210655856212583, 20.833804144743091 ], [ -156.210263690480076, 20.83343726185236 ], [ -156.210854171298195, 20.833179618780751 ], [ -156.211593848045709, 20.831970270819991 ], [ -156.211962176765581, 20.831829081997761 ], [ -156.21172203626864, 20.831349494182057 ], [ -156.211593848045709, 20.831970270819991 ], [ -156.211148859611541, 20.832088390179859 ], [ -156.210586045206981, 20.832371611583653 ], [ -156.209979122777696, 20.832315703062605 ], [ -156.208689635313107, 20.832964760875061 ], [ -156.208027227795952, 20.832408989522023 ], [ -156.207984218742354, 20.831766647275394 ], [ -156.208856583715573, 20.831417598548605 ], [ -156.207486139696016, 20.831102734537279 ], [ -156.206620547717193, 20.832014578300658 ], [ -156.206257589488075, 20.831757925220835 ], [ -156.206001338742709, 20.831191978461863 ], [ -156.205540007708464, 20.830382003806218 ], [ -156.206305861357748, 20.829142692632338 ], [ -156.205876579078023, 20.828501718853826 ], [ -156.205735500917427, 20.82875292577252 ], [ -156.205770548580432, 20.829277442095595 ], [ -156.204148495393866, 20.829807575883489 ], [ -156.203705675188132, 20.829549614385055 ], [ -156.203456856173432, 20.828429823631637 ], [ -156.202439052374558, 20.829083535779713 ], [ -156.201905774816083, 20.828636308594174 ], [ -156.20217665363802, 20.826035299613654 ], [ -156.200869189249971, 20.828084185539975 ], [ -156.199448660530749, 20.828168077847351 ], [ -156.199019068626768, 20.827682468980772 ], [ -156.198306858765193, 20.827084855858136 ], [ -156.19777930312506, 20.825919241602197 ], [ -156.196310649151599, 20.825580074614592 ], [ -156.196601638306845, 20.824267578218127 ], [ -156.197935591090811, 20.82280988426103 ], [ -156.198303905386865, 20.822668723635896 ], [ -156.198063821500057, 20.822189122745314 ], [ -156.197935591090811, 20.82280988426103 ], [ -156.197495595920458, 20.822932944326901 ], [ -156.196522962065927, 20.823396669103683 ], [ -156.195063831784211, 20.8238508348254 ], [ -156.194605637419102, 20.823437613935514 ], [ -156.194344154141277, 20.82261052438832 ], [ -156.193444169981916, 20.822326405269365 ], [ -156.19265638835455, 20.821498360375063 ], [ -156.192079205408419, 20.821510455730127 ], [ -156.190977134317677, 20.821126740380336 ], [ -156.190358834569167, 20.821732712256367 ], [ -156.190619409456303, 20.820924495874468 ], [ -156.191068211422106, 20.820159698750381 ], [ -156.188642691156446, 20.819393643152608 ], [ -156.189288770263602, 20.817912035263817 ], [ -156.190076091167214, 20.817140627251188 ], [ -156.191748325849034, 20.816431856889935 ], [ -156.192160664126448, 20.816085133435639 ], [ -156.19258382600583, 20.815670349543151 ], [ -156.193442786496917, 20.814947836035799 ], [ -156.194509473392856, 20.81368613107966 ], [ -156.195099391962572, 20.812331318542579 ], [ -156.196297335097569, 20.810465418444796 ], [ -156.196829734074214, 20.809450839879904 ], [ -156.198954238599129, 20.80665294979578 ], [ -156.200172825045286, 20.803557629334836 ], [ -156.200164364174896, 20.803208636097377 ], [ -156.20051402684453, 20.800510785181213 ], [ -156.200501013566054, 20.799966527815517 ], [ -156.200582714924479, 20.798618857850528 ], [ -156.199905772598271, 20.798889612212104 ], [ -156.195585843777138, 20.802203077456763 ], [ -156.193579681682451, 20.802939894130173 ], [ -156.193126622001557, 20.80150836606521 ], [ -156.191860914409745, 20.801174225893764 ], [ -156.1885602969719, 20.800822190942114 ], [ -156.187505630954803, 20.799225800070293 ], [ -156.186995646088889, 20.799198390778304 ], [ -156.186405325265667, 20.799210788644153 ], [ -156.184979274329322, 20.798471031050848 ], [ -156.183090633851492, 20.799574374346285 ], [ -156.182656039329657, 20.7999398879575 ], [ -156.182232902950318, 20.800354649887236 ], [ -156.180424198531114, 20.801876095420592 ], [ -156.181344793601738, 20.802843763513792 ], [ -156.182316157451766, 20.803456534678155 ], [ -156.181994618936443, 20.804533110325732 ], [ -156.18168753078686, 20.806163349506999 ], [ -156.180323168204751, 20.807684554091267 ], [ -156.17975582125294, 20.809271890647423 ], [ -156.178352544201573, 20.810146175649727 ], [ -156.176784366177571, 20.809332594383168 ], [ -156.176140077082437, 20.809582492726811 ], [ -156.175596557432215, 20.810115191580721 ], [ -156.175166133066512, 20.809394397874051 ], [ -156.175864816772787, 20.808806732706671 ], [ -156.175934084640943, 20.807670873519285 ], [ -156.175039558009587, 20.807689456487321 ], [ -156.173547234221218, 20.806687070970643 ], [ -156.172756630409538, 20.806276783200133 ], [ -156.171886435172325, 20.806001914927197 ], [ -156.171327058065799, 20.805711542759447 ], [ -156.169340102101131, 20.804946001442584 ], [ -156.168478065529257, 20.804039543630676 ], [ -156.16818375341893, 20.80377417000642 ], [ -156.167922439888969, 20.8029470588171 ], [ -156.16647003150976, 20.802387488174627 ], [ -156.166517906883087, 20.801601851853938 ], [ -156.166221653571711, 20.801290291971753 ], [ -156.165120820584008, 20.801814934208334 ], [ -156.164481540514913, 20.801828164632578 ], [ -156.163906092728212, 20.801797090646954 ], [ -156.163336310938888, 20.801808953974859 ], [ -156.163323122157806, 20.801251215613576 ], [ -156.163388905626846, 20.80017072021354 ], [ -156.162496120886829, 20.799888558898942 ], [ -156.162120441225426, 20.79949342576775 ], [ -156.159240442357543, 20.79984852974237 ], [ -156.156807713521772, 20.799494797801582 ], [ -156.155915865811863, 20.798144264269112 ], [ -156.15432701435148, 20.797831605133517 ], [ -156.154788982936935, 20.797044386571915 ], [ -156.153643577583182, 20.796512555901018 ], [ -156.153628110967333, 20.795853223237909 ], [ -156.154826720246348, 20.795153209502423 ], [ -156.154253680953104, 20.794635772759346 ], [ -156.154536170965628, 20.794329832429028 ], [ -156.155703195963099, 20.793348544309346 ], [ -156.155757179844983, 20.79246463142211 ], [ -156.155430369309613, 20.792719720853338 ], [ -156.153849098270996, 20.794268972988476 ], [ -156.150547653793467, 20.794337127169062 ], [ -156.149907195725262, 20.793367493290617 ], [ -156.1463670511543, 20.792670705107543 ], [ -156.145087245262431, 20.792006200313971 ], [ -156.144275924409783, 20.791629435580703 ], [ -156.143958475188469, 20.790624962180399 ], [ -156.142865949166122, 20.791695079466237 ], [ -156.141656703700932, 20.791720022237371 ], [ -156.141101570524683, 20.791136197805635 ], [ -156.140201902184458, 20.790851830855264 ], [ -156.139354753633114, 20.790556566409439 ], [ -156.138484727821066, 20.790281545377745 ], [ -156.138213379632049, 20.789995881803296 ], [ -156.137631255550133, 20.789725660560158 ], [ -156.137289707103747, 20.788644608676432 ], [ -156.136233622830247, 20.788587572279571 ], [ -156.135528459329265, 20.78927837144348 ], [ -156.134191857146277, 20.788855762791119 ], [ -156.133344734869922, 20.788560471218101 ], [ -156.132474734972561, 20.788285422203497 ], [ -156.131569976276324, 20.787677345148808 ], [ -156.129948607415741, 20.787710654979694 ], [ -156.129323300757108, 20.787420246426858 ], [ -156.128481323666705, 20.786854198685219 ], [ -156.127323457937706, 20.786574305993909 ], [ -156.125738234947704, 20.786021715479681 ], [ -156.123885717686022, 20.785921637186565 ], [ -156.121436966048606, 20.785971804205214 ], [ -156.120142404518987, 20.785901676693477 ], [ -156.118907059542892, 20.785926950215586 ], [ -156.116823327591021, 20.785267788655524 ], [ -156.114758442166618, 20.784195421296815 ], [ -156.113263444402492, 20.783900907594425 ], [ -156.112424418907409, 20.783465089598131 ], [ -156.110895450968883, 20.782754767344908 ], [ -156.109861604087769, 20.781666781387237 ], [ -156.109374202913017, 20.78122669150336 ], [ -156.108674637015298, 20.78023266468724 ], [ -156.108180798316852, 20.779201110625007 ], [ -156.107788330774014, 20.778472627008338 ], [ -156.108205664211283, 20.777305814524297 ], [ -156.108872801913662, 20.775853218522052 ], [ -156.108825564594866, 20.773800801424525 ], [ -156.108890930172436, 20.772731065895293 ], [ -156.107621590274533, 20.772288510927357 ], [ -156.105770970958076, 20.77357436771144 ], [ -156.103210205522714, 20.774289657847621 ], [ -156.101234513702792, 20.775230464898883 ], [ -156.099403410920814, 20.775799601123996 ], [ -156.097474164521145, 20.775838914953564 ], [ -156.095011485239723, 20.775187249318471 ], [ -156.092126659414561, 20.774877890037878 ], [ -156.091419452814307, 20.774510329944732 ], [ -156.090245980350943, 20.775069088654707 ], [ -156.088960672163182, 20.775095290484977 ], [ -156.088529198015294, 20.775071838131431 ], [ -156.087877404676021, 20.775084977047097 ], [ -156.086945262695224, 20.774790012690275 ], [ -156.085934869701759, 20.774264952316393 ], [ -156.084375374576922, 20.773663119935385 ], [ -156.083658170529361, 20.773290467728724 ], [ -156.080675987770206, 20.771965045521487 ], [ -156.07866524217448, 20.771128711301362 ], [ -156.078085319985547, 20.770827400003423 ], [ -156.077420046464823, 20.770840800257364 ], [ -156.076513787316088, 20.769467212111703 ], [ -156.075520003925618, 20.76998158994224 ], [ -156.074652252054193, 20.770521778912368 ], [ -156.073573448164638, 20.769961238528587 ], [ -156.072791438634738, 20.769918812476774 ], [ -156.072066535863485, 20.769933423232896 ], [ -156.070872361772473, 20.769130237951181 ], [ -156.069496837694942, 20.769055452987246 ], [ -156.068359841023693, 20.76907848318335 ], [ -156.068057805287594, 20.768760333027132 ], [ -156.067203797187375, 20.768777478650822 ], [ -156.06667055129185, 20.768216037496014 ], [ -156.066047401068829, 20.768465882263815 ], [ -156.065744167114815, 20.768762978775243 ], [ -156.064594771746187, 20.768700351019394 ], [ -156.063390623552607, 20.769273469906874 ], [ -156.061808093991516, 20.769187412186689 ], [ -156.060054739117078, 20.769501188036926 ], [ -156.059699074676416, 20.769179990551432 ], [ -156.059182393613156, 20.768635870236292 ], [ -156.058563461060231, 20.768348110097747 ], [ -156.058156460002806, 20.767919452632587 ], [ -156.057468648711165, 20.767297685038812 ], [ -156.057445664414018, 20.76629273795362 ], [ -156.057519119959608, 20.765099296766849 ], [ -156.057188069447164, 20.764800070961375 ], [ -156.057800896196198, 20.76399431749784 ], [ -156.057213472678995, 20.763721243201108 ], [ -156.056654510382032, 20.763430539513834 ], [ -156.055491101771963, 20.762889603006105 ], [ -156.054948557538097, 20.762318054850176 ], [ -156.052819070634854, 20.761327739119952 ], [ -156.051519252683676, 20.759356619882489 ], [ -156.049960509001238, 20.758862811498162 ], [ -156.049543084200167, 20.758423248614395 ], [ -156.04868408048273, 20.758440486151137 ], [ -156.048412820930224, 20.757872922570211 ], [ -156.047442935004312, 20.756637093206653 ], [ -156.046806397155251, 20.753902882944899 ], [ -156.046487596096512, 20.753236121486584 ], [ -156.045748938867973, 20.752892711736873 ], [ -156.045276811189638, 20.752014521224051 ], [ -156.046043317343191, 20.750071504193084 ], [ -156.045666428482207, 20.749674416750928 ], [ -156.044323423815825, 20.750988679425191 ], [ -156.041557010949049, 20.752068040457779 ], [ -156.041039531969858, 20.751527830345939 ], [ -156.040648439025858, 20.750286999968381 ], [ -156.039942546535912, 20.749648600904774 ], [ -156.039075405912115, 20.747834947401802 ], [ -156.036045006363111, 20.746983762636319 ], [ -156.035651080072483, 20.746251163303338 ], [ -156.035730042187424, 20.744969909118705 ], [ -156.035427020272607, 20.744650637814669 ], [ -156.034562786317736, 20.744104428978716 ], [ -156.031925063693279, 20.742081011545324 ], [ -156.029208866302781, 20.742135356553298 ], [ -156.028002275224964, 20.741573942729698 ], [ -156.028284695470575, 20.741277612290272 ], [ -156.028881114891078, 20.741025321539311 ], [ -156.028588140457003, 20.740480765426486 ], [ -156.028239256590979, 20.739373537918684 ], [ -156.026916620311596, 20.739399980321679 ], [ -156.026421298848049, 20.738479038224682 ], [ -156.027533611028076, 20.738008642106323 ], [ -156.028212280000588, 20.737344562752217 ], [ -156.029585155545533, 20.73696156436716 ], [ -156.029270320297087, 20.735607792963986 ], [ -156.028864746964956, 20.734035202209466 ], [ -156.029961269312423, 20.733694757748257 ], [ -156.031852547660804, 20.733798038447397 ], [ -156.032260239719704, 20.731330027993305 ], [ -156.032948601948107, 20.730656306696321 ], [ -156.033678795683272, 20.730042674403204 ], [ -156.033984740088897, 20.729460726476091 ], [ -156.034294088221742, 20.728934769140288 ], [ -156.034884934593947, 20.727580625946686 ], [ -156.035497847773144, 20.726247487639018 ], [ -156.035800923264901, 20.724888376883985 ], [ -156.036979794505015, 20.724645561036315 ], [ -156.036963172586212, 20.72391113987867 ], [ -156.038418683343366, 20.723579065223827 ], [ -156.038929454218845, 20.723606902853902 ], [ -156.040150130474643, 20.723266272785679 ], [ -156.039595008022815, 20.722787302904869 ], [ -156.036755841954033, 20.722418008725914 ], [ -156.036726932740322, 20.721145204241306 ], [ -156.037118075192126, 20.720762265309936 ], [ -156.039909076132005, 20.721438683092316 ], [ -156.041524482869221, 20.722278899433174 ], [ -156.044789981840694, 20.722074558372832 ], [ -156.045832377692193, 20.721750787907872 ], [ -156.046658079374339, 20.722497391640928 ], [ -156.047237661092936, 20.723107800595283 ], [ -156.048089463139632, 20.721915166754009 ], [ -156.048828903704077, 20.721602308441934 ], [ -156.049398599779266, 20.721330963469303 ], [ -156.050262457203274, 20.720965357597983 ], [ -156.050289082938093, 20.720534215220454 ], [ -156.049723047336101, 20.720022295536488 ], [ -156.050086817347648, 20.719628671974913 ], [ -156.050617722147848, 20.719182773860755 ], [ -156.051229940251972, 20.715946226553555 ], [ -156.052050116069864, 20.715599164648619 ], [ -156.052423361290437, 20.714352149612736 ], [ -156.052741969433754, 20.712180831849714 ], [ -156.05335465420336, 20.710847601400779 ], [ -156.053652287980526, 20.709759152562228 ], [ -156.054251662794542, 20.709505483956022 ], [ -156.053655537990323, 20.70896635388748 ], [ -156.053705986916412, 20.708145537148003 ], [ -156.053028509972222, 20.708426692836309 ], [ -156.051975335558211, 20.7094580308388 ], [ -156.051362924306005, 20.70947027955258 ], [ -156.050633328568466, 20.708363700290093 ], [ -156.050220589170891, 20.708617118068208 ], [ -156.04913674030206, 20.70967845573837 ], [ -156.048581125307948, 20.709689685101214 ], [ -156.047039729028995, 20.709385287945977 ], [ -156.045905536862136, 20.70908469635377 ], [ -156.044252435906515, 20.708758258369958 ], [ -156.043489107365446, 20.706337108730651 ], [ -156.042594816707549, 20.704466559018982 ], [ -156.04161203658424, 20.70395539174546 ], [ -156.039393998426448, 20.703517251569583 ], [ -156.040892806883107, 20.702739737231909 ], [ -156.042953721793992, 20.702164526191908 ], [ -156.043457719849528, 20.701741191099085 ], [ -156.043756264174249, 20.70117297154755 ], [ -156.044617911460989, 20.701219902164645 ], [ -156.045477499172733, 20.700952747132174 ], [ -156.045769486184099, 20.700968734599748 ], [ -156.04648926756829, 20.700954245899517 ], [ -156.04748904965723, 20.701008689559959 ], [ -156.04750668378324, 20.700722317255924 ], [ -156.047500690681773, 20.700451407219393 ], [ -156.04753479019962, 20.699895435721771 ], [ -156.046370764636094, 20.699353948259773 ], [ -156.045812047950676, 20.699063238322182 ], [ -156.044939108426121, 20.698657116924945 ], [ -156.04496459388082, 20.698241427030691 ], [ -156.044952368065736, 20.697697884515332 ], [ -156.04584333411475, 20.697449247426324 ], [ -156.046251581630173, 20.696672129615141 ], [ -156.047867952379136, 20.696639561831034 ], [ -156.049600188129062, 20.696733922401119 ], [ -156.049587240930066, 20.696168680308912 ], [ -156.049910994364126, 20.695617539376045 ], [ -156.049336884433615, 20.694801094467817 ], [ -156.049076350958529, 20.69397389162101 ], [ -156.048520779032117, 20.692940772864244 ], [ -156.04966221450735, 20.693442317723434 ], [ -156.050889559546022, 20.694268498745078 ], [ -156.051648702280715, 20.694309799491247 ], [ -156.051383126827744, 20.693742609977942 ], [ -156.050827538861171, 20.69270949686797 ], [ -156.051240618722431, 20.691854826382738 ], [ -156.051989923228831, 20.692128152801494 ], [ -156.053498000149688, 20.692912445041078 ], [ -156.053987850859926, 20.692432764491215 ], [ -156.054285721857042, 20.692448968790384 ], [ -156.054928589956063, 20.690100043077852 ], [ -156.056611054266398, 20.690687621630371 ], [ -156.056347089469995, 20.6900362347589 ], [ -156.055845724277134, 20.689104558013526 ], [ -156.057773174541609, 20.687904449152978 ], [ -156.058397457421307, 20.688175610572568 ], [ -156.059270303231045, 20.688629659683983 ], [ -156.059241981274766, 20.687387788687165 ], [ -156.059856556960909, 20.687127605762349 ], [ -156.060155007860459, 20.686559346078681 ], [ -156.061299571775265, 20.686621593217161 ], [ -156.062019292485616, 20.686607031130446 ], [ -156.062731523230809, 20.686645759823623 ], [ -156.06275763043962, 20.686224121819713 ], [ -156.062742481459196, 20.685566143344243 ], [ -156.064034406993784, 20.684761593504746 ], [ -156.064267523806848, 20.685104477630862 ], [ -156.064868080663132, 20.686360338100464 ], [ -156.067715962312462, 20.689565763323195 ], [ -156.069235821308865, 20.693235032216151 ], [ -156.06949646776394, 20.694062217569002 ], [ -156.069988701755221, 20.694977047623087 ], [ -156.070392654916901, 20.696127731162296 ], [ -156.070900822077959, 20.701551419858195 ], [ -156.071349083039394, 20.702488905429849 ], [ -156.071926293434302, 20.703561345616183 ], [ -156.072704217872655, 20.705188343322828 ], [ -156.073306713006673, 20.705501536016506 ], [ -156.073604480625107, 20.705495492783367 ], [ -156.075293932743307, 20.706888988131528 ], [ -156.07595000206544, 20.707193959321906 ], [ -156.07671232283505, 20.707996738050131 ], [ -156.077149281121393, 20.707987896897528 ], [ -156.077585615621246, 20.708011573273502 ], [ -156.078945440862128, 20.706443771636124 ], [ -156.080679297174555, 20.707048939566171 ], [ -156.079936191023108, 20.705667983786341 ], [ -156.079923094272885, 20.705090168091182 ], [ -156.080270231626855, 20.704209304216654 ], [ -156.080237099822284, 20.702770179470061 ], [ -156.080337270770315, 20.701136156664116 ], [ -156.079918893927953, 20.699809637852326 ], [ -156.076902426193328, 20.698644901991699 ], [ -156.077216709015488, 20.697117529015213 ], [ -156.077910521690512, 20.695935774817116 ], [ -156.077594607239746, 20.692564689082452 ], [ -156.076822004446058, 20.691128747596785 ], [ -156.077389083520359, 20.68768656739379 ], [ -156.079000450988332, 20.687354102903313 ], [ -156.080004867324675, 20.686928818073635 ], [ -156.080575233996683, 20.686656964312526 ], [ -156.081433186306413, 20.686703507860873 ], [ -156.08220884032437, 20.685616735235971 ], [ -156.083195370108598, 20.685596686510603 ], [ -156.084262058439123, 20.686719825863509 ], [ -156.084618504048109, 20.686465096256349 ], [ -156.084585076408757, 20.685008903211525 ], [ -156.085108675824841, 20.683257207840935 ], [ -156.084696039819022, 20.682394143175099 ], [ -156.083643807684638, 20.680898222836664 ], [ -156.082195458499626, 20.677721777691318 ], [ -156.082776240005188, 20.677226482021869 ], [ -156.083350814273899, 20.677496711179483 ], [ -156.083864845520253, 20.678038182702355 ], [ -156.084223282089567, 20.676428222905102 ], [ -156.084527163236885, 20.676172865602869 ], [ -156.084955857254045, 20.675356303996693 ], [ -156.086853647501329, 20.674306202689156 ], [ -156.087732849056891, 20.674060565609391 ], [ -156.088597317363053, 20.673791666040824 ], [ -156.089563963782837, 20.674441928346106 ], [ -156.090085349966103, 20.673449061330473 ], [ -156.091200441375975, 20.672754354534806 ], [ -156.091497163145107, 20.67277047131682 ], [ -156.092746355263415, 20.672381891619036 ], [ -156.093802631945664, 20.673092487750292 ], [ -156.094372765678997, 20.672533759259444 ], [ -156.094944585905012, 20.672831011665711 ], [ -156.095736354130736, 20.672453605988821 ], [ -156.096804719198815, 20.673578416011033 ], [ -156.098071905143087, 20.673041468043394 ], [ -156.097532863014266, 20.672039833450164 ], [ -156.097565079066271, 20.67151315567509 ], [ -156.09755278938789, 20.670977265156473 ], [ -156.098859708220232, 20.670950611735236 ], [ -156.099352953028273, 20.671981753610289 ], [ -156.100135509660475, 20.670491148048331 ], [ -156.102137440815341, 20.669868278405382 ], [ -156.103015878835379, 20.671200377473504 ], [ -156.103348306428444, 20.669438772189075 ], [ -156.104227463565309, 20.669193044211763 ], [ -156.104509217688928, 20.668916645922675 ], [ -156.105605521763238, 20.668452138482955 ], [ -156.107654081162991, 20.667175415255937 ], [ -156.109704748691911, 20.666601930420228 ], [ -156.110638860997966, 20.666019886432217 ], [ -156.111728599339386, 20.666078748788994 ], [ -156.113306796334768, 20.665717605166506 ], [ -156.11411850710482, 20.666139412481716 ], [ -156.115358493100445, 20.66611402066934 ], [ -156.116043443174931, 20.666151005299326 ], [ -156.118288526635894, 20.665637263730247 ], [ -156.119205502126647, 20.666378573533279 ], [ -156.119508280198517, 20.667011759407178 ], [ -156.120064293461184, 20.668044697576089 ], [ -156.119756092825014, 20.669724112241131 ], [ -156.118233138545946, 20.674822160997163 ], [ -156.118174469176523, 20.675785978260031 ], [ -156.118217100897766, 20.677620549087347 ], [ -156.11711817747431, 20.681820374641955 ], [ -156.119286941872502, 20.681937722088396 ], [ -156.120355348697558, 20.679485669412568 ], [ -156.122097445316541, 20.679202836755362 ], [ -156.121580178677334, 20.677201119215152 ], [ -156.122795490953365, 20.676685993384353 ], [ -156.12479549413527, 20.672094783480141 ], [ -156.12634691268255, 20.671188258385815 ], [ -156.127302242740967, 20.668327889558714 ], [ -156.128396446860592, 20.66931635336206 ], [ -156.128894935025357, 20.671454082175554 ], [ -156.129715283932711, 20.672317376368657 ], [ -156.130395845336295, 20.670168475720764 ], [ -156.129901433166594, 20.667185156694419 ], [ -156.130419675629497, 20.667719960805666 ], [ -156.132376535437629, 20.670851001077313 ], [ -156.13567204193555, 20.679158268529562 ], [ -156.139698405402982, 20.695774277725636 ], [ -156.140274114771927, 20.699169804850104 ], [ -156.141250718689719, 20.703985090275321 ], [ -156.141287402853436, 20.705550343611172 ], [ -156.140947791922798, 20.705284191991616 ], [ -156.140676569441553, 20.704998546988381 ], [ -156.139954053436526, 20.70485628560666 ] ] ] } }
]
}
