{
"type": "FeatureCollection",
"name": "phyhisp",
"crs": { "type": "name", "properties": { "name": "urn:ogc:def:crs:OGC:1.3:CRS84" } },
"features": [
{ "type": "Feature", "properties": { "ID": 1, "GRIDCODE": 2 }, "geometry": { "type": "Polygon", "coordinates": [ [ [ -156.79110347934639, 21.159839842452673 ], [ -156.790999600724405, 21.16016879490827 ], [ -156.790750186463072, 21.159927957801077 ], [ -156.79110347934639, 21.159839842452673 ] ] ] } },
{ "type": "Feature", "properties": { "ID": 2, "GRIDCODE": 2 }, "geometry": { "type": "Polygon", "coordinates": [ [ [ -156.792086254873965, 21.151996150057062 ], [ -156.791982385570094, 21.152325104068527 ], [ -156.791732981462729, 21.152084269217699 ], [ -156.792086254873965, 21.151996150057062 ] ] ] } },
{ "type": "Feature", "properties": { "ID": 3, "GRIDCODE": 2 }, "geometry": { "type": "Polygon", "coordinates": [ [ [ -156.787482571093221, 21.150852348260965 ], [ -156.788360938362217, 21.150993998797102 ], [ -156.787484723531037, 21.15214980125447 ], [ -156.785668602797585, 21.151687127524006 ], [ -156.785562040643327, 21.151210244433784 ], [ -156.7873623278021, 21.151011035732278 ], [ -156.787482571093221, 21.150852348260965 ] ] ] } },
{ "type": "Feature", "properties": { "ID": 4, "GRIDCODE": 2 }, "geometry": { "type": "Polygon", "coordinates": [ [ [ -156.789808527778774, 21.149799092248401 ], [ -156.78959869481028, 21.150160723048813 ], [ -156.788855455102748, 21.149902650929508 ], [ -156.789808527778774, 21.149799092248401 ] ] ] } },
{ "type": "Feature", "properties": { "ID": 5, "GRIDCODE": 2 }, "geometry": { "type": "Polygon", "coordinates": [ [ [ -156.783757257186068, 21.148907193084895 ], [ -156.784107766537119, 21.149004513699921 ], [ -156.783851310815379, 21.149238733431325 ], [ -156.783757257186068, 21.148907193084895 ] ] ] } },
{ "type": "Feature", "properties": { "ID": 6, "GRIDCODE": 2 }, "geometry": { "type": "Polygon", "coordinates": [ [ [ -156.779363726157328, 21.133678439926875 ], [ -156.778402343051255, 21.133551865810105 ], [ -156.778623605425537, 21.133180080576533 ], [ -156.779269421756993, 21.133497299391941 ], [ -156.779363726157328, 21.133678439926875 ] ] ] } },
{ "type": "Feature", "properties": { "ID": 7, "GRIDCODE": 2 }, "geometry": { "type": "Polygon", "coordinates": [ [ [ -156.785202125072004, 21.129420291504143 ], [ -156.784851659611746, 21.129322976941072 ], [ -156.785108076470976, 21.129088752028508 ], [ -156.785202125072004, 21.129420291504143 ] ] ] } },
{ "type": "Feature", "properties": { "ID": 8, "GRIDCODE": 2 }, "geometry": { "type": "Polygon", "coordinates": [ [ [ -156.877079247288151, 21.105400941621067 ], [ -156.876975603141176, 21.105729968369619 ], [ -156.876726120069094, 21.105489252488386 ], [ -156.877079247288151, 21.105400941621067 ] ] ] } },
{ "type": "Feature", "properties": { "ID": 9, "GRIDCODE": 2 }, "geometry": { "type": "Polygon", "coordinates": [ [ [ -156.861561381704718, 21.100329201911482 ], [ -156.861435474972893, 21.100950689177225 ], [ -156.861192821947611, 21.100471788496872 ], [ -156.861561381704718, 21.100329201911482 ] ] ] } },
{ "type": "Feature", "properties": { "ID": 10, "GRIDCODE": 2 }, "geometry": { "type": "Polygon", "coordinates": [ [ [ -156.855679422900437, 21.107840788270707 ], [ -156.855585222559995, 21.10750927480278 ], [ -156.855328946457121, 21.107743619820621 ], [ -156.855679422900437, 21.107840788270707 ], [ -156.856086817363973, 21.108980571399609 ], [ -156.85610410435811, 21.109602408391737 ], [ -156.855788998083597, 21.109868949086355 ], [ -156.855503671806986, 21.110417505657271 ], [ -156.854903233900529, 21.11121288937834 ], [ -156.854963471393575, 21.113377077510815 ], [ -156.854444763902166, 21.113389823714353 ], [ -156.853519471495417, 21.113343709318304 ], [ -156.852551274730672, 21.114162732691476 ], [ -156.851617753359477, 21.115607906839337 ], [ -156.850803464070225, 21.115234583507597 ], [ -156.850281544051256, 21.114158951293327 ], [ -156.849956953623348, 21.113869225095996 ], [ -156.849687237028661, 21.113313239859011 ], [ -156.849367382386333, 21.11332108599612 ], [ -156.848048439941749, 21.111948531908997 ], [ -156.84746471918649, 21.112344327497315 ], [ -156.846451323543874, 21.113343443452692 ], [ -156.846577326822455, 21.11111879205718 ], [ -156.846244579185822, 21.111102128015641 ], [ -156.845007661253135, 21.111491463161045 ], [ -156.845392479984184, 21.110831087369331 ], [ -156.845731426774222, 21.109871556208265 ], [ -156.847455177885394, 21.108412907649598 ], [ -156.846526624067792, 21.107833335755316 ], [ -156.845923575258468, 21.10720564367649 ], [ -156.843235439508675, 21.108496965773046 ], [ -156.842376573246412, 21.107603417297081 ], [ -156.840499240133141, 21.107242174964082 ], [ -156.839725675479116, 21.106437010530119 ], [ -156.837454283688572, 21.106323511436845 ], [ -156.836200487709533, 21.106925681114252 ], [ -156.835780178201873, 21.10561822223772 ], [ -156.832674009962375, 21.104298662852106 ], [ -156.831323320584318, 21.104681021100909 ], [ -156.830181952363517, 21.10522915631131 ], [ -156.829105919376588, 21.104677106525873 ], [ -156.827671045730909, 21.104605278261431 ], [ -156.82683808758344, 21.104961295558848 ], [ -156.825118656576791, 21.106655510629874 ], [ -156.824062141650757, 21.107318059086641 ], [ -156.822454826657292, 21.107237488735358 ], [ -156.821476783129981, 21.107545181132345 ], [ -156.820595732317031, 21.107794454401645 ], [ -156.819736928859669, 21.108064645547238 ], [ -156.818776598909409, 21.108336435597483 ], [ -156.817704444560832, 21.10885124233247 ], [ -156.816158577365115, 21.109175797021987 ], [ -156.814464474597344, 21.109899512300093 ], [ -156.813928078401176, 21.110428081225326 ], [ -156.812108332349027, 21.111066016996553 ], [ -156.810131758900354, 21.113359163150374 ], [ -156.809547057499742, 21.113853623648609 ], [ -156.809858881013184, 21.115909648451055 ], [ -156.811232333587384, 21.11713713904053 ], [ -156.811215253486552, 21.117436410076003 ], [ -156.811792380887596, 21.118246832012836 ], [ -156.812627116117966, 21.11962252319687 ], [ -156.814342825039319, 21.121530782387737 ], [ -156.815038128300159, 21.122572233937678 ], [ -156.816582335658836, 21.12310256826666 ], [ -156.818056527954127, 21.123485415820376 ], [ -156.820265740424105, 21.123797746445195 ], [ -156.82067613325512, 21.124947027252009 ], [ -156.820618805985077, 21.125955953538849 ], [ -156.820911278780812, 21.126491965278241 ], [ -156.821176667467142, 21.127318456402861 ], [ -156.821614694960942, 21.128121372708435 ], [ -156.821995258704163, 21.130580020161215 ], [ -156.822564303303665, 21.13193161808513 ], [ -156.822829708144752, 21.132758107757109 ], [ -156.823117972181876, 21.133564254648636 ], [ -156.823472134714507, 21.134666243784793 ], [ -156.824717834084566, 21.13641565090774 ], [ -156.825524442177596, 21.141143230271791 ], [ -156.825587366867211, 21.143420331738515 ], [ -156.825249553263461, 21.145793348768034 ], [ -156.820424782303064, 21.146064895162283 ], [ -156.81820087271754, 21.147253186072881 ], [ -156.81610457288275, 21.149602827862157 ], [ -156.815634531743825, 21.150807689450186 ], [ -156.815647270170956, 21.151265821708837 ], [ -156.815286133950167, 21.154869340229482 ], [ -156.815297628362885, 21.155277585104898 ], [ -156.815263499245646, 21.155873480962391 ], [ -156.815543261320926, 21.157046882271626 ], [ -156.816104373427493, 21.158940234700918 ], [ -156.81644870742295, 21.160384526843302 ], [ -156.817493022125262, 21.161948575441038 ], [ -156.818503942778591, 21.163367799961467 ], [ -156.819160125924384, 21.16457085633121 ], [ -156.819207842639003, 21.166299235790252 ], [ -156.817061825978499, 21.166654836875079 ], [ -156.813479269970713, 21.168374270857822 ], [ -156.812965140066098, 21.167314840725062 ], [ -156.812238816930289, 21.167278392149079 ], [ -156.811919084191516, 21.167826406913552 ], [ -156.811525506037896, 21.168581481089674 ], [ -156.8080261586897, 21.16891580223572 ], [ -156.808309021883247, 21.168191182778298 ], [ -156.808662328118061, 21.168103031598744 ], [ -156.808412870622192, 21.167862217120177 ], [ -156.808309021883247, 21.168191182778298 ], [ -156.807863300700149, 21.168310808994889 ], [ -156.807489380244363, 21.168706713000812 ], [ -156.806729646404165, 21.16829610656939 ], [ -156.805543614704646, 21.168027129681096 ], [ -156.806167785585359, 21.167225259028918 ], [ -156.806451394877229, 21.166125166353766 ], [ -156.807058106091489, 21.164153216360354 ], [ -156.806692450181743, 21.163108990931605 ], [ -156.805889795401072, 21.162015177714498 ], [ -156.807265467014929, 21.160934075442494 ], [ -156.807876935577838, 21.159938565642772 ], [ -156.80673744210003, 21.160515760781191 ], [ -156.805833361069489, 21.160123189878004 ], [ -156.806312776488454, 21.157467270635408 ], [ -156.806263288677457, 21.156768172066819 ], [ -156.806648385183735, 21.15551607592511 ], [ -156.806613364325557, 21.155021741303305 ], [ -156.807712083782604, 21.15360990090015 ], [ -156.808115844407098, 21.152621021272694 ], [ -156.808263604668298, 21.151664672753054 ], [ -156.808632335270545, 21.151522217526889 ], [ -156.808389792933582, 21.151043251314078 ], [ -156.808263604668298, 21.151664672753054 ], [ -156.808106674045263, 21.151788044545409 ], [ -156.807241641356654, 21.153151526058181 ], [ -156.80663733074195, 21.153395163009762 ], [ -156.806674241294019, 21.15391439149192 ], [ -156.806070705378716, 21.154220010961499 ], [ -156.805402834957704, 21.15448934148904 ], [ -156.804767942922297, 21.15516143712771 ], [ -156.804297131597622, 21.155531474268464 ], [ -156.804020657686721, 21.156091412314467 ], [ -156.803448312092712, 21.156040790438269 ], [ -156.803417232026902, 21.156350392742304 ], [ -156.803917978408464, 21.157220506399103 ], [ -156.804025786538659, 21.158744950016029 ], [ -156.803360844297401, 21.159081773040949 ], [ -156.80260821742624, 21.15901524692314 ], [ -156.800493669708771, 21.15934651275608 ], [ -156.799715989557484, 21.158475565607745 ], [ -156.798106538231565, 21.159514735755906 ], [ -156.798181383521353, 21.158973879356775 ], [ -156.798564777787703, 21.157727473410972 ], [ -156.798212985852359, 21.157333387199792 ], [ -156.797825126834113, 21.158118992784487 ], [ -156.79667646017532, 21.15819054614516 ], [ -156.796353163964056, 21.156386428163628 ], [ -156.796706446069237, 21.15629830004211 ], [ -156.796457027597256, 21.156057471014879 ], [ -156.796353163964056, 21.156386428163628 ], [ -156.795403318301766, 21.156021781988105 ], [ -156.795319115568986, 21.156508411062209 ], [ -156.795357964381424, 21.156779832505158 ], [ -156.795264500132532, 21.157320444396937 ], [ -156.795353138701046, 21.157943394802295 ], [ -156.794123049666212, 21.159455419632263 ], [ -156.793809806176938, 21.160456880094131 ], [ -156.79282078977937, 21.159879658164339 ], [ -156.79181881523769, 21.160005210912161 ], [ -156.79110347934639, 21.159839842452673 ], [ -156.790913675449843, 21.159345272754869 ], [ -156.791876367633392, 21.15781807597082 ], [ -156.791090337883873, 21.156487633396839 ], [ -156.791865271342942, 21.155258131901647 ], [ -156.790139107223922, 21.155400413826577 ], [ -156.790177889472631, 21.155086749700711 ], [ -156.790133588292349, 21.154613327385672 ], [ -156.790850623051256, 21.153826286341879 ], [ -156.79247530309695, 21.152595572898836 ], [ -156.79253359925525, 21.152125672002246 ], [ -156.792086254873965, 21.151996150057062 ], [ -156.791916933784563, 21.15181317600501 ], [ -156.79054215083184, 21.151199426510264 ], [ -156.79196266591444, 21.150041648912566 ], [ -156.791694759565161, 21.149679468044276 ], [ -156.789808527778774, 21.149799092248401 ], [ -156.789928767525652, 21.149640402701387 ], [ -156.790933715161202, 21.149119634479121 ], [ -156.79140456890201, 21.147492355819914 ], [ -156.792038314864556, 21.147279317866445 ], [ -156.792567512412035, 21.146965701498296 ], [ -156.793489981966673, 21.146756424091627 ], [ -156.793610215265772, 21.146597731314333 ], [ -156.793963474604624, 21.146509606940349 ], [ -156.793714075811891, 21.146268775431849 ], [ -156.793610215265772, 21.146597731314333 ], [ -156.792255904248492, 21.146374763960825 ], [ -156.790665122202768, 21.1469792349227 ], [ -156.790199075237012, 21.147978165753575 ], [ -156.788270859189169, 21.148362650628542 ], [ -156.789405822871942, 21.146663300168118 ], [ -156.789730266988187, 21.146426651977773 ], [ -156.789991314639252, 21.146129118832434 ], [ -156.790575201133379, 21.145702856756166 ], [ -156.79006389541712, 21.144924840391855 ], [ -156.789742326994116, 21.145614065658421 ], [ -156.788840435677059, 21.145843169454903 ], [ -156.787425066120164, 21.146599115914398 ], [ -156.785971307780983, 21.146749487999969 ], [ -156.7862378914609, 21.146080055902495 ], [ -156.786582298744491, 21.145828661151597 ], [ -156.786082953505286, 21.145442677010834 ], [ -156.787460553713572, 21.144438218091853 ], [ -156.788024330686625, 21.144511464935338 ], [ -156.788291143743635, 21.143939589768245 ], [ -156.788917786536189, 21.143482342457929 ], [ -156.788850668657261, 21.142912452320861 ], [ -156.789343645989334, 21.142207410951574 ], [ -156.789696896286813, 21.142119294757183 ], [ -156.789447511675263, 21.141878458090037 ], [ -156.789343645989334, 21.142207410951574 ], [ -156.788325561643745, 21.142324407617323 ], [ -156.787782655503378, 21.142859140731336 ], [ -156.787613280499073, 21.141712485108908 ], [ -156.788638405736236, 21.140703008160834 ], [ -156.789093912857311, 21.140318064116141 ], [ -156.790308182676341, 21.139122344779683 ], [ -156.792119931534074, 21.138348917650394 ], [ -156.790120599721376, 21.138023272591084 ], [ -156.79028613605638, 21.137072337006956 ], [ -156.790639373503097, 21.136984217676751 ], [ -156.790389995003238, 21.136743382885211 ], [ -156.79028613605638, 21.137072337006956 ], [ -156.78963757209749, 21.137545774955541 ], [ -156.788462079895538, 21.138884399034673 ], [ -156.787489354042094, 21.139594478158461 ], [ -156.787071120539878, 21.140070915413197 ], [ -156.78604075348764, 21.140427103621803 ], [ -156.78578117238925, 21.140113968757451 ], [ -156.785460554949992, 21.139866176136668 ], [ -156.785503855500025, 21.139571223955112 ], [ -156.785179617633077, 21.139320473330503 ], [ -156.785504605868539, 21.137130293750037 ], [ -156.786088465795672, 21.136704044775527 ], [ -156.785219925267938, 21.136855654942359 ], [ -156.78437353762618, 21.137148298827004 ], [ -156.784065912040262, 21.137108291211469 ], [ -156.783138556305175, 21.13772528285682 ], [ -156.783230436294588, 21.137103238533516 ], [ -156.782614314996493, 21.136627022135766 ], [ -156.78270116345692, 21.136039967018093 ], [ -156.782052222994935, 21.136272351425188 ], [ -156.781352674179971, 21.13664600856923 ], [ -156.78194589366035, 21.134795946122207 ], [ -156.7822991287685, 21.134707844147012 ], [ -156.782049768433069, 21.134466998520278 ], [ -156.78194589366035, 21.134795946122207 ], [ -156.779794212865397, 21.134423873312556 ], [ -156.779363726157328, 21.133678439926875 ], [ -156.779525940179184, 21.133560124844134 ], [ -156.781673707525471, 21.133209160711488 ], [ -156.782698148180742, 21.131675275650384 ], [ -156.783740358458829, 21.131448035452074 ], [ -156.784930135781508, 21.132125282052098 ], [ -156.785283891712766, 21.132551890890483 ], [ -156.785731219772202, 21.13267818516756 ], [ -156.785825271263747, 21.1330097244883 ], [ -156.786081693666489, 21.132775498617811 ], [ -156.785731219772202, 21.13267818516756 ], [ -156.786212412730578, 21.132043437080949 ], [ -156.787193576141476, 21.131426598731103 ], [ -156.785539708389251, 21.130821212808904 ], [ -156.785656499483281, 21.130362331184472 ], [ -156.785313564655098, 21.129852923787745 ], [ -156.785202125072004, 21.129420291504143 ], [ -156.786223972056405, 21.129556611164158 ], [ -156.786528059979617, 21.129909812540241 ], [ -156.787361490499649, 21.129841071633447 ], [ -156.78792482563361, 21.129902403570881 ], [ -156.787667435048604, 21.129575477435456 ], [ -156.78703637257081, 21.129308816874421 ], [ -156.787120008259024, 21.128632623120897 ], [ -156.787081089140685, 21.12821515979034 ], [ -156.787667713817257, 21.1277708154343 ], [ -156.786738753291274, 21.127950221197949 ], [ -156.786133340180356, 21.128615162082497 ], [ -156.785095332816553, 21.127783023669654 ], [ -156.785363588498711, 21.127378043990284 ], [ -156.785936527741313, 21.126943910941034 ], [ -156.785997429226825, 21.126450631935619 ], [ -156.785959483781312, 21.126043763866626 ], [ -156.785994110833201, 21.125762719327543 ], [ -156.785555228665146, 21.125410863657795 ], [ -156.78611017662962, 21.124801550375086 ], [ -156.786591273757097, 21.124437116935795 ], [ -156.786516076141226, 21.123633443263746 ], [ -156.787131241741349, 21.123582682545123 ], [ -156.787858657431258, 21.123986255589106 ], [ -156.788893345115696, 21.123900952245979 ], [ -156.791734977226611, 21.124210266487712 ], [ -156.791418068266779, 21.123447028353656 ], [ -156.789989817732049, 21.123033400443962 ], [ -156.788878772686957, 21.122563912290058 ], [ -156.789235238457735, 21.122293748119453 ], [ -156.788648670695324, 21.121823497795575 ], [ -156.78891787763331, 21.121733223900094 ], [ -156.789777053787446, 21.121826717825144 ], [ -156.789520079824058, 21.121472219450986 ], [ -156.788842673155557, 21.120929153270119 ], [ -156.790238373346142, 21.120816804620002 ], [ -156.790390019204949, 21.121162784658345 ], [ -156.790900646422955, 21.120935238378184 ], [ -156.790238373346142, 21.120816804620002 ], [ -156.790066526348824, 21.120368967661623 ], [ -156.791899050967658, 21.119890257556147 ], [ -156.790519962890841, 21.119490968575672 ], [ -156.790133560346419, 21.119041986468844 ], [ -156.789562884618135, 21.118584447965187 ], [ -156.790407773229475, 21.118232817283474 ], [ -156.791618047786329, 21.117997460472402 ], [ -156.790847579378067, 21.117379706329508 ], [ -156.791293844848155, 21.116889728745292 ], [ -156.792496755528788, 21.116655789936789 ], [ -156.791393369315671, 21.115309714934231 ], [ -156.792794201691464, 21.115037477629421 ], [ -156.792717717100714, 21.114223204392559 ], [ -156.793432376116016, 21.113943474931002 ], [ -156.794699601030857, 21.1113025353119 ], [ -156.795652175341075, 21.110929456786621 ], [ -156.79601260418454, 21.110178277927179 ], [ -156.79710384109228, 21.109750905681729 ], [ -156.797214948142482, 21.108851896204762 ], [ -156.797164030769636, 21.108309401033157 ], [ -156.797802655100895, 21.10805935159032 ], [ -156.798312491477105, 21.107499405593714 ], [ -156.799531552898259, 21.106699842502934 ], [ -156.799832745396657, 21.106732590872529 ], [ -156.800842407640403, 21.10659621520902 ], [ -156.800936482906138, 21.106927748579427 ], [ -156.801192834872325, 21.106693493132706 ], [ -156.800842407640403, 21.10659621520902 ], [ -156.801098851756763, 21.105398934904859 ], [ -156.801861483139987, 21.106222638233337 ], [ -156.802475010013779, 21.104784731656498 ], [ -156.804177305984382, 21.104902171869412 ], [ -156.804200897025851, 21.104601795907506 ], [ -156.803643494615585, 21.103606544212845 ], [ -156.8035986329281, 21.102689234648089 ], [ -156.804812998808103, 21.10218522220217 ], [ -156.80594868037366, 21.101624887143682 ], [ -156.806829437330606, 21.102219394245459 ], [ -156.807363091760408, 21.101166701269253 ], [ -156.808485410119829, 21.100612921481787 ], [ -156.808869921346883, 21.1005964621015 ], [ -156.809165648350074, 21.100616820008444 ], [ -156.809690287246809, 21.10008096902353 ], [ -156.812617023071368, 21.100617341101422 ], [ -156.813165259023862, 21.101780053551241 ], [ -156.815135636872725, 21.099645119520488 ], [ -156.815963624507731, 21.101401155651622 ], [ -156.818366045509151, 21.103459757419806 ], [ -156.818937324507573, 21.103435228982114 ], [ -156.819652335073982, 21.103588222173602 ], [ -156.81974645195541, 21.103919748678489 ], [ -156.820002771549213, 21.103685461658337 ], [ -156.819652335073982, 21.103588222173602 ], [ -156.81992642334626, 21.102774358257264 ], [ -156.820962439161292, 21.102104956527928 ], [ -156.82323726950824, 21.100912794909256 ], [ -156.823612980138336, 21.099991753898397 ], [ -156.823952654089766, 21.098370591513561 ], [ -156.824494990031582, 21.09889928586961 ], [ -156.825202499033367, 21.099992046565546 ], [ -156.825371039630426, 21.099705429537526 ], [ -156.825334097822719, 21.099183486227211 ], [ -156.825653205044176, 21.09866333199761 ], [ -156.826005591131775, 21.097948614831893 ], [ -156.828748547925187, 21.097011864062313 ], [ -156.830574013103785, 21.095576119774652 ], [ -156.830684796500748, 21.0944708334337 ], [ -156.830309628262995, 21.092816824758955 ], [ -156.82969246954795, 21.091170698361502 ], [ -156.830640996124146, 21.091683273211363 ], [ -156.831300466856817, 21.091969641527299 ], [ -156.831915202070917, 21.09265784952489 ], [ -156.832374819949933, 21.093039947148625 ], [ -156.832637805937992, 21.093334338177193 ], [ -156.833606258917627, 21.093621604944644 ], [ -156.835020992734343, 21.095386910600613 ], [ -156.834905316821192, 21.093759636315212 ], [ -156.834998264167552, 21.092832173989802 ], [ -156.834127154754356, 21.091645157692032 ], [ -156.834457660735666, 21.090452188699114 ], [ -156.835310327195941, 21.091160885180106 ], [ -156.836121488915495, 21.092069065151293 ], [ -156.837556315220951, 21.092584368913407 ], [ -156.837998157339456, 21.092715410591047 ], [ -156.838092311501015, 21.093046930224777 ], [ -156.838348584648486, 21.092812611065142 ], [ -156.837998157339456, 21.092715410591047 ], [ -156.837260787896781, 21.091538447842446 ], [ -156.837593483832308, 21.090951899679727 ], [ -156.837959775750818, 21.0893101331555 ], [ -156.839057316600957, 21.089345155541491 ], [ -156.840489845155048, 21.089336019994661 ], [ -156.841483837509713, 21.0909572803813 ], [ -156.842740192414794, 21.091357560650291 ], [ -156.843414722595242, 21.094116911278196 ], [ -156.844177271614655, 21.094823362916863 ], [ -156.844474068132058, 21.095121077640751 ], [ -156.844460301369935, 21.09324282682914 ], [ -156.845076173442237, 21.092157303974826 ], [ -156.844820998631775, 21.090225847546971 ], [ -156.844258923025762, 21.089166758252311 ], [ -156.845900889679996, 21.089002949716072 ], [ -156.846271949632126, 21.089702433711956 ], [ -156.846549238679046, 21.09025785640527 ], [ -156.847325390505461, 21.08917925281925 ], [ -156.851718730925455, 21.089590683460322 ], [ -156.853195121434396, 21.090061141187707 ], [ -156.853773970563424, 21.090350108024683 ], [ -156.855102201384796, 21.090341513721253 ], [ -156.866052937194695, 21.092594426651285 ], [ -156.876902926759783, 21.09664610904241 ], [ -156.891456312789217, 21.102751267478173 ], [ -156.903695690408512, 21.108945310971663 ], [ -156.912535954361346, 21.115413395399777 ], [ -156.916880952056289, 21.118495811895318 ], [ -156.921697477140242, 21.121891293599571 ], [ -156.933967386369773, 21.132482549701582 ], [ -156.934841957052612, 21.133291733927354 ], [ -156.944891140564465, 21.145226545994454 ], [ -156.946483508499483, 21.148682373132644 ], [ -156.946497754783422, 21.150471669924503 ], [ -156.946057602358877, 21.151690032625268 ], [ -156.941741111385369, 21.15579651067398 ], [ -156.939282291910644, 21.157500063358651 ], [ -156.937760459980552, 21.157510620753342 ], [ -156.936602276948719, 21.156966072647961 ], [ -156.935745391363639, 21.156173376833152 ], [ -156.935281120560433, 21.155299943090263 ], [ -156.933205039666831, 21.151148877954885 ], [ -156.928366440860771, 21.144024745263259 ], [ -156.925486923086964, 21.140279363003639 ], [ -156.923133076474215, 21.137919923262285 ], [ -156.920515928410538, 21.135498219540658 ], [ -156.918980719298958, 21.13395939757487 ], [ -156.91813046154985, 21.133172462494869 ], [ -156.917593650915933, 21.131548603974821 ], [ -156.915640251606163, 21.12959014532775 ], [ -156.91353605802388, 21.129523948380193 ], [ -156.914068028330149, 21.131046752879577 ], [ -156.914083719510103, 21.133089052087392 ], [ -156.914008967406772, 21.135185798599235 ], [ -156.914891818952469, 21.136846935225059 ], [ -156.914596684196397, 21.13770391683676 ], [ -156.913800010666137, 21.139797389075937 ], [ -156.914541370655456, 21.141192137026312 ], [ -156.914545766214644, 21.141764546616738 ], [ -156.91451694283063, 21.142574405387879 ], [ -156.914813455754683, 21.142848857738027 ], [ -156.915212926956883, 21.145358569962013 ], [ -156.915894483312201, 21.147744360205895 ], [ -156.917799512633508, 21.152552172747701 ], [ -156.918885637492281, 21.155660809160633 ], [ -156.920326807349824, 21.16123924305526 ], [ -156.919873095325272, 21.16264302220852 ], [ -156.918850738449095, 21.162957268163151 ], [ -156.916616613936384, 21.161842662951898 ], [ -156.91555597144864, 21.161809287174357 ], [ -156.914004776196919, 21.161819860619548 ], [ -156.912302499095489, 21.161019004828006 ], [ -156.911667370569404, 21.160431401853089 ], [ -156.9111091372597, 21.159871799856802 ], [ -156.910673104769103, 21.159468154595459 ], [ -156.909985821877285, 21.158779229094161 ], [ -156.909030826877455, 21.158475395585324 ], [ -156.906204784363752, 21.156541745358812 ], [ -156.905675786956351, 21.156011593297677 ], [ -156.905385115963185, 21.155742488544433 ], [ -156.904746267464077, 21.154801536661193 ], [ -156.903128948523829, 21.153304879066745 ], [ -156.901996087713115, 21.151636418950478 ], [ -156.898757978392268, 21.150299135061875 ], [ -156.896557562644006, 21.148859736722979 ], [ -156.89343063289644, 21.14952005040703 ], [ -156.89193357066074, 21.15153402695422 ], [ -156.891467917112919, 21.153227476925771 ], [ -156.890702232905852, 21.152845340140129 ], [ -156.888650303080112, 21.152056371593094 ], [ -156.88928141062425, 21.151207477325475 ], [ -156.88957228085826, 21.150663826514027 ], [ -156.890445750494393, 21.149488880918163 ], [ -156.890538395544326, 21.146910796710266 ], [ -156.88992425024324, 21.14660429875541 ], [ -156.888202960449689, 21.145794185986382 ], [ -156.889075884897409, 21.144158674699312 ], [ -156.890817212256906, 21.143652486288282 ], [ -156.891135086717753, 21.143092234445053 ], [ -156.891126874235169, 21.142018936416267 ], [ -156.892295547287944, 21.142298998785403 ], [ -156.893975197805418, 21.142861764967648 ], [ -156.893477310853683, 21.140417212133311 ], [ -156.892106959632343, 21.139981125629831 ], [ -156.891535588556479, 21.1389056414306 ], [ -156.892068343603142, 21.13796654083421 ], [ -156.892049709036115, 21.135516178977511 ], [ -156.893809210463331, 21.135571812356115 ], [ -156.895006809701243, 21.133960803744024 ], [ -156.894454520352213, 21.132572436928985 ], [ -156.893882850681507, 21.131757964077988 ], [ -156.893618990077641, 21.130394613779053 ], [ -156.892882304133366, 21.129345057636915 ], [ -156.892259500352964, 21.12756132114697 ], [ -156.893096729472489, 21.126085136695597 ], [ -156.892829426784346, 21.12496621376523 ], [ -156.891106271353777, 21.124303624951668 ], [ -156.891684294376915, 21.123868247155141 ], [ -156.893718201702427, 21.122973479617251 ], [ -156.893437451632167, 21.122806345845198 ], [ -156.891503462721261, 21.122338383801306 ], [ -156.892014753041451, 21.12143671288387 ], [ -156.891444533240929, 21.120363759288598 ], [ -156.891470925914234, 21.119633849938094 ], [ -156.890104179328006, 21.119175845148241 ], [ -156.889575675935532, 21.119639881020657 ], [ -156.889145228060272, 21.120049046255264 ], [ -156.888389615168052, 21.120381530169659 ], [ -156.887863106339893, 21.122296731429667 ], [ -156.887097304376539, 21.121914455348879 ], [ -156.88583729675716, 21.121922875533926 ], [ -156.883060664443491, 21.121523805346122 ], [ -156.88334658060694, 21.121325902464022 ], [ -156.884509164154821, 21.120631291216593 ], [ -156.88453209528501, 21.119988785220347 ], [ -156.883946955987881, 21.119713260655129 ], [ -156.883667823358252, 21.119433421815987 ], [ -156.883097552704697, 21.118905276134907 ], [ -156.882772046094288, 21.117919756431792 ], [ -156.881951402683768, 21.11751011779107 ], [ -156.881237948333705, 21.117514821910444 ], [ -156.879728390848555, 21.117466963983219 ], [ -156.877909858869202, 21.118266830653916 ], [ -156.877871535715514, 21.119335176512305 ], [ -156.878450710084053, 21.1204254122569 ], [ -156.877969296661433, 21.121798292168204 ], [ -156.876394297140649, 21.121808648373605 ], [ -156.876866333252082, 21.120976584272572 ], [ -156.876286897673168, 21.119885612978283 ], [ -156.877012007793923, 21.118607203943967 ], [ -156.875211919521632, 21.118150199568316 ], [ -156.87414487607677, 21.118649165368875 ], [ -156.873282398794487, 21.117378226996756 ], [ -156.872724974879816, 21.116862050504562 ], [ -156.873138016450724, 21.115777445069202 ], [ -156.872197286871852, 21.115783623772504 ], [ -156.870871620358997, 21.115339148727223 ], [ -156.87020560082496, 21.115972242817303 ], [ -156.868850913997761, 21.116809391234295 ], [ -156.868111575360047, 21.116534454526818 ], [ -156.867418931300904, 21.116188667058342 ], [ -156.865802110370225, 21.116899726567755 ], [ -156.866079170008845, 21.117321643303367 ], [ -156.867415707476852, 21.118918653362027 ], [ -156.86569573267937, 21.119289224803914 ], [ -156.864891597059284, 21.119994767978799 ], [ -156.866028783115496, 21.120843106807506 ], [ -156.868029525535178, 21.122274125320153 ], [ -156.866848125601962, 21.122760621599273 ], [ -156.865448171839404, 21.12271612966553 ], [ -156.865131763819534, 21.122993782385372 ], [ -156.864573459223038, 21.123524361435052 ], [ -156.863843040289822, 21.123845538937292 ], [ -156.864248316740003, 21.124608393949135 ], [ -156.864228790774149, 21.12514470649878 ], [ -156.864521216217071, 21.125695337482444 ], [ -156.864796440921282, 21.126246081933221 ], [ -156.86537223218437, 21.126779448980624 ], [ -156.865332441843691, 21.127884343495378 ], [ -156.86632203302247, 21.127877898183684 ], [ -156.867630774516357, 21.129965283273446 ], [ -156.867045798681715, 21.13088029196706 ], [ -156.866197944652697, 21.130853337816017 ], [ -156.865284933890536, 21.131654472399521 ], [ -156.86414851976275, 21.132734687948492 ], [ -156.863552342358474, 21.132461664892428 ], [ -156.862372456586968, 21.131872512349666 ], [ -156.860242625538319, 21.1318863535463 ], [ -156.858957876393049, 21.131845506628846 ], [ -156.858072446564876, 21.132392427173333 ], [ -156.856917135971088, 21.13290034137674 ], [ -156.856540842418212, 21.133888259898487 ], [ -156.857455141819031, 21.135610173153015 ], [ -156.857434582023359, 21.136177093819978 ], [ -156.857864832466589, 21.136987373540894 ], [ -156.858507637069806, 21.138274326384636 ], [ -156.859971040117756, 21.139742238817849 ], [ -156.86084298399058, 21.140549762403726 ], [ -156.861327275996786, 21.141035489986205 ], [ -156.86314115409769, 21.141391566169389 ], [ -156.864810807118801, 21.142484365020415 ], [ -156.865721305575278, 21.142513311449314 ], [ -156.866877400489898, 21.142505728507768 ], [ -156.868005088425178, 21.144167580832629 ], [ -156.869099493481997, 21.145180930591156 ], [ -156.869463920588601, 21.14586713158744 ], [ -156.868796749274622, 21.149781985406893 ], [ -156.869055380723296, 21.15149578817028 ], [ -156.869619219826092, 21.152852090688146 ], [ -156.869904958283541, 21.153716947402433 ], [ -156.870458357319649, 21.154759131739663 ], [ -156.870955739677527, 21.15575470585766 ], [ -156.871580558301559, 21.156675155582587 ], [ -156.872715196173317, 21.158117607611228 ], [ -156.872283136175952, 21.159200173543773 ], [ -156.871544084677538, 21.158831250652554 ], [ -156.870275312749385, 21.158839554273442 ], [ -156.867407891996862, 21.157706298666358 ], [ -156.862494481450284, 21.158033136669221 ], [ -156.862024308299397, 21.158445684473158 ], [ -156.860898803044336, 21.159515149109161 ], [ -156.858418722838763, 21.159164556076696 ], [ -156.856822605620806, 21.158656200498751 ], [ -156.855962290939544, 21.15836769350555 ], [ -156.855091768304163, 21.15890518292402 ], [ -156.851816583999295, 21.159163774730231 ], [ -156.849069516497281, 21.160447490903245 ], [ -156.84871269249274, 21.16044976520557 ], [ -156.847906124680577, 21.160424026232171 ], [ -156.845120050753138, 21.160833362599536 ], [ -156.846358646940132, 21.159168379241866 ], [ -156.846786402863842, 21.156660852502462 ], [ -156.846185527437115, 21.15610447985561 ], [ -156.84618134628542, 21.15553579484947 ], [ -156.846782035351367, 21.153960109255241 ], [ -156.846230381441444, 21.15255594677733 ], [ -156.845073590200258, 21.15227571771527 ], [ -156.844802323795079, 21.151454072959886 ], [ -156.844482483172584, 21.150851403919834 ], [ -156.8445491460364, 21.149012881616407 ], [ -156.844223391293156, 21.148078826598454 ], [ -156.844343693744804, 21.144755546594308 ], [ -156.844038751791061, 21.143572661940048 ], [ -156.84406699033994, 21.142790747681392 ], [ -156.843778892183593, 21.141964191585668 ], [ -156.843308273683675, 21.138453671369874 ], [ -156.842678617618304, 21.138157197727608 ], [ -156.84268881834771, 21.137881180490137 ], [ -156.842117151048285, 21.137066419609603 ], [ -156.84184592098245, 21.136244772510842 ], [ -156.841266695583926, 21.135971888979512 ], [ -156.840828757447071, 21.134180773154057 ], [ -156.840437671633964, 21.133788517544552 ], [ -156.840147168910988, 21.133519313648339 ], [ -156.839728569200304, 21.133099454710148 ], [ -156.838315308117103, 21.131790107054758 ], [ -156.837025315737037, 21.130149426648899 ], [ -156.837344848055437, 21.129932987636121 ], [ -156.839636224346947, 21.128925843625314 ], [ -156.839380994081466, 21.127001992461707 ], [ -156.838826542683734, 21.125411916787652 ], [ -156.839478366929796, 21.125322540469401 ], [ -156.841548841619186, 21.127842404204273 ], [ -156.843144266348304, 21.127534001393855 ], [ -156.843719225205461, 21.126520866962501 ], [ -156.844013096992057, 21.125971783936734 ], [ -156.845464637613105, 21.126018037473262 ], [ -156.846430434788516, 21.125100083279388 ], [ -156.847738976748502, 21.125753810322237 ], [ -156.849220123505972, 21.125507128196563 ], [ -156.849740460975426, 21.125012765841948 ], [ -156.85094276194647, 21.125799920360997 ], [ -156.851810668862697, 21.12607643158394 ], [ -156.853489950677528, 21.126639572315703 ], [ -156.854116280645201, 21.126382010097707 ], [ -156.854703372162959, 21.126107677023885 ], [ -156.85556077543356, 21.126134939958742 ], [ -156.856138332727141, 21.126131206521446 ], [ -156.85852903131385, 21.12620729209204 ], [ -156.860181761131741, 21.125911421200602 ], [ -156.860746600750446, 21.125929338677054 ], [ -156.861077873180392, 21.125638654282692 ], [ -156.859081470337344, 21.12378978079655 ], [ -156.859070884723167, 21.122386408787879 ], [ -156.859658236147681, 21.122111927587618 ], [ -156.860825279764612, 21.121860574843787 ], [ -156.860535615251081, 21.12131546358783 ], [ -156.86057482252059, 21.120233582570613 ], [ -156.859115773591213, 21.119672174313077 ], [ -156.85884176517385, 21.118842510028266 ], [ -156.856916822129449, 21.118229291108431 ], [ -156.857847049352841, 21.117345140750416 ], [ -156.858592662565201, 21.116690749206604 ], [ -156.859309901229068, 21.116009008679583 ], [ -156.859757093338061, 21.115616341037608 ], [ -156.860107958898908, 21.114960658348874 ], [ -156.861504705405622, 21.114554709290985 ], [ -156.861791703567491, 21.114282114950282 ], [ -156.862375948799865, 21.113769199774438 ], [ -156.862386623069966, 21.113476846336695 ], [ -156.861239455125741, 21.112936658287097 ], [ -156.861235574962933, 21.112381265789164 ], [ -156.861283384499814, 21.111052378310522 ], [ -156.86044034128679, 21.110206471537516 ], [ -156.859232479394677, 21.111540549289877 ], [ -156.858266678769695, 21.112882968096471 ], [ -156.8580618816965, 21.11261461379004 ], [ -156.858118938870263, 21.111036352039427 ], [ -156.857630001048847, 21.110115271042268 ], [ -156.858335533628747, 21.108262904369891 ], [ -156.856692171980711, 21.108273612357916 ], [ -156.856401994043324, 21.107982746159099 ], [ -156.855679422900437, 21.107840788270707 ] ], [ [ -156.792130437733903, 21.149016663680023 ], [ -156.792224510531383, 21.149348201006795 ], [ -156.792480954543038, 21.149113967436563 ], [ -156.792130437733903, 21.149016663680023 ] ], [ [ -156.794484419107448, 21.146067297518542 ], [ -156.794578496069221, 21.146398833938171 ], [ -156.794834931185193, 21.146164595952705 ], [ -156.794484419107448, 21.146067297518542 ] ], [ [ -156.854064786938153, 21.139789363088301 ], [ -156.854171523497399, 21.140406379150505 ], [ -156.854437903908376, 21.139944767886327 ], [ -156.854064786938153, 21.139789363088301 ] ], [ [ -156.847264537240989, 21.130762564046439 ], [ -156.847121007906878, 21.130898912369723 ], [ -156.845977314377507, 21.131401672382268 ], [ -156.847634100308795, 21.134969408943981 ], [ -156.848167412145528, 21.134965936432042 ], [ -156.84964556440363, 21.135324033669445 ], [ -156.849656823707676, 21.136830127132626 ], [ -156.84912336849797, 21.138230018626505 ], [ -156.849760974039867, 21.13825028970993 ], [ -156.850624640836031, 21.136635985210141 ], [ -156.851080682757129, 21.13663304410338 ], [ -156.852206234542763, 21.137195127980565 ], [ -156.852516750704439, 21.137193114639178 ], [ -156.853581996236016, 21.13826187713185 ], [ -156.852851529739212, 21.13542908394049 ], [ -156.852840668093762, 21.133971344011876 ], [ -156.853531927840038, 21.131009210926536 ], [ -156.85072738590236, 21.130919925516533 ], [ -156.848112509273875, 21.130936783196884 ], [ -156.847264537240989, 21.130762564046439 ] ], [ [ -156.896247940158474, 21.117831794844889 ], [ -156.896109751868266, 21.117973216265192 ], [ -156.894821466676206, 21.118328945845242 ], [ -156.896036757486883, 21.120229239380237 ], [ -156.89633241974488, 21.121497998535691 ], [ -156.896626221556375, 21.122299222238947 ], [ -156.897090413457903, 21.127094073970486 ], [ -156.897488947393384, 21.128567967785173 ], [ -156.897998824173754, 21.128545789303665 ], [ -156.89796023669507, 21.127762617869013 ], [ -156.898290341416953, 21.127210304239672 ], [ -156.898272108224802, 21.126843436749542 ], [ -156.897585520106475, 21.125619369691847 ], [ -156.898316205168754, 21.125315639698652 ], [ -156.898602703963263, 21.124315379396975 ], [ -156.897594784325037, 21.122922558660733 ], [ -156.898720288893685, 21.122454725887202 ], [ -156.898205624706947, 21.121537656704586 ], [ -156.896693280904117, 21.120863520258961 ], [ -156.897894517080857, 21.119883149168945 ], [ -156.898682551063075, 21.118649070436238 ], [ -156.897821729320924, 21.118265398894618 ], [ -156.897264732659721, 21.117972210760147 ], [ -156.896247940158474, 21.117831794844889 ] ], [ [ -156.861561381704718, 21.100329201911482 ], [ -156.8617009591525, 21.099914520488479 ], [ -156.862292163611158, 21.098950719163128 ], [ -156.861950807368515, 21.098079928754768 ], [ -156.860647109085335, 21.097965060033872 ], [ -156.860560898847581, 21.098826488500357 ], [ -156.860630817226451, 21.099810269077381 ], [ -156.860117506712697, 21.100354504110587 ], [ -156.859475132901565, 21.099635612134769 ], [ -156.858244211514744, 21.100087304862029 ], [ -156.857597485388311, 21.100772584111201 ], [ -156.856523651300051, 21.099570538099247 ], [ -156.855946273626046, 21.099863396881105 ], [ -156.85535552304691, 21.099811343282664 ], [ -156.855063708192432, 21.101205399945062 ], [ -156.854479697903855, 21.101664851144349 ], [ -156.854767286821755, 21.102997979017896 ], [ -156.857893811145544, 21.103679511900157 ], [ -156.859583536404813, 21.103990833045341 ], [ -156.861162713825024, 21.105071848086702 ], [ -156.863083969352516, 21.106109804387199 ], [ -156.864897380043487, 21.106647127306189 ], [ -156.866585455118638, 21.107669277132668 ], [ -156.868609453953638, 21.10919806747604 ], [ -156.869090707176497, 21.109240499032843 ], [ -156.871212731878359, 21.108723993750573 ], [ -156.872844646262138, 21.109537158204663 ], [ -156.874057256431939, 21.110452995497038 ], [ -156.875134723018306, 21.11092052427615 ], [ -156.875802062064366, 21.111280911238474 ], [ -156.880623752028356, 21.111803505092205 ], [ -156.884284857872558, 21.11288799222779 ], [ -156.884654681558771, 21.114944017117853 ], [ -156.88577785731772, 21.11571274657878 ], [ -156.889677601432851, 21.115266076060031 ], [ -156.89190569546318, 21.115925894088999 ], [ -156.89295607551631, 21.116561648109744 ], [ -156.894682053656879, 21.117937752412917 ], [ -156.894672498011317, 21.117655856587795 ], [ -156.893552577516573, 21.115214419803042 ], [ -156.892983972434564, 21.114227347682824 ], [ -156.892720960262068, 21.112765715686418 ], [ -156.891283033810907, 21.112440253098399 ], [ -156.890166600555773, 21.11151316080888 ], [ -156.890930851164143, 21.110266850225635 ], [ -156.889010130575514, 21.110387658283951 ], [ -156.888974393256689, 21.109884380891799 ], [ -156.889028925638939, 21.109338175609768 ], [ -156.886694528511555, 21.108646839600379 ], [ -156.886400231899586, 21.108005270287538 ], [ -156.88500340829404, 21.107250992487792 ], [ -156.884408202581739, 21.106992743084312 ], [ -156.883523726867992, 21.10651511589063 ], [ -156.882138542110852, 21.107605071182924 ], [ -156.881799429521919, 21.108612711693503 ], [ -156.881527858057837, 21.108020366387123 ], [ -156.881221325035995, 21.107765714324035 ], [ -156.880890953259012, 21.107045503379243 ], [ -156.880359453025505, 21.107463901036287 ], [ -156.879349223040691, 21.108534973128052 ], [ -156.879188264325137, 21.108274466438534 ], [ -156.879516049229522, 21.107469886329504 ], [ -156.879496310652769, 21.107192229568458 ], [ -156.87952425469652, 21.106912259057978 ], [ -156.87749175597321, 21.106093480553909 ], [ -156.877232507533961, 21.105528270990096 ], [ -156.877079247288151, 21.105400941621067 ], [ -156.877490988468367, 21.103768363237457 ], [ -156.874874832779255, 21.10398560780639 ], [ -156.875520259512456, 21.102436661157064 ], [ -156.874499844147891, 21.101867198166612 ], [ -156.87234132806708, 21.103566747630868 ], [ -156.87175927221287, 21.103615001348047 ], [ -156.871192681837016, 21.101709018249704 ], [ -156.870137883955863, 21.101594699790326 ], [ -156.869469509566414, 21.101942949745467 ], [ -156.869177479396598, 21.10128696537183 ], [ -156.867763037817696, 21.101639057244359 ], [ -156.865901680175966, 21.101875314710963 ], [ -156.864581671319144, 21.102562859659763 ], [ -156.864964818247671, 21.099448995682458 ], [ -156.863034933289669, 21.100101860940878 ], [ -156.861561381704718, 21.100329201911482 ] ], [ [ -156.850850160630841, 21.10236113497141 ], [ -156.851544212898375, 21.103600733138062 ], [ -156.852766119206706, 21.103524145258298 ], [ -156.853290239423501, 21.102583739714163 ], [ -156.850850160630841, 21.10236113497141 ] ] ] } }
]
}
