{
"type": "FeatureCollection",
"name": "pipforb",
"crs": { "type": "name", "properties": { "name": "urn:ogc:def:crs:OGC:1.3:CRS84" } },
"features": [
{ "type": "Feature", "properties": { "ID": 1, "GRIDCODE": 1 }, "geometry": { "type": "Polygon", "coordinates": [ [ [ -156.560361833332223, 20.893910373424003 ], [ -156.561345107261673, 20.894085647868728 ], [ -156.5590075387708, 20.896449520871112 ], [ -156.557711316797111, 20.89859809804538 ], [ -156.557146416704313, 20.898296779194727 ], [ -156.557587930561397, 20.897264512593893 ], [ -156.557524211894304, 20.896714154159508 ], [ -156.557648353588206, 20.895879721262379 ], [ -156.556163758461651, 20.896031763611401 ], [ -156.556654161115404, 20.894744389435129 ], [ -156.558932038627859, 20.895043738930084 ], [ -156.560226968178682, 20.894329726641836 ], [ -156.560361833332223, 20.893910373424003 ] ] ] } },
{ "type": "Feature", "properties": { "ID": 2, "GRIDCODE": 1 }, "geometry": { "type": "Polygon", "coordinates": [ [ [ -156.600227884863557, 20.888515301530621 ], [ -156.601426252092097, 20.888673260664159 ], [ -156.601781595456629, 20.889500191095436 ], [ -156.602255990226325, 20.88986821755261 ], [ -156.603087335275688, 20.890874175932524 ], [ -156.604351921550034, 20.891596924823922 ], [ -156.606772225170772, 20.892560853240607 ], [ -156.605945137404802, 20.893502294092848 ], [ -156.604895082521864, 20.893610194679916 ], [ -156.604051668535163, 20.893291760891941 ], [ -156.603617436716661, 20.893336331686829 ], [ -156.602882744319146, 20.89276637930471 ], [ -156.601550358709574, 20.89039362299734 ], [ -156.60034924175514, 20.888938294274222 ], [ -156.600227884863557, 20.888515301530621 ] ] ] } },
{ "type": "Feature", "properties": { "ID": 3, "GRIDCODE": 1 }, "geometry": { "type": "Polygon", "coordinates": [ [ [ -156.594249266393319, 20.883826048550389 ], [ -156.595064560762182, 20.883607764803219 ], [ -156.595554958339363, 20.88261534578918 ], [ -156.596165321281603, 20.88183135373626 ], [ -156.596733541412249, 20.881006555574171 ], [ -156.597916601479938, 20.880530203985671 ], [ -156.599903163669154, 20.881071193402146 ], [ -156.603364230405333, 20.88171484977746 ], [ -156.604008395113993, 20.881033150094041 ], [ -156.608158379726206, 20.881475521804749 ], [ -156.608531948644497, 20.882237484630476 ], [ -156.60621844669015, 20.882535784812596 ], [ -156.60537770824871, 20.882460385406496 ], [ -156.604845769143992, 20.883023426529014 ], [ -156.602716599080026, 20.883536294025522 ], [ -156.603340005726778, 20.883808259658661 ], [ -156.603604062671025, 20.883984446036308 ], [ -156.600792085715057, 20.884543532336728 ], [ -156.600003473744607, 20.884942638418615 ], [ -156.598385228273543, 20.884797555155274 ], [ -156.598704596988142, 20.885654804182749 ], [ -156.597789279707854, 20.886373673364453 ], [ -156.594481276476898, 20.884087112778236 ], [ -156.594249266393319, 20.883826048550389 ] ] ] } },
{ "type": "Feature", "properties": { "ID": 4, "GRIDCODE": 1 }, "geometry": { "type": "Polygon", "coordinates": [ [ [ -156.548697511794416, 20.866654718996749 ], [ -156.548485297031618, 20.867313949158699 ], [ -156.548004828097618, 20.866830231178543 ], [ -156.548697511794416, 20.866654718996749 ] ] ] } },
{ "type": "Feature", "properties": { "ID": 5, "GRIDCODE": 1 }, "geometry": { "type": "Polygon", "coordinates": [ [ [ -156.549278181560936, 20.866392152932576 ], [ -156.549273788913837, 20.866662977420461 ], [ -156.548697511794416, 20.866654718996749 ], [ -156.548701905471916, 20.866383894625795 ], [ -156.549278181560936, 20.866392152932576 ] ] ] } },
{ "type": "Feature", "properties": { "ID": 6, "GRIDCODE": 1 }, "geometry": { "type": "Polygon", "coordinates": [ [ [ -156.549278181560936, 20.866392152932576 ], [ -156.549382303030313, 20.866063368481854 ], [ -156.549630853247209, 20.866304485159546 ], [ -156.549278181560936, 20.866392152932576 ] ] ] } },
{ "type": "Feature", "properties": { "ID": 7, "GRIDCODE": 1 }, "geometry": { "type": "Polygon", "coordinates": [ [ [ -156.594249266393319, 20.883826048550389 ], [ -156.589517878282606, 20.881417776885094 ], [ -156.589556112922025, 20.880398101846652 ], [ -156.589271671417123, 20.879825321080851 ], [ -156.588702588956522, 20.879009906664649 ], [ -156.588418969677321, 20.878438856020551 ], [ -156.58743934967012, 20.877527304906359 ], [ -156.589042697899288, 20.875602084848346 ], [ -156.589067196829518, 20.874949006281536 ], [ -156.589060125521598, 20.873699199943939 ], [ -156.5895267783892, 20.8716194506652 ], [ -156.590565639561419, 20.870633187372142 ], [ -156.59143996675752, 20.870379901121773 ], [ -156.592015049635535, 20.870111815055328 ], [ -156.593778813511818, 20.869486389386438 ], [ -156.595775888577577, 20.868295451895616 ], [ -156.596244699616364, 20.867470443246372 ], [ -156.596687339622889, 20.866644800534665 ], [ -156.597624381672603, 20.86667595382178 ], [ -156.599612462033946, 20.865604149369204 ], [ -156.600187710049653, 20.865057865094311 ], [ -156.601608594746779, 20.865105042524146 ], [ -156.603341661724215, 20.86509613379333 ], [ -156.60333008839271, 20.865399935527574 ], [ -156.603619934314509, 20.865669601247099 ], [ -156.603896505381897, 20.866226245849273 ], [ -156.604481987366057, 20.866223203616418 ], [ -156.60446121172518, 20.866770259563928 ], [ -156.606165660274087, 20.868355875687069 ], [ -156.604724159788077, 20.868399581145614 ], [ -156.603231098373016, 20.867417566800984 ], [ -156.601511603896199, 20.866977595431514 ], [ -156.598543124484706, 20.86723871425766 ], [ -156.59720532721343, 20.868036444948601 ], [ -156.596656922881152, 20.868557036676755 ], [ -156.595086375234786, 20.869493670867246 ], [ -156.593735349348236, 20.87067781739912 ], [ -156.593444108305846, 20.8712207979585 ], [ -156.592851037610444, 20.872264280759705 ], [ -156.593115800378769, 20.873383328452789 ], [ -156.593402653448351, 20.874211423041871 ], [ -156.591974097483785, 20.874163930092063 ], [ -156.591099446261808, 20.874930296638755 ], [ -156.589701000504675, 20.878251517381262 ], [ -156.590575279867323, 20.879503628047573 ], [ -156.59145377180235, 20.881692413867569 ], [ -156.592396990307066, 20.882312698756955 ], [ -156.593505561847167, 20.882837690161956 ], [ -156.594109406095612, 20.883399618032271 ], [ -156.594249266393319, 20.883826048550389 ] ] ] } },
{ "type": "Feature", "properties": { "ID": 8, "GRIDCODE": 1 }, "geometry": { "type": "Polygon", "coordinates": [ [ [ -156.567570511012832, 20.857984791855753 ], [ -156.567962295744366, 20.858210724477345 ], [ -156.567679410118615, 20.859157729484643 ], [ -156.567570511012832, 20.857984791855753 ] ] ] } },
{ "type": "Feature", "properties": { "ID": 9, "GRIDCODE": 1 }, "geometry": { "type": "Polygon", "coordinates": [ [ [ -156.557962344975039, 20.846199690233984 ], [ -156.558952043145382, 20.846376234920829 ], [ -156.558058732361587, 20.850077638465258 ], [ -156.557573937310849, 20.850629429367867 ], [ -156.556637947554151, 20.849496006485985 ], [ -156.554344516618499, 20.848164756342122 ], [ -156.552332253284305, 20.847859944504446 ], [ -156.552880684771424, 20.847602056553264 ], [ -156.554993801913383, 20.847203832891154 ], [ -156.556427728633423, 20.846708985933638 ], [ -156.556954958179887, 20.84711848056228 ], [ -156.557600837280631, 20.847900816824204 ], [ -156.557831903516245, 20.846348220368856 ], [ -156.557962344975039, 20.846199690233984 ] ] ] } },
{ "type": "Feature", "properties": { "ID": 10, "GRIDCODE": 2 }, "geometry": { "type": "Polygon", "coordinates": [ [ [ -156.155564780180043, 20.762800954865845 ], [ -156.155917331829158, 20.762714095702979 ], [ -156.155669628690674, 20.762472491289156 ], [ -156.155564780180043, 20.762800954865845 ], [ -156.154142721591654, 20.762625183035894 ], [ -156.152847218729022, 20.762628565947335 ], [ -156.152402870031068, 20.762212315048529 ], [ -156.15198729761002, 20.761791118757731 ], [ -156.151390059267698, 20.761506022830087 ], [ -156.150851149025755, 20.760959663933917 ], [ -156.150019925131659, 20.760961737869511 ], [ -156.147982591386693, 20.760370393471984 ], [ -156.145822713905915, 20.760375895815834 ], [ -156.144491320782748, 20.760031231620754 ], [ -156.143523441654338, 20.760033778900532 ], [ -156.143089588004557, 20.760018230063388 ], [ -156.141074001280941, 20.760261059919923 ], [ -156.140784016181982, 20.760250677505361 ], [ -156.139960110893526, 20.760252824807342 ], [ -156.138774244367596, 20.759945716559372 ], [ -156.136871632573047, 20.760370750488281 ], [ -156.134411778868298, 20.759197105597394 ], [ -156.126410273939854, 20.755094049465136 ], [ -156.119317173053105, 20.749815245994135 ], [ -156.11422380825519, 20.744551943203298 ], [ -156.111233338358488, 20.739973821079033 ], [ -156.111230521805453, 20.738908486091358 ], [ -156.112394078972017, 20.73919356996014 ], [ -156.112958805657456, 20.739479165860299 ], [ -156.113555872948496, 20.739764377676526 ], [ -156.114306128324898, 20.74052556345309 ], [ -156.116088609052497, 20.74142744951445 ], [ -156.116664794757099, 20.741702648131049 ], [ -156.117191498332602, 20.743327406782868 ], [ -156.118316819110248, 20.743896913845425 ], [ -156.119794596546939, 20.743656162472636 ], [ -156.120998967651929, 20.742917311746293 ], [ -156.121771395936207, 20.744485349899275 ], [ -156.123982006964127, 20.745603796745563 ], [ -156.126876192436384, 20.745707892153106 ], [ -156.128020384962895, 20.745177446941387 ], [ -156.130127440771815, 20.745172191083849 ], [ -156.130666020449524, 20.746265397159881 ], [ -156.132921114526084, 20.746849449141742 ], [ -156.13528512174986, 20.746623352131522 ], [ -156.136658190034211, 20.74598677383716 ], [ -156.137427750334808, 20.747134460094436 ], [ -156.13814807085879, 20.747478244943061 ], [ -156.138545078130022, 20.747880909626662 ], [ -156.14111364747987, 20.747512678432663 ], [ -156.14303773076341, 20.747581581107472 ], [ -156.144189415706563, 20.74757864603367 ], [ -156.144477129118371, 20.7475889825417 ], [ -156.147212386454271, 20.747581926594194 ], [ -156.150089538910066, 20.747684955320537 ], [ -156.150809347721378, 20.747683009642721 ], [ -156.15264915675354, 20.747748952617293 ], [ -156.154845207838832, 20.747484095663538 ], [ -156.15781701982084, 20.748675701487702 ], [ -156.160870336784626, 20.748667608047061 ], [ -156.161457489938613, 20.748964402887221 ], [ -156.16230468408807, 20.748962133956063 ], [ -156.162730460473512, 20.749394052729649 ], [ -156.164966020809459, 20.750117418675003 ], [ -156.167122226295902, 20.751207605057306 ], [ -156.167729992487892, 20.751229396600195 ], [ -156.168449827553502, 20.751227378821021 ], [ -156.168881418489974, 20.751242823851459 ], [ -156.169465159893747, 20.751241203500101 ], [ -156.171013897934671, 20.75202418988982 ], [ -156.172622861340955, 20.752669170413533 ], [ -156.173743961776978, 20.752666065776459 ], [ -156.175086360395369, 20.753554721998757 ], [ -156.175755142304268, 20.753244375158516 ], [ -156.17653919611729, 20.754039205428029 ], [ -156.177757629029941, 20.754655108298401 ], [ -156.179180467283004, 20.754651241066306 ], [ -156.179718366934509, 20.755196444390279 ], [ -156.180636806681918, 20.755509066277561 ], [ -156.181473362864921, 20.755506795897222 ], [ -156.182082319583145, 20.755814463516071 ], [ -156.183760218700797, 20.75580985111122 ], [ -156.184336590252911, 20.756100975722177 ], [ -156.184771040289945, 20.756099766649768 ], [ -156.185490393281555, 20.756125442280428 ], [ -156.186320571757989, 20.754584941630572 ], [ -156.186819332389433, 20.756121825415594 ], [ -156.188366843066234, 20.756432412623489 ], [ -156.188888222217116, 20.756960922443977 ], [ -156.189779962630723, 20.75741151834767 ], [ -156.191174168728054, 20.758076229978439 ], [ -156.191761532762484, 20.75862591253901 ], [ -156.192335928955544, 20.759481918627753 ], [ -156.192770672337417, 20.759480694986699 ], [ -156.19349004697284, 20.759506339041486 ], [ -156.194079736432315, 20.759504602806565 ], [ -156.194628752273928, 20.760060923722001 ], [ -156.195493035758233, 20.760340584210791 ], [ -156.195770172762707, 20.760621232375744 ], [ -156.196634462151451, 20.760900887699766 ], [ -156.197742164409505, 20.76146063399683 ], [ -156.198807060013252, 20.761017937686709 ], [ -156.201287053249104, 20.75960635067614 ], [ -156.202413616887469, 20.759646395694766 ], [ -156.202701574190769, 20.759645532526363 ], [ -156.203698875864546, 20.759680950813536 ], [ -156.207446169245713, 20.75941489336024 ], [ -156.212534150116682, 20.760928701535676 ], [ -156.213320110366567, 20.761725003357721 ], [ -156.214150252797964, 20.76172260470036 ], [ -156.217017127272186, 20.762840271880492 ], [ -156.218723472418588, 20.764820507416683 ], [ -156.218726210715317, 20.765592329317922 ], [ -156.217245545413391, 20.767194541877839 ], [ -156.21551120911883, 20.76931736774441 ], [ -156.212970740419479, 20.770496616460242 ], [ -156.210847169400097, 20.770947060108515 ], [ -156.212250506463221, 20.772244951263186 ], [ -156.213923986229133, 20.773090448642808 ], [ -156.214833959576993, 20.77338464908652 ], [ -156.215377578034378, 20.773935537692331 ], [ -156.216258486477926, 20.774220267123358 ], [ -156.216812881415876, 20.774782038481185 ], [ -156.217399826502003, 20.774780315362129 ], [ -156.217976344574566, 20.775071341859366 ], [ -156.218831875272542, 20.775068810144766 ], [ -156.21916458024603, 20.775743357089599 ], [ -156.220243513932814, 20.776456838451551 ], [ -156.220820058827542, 20.776731723094191 ], [ -156.221363438027026, 20.777282195170944 ], [ -156.222254467628886, 20.777031073847443 ], [ -156.22344556511726, 20.776211126111001 ], [ -156.223369480913306, 20.778110381064451 ], [ -156.223929165043842, 20.778677376210169 ], [ -156.224956685364987, 20.778713700996292 ], [ -156.226249861590986, 20.778709879872721 ], [ -156.226798237790035, 20.779265443252847 ], [ -156.227106270161528, 20.779276372353305 ], [ -156.227901079942711, 20.779274006492994 ], [ -156.2299196974962, 20.77977144747118 ], [ -156.230903707709928, 20.781237398084524 ], [ -156.231392807971559, 20.781235901618313 ], [ -156.233055087421178, 20.782075363752554 ], [ -156.233421021889114, 20.781517767550497 ], [ -156.233416350697695, 20.780185056140979 ], [ -156.234562777966346, 20.780225489772288 ], [ -156.234878419412439, 20.779927073393583 ], [ -156.235758403852742, 20.779958179570496 ], [ -156.236902205724562, 20.778876186465578 ], [ -156.237574048059741, 20.780237364228487 ], [ -156.240407979007131, 20.781371878567374 ], [ -156.24189844038699, 20.781424409370004 ], [ -156.24485022680625, 20.781415232642914 ], [ -156.249529532670749, 20.784408991623135 ], [ -156.257127683731142, 20.789622554782884 ], [ -156.265915662183545, 20.798856092244236 ], [ -156.266283052273991, 20.799555722356487 ], [ -156.264891487176556, 20.801259626728452 ], [ -156.263859968054589, 20.801263004703053 ], [ -156.263569307412155, 20.801252811328368 ], [ -156.262993247739189, 20.801797865359504 ], [ -156.261850464794747, 20.800953335331471 ], [ -156.260983297195764, 20.80121693878236 ], [ -156.259707526449432, 20.801583904538514 ], [ -156.259235395174812, 20.801996242427627 ], [ -156.258759770333938, 20.802446081090725 ], [ -156.257205055027555, 20.802776297789809 ], [ -156.256194548306155, 20.803731878282019 ], [ -156.252861274905456, 20.804060952248765 ], [ -156.251743696509806, 20.805117807003349 ], [ -156.250528194171494, 20.805648592721042 ], [ -156.249418167064647, 20.806163869489922 ], [ -156.248497770806722, 20.806428534077561 ], [ -156.247449249070513, 20.807072401689176 ], [ -156.24559854018014, 20.80746532986004 ], [ -156.244177000652655, 20.808125133388589 ], [ -156.240683574360276, 20.808469632661645 ], [ -156.239286614729508, 20.808782379331092 ], [ -156.237875274612634, 20.8073529462363 ], [ -156.237250656070245, 20.80733084510107 ], [ -156.235536112122588, 20.807336129620751 ], [ -156.234959719171513, 20.80675222712329 ], [ -156.234438468381967, 20.806753736120736 ], [ -156.230522666894672, 20.803276083160398 ], [ -156.221463408544281, 20.797006719837533 ], [ -156.209641360084049, 20.789558959097626 ], [ -156.207645781534609, 20.788434551484908 ], [ -156.200786832100675, 20.784862893880746 ], [ -156.200838220070438, 20.783586666283618 ], [ -156.200832474251513, 20.781840045231256 ], [ -156.201965699092881, 20.781314219315551 ], [ -156.202885986599512, 20.781049796060543 ], [ -156.203461242187331, 20.780783050274373 ], [ -156.205138388588722, 20.780301110346969 ], [ -156.206295400374131, 20.779291498752581 ], [ -156.204658344234616, 20.778635889903526 ], [ -156.20292989820652, 20.778209540710783 ], [ -156.201561819224025, 20.777518219303261 ], [ -156.200077063708363, 20.777207033165716 ], [ -156.196333810977194, 20.776880373286307 ], [ -156.192334173819916, 20.775455533456345 ], [ -156.191181933970995, 20.775171136770574 ], [ -156.188920508243143, 20.774586496379161 ], [ -156.188459848769327, 20.77458781039094 ], [ -156.187787338478387, 20.774563831943109 ], [ -156.186561474865243, 20.77482369504666 ], [ -156.185414875666652, 20.776950906087887 ], [ -156.184334209045858, 20.777614219914 ], [ -156.18366566314927, 20.776936488835396 ], [ -156.183083866838189, 20.777206497041558 ], [ -156.182504917586158, 20.776913996386835 ], [ -156.181657838175141, 20.776916219628738 ], [ -156.181070532951935, 20.776619610025673 ], [ -156.179935471279521, 20.776622648077929 ], [ -156.179647300005996, 20.776330817325547 ], [ -156.179028754189005, 20.776035935956084 ], [ -156.178228028854704, 20.775224169719678 ], [ -156.177363707191347, 20.77494441655486 ], [ -156.177086585350992, 20.774663739948672 ], [ -156.176798022654509, 20.774393454027003 ], [ -156.176520902854946, 20.774112776725996 ], [ -156.175386146491746, 20.773571621877 ], [ -156.175100993608879, 20.772740557885395 ], [ -156.174844035217916, 20.771376764236944 ], [ -156.172279838933378, 20.771383731834288 ], [ -156.17168561946599, 20.770781240529246 ], [ -156.171095322117907, 20.771055167686214 ], [ -156.169373167528704, 20.770468854551861 ], [ -156.168531754775813, 20.770471109754908 ], [ -156.168242561870272, 20.769919262425084 ], [ -156.167967811451888, 20.769362098996005 ], [ -156.166853341667974, 20.769365130809163 ], [ -156.16516288854703, 20.768558990661898 ], [ -156.163970758710661, 20.767676700247002 ], [ -156.163418172401379, 20.767678149223396 ], [ -156.162679446550413, 20.766986494387471 ], [ -156.162263833458439, 20.766565186203419 ], [ -156.161383922213957, 20.766567433177457 ], [ -156.159688301927218, 20.765710247145591 ], [ -156.158654293460899, 20.765216943502544 ], [ -156.158279421125172, 20.764061845374215 ], [ -156.157426804164828, 20.764063996239784 ], [ -156.156562442856085, 20.763491898956879 ], [ -156.155965187551971, 20.763206817245049 ], [ -156.155564780180043, 20.762800954865845 ] ] ] } },
{ "type": "Feature", "properties": { "ID": 11, "GRIDCODE": 2 }, "geometry": { "type": "Polygon", "coordinates": [ [ [ -156.14160935173112, 20.708675326259264 ], [ -156.142293849462646, 20.709137100245616 ], [ -156.141985933457164, 20.71041707788746 ], [ -156.141307708691471, 20.710145036152692 ], [ -156.141130138918498, 20.709332126288366 ], [ -156.14160935173112, 20.708675326259264 ] ] ] } },
{ "type": "Feature", "properties": { "ID": 12, "GRIDCODE": 2 }, "geometry": { "type": "Polygon", "coordinates": [ [ [ -156.141059271264226, 20.707312067040643 ], [ -156.142014562064247, 20.707438091247024 ], [ -156.141757228310922, 20.708224602086421 ], [ -156.141169954876176, 20.707899589413579 ], [ -156.141059271264226, 20.707312067040643 ] ] ] } },
{ "type": "Feature", "properties": { "ID": 13, "GRIDCODE": 2 }, "geometry": { "type": "Polygon", "coordinates": [ [ [ -156.141367333696536, 20.706233888982382 ], [ -156.14173851302445, 20.70639067433871 ], [ -156.141470997250195, 20.706851048255075 ], [ -156.141367333696536, 20.706233888982382 ] ] ] } },
{ "type": "Feature", "properties": { "ID": 14, "GRIDCODE": 2 }, "geometry": { "type": "Polygon", "coordinates": [ [ [ -156.121098931617894, 20.727832420863397 ], [ -156.120746453091385, 20.727919215911051 ], [ -156.120994044890267, 20.728160858541319 ], [ -156.121098931617894, 20.727832420863397 ], [ -156.122385094706232, 20.728023347583225 ], [ -156.121637601830656, 20.72933095018475 ], [ -156.122331107049092, 20.730655006134601 ], [ -156.122332955676654, 20.731240976471376 ], [ -156.120883125379578, 20.731482230632892 ], [ -156.119194260540922, 20.731994649652535 ], [ -156.117624101638228, 20.731998346138969 ], [ -156.116712604730537, 20.730638220910297 ], [ -156.115723504154261, 20.730317750676946 ], [ -156.114593517007876, 20.729481042542275 ], [ -156.113441828980967, 20.729196179748484 ], [ -156.112478427868183, 20.728218648759885 ], [ -156.108910410039897, 20.728843928456957 ], [ -156.108322042840257, 20.727437894070651 ], [ -156.108311715623103, 20.723690967929624 ], [ -156.108422203760369, 20.720982399876611 ], [ -156.107952948377914, 20.719122951217837 ], [ -156.107938488081885, 20.71369828455212 ], [ -156.108280049691501, 20.713400282030026 ], [ -156.107719641781017, 20.712330201281816 ], [ -156.107340132753365, 20.708898793947284 ], [ -156.106213284056111, 20.705421364747309 ], [ -156.10561708338858, 20.704210377375077 ], [ -156.104563114200374, 20.702506781272621 ], [ -156.105313624114814, 20.702784934830753 ], [ -156.106160790240381, 20.703346107392715 ], [ -156.107024543539552, 20.703626158406603 ], [ -156.108695663895986, 20.704195879802167 ], [ -156.108463170607166, 20.703650336922664 ], [ -156.106050004257469, 20.702638108077998 ], [ -156.105056762466347, 20.701155708108502 ], [ -156.103925888816008, 20.699787884230606 ], [ -156.103654182426396, 20.699236387831601 ], [ -156.103365892228396, 20.698966008340779 ], [ -156.101689731281482, 20.695931298220739 ], [ -156.100698407831487, 20.695002448453504 ], [ -156.099744935502684, 20.694034693577745 ], [ -156.098682660403938, 20.693527261385494 ], [ -156.097725009538181, 20.692913022442241 ], [ -156.097362122396788, 20.691395330552623 ], [ -156.095347023009282, 20.689506757923311 ], [ -156.098560192806389, 20.688531881222939 ], [ -156.099324850891747, 20.688918988649363 ], [ -156.100690032639591, 20.688629906401008 ], [ -156.100977356609462, 20.688358637390678 ], [ -156.101424893679052, 20.687968011810753 ], [ -156.101855877934867, 20.687560973550653 ], [ -156.102441928080879, 20.687305307776732 ], [ -156.102828263460509, 20.686940491728748 ], [ -156.103591811213448, 20.687327165094821 ], [ -156.10404947787282, 20.686077040459548 ], [ -156.106818692299896, 20.685743673974422 ], [ -156.107363534773413, 20.685763273162721 ], [ -156.107904106744257, 20.685252269561783 ], [ -156.10907508235195, 20.684709399538018 ], [ -156.109397727685121, 20.684708600190444 ], [ -156.109966151959696, 20.68499636411871 ], [ -156.110542768741425, 20.68445131007552 ], [ -156.11138811224879, 20.684481755889554 ], [ -156.112015223460276, 20.684208362414619 ], [ -156.112010832920561, 20.682599769875313 ], [ -156.112607648237713, 20.68232295610429 ], [ -156.112890184362442, 20.682896836559085 ], [ -156.11345129534638, 20.683422623674609 ], [ -156.113866563159064, 20.683843879023051 ], [ -156.114443141467262, 20.684384336499228 ], [ -156.115024683571647, 20.684974596415252 ], [ -156.116595862478732, 20.685381618099132 ], [ -156.117440426194634, 20.685379491511213 ], [ -156.118446986606216, 20.68541577528492 ], [ -156.120029877760317, 20.685411838981913 ], [ -156.121183047882226, 20.685453203236001 ], [ -156.122589445589114, 20.684123659151762 ], [ -156.123211411651084, 20.684122148105224 ], [ -156.123790723405676, 20.684415340015612 ], [ -156.124179009813531, 20.684048518913677 ], [ -156.124941497037383, 20.684434554732491 ], [ -156.125771291409535, 20.683650221377921 ], [ -156.127492087749346, 20.683127897207783 ], [ -156.128144687947753, 20.683126217598417 ], [ -156.128697330364986, 20.683686994212255 ], [ -156.129025016542698, 20.68279139053594 ], [ -156.131025824168177, 20.682367452520779 ], [ -156.132644649190098, 20.682005762878795 ], [ -156.133042315160168, 20.682409492886819 ], [ -156.133894953689861, 20.681603279066589 ], [ -156.134386226808317, 20.68160206422175 ], [ -156.134760830615733, 20.682695160446247 ], [ -156.135146763286173, 20.685205242995806 ], [ -156.135839790076318, 20.686239102693776 ], [ -156.13612812407888, 20.686509432024163 ], [ -156.137229333373625, 20.688152287844691 ], [ -156.137533223635728, 20.688163158187699 ], [ -156.137896075504784, 20.688162180898946 ], [ -156.139695548517579, 20.695776742784698 ], [ -156.140253972307789, 20.699029958779892 ], [ -156.141258447515384, 20.704097489014348 ], [ -156.141262628278923, 20.705552444565782 ], [ -156.139516767572047, 20.704987074029074 ], [ -156.139577952053344, 20.703479782271305 ], [ -156.138750856085238, 20.700929044171264 ], [ -156.137582102234376, 20.700887129908594 ], [ -156.137291460337678, 20.700887849945737 ], [ -156.136747160792822, 20.699519257054213 ], [ -156.136181254598398, 20.698702661736249 ], [ -156.135662142941698, 20.697101350505129 ], [ -156.135358794015389, 20.696522390036687 ], [ -156.134955126259456, 20.695703202494087 ], [ -156.134505916285889, 20.695961259276508 ], [ -156.13342853616885, 20.696622495077129 ], [ -156.13074053358352, 20.697528764146199 ], [ -156.128105719455988, 20.698027262115055 ], [ -156.126558138341437, 20.698744871735929 ], [ -156.124374550279214, 20.699042171248504 ], [ -156.123511797441552, 20.699303865763728 ], [ -156.122638002705173, 20.699554792102724 ], [ -156.122062966828565, 20.699821288371666 ], [ -156.120473364328831, 20.700514465267478 ], [ -156.118283731779684, 20.701813537223067 ], [ -156.118846342922382, 20.702204855457882 ], [ -156.121567344683598, 20.702668650960462 ], [ -156.122538971312451, 20.703578687170221 ], [ -156.123127951083802, 20.704703157807771 ], [ -156.123931926137686, 20.706335836369895 ], [ -156.1245191163691, 20.706632868228585 ], [ -156.126533878548429, 20.706932057047858 ], [ -156.127098526149439, 20.707217596430358 ], [ -156.127674615211419, 20.707492746185054 ], [ -156.128239267391763, 20.707778282297649 ], [ -156.129103689670927, 20.708191005958156 ], [ -156.129081582911368, 20.708737570265235 ], [ -156.129082870811573, 20.709146469241293 ], [ -156.126887297152763, 20.709445305052387 ], [ -156.126120770870926, 20.710786344956524 ], [ -156.127458042127046, 20.711643622832 ], [ -156.128153102563516, 20.712646344065238 ], [ -156.128410621595009, 20.714015726546112 ], [ -156.129494010935645, 20.714013047131964 ], [ -156.129822842026414, 20.715387718153341 ], [ -156.130686720124459, 20.715667663020685 ], [ -156.130951740265857, 20.716774545998646 ], [ -156.132079572504637, 20.717831021561089 ], [ -156.130347839968294, 20.718375517945976 ], [ -156.128556369753682, 20.718673698467487 ], [ -156.127434495119275, 20.720222633754055 ], [ -156.126545247996802, 20.721285773292141 ], [ -156.126006789295218, 20.723213647817836 ], [ -156.124804444764806, 20.722605227493279 ], [ -156.124041577061263, 20.72295889843198 ], [ -156.122480779407084, 20.721802959152907 ], [ -156.121340918341531, 20.722797209685897 ], [ -156.121596863138137, 20.724187331518976 ], [ -156.122142484746092, 20.725778937495598 ], [ -156.12184929142461, 20.726358118074071 ], [ -156.121545757191029, 20.726889387448345 ], [ -156.121098931617894, 20.727832420863397 ] ] ] } }
]
}
