{
"type": "FeatureCollection",
"name": "pithalo",
"crs": { "type": "name", "properties": { "name": "urn:ogc:def:crs:OGC:1.3:CRS84" } },
"features": [
{ "type": "Feature", "properties": { "ID": 1, "GRIDCODE": 2 }, "geometry": { "type": "Polygon", "coordinates": [ [ [ -156.923622171201913, 21.184006031735834 ], [ -156.923972880602349, 21.184103076551917 ], [ -156.923716558962639, 21.184337521223565 ], [ -156.923622171201913, 21.184006031735834 ] ] ] } },
{ "type": "Feature", "properties": { "ID": 2, "GRIDCODE": 2 }, "geometry": { "type": "Polygon", "coordinates": [ [ [ -156.924218733690253, 21.18265870463722 ], [ -156.924604440265455, 21.182855395874608 ], [ -156.92432980937005, 21.18355276652543 ], [ -156.924218733690253, 21.18265870463722 ] ] ] } },
{ "type": "Feature", "properties": { "ID": 3, "GRIDCODE": 2 }, "geometry": { "type": "Polygon", "coordinates": [ [ [ -156.923641090643457, 21.182651608109996 ], [ -156.923991796944705, 21.182748652639528 ], [ -156.923735477869087, 21.182983097569451 ], [ -156.923641090643457, 21.182651608109996 ] ] ] } },
{ "type": "Feature", "properties": { "ID": 4, "GRIDCODE": 2 }, "geometry": { "type": "Polygon", "coordinates": [ [ [ -156.929238123040079, 21.174863256581617 ], [ -156.929072457813106, 21.175213385932725 ], [ -156.928580308046804, 21.174963741729481 ], [ -156.929238123040079, 21.174863256581617 ] ] ] } },
{ "type": "Feature", "properties": { "ID": 5, "GRIDCODE": 2 }, "geometry": { "type": "Polygon", "coordinates": [ [ [ -156.929238123040079, 21.174863256581617 ], [ -156.929341717267761, 21.174534194709512 ], [ -156.929591397948457, 21.174774847835465 ], [ -156.929238123040079, 21.174863256581617 ] ] ] } },
{ "type": "Feature", "properties": { "ID": 6, "GRIDCODE": 2 }, "geometry": { "type": "Polygon", "coordinates": [ [ [ -156.803616687893424, 21.173006775778205 ], [ -156.804305764258402, 21.173446904520418 ], [ -156.805630156334701, 21.173574757185627 ], [ -156.805249247032691, 21.17413704225104 ], [ -156.803766118399494, 21.173641427313363 ], [ -156.803616687893424, 21.173006775778205 ] ] ] } },
{ "type": "Feature", "properties": { "ID": 7, "GRIDCODE": 2 }, "geometry": { "type": "Polygon", "coordinates": [ [ [ -156.92838302173007, 21.174039983017664 ], [ -156.928733712245645, 21.174137016378438 ], [ -156.928477416105267, 21.174371470561567 ], [ -156.92838302173007, 21.174039983017664 ] ] ] } },
{ "type": "Feature", "properties": { "ID": 8, "GRIDCODE": 2 }, "geometry": { "type": "Polygon", "coordinates": [ [ [ -156.811425730712529, 21.172295309246515 ], [ -156.811215910495832, 21.172656967815829 ], [ -156.810472515256521, 21.172398978344571 ], [ -156.811425730712529, 21.172295309246515 ] ] ] } },
{ "type": "Feature", "properties": { "ID": 9, "GRIDCODE": 2 }, "geometry": { "type": "Polygon", "coordinates": [ [ [ -156.805630156334701, 21.173574757185627 ], [ -156.805870013844668, 21.172745875349094 ], [ -156.80748653326043, 21.172133609181422 ], [ -156.807884454769891, 21.172387264009171 ], [ -156.806331960185901, 21.173152688937613 ], [ -156.805630156334701, 21.173574757185627 ] ] ] } },
{ "type": "Feature", "properties": { "ID": 10, "GRIDCODE": 2 }, "geometry": { "type": "Polygon", "coordinates": [ [ [ -156.811425730712529, 21.172295309246515 ], [ -156.811591658088304, 21.171945318357288 ], [ -156.812083569017972, 21.172195285988867 ], [ -156.811425730712529, 21.172295309246515 ] ] ] } },
{ "type": "Feature", "properties": { "ID": 11, "GRIDCODE": 2 }, "geometry": { "type": "Polygon", "coordinates": [ [ [ -156.808830702265226, 21.171990776091651 ], [ -156.81038558334302, 21.172134541968607 ], [ -156.80907406615782, 21.172358503553621 ], [ -156.808830702265226, 21.171990776091651 ] ] ] } },
{ "type": "Feature", "properties": { "ID": 12, "GRIDCODE": 2 }, "geometry": { "type": "Polygon", "coordinates": [ [ [ -156.81230004027509, 21.171764792398967 ], [ -156.812650626578431, 21.171862059893638 ], [ -156.812394168530687, 21.172096322840847 ], [ -156.81230004027509, 21.171764792398967 ] ] ] } },
{ "type": "Feature", "properties": { "ID": 13, "GRIDCODE": 2 }, "geometry": { "type": "Polygon", "coordinates": [ [ [ -156.803616687893424, 21.173006775778205 ], [ -156.803141558226628, 21.172652829510902 ], [ -156.802434817288656, 21.171518840841273 ], [ -156.803452216994629, 21.172015491959272 ], [ -156.803616687893424, 21.173006775778205 ] ] ] } },
{ "type": "Feature", "properties": { "ID": 14, "GRIDCODE": 2 }, "geometry": { "type": "Polygon", "coordinates": [ [ [ -156.813170361230107, 21.17150513602574 ], [ -156.814134518362295, 21.171635338058685 ], [ -156.813360953903128, 21.171856102921048 ], [ -156.813170361230107, 21.17150513602574 ] ] ] } },
{ "type": "Feature", "properties": { "ID": 15, "GRIDCODE": 2 }, "geometry": { "type": "Polygon", "coordinates": [ [ [ -156.801619252116723, 21.171355317867377 ], [ -156.802281759653852, 21.1714737268452 ], [ -156.801770965292718, 21.171701292603906 ], [ -156.801619252116723, 21.171355317867377 ] ] ] } },
{ "type": "Feature", "properties": { "ID": 16, "GRIDCODE": 2 }, "geometry": { "type": "Polygon", "coordinates": [ [ [ -156.816928469260574, 21.171282791033423 ], [ -156.816616250966547, 21.171665226501993 ], [ -156.814513147651354, 21.171379105130683 ], [ -156.816928469260574, 21.171282791033423 ] ] ] } },
{ "type": "Feature", "properties": { "ID": 17, "GRIDCODE": 2 }, "geometry": { "type": "Polygon", "coordinates": [ [ [ -156.800468152499121, 21.17106942945362 ], [ -156.801130657420259, 21.171187842759025 ], [ -156.800619862666935, 21.17141540497601 ], [ -156.800468152499121, 21.17106942945362 ] ] ] } },
{ "type": "Feature", "properties": { "ID": 18, "GRIDCODE": 2 }, "geometry": { "type": "Polygon", "coordinates": [ [ [ -156.799317058032642, 21.170783533572543 ], [ -156.800281190597644, 21.170913813226033 ], [ -156.799507615687816, 21.171134513202073 ], [ -156.799317058032642, 21.170783533572543 ] ] ] } },
{ "type": "Feature", "properties": { "ID": 19, "GRIDCODE": 2 }, "geometry": { "type": "Polygon", "coordinates": [ [ [ -156.818380312646951, 21.170759697584273 ], [ -156.818079785978881, 21.1711145735046 ], [ -156.816928469260574, 21.171282791033423 ], [ -156.817228998856223, 21.170927917434984 ], [ -156.818380312646951, 21.170759697584273 ] ] ] } },
{ "type": "Feature", "properties": { "ID": 20, "GRIDCODE": 2 }, "geometry": { "type": "Polygon", "coordinates": [ [ [ -156.799317058032642, 21.170783533572543 ], [ -156.798966485665574, 21.170686239372888 ], [ -156.799222960212148, 21.170451998404673 ], [ -156.799317058032642, 21.170783533572543 ] ] ] } },
{ "type": "Feature", "properties": { "ID": 21, "GRIDCODE": 2 }, "geometry": { "type": "Polygon", "coordinates": [ [ [ -156.928124405780778, 21.171869356864157 ], [ -156.928475091087705, 21.171966390350953 ], [ -156.928218798638568, 21.172200844471536 ], [ -156.928124405780778, 21.171869356864157 ] ] ] } },
{ "type": "Feature", "properties": { "ID": 22, "GRIDCODE": 2 }, "geometry": { "type": "Polygon", "coordinates": [ [ [ -156.818673063693012, 21.170492557331375 ], [ -156.818669091230731, 21.170763423922981 ], [ -156.818380312646951, 21.170759697584273 ], [ -156.818384285634124, 21.170488831044818 ], [ -156.818673063693012, 21.170492557331375 ] ] ] } },
{ "type": "Feature", "properties": { "ID": 23, "GRIDCODE": 2 }, "geometry": { "type": "Polygon", "coordinates": [ [ [ -156.819254591349193, 21.170229141721965 ], [ -156.819250619999622, 21.170500008427229 ], [ -156.818673063693012, 21.170492557331375 ], [ -156.818677036092339, 21.170221690730386 ], [ -156.819254591349193, 21.170229141721965 ] ] ] } },
{ "type": "Feature", "properties": { "ID": 24, "GRIDCODE": 2 }, "geometry": { "type": "Polygon", "coordinates": [ [ [ -156.928131952591201, 21.171327585115662 ], [ -156.928482636659197, 21.171424618488107 ], [ -156.928226345234833, 21.17165907271179 ], [ -156.928131952591201, 21.171327585115662 ] ] ] } },
{ "type": "Feature", "properties": { "ID": 25, "GRIDCODE": 2 }, "geometry": { "type": "Polygon", "coordinates": [ [ [ -156.819547339833832, 21.16996199971237 ], [ -156.819543369072051, 21.170232866479139 ], [ -156.819254591349193, 21.170229141721965 ], [ -156.819258562635866, 21.169958275007328 ], [ -156.819547339833832, 21.16996199971237 ] ] ] } },
{ "type": "Feature", "properties": { "ID": 26, "GRIDCODE": 2 }, "geometry": { "type": "Polygon", "coordinates": [ [ [ -156.819840087268716, 21.169694857096733 ], [ -156.819836117094724, 21.169965723925003 ], [ -156.819547339833832, 21.16996199971237 ], [ -156.819551310532688, 21.169691132936222 ], [ -156.819840087268716, 21.169694857096733 ] ] ] } },
{ "type": "Feature", "properties": { "ID": 27, "GRIDCODE": 2 }, "geometry": { "type": "Polygon", "coordinates": [ [ [ -156.820132833653929, 21.169427713875084 ], [ -156.820128864067669, 21.169698580764848 ], [ -156.819840087268716, 21.169694857096733 ], [ -156.819844057379811, 21.16942399025908 ], [ -156.820132833653929, 21.169427713875084 ] ] ] } },
{ "type": "Feature", "properties": { "ID": 28, "GRIDCODE": 2 }, "geometry": { "type": "Polygon", "coordinates": [ [ [ -156.797319702505376, 21.169132031184585 ], [ -156.797670269890347, 21.169229328404626 ], [ -156.797413795431225, 21.169463567017331 ], [ -156.797319702505376, 21.169132031184585 ] ] ] } },
{ "type": "Feature", "properties": { "ID": 29, "GRIDCODE": 2 }, "geometry": { "type": "Polygon", "coordinates": [ [ [ -156.788079053182088, 21.169011386541186 ], [ -156.787975159623358, 21.169340335659975 ], [ -156.787725736797739, 21.16909949341067 ], [ -156.788079053182088, 21.169011386541186 ] ] ] } },
{ "type": "Feature", "properties": { "ID": 30, "GRIDCODE": 2 }, "geometry": { "type": "Polygon", "coordinates": [ [ [ -156.820132833653929, 21.169427713875084 ], [ -156.820236658071593, 21.16909873880283 ], [ -156.820486138320064, 21.169339537626762 ], [ -156.820132833653929, 21.169427713875084 ] ] ] } },
{ "type": "Feature", "properties": { "ID": 31, "GRIDCODE": 2 }, "geometry": { "type": "Polygon", "coordinates": [ [ [ -156.797319702505376, 21.169132031184585 ], [ -156.796969135645242, 21.169034733276053 ], [ -156.797225609931161, 21.168800495324046 ], [ -156.797319702505376, 21.169132031184585 ] ] ] } },
{ "type": "Feature", "properties": { "ID": 32, "GRIDCODE": 2 }, "geometry": { "type": "Polygon", "coordinates": [ [ [ -156.788079053182088, 21.169011386541186 ], [ -156.788182946214732, 21.168682437306391 ], [ -156.788432369215911, 21.168923278895193 ], [ -156.788079053182088, 21.169011386541186 ] ] ] } },
{ "type": "Feature", "properties": { "ID": 33, "GRIDCODE": 2 }, "geometry": { "type": "Polygon", "coordinates": [ [ [ -156.938543819449279, 21.170371129391274 ], [ -156.939508147273074, 21.170500624422189 ], [ -156.938734720472723, 21.170721979549025 ], [ -156.938543819449279, 21.170371129391274 ] ] ] } },
{ "type": "Feature", "properties": { "ID": 34, "GRIDCODE": 2 }, "geometry": { "type": "Polygon", "coordinates": [ [ [ -156.927858247322348, 21.170240502175801 ], [ -156.928243928791574, 21.170437183120747 ], [ -156.927969342815885, 21.171134563931815 ], [ -156.927858247322348, 21.170240502175801 ] ] ] } },
{ "type": "Feature", "properties": { "ID": 35, "GRIDCODE": 2 }, "geometry": { "type": "Polygon", "coordinates": [ [ [ -156.820718323275202, 21.168893425613817 ], [ -156.821068910216241, 21.168990675558458 ], [ -156.820812469581767, 21.169224952935462 ], [ -156.820718323275202, 21.168893425613817 ] ] ] } },
{ "type": "Feature", "properties": { "ID": 36, "GRIDCODE": 2 }, "geometry": { "type": "Polygon", "coordinates": [ [ [ -156.788664645245404, 21.16847721923622 ], [ -156.789015203677451, 21.16857453379377 ], [ -156.788758718116327, 21.168808758188909 ], [ -156.788664645245404, 21.16847721923622 ] ] ] } },
{ "type": "Feature", "properties": { "ID": 37, "GRIDCODE": 2 }, "geometry": { "type": "Polygon", "coordinates": [ [ [ -156.937681174419623, 21.170089675559275 ], [ -156.93803186372017, 21.170186689394487 ], [ -156.937775588327156, 21.17042115954418 ], [ -156.937681174419623, 21.170089675559275 ] ] ] } },
{ "type": "Feature", "properties": { "ID": 38, "GRIDCODE": 2 }, "geometry": { "type": "Polygon", "coordinates": [ [ [ -156.892344207112757, 21.169259648979764 ], [ -156.892694856068545, 21.169356754318471 ], [ -156.892438517181375, 21.169591149922411 ], [ -156.892344207112757, 21.169259648979764 ] ] ] } },
{ "type": "Feature", "properties": { "ID": 39, "GRIDCODE": 2 }, "geometry": { "type": "Polygon", "coordinates": [ [ [ -156.790694071045948, 21.167961922556994 ], [ -156.791044630043984, 21.16805923291863 ], [ -156.790788148344433, 21.168293460766019 ], [ -156.790694071045948, 21.167961922556994 ] ] ] } },
{ "type": "Feature", "properties": { "ID": 40, "GRIDCODE": 2 }, "geometry": { "type": "Polygon", "coordinates": [ [ [ -156.922671239435147, 21.16936405501373 ], [ -156.923635538535279, 21.169493638985536 ], [ -156.922862100249944, 21.169714919966232 ], [ -156.922671239435147, 21.16936405501373 ] ] ] } },
{ "type": "Feature", "properties": { "ID": 41, "GRIDCODE": 2 }, "geometry": { "type": "Polygon", "coordinates": [ [ [ -156.893214412883907, 21.168999567031868 ], [ -156.893624732989451, 21.169304909185275 ], [ -156.892939480849577, 21.16963066465695 ], [ -156.893214412883907, 21.168999567031868 ] ] ] } },
{ "type": "Feature", "properties": { "ID": 42, "GRIDCODE": 2 }, "geometry": { "type": "Polygon", "coordinates": [ [ [ -156.891770466990948, 21.168981568234429 ], [ -156.892121114820128, 21.169078674680822 ], [ -156.89186477563203, 21.169313069385911 ], [ -156.891770466990948, 21.168981568234429 ] ] ] } },
{ "type": "Feature", "properties": { "ID": 43, "GRIDCODE": 2 }, "geometry": { "type": "Polygon", "coordinates": [ [ [ -156.79676221954719, 21.167770192293279 ], [ -156.796635962432077, 21.168391598441602 ], [ -156.796393438305046, 21.16791261686452 ], [ -156.79676221954719, 21.167770192293279 ] ] ] } },
{ "type": "Feature", "properties": { "ID": 44, "GRIDCODE": 2 }, "geometry": { "type": "Polygon", "coordinates": [ [ [ -156.934515666139305, 21.169238234068022 ], [ -156.934866350806146, 21.169335254149715 ], [ -156.934610072458895, 21.169569719231589 ], [ -156.934515666139305, 21.169238234068022 ] ] ] } },
{ "type": "Feature", "properties": { "ID": 45, "GRIDCODE": 2 }, "geometry": { "type": "Polygon", "coordinates": [ [ [ -156.924407793171497, 21.169114450604276 ], [ -156.925962857950566, 21.169257159546216 ], [ -156.92465145493972, 21.169482035341069 ], [ -156.924407793171497, 21.169114450604276 ] ] ] } },
{ "type": "Feature", "properties": { "ID": 46, "GRIDCODE": 2 }, "geometry": { "type": "Polygon", "coordinates": [ [ [ -156.921519842929314, 21.169078973084872 ], [ -156.921870516230399, 21.169176019415062 ], [ -156.921614219522382, 21.169410463127644 ], [ -156.921519842929314, 21.169078973084872 ] ] ] } },
{ "type": "Feature", "properties": { "ID": 47, "GRIDCODE": 2 }, "geometry": { "type": "Polygon", "coordinates": [ [ [ -156.892929460525892, 21.168725088398272 ], [ -156.893218249301214, 21.168728687122449 ], [ -156.893214412883907, 21.168999567031868 ], [ -156.892925623583665, 21.168995968257324 ], [ -156.892929460525892, 21.168725088398272 ] ] ] } },
{ "type": "Feature", "properties": { "ID": 48, "GRIDCODE": 2 }, "geometry": { "type": "Polygon", "coordinates": [ [ [ -156.891196729151403, 21.1687034857115 ], [ -156.891547375854003, 21.168800593265534 ], [ -156.891291036364976, 21.169034987071775 ], [ -156.891196729151403, 21.1687034857115 ] ] ] } },
{ "type": "Feature", "properties": { "ID": 49, "GRIDCODE": 2 }, "geometry": { "type": "Polygon", "coordinates": [ [ [ -156.823621932256373, 21.167847153575764 ], [ -156.823972519287224, 21.167944397456878 ], [ -156.823716084764158, 21.168178679818773 ], [ -156.823621932256373, 21.167847153575764 ] ] ] } },
{ "type": "Feature", "properties": { "ID": 50, "GRIDCODE": 2 }, "geometry": { "type": "Polygon", "coordinates": [ [ [ -156.797054999329077, 21.167503092280768 ], [ -156.797050988137698, 21.167773955035948 ], [ -156.79676221954719, 21.167770192293279 ], [ -156.796766231263291, 21.167499329590761 ], [ -156.797054999329077, 21.167503092280768 ] ] ] } },
{ "type": "Feature", "properties": { "ID": 51, "GRIDCODE": 2 }, "geometry": { "type": "Polygon", "coordinates": [ [ [ -156.933075443719787, 21.168949700851204 ], [ -156.933426126505339, 21.169046723792651 ], [ -156.933169846629397, 21.169281186552176 ], [ -156.933075443719787, 21.168949700851204 ] ] ] } },
{ "type": "Feature", "properties": { "ID": 52, "GRIDCODE": 2 }, "geometry": { "type": "Polygon", "coordinates": [ [ [ -156.920946039562011, 21.168800986948686 ], [ -156.921296711738222, 21.168898034387965 ], [ -156.921040414727003, 21.169132477202233 ], [ -156.920946039562011, 21.168800986948686 ] ] ] } },
{ "type": "Feature", "properties": { "ID": 53, "GRIDCODE": 2 }, "geometry": { "type": "Polygon", "coordinates": [ [ [ -156.892929460525892, 21.168725088398272 ], [ -156.892578812821597, 21.168627983651337 ], [ -156.892835149702591, 21.168393587652542 ], [ -156.892929460525892, 21.168725088398272 ] ] ] } },
{ "type": "Feature", "properties": { "ID": 54, "GRIDCODE": 2 }, "geometry": { "type": "Polygon", "coordinates": [ [ [ -156.826224858121975, 21.167609719927011 ], [ -156.82688737834772, 21.167728032705465 ], [ -156.826376627783674, 21.167955677331808 ], [ -156.826224858121975, 21.167609719927011 ] ] ] } },
{ "type": "Feature", "properties": { "ID": 55, "GRIDCODE": 2 }, "geometry": { "type": "Polygon", "coordinates": [ [ [ -156.824203442002442, 21.16758371920454 ], [ -156.824554028927508, 21.16768096186096 ], [ -156.824297595729661, 21.167915245230461 ], [ -156.824203442002442, 21.16758371920454 ] ] ] } },
{ "type": "Feature", "properties": { "ID": 56, "GRIDCODE": 2 }, "geometry": { "type": "Polygon", "coordinates": [ [ [ -156.931346432242748, 21.168657622682478 ], [ -156.932009079956856, 21.168775530598108 ], [ -156.931498456401357, 21.169003506184193 ], [ -156.931346432242748, 21.168657622682478 ] ] ] } },
{ "type": "Feature", "properties": { "ID": 57, "GRIDCODE": 2 }, "geometry": { "type": "Polygon", "coordinates": [ [ [ -156.918061892920178, 21.168494566591932 ], [ -156.918412561948514, 21.168591619805813 ], [ -156.918156261372019, 21.168826057921503 ], [ -156.918061892920178, 21.168494566591932 ] ] ] } },
{ "type": "Feature", "properties": { "ID": 58, "GRIDCODE": 2 }, "geometry": { "type": "Polygon", "coordinates": [ [ [ -156.886872606053061, 21.168107643804912 ], [ -156.888133476484313, 21.168244904369455 ], [ -156.887092601016832, 21.168466381596261 ], [ -156.886872606053061, 21.168107643804912 ] ] ] } },
{ "type": "Feature", "properties": { "ID": 59, "GRIDCODE": 2 }, "geometry": { "type": "Polygon", "coordinates": [ [ [ -156.8250737229815, 21.167323997475762 ], [ -156.82542431005686, 21.167421238325264 ], [ -156.825167878589497, 21.167655523179207 ], [ -156.8250737229815, 21.167323997475762 ] ] ] } },
{ "type": "Feature", "properties": { "ID": 60, "GRIDCODE": 2 }, "geometry": { "type": "Polygon", "coordinates": [ [ [ -156.892363396768985, 21.167905250141668 ], [ -156.892714042630104, 21.168002355189326 ], [ -156.892457706308761, 21.168236751054856 ], [ -156.892363396768985, 21.167905250141668 ] ] ] } },
{ "type": "Feature", "properties": { "ID": 61, "GRIDCODE": 2 }, "geometry": { "type": "Polygon", "coordinates": [ [ [ -156.888897956568627, 21.167862017035951 ], [ -156.890158828245148, 21.167999262471561 ], [ -156.889117956363918, 21.168220752578311 ], [ -156.888897956568627, 21.167862017035951 ] ] ] } },
{ "type": "Feature", "properties": { "ID": 62, "GRIDCODE": 2 }, "geometry": { "type": "Polygon", "coordinates": [ [ [ -156.885721310758385, 21.167822324395853 ], [ -156.886383901746711, 21.167940407947725 ], [ -156.885873224215004, 21.168168240099952 ], [ -156.885721310758385, 21.167822324395853 ] ] ] } },
{ "type": "Feature", "properties": { "ID": 63, "GRIDCODE": 2 }, "geometry": { "type": "Polygon", "coordinates": [ [ [ -156.795334434526353, 21.166667921382377 ], [ -156.795168477568751, 21.167017893685429 ], [ -156.794676616235648, 21.166767880625514 ], [ -156.795334434526353, 21.166667921382377 ] ] ] } },
{ "type": "Feature", "properties": { "ID": 64, "GRIDCODE": 2 }, "geometry": { "type": "Polygon", "coordinates": [ [ [ -156.885147590456853, 21.16754422261679 ], [ -156.885498229351214, 21.167641342178104 ], [ -156.885241883369559, 21.167875726205466 ], [ -156.885147590456853, 21.16754422261679 ] ] ] } },
{ "type": "Feature", "properties": { "ID": 65, "GRIDCODE": 2 }, "geometry": { "type": "Polygon", "coordinates": [ [ [ -156.798514874246223, 21.166438446178542 ], [ -156.798269780804247, 21.166761728850233 ], [ -156.797054999329077, 21.167503092280768 ], [ -156.797282112258102, 21.166718109072267 ], [ -156.798514874246223, 21.166438446178542 ] ] ] } },
{ "type": "Feature", "properties": { "ID": 66, "GRIDCODE": 2 }, "geometry": { "type": "Polygon", "coordinates": [ [ [ -156.798807648319496, 21.166171342586178 ], [ -156.798803640594315, 21.166442205704158 ], [ -156.798514874246223, 21.166438446178542 ], [ -156.798518882496126, 21.166167583113186 ], [ -156.798807648319496, 21.166171342586178 ] ] ] } },
{ "type": "Feature", "properties": { "ID": 67, "GRIDCODE": 2 }, "geometry": { "type": "Polygon", "coordinates": [ [ [ -156.892086124389408, 21.167089010827596 ], [ -156.892436768140044, 21.16718611628351 ], [ -156.892180432951079, 21.167420511830457 ], [ -156.892086124389408, 21.167089010827596 ] ] ] } },
{ "type": "Feature", "properties": { "ID": 68, "GRIDCODE": 2 }, "geometry": { "type": "Polygon", "coordinates": [ [ [ -156.799100421343354, 21.165904238386901 ], [ -156.799096414206389, 21.166175101566889 ], [ -156.798807648319496, 21.166171342586178 ], [ -156.798811655981154, 21.165900479458809 ], [ -156.799100421343354, 21.165904238386901 ] ] ] } },
{ "type": "Feature", "properties": { "ID": 69, "GRIDCODE": 2 }, "geometry": { "type": "Polygon", "coordinates": [ [ [ -156.930498887375364, 21.167292588375886 ], [ -156.93088751191658, 21.16758163839749 ], [ -156.931058251853671, 21.168772100429873 ], [ -156.93064416899378, 21.168163520171635 ], [ -156.930498887375364, 21.167292588375886 ] ] ] } },
{ "type": "Feature", "properties": { "ID": 70, "GRIDCODE": 2 }, "geometry": { "type": "Polygon", "coordinates": [ [ [ -156.914619165239941, 21.166826556819668 ], [ -156.915742902225162, 21.166969461384848 ], [ -156.916908061948789, 21.16858605510809 ], [ -156.917892087631799, 21.168978047812246 ], [ -156.916924601986835, 21.169338660598296 ], [ -156.91532750354267, 21.168150654035173 ], [ -156.915065512556851, 21.167220994575999 ], [ -156.914742803285662, 21.166981009192234 ], [ -156.914619165239941, 21.166826556819668 ] ] ] } },
{ "type": "Feature", "properties": { "ID": 71, "GRIDCODE": 2 }, "geometry": { "type": "Polygon", "coordinates": [ [ [ -156.799100421343354, 21.165904238386901 ], [ -156.799256209969968, 21.165268530275174 ], [ -156.799764459830044, 21.165574037744193 ], [ -156.799100421343354, 21.165904238386901 ] ] ] } },
{ "type": "Feature", "properties": { "ID": 72, "GRIDCODE": 2 }, "geometry": { "type": "Polygon", "coordinates": [ [ [ -156.795334434526353, 21.166667921382377 ], [ -156.795533589231184, 21.165676413993971 ], [ -156.796083094013284, 21.165747866593659 ], [ -156.796556743714319, 21.16520883633201 ], [ -156.797778153483875, 21.165866782800212 ], [ -156.796635223986499, 21.165718287652293 ], [ -156.796370998401187, 21.166019160708725 ], [ -156.795334434526353, 21.166667921382377 ] ] ] } },
{ "type": "Feature", "properties": { "ID": 73, "GRIDCODE": 2 }, "geometry": { "type": "Polygon", "coordinates": [ [ [ -156.88487806155095, 21.166186217749889 ], [ -156.885228697097375, 21.166283337601914 ], [ -156.884972353275344, 21.166517721415978 ], [ -156.88487806155095, 21.166186217749889 ] ] ] } },
{ "type": "Feature", "properties": { "ID": 74, "GRIDCODE": 2 }, "geometry": { "type": "Polygon", "coordinates": [ [ [ -156.927622281535832, 21.166444559935503 ], [ -156.927797604466832, 21.166575030964715 ], [ -156.928585575146599, 21.168529497905947 ], [ -156.928259837147351, 21.169821562983952 ], [ -156.927951434231431, 21.169544734831728 ], [ -156.928103680917843, 21.168658993426192 ], [ -156.927734614059432, 21.167411661749256 ], [ -156.927622281535832, 21.166444559935503 ] ] ] } },
{ "type": "Feature", "properties": { "ID": 75, "GRIDCODE": 2 }, "geometry": { "type": "Polygon", "coordinates": [ [ [ -156.893549228940856, 21.165752605180664 ], [ -156.893899870865994, 21.16584970743121 ], [ -156.893643540277566, 21.166084105617252 ], [ -156.893549228940856, 21.165752605180664 ] ] ] } },
{ "type": "Feature", "properties": { "ID": 76, "GRIDCODE": 2 }, "geometry": { "type": "Polygon", "coordinates": [ [ [ -156.876511132553077, 21.165539499733896 ], [ -156.876385205841927, 21.166160994292202 ], [ -156.876142416551545, 21.165682105424811 ], [ -156.876511132553077, 21.165539499733896 ] ] ] } },
{ "type": "Feature", "properties": { "ID": 77, "GRIDCODE": 2 }, "geometry": { "type": "Polygon", "coordinates": [ [ [ -156.892109152023892, 21.165463732048273 ], [ -156.893051375633917, 21.165593939563657 ], [ -156.893271353342925, 21.16611412865446 ], [ -156.892537360608799, 21.165819635028171 ], [ -156.892211551238745, 21.165940851664704 ], [ -156.892109152023892, 21.165463732048273 ] ] ] } },
{ "type": "Feature", "properties": { "ID": 78, "GRIDCODE": 2 }, "geometry": { "type": "Polygon", "coordinates": [ [ [ -156.873338433752451, 21.16522870211795 ], [ -156.873689057273907, 21.165325845103148 ], [ -156.873432698726589, 21.165560210044269 ], [ -156.873338433752451, 21.16522870211795 ] ] ] } },
{ "type": "Feature", "properties": { "ID": 79, "GRIDCODE": 2 }, "geometry": { "type": "Polygon", "coordinates": [ [ [ -156.843305824788047, 21.164848327502753 ], [ -156.845737376130245, 21.165007904404838 ], [ -156.843587378771474, 21.165213786067998 ], [ -156.843305824788047, 21.164848327502753 ] ] ] } },
{ "type": "Feature", "properties": { "ID": 80, "GRIDCODE": 2 }, "geometry": { "type": "Polygon", "coordinates": [ [ [ -156.840129338040271, 21.164807784180844 ], [ -156.84109349095678, 21.164937830745103 ], [ -156.840319990302248, 21.165158725655552 ], [ -156.840129338040271, 21.164807784180844 ] ] ] } },
{ "type": "Feature", "properties": { "ID": 81, "GRIDCODE": 2 }, "geometry": { "type": "Polygon", "coordinates": [ [ [ -156.913194218244655, 21.165454325131712 ], [ -156.913544876161893, 21.165551387625612 ], [ -156.913288574293773, 21.165785818235101 ], [ -156.913194218244655, 21.165454325131712 ] ] ] } },
{ "type": "Feature", "properties": { "ID": 82, "GRIDCODE": 2 }, "geometry": { "type": "Polygon", "coordinates": [ [ [ -156.893845681279288, 21.165214442112436 ], [ -156.894196322220495, 21.165311543663783 ], [ -156.893939993065175, 21.165545942429873 ], [ -156.893845681279288, 21.165214442112436 ] ] ] } },
{ "type": "Feature", "properties": { "ID": 83, "GRIDCODE": 2 }, "geometry": { "type": "Polygon", "coordinates": [ [ [ -156.884604685118177, 21.165099091188871 ], [ -156.884990287342873, 21.16529586511518 ], [ -156.884715516863821, 21.165993159960621 ], [ -156.884604685118177, 21.165099091188871 ] ] ] } },
{ "type": "Feature", "properties": { "ID": 84, "GRIDCODE": 2 }, "geometry": { "type": "Polygon", "coordinates": [ [ [ -156.875941307984164, 21.1649904918023 ], [ -156.876291933176361, 21.16508762948482 ], [ -156.876035578801066, 21.165321998761236 ], [ -156.875941307984164, 21.1649904918023 ] ] ] } },
{ "type": "Feature", "properties": { "ID": 85, "GRIDCODE": 2 }, "geometry": { "type": "Polygon", "coordinates": [ [ [ -156.872187195011463, 21.164943294456275 ], [ -156.872537816896596, 21.16504043971327 ], [ -156.872281457236994, 21.165274802803605 ], [ -156.872187195011463, 21.164943294456275 ] ] ] } },
{ "type": "Feature", "properties": { "ID": 86, "GRIDCODE": 2 }, "geometry": { "type": "Polygon", "coordinates": [ [ [ -156.84590869578355, 21.164610583325935 ], [ -156.84746356954534, 21.164754004503347 ], [ -156.846152146327512, 21.164978264517597 ], [ -156.84590869578355, 21.164610583325935 ] ] ] } },
{ "type": "Feature", "properties": { "ID": 87, "GRIDCODE": 2 }, "geometry": { "type": "Polygon", "coordinates": [ [ [ -156.838978188104193, 21.164522155945274 ], [ -156.839328780661162, 21.164619368186006 ], [ -156.839072374312792, 21.164853676511708 ], [ -156.838978188104193, 21.164522155945274 ] ] ] } },
{ "type": "Feature", "properties": { "ID": 88, "GRIDCODE": 2 }, "geometry": { "type": "Polygon", "coordinates": [ [ [ -156.928214951719127, 21.165368093424132 ], [ -156.928622980973216, 21.165660626935029 ], [ -156.92781806342083, 21.166260494954649 ], [ -156.928214951719127, 21.165368093424132 ] ] ] } },
{ "type": "Feature", "properties": { "ID": 89, "GRIDCODE": 2 }, "geometry": { "type": "Polygon", "coordinates": [ [ [ -156.912620446452507, 21.165176313051127 ], [ -156.912971103244615, 21.165273376653484 ], [ -156.912714801074031, 21.165507806364676 ], [ -156.912620446452507, 21.165176313051127 ] ] ] } },
{ "type": "Feature", "properties": { "ID": 90, "GRIDCODE": 2 }, "geometry": { "type": "Polygon", "coordinates": [ [ [ -156.876511132553077, 21.165539499733896 ], [ -156.87677699030553, 21.164619402255035 ], [ -156.877212714186555, 21.165098000513606 ], [ -156.876511132553077, 21.165539499733896 ] ] ] } },
{ "type": "Feature", "properties": { "ID": 91, "GRIDCODE": 2 }, "geometry": { "type": "Polygon", "coordinates": [ [ [ -156.875941307984164, 21.1649904918023 ], [ -156.875590683313675, 21.164893353429747 ], [ -156.875847037521993, 21.164658984814075 ], [ -156.875941307984164, 21.1649904918023 ] ] ] } },
{ "type": "Feature", "properties": { "ID": 92, "GRIDCODE": 2 }, "geometry": { "type": "Polygon", "coordinates": [ [ [ -156.847934018561972, 21.164365449182903 ], [ -156.848284618419513, 21.164462643311431 ], [ -156.848028225160874, 21.164696966460404 ], [ -156.847934018561972, 21.164365449182903 ] ] ] } },
{ "type": "Feature", "properties": { "ID": 93, "GRIDCODE": 2 }, "geometry": { "type": "Polygon", "coordinates": [ [ [ -156.929373877109612, 21.165111355966815 ], [ -156.929551240281342, 21.165216847126501 ], [ -156.929789259752283, 21.166558085708449 ], [ -156.930902789406417, 21.166929364633432 ], [ -156.929988211876832, 21.167220456292888 ], [ -156.929458913459996, 21.16690560485344 ], [ -156.929373877109612, 21.165111355966815 ] ] ] } },
{ "type": "Feature", "properties": { "ID": 94, "GRIDCODE": 2 }, "geometry": { "type": "Polygon", "coordinates": [ [ [ -156.894430912481596, 21.164679874312309 ], [ -156.894327251905963, 21.165008909303889 ], [ -156.894077648138563, 21.16476820989168 ], [ -156.894430912481596, 21.164679874312309 ] ] ] } },
{ "type": "Feature", "properties": { "ID": 95, "GRIDCODE": 2 }, "geometry": { "type": "Polygon", "coordinates": [ [ [ -156.87768170675443, 21.164470492499021 ], [ -156.877578010280331, 21.164799514128369 ], [ -156.877328436305504, 21.164558792272036 ], [ -156.87768170675443, 21.164470492499021 ] ] ] } },
{ "type": "Feature", "properties": { "ID": 96, "GRIDCODE": 2 }, "geometry": { "type": "Polygon", "coordinates": [ [ [ -156.870751061107597, 21.164383367284763 ], [ -156.871101680483264, 21.164480515337232 ], [ -156.870845319818727, 21.16471487615361 ], [ -156.870751061107597, 21.164383367284763 ] ] ] } },
{ "type": "Feature", "properties": { "ID": 97, "GRIDCODE": 2 }, "geometry": { "type": "Polygon", "coordinates": [ [ [ -156.848515479150876, 21.164101926176247 ], [ -156.848866078900727, 21.164199119080536 ], [ -156.848609686967734, 21.164433443235467 ], [ -156.848515479150876, 21.164101926176247 ] ] ] } },
{ "type": "Feature", "properties": { "ID": 98, "GRIDCODE": 2 }, "geometry": { "type": "Polygon", "coordinates": [ [ [ -156.911472909708522, 21.164620283552161 ], [ -156.911823564250255, 21.164717349371298 ], [ -156.911567261474886, 21.164951777285893 ], [ -156.911472909708522, 21.164620283552161 ] ] ] } },
{ "type": "Feature", "properties": { "ID": 99, "GRIDCODE": 2 }, "geometry": { "type": "Polygon", "coordinates": [ [ [ -156.903386975163585, 21.164520224256712 ], [ -156.903737622614926, 21.164617306398757 ], [ -156.903481308433612, 21.164851721008322 ], [ -156.903386975163585, 21.164520224256712 ] ] ] } },
{ "type": "Feature", "properties": { "ID": 100, "GRIDCODE": 2 }, "geometry": { "type": "Polygon", "coordinates": [ [ [ -156.894430912481596, 21.164679874312309 ], [ -156.894534572535377, 21.164350839206946 ], [ -156.894784176469869, 21.164591537958533 ], [ -156.894430912481596, 21.164679874312309 ] ] ] } },
{ "type": "Feature", "properties": { "ID": 101, "GRIDCODE": 2 }, "geometry": { "type": "Polygon", "coordinates": [ [ [ -156.885193796148798, 21.164293679483087 ], [ -156.885866549869064, 21.164429882291444 ], [ -156.885601996310641, 21.165202578935546 ], [ -156.885245021322987, 21.164995978167152 ], [ -156.885403201135318, 21.164702291532514 ], [ -156.885193796148798, 21.164293679483087 ] ] ] } },
{ "type": "Feature", "properties": { "ID": 102, "GRIDCODE": 2 }, "geometry": { "type": "Polygon", "coordinates": [ [ [ -156.870466161874901, 21.164108854854941 ], [ -156.870754937484861, 21.164112491175409 ], [ -156.870751061107597, 21.164383367284763 ], [ -156.870462284972888, 21.164379730913385 ], [ -156.870466161874901, 21.164108854854941 ] ] ] } },
{ "type": "Feature", "properties": { "ID": 103, "GRIDCODE": 2 }, "geometry": { "type": "Polygon", "coordinates": [ [ [ -156.849385708867231, 21.163842073736205 ], [ -156.849736308764534, 21.163939264833896 ], [ -156.84947991856302, 21.164173590471055 ], [ -156.849385708867231, 21.163842073736205 ] ] ] } },
{ "type": "Feature", "properties": { "ID": 104, "GRIDCODE": 2 }, "geometry": { "type": "Polygon", "coordinates": [ [ [ -156.834369697265174, 21.163650437929512 ], [ -156.834720283877033, 21.163747659307045 ], [ -156.834463872584223, 21.163981960168066 ], [ -156.834369697265174, 21.163650437929512 ] ] ] } },
{ "type": "Feature", "properties": { "ID": 105, "GRIDCODE": 2 }, "geometry": { "type": "Polygon", "coordinates": [ [ [ -156.910610361210729, 21.164338698299957 ], [ -156.91096101437418, 21.164435765810403 ], [ -156.910704710889064, 21.164670192351601 ], [ -156.910610361210729, 21.164338698299957 ] ] ] } },
{ "type": "Feature", "properties": { "ID": 106, "GRIDCODE": 2 }, "geometry": { "type": "Polygon", "coordinates": [ [ [ -156.906278615261414, 21.164285121705539 ], [ -156.906629264627014, 21.164382197960421 ], [ -156.906372955031287, 21.164616617374314 ], [ -156.906278615261414, 21.164285121705539 ] ] ] } },
{ "type": "Feature", "properties": { "ID": 107, "GRIDCODE": 2 }, "geometry": { "type": "Polygon", "coordinates": [ [ [ -156.877689434258997, 21.163928737831668 ], [ -156.878088561314115, 21.164204672371717 ], [ -156.87768170675443, 21.164470492499021 ], [ -156.877689434258997, 21.163928737831668 ] ] ] } },
{ "type": "Feature", "properties": { "ID": 108, "GRIDCODE": 2 }, "geometry": { "type": "Polygon", "coordinates": [ [ [ -156.870466161874901, 21.164108854854941 ], [ -156.870115543894173, 21.16401170558883 ], [ -156.870371904284099, 21.163777345856275 ], [ -156.870466161874901, 21.164108854854941 ] ] ] } },
{ "type": "Feature", "properties": { "ID": 109, "GRIDCODE": 2 }, "geometry": { "type": "Polygon", "coordinates": [ [ [ -156.834369697265174, 21.163650437929512 ], [ -156.834019111176559, 21.163553215862891 ], [ -156.834275522299123, 21.163318915662465 ], [ -156.834369697265174, 21.163650437929512 ] ] ] } },
{ "type": "Feature", "properties": { "ID": 110, "GRIDCODE": 2 }, "geometry": { "type": "Polygon", "coordinates": [ [ [ -156.909459033564247, 21.164053539153279 ], [ -156.909809685096207, 21.164150608937923 ], [ -156.90955338049406, 21.164385033630584 ], [ -156.909459033564247, 21.164053539153279 ] ] ] } },
{ "type": "Feature", "properties": { "ID": 111, "GRIDCODE": 2 }, "geometry": { "type": "Polygon", "coordinates": [ [ [ -156.894731191967054, 21.163870828859782 ], [ -156.895081830575293, 21.163967928371864 ], [ -156.894825505205972, 21.164202328825645 ], [ -156.894731191967054, 21.163870828859782 ] ] ] } },
{ "type": "Feature", "properties": { "ID": 112, "GRIDCODE": 2 }, "geometry": { "type": "Polygon", "coordinates": [ [ [ -156.87740452188666, 21.163654236080763 ], [ -156.877693297919421, 21.16365786048398 ], [ -156.877689434258997, 21.163928737831668 ], [ -156.877400657701486, 21.163925113377715 ], [ -156.87740452188666, 21.163654236080763 ] ] ] } },
{ "type": "Feature", "properties": { "ID": 113, "GRIDCODE": 2 }, "geometry": { "type": "Polygon", "coordinates": [ [ [ -156.83351128199422, 21.163097602405713 ], [ -156.833861866602632, 21.163194825410109 ], [ -156.833605455122523, 21.163429124948426 ], [ -156.83351128199422, 21.163097602405713 ] ] ] } },
{ "type": "Feature", "properties": { "ID": 114, "GRIDCODE": 2 }, "geometry": { "type": "Polygon", "coordinates": [ [ [ -156.908018929067765, 21.163764800353967 ], [ -156.908369578714911, 21.163861872995643 ], [ -156.908113272588508, 21.164096295364573 ], [ -156.908018929067765, 21.163764800353967 ] ] ] } },
{ "type": "Feature", "properties": { "ID": 115, "GRIDCODE": 2 }, "geometry": { "type": "Polygon", "coordinates": [ [ [ -156.906286238615451, 21.16374335702265 ], [ -156.906948835699723, 21.163861359830527 ], [ -156.906438198403634, 21.16408925803162 ], [ -156.906286238615451, 21.16374335702265 ] ] ] } },
{ "type": "Feature", "properties": { "ID": 116, "GRIDCODE": 2 }, "geometry": { "type": "Polygon", "coordinates": [ [ [ -156.884627792064464, 21.163473819892683 ], [ -156.885205346198632, 21.163481043489611 ], [ -156.885193796148798, 21.164293679483087 ], [ -156.884748425042119, 21.164075256983296 ], [ -156.884627792064464, 21.163473819892683 ] ] ] } },
{ "type": "Feature", "properties": { "ID": 117, "GRIDCODE": 2 }, "geometry": { "type": "Polygon", "coordinates": [ [ [ -156.90224712162177, 21.163422371999797 ], [ -156.90259776558409, 21.163519456241804 ], [ -156.902341451825038, 21.163753869158707 ], [ -156.90224712162177, 21.163422371999797 ] ] ] } },
{ "type": "Feature", "properties": { "ID": 118, "GRIDCODE": 2 }, "geometry": { "type": "Polygon", "coordinates": [ [ [ -156.826300050580386, 21.16246322523018 ], [ -156.826972709815777, 21.162928649289363 ], [ -156.826617795996555, 21.164499202424572 ], [ -156.82693222062656, 21.166106401840384 ], [ -156.826395309862079, 21.165653899837157 ], [ -156.826142087372261, 21.16501256947631 ], [ -156.825798304272439, 21.164488667679809 ], [ -156.826157264581667, 21.163973800744163 ], [ -156.826300050580386, 21.16246322523018 ] ] ] } },
{ "type": "Feature", "properties": { "ID": 119, "GRIDCODE": 2 }, "geometry": { "type": "Polygon", "coordinates": [ [ [ -156.832656818660269, 21.162273893658536 ], [ -156.833228117379889, 21.162554251012505 ], [ -156.83351128199422, 21.163097602405713 ], [ -156.832644982487494, 21.163086501761899 ], [ -156.832656818660269, 21.162273893658536 ] ] ] } },
{ "type": "Feature", "properties": { "ID": 120, "GRIDCODE": 2 }, "geometry": { "type": "Polygon", "coordinates": [ [ [ -156.895612855118344, 21.162798089959658 ], [ -156.895963492012413, 21.162895187490811 ], [ -156.895707169915909, 21.163129589579796 ], [ -156.895612855118344, 21.162798089959658 ] ] ] } },
{ "type": "Feature", "properties": { "ID": 121, "GRIDCODE": 2 }, "geometry": { "type": "Polygon", "coordinates": [ [ [ -156.884350569312232, 21.162657571733341 ], [ -156.884820753358866, 21.162777022820986 ], [ -156.884627792064464, 21.163473819892683 ], [ -156.884339015088926, 21.163470207355747 ], [ -156.884350569312232, 21.162657571733341 ] ] ] } },
{ "type": "Feature", "properties": { "ID": 122, "GRIDCODE": 2 }, "geometry": { "type": "Polygon", "coordinates": [ [ [ -156.896194240502069, 21.162534395210521 ], [ -156.896544877284583, 21.162631491517985 ], [ -156.896288556515003, 21.16286589460994 ], [ -156.896194240502069, 21.162534395210521 ] ] ] } },
{ "type": "Feature", "properties": { "ID": 123, "GRIDCODE": 2 }, "geometry": { "type": "Polygon", "coordinates": [ [ [ -156.87740452188666, 21.163654236080763 ], [ -156.877021347033889, 21.163466339578619 ], [ -156.877228708937622, 21.162652262774831 ], [ -156.878098987070331, 21.162267047985363 ], [ -156.877897950611811, 21.162756636960236 ], [ -156.87751182624055, 21.162933819568728 ], [ -156.87740452188666, 21.163654236080763 ] ] ] } },
{ "type": "Feature", "properties": { "ID": 124, "GRIDCODE": 2 }, "geometry": { "type": "Polygon", "coordinates": [ [ [ -156.884350569312232, 21.162657571733341 ], [ -156.88397736007164, 21.162502225894279 ], [ -156.884243698651318, 21.162040564317458 ], [ -156.884350569312232, 21.162657571733341 ] ] ] } },
{ "type": "Feature", "properties": { "ID": 125, "GRIDCODE": 2 }, "geometry": { "type": "Polygon", "coordinates": [ [ [ -156.826300050580386, 21.16246322523018 ], [ -156.825592879804987, 21.161831337777727 ], [ -156.826075729443374, 21.161272557354341 ], [ -156.826300050580386, 21.16246322523018 ] ] ] } },
{ "type": "Feature", "properties": { "ID": 126, "GRIDCODE": 2 }, "geometry": { "type": "Polygon", "coordinates": [ [ [ -156.899378442752493, 21.162032119398777 ], [ -156.899729081086377, 21.162129209179355 ], [ -156.899472765819951, 21.162363617604235 ], [ -156.899378442752493, 21.162032119398777 ] ] ] } },
{ "type": "Feature", "properties": { "ID": 127, "GRIDCODE": 2 }, "geometry": { "type": "Polygon", "coordinates": [ [ [ -156.898223335398029, 21.1620177679379 ], [ -156.898596561340838, 21.162173083465159 ], [ -156.898330264899727, 21.162634771358857 ], [ -156.898223335398029, 21.1620177679379 ] ] ] } },
{ "type": "Feature", "properties": { "ID": 128, "GRIDCODE": 2 }, "geometry": { "type": "Polygon", "coordinates": [ [ [ -156.878297886730678, 21.161768965407926 ], [ -156.878194194039366, 21.162097987786233 ], [ -156.877944623096482, 21.161857267065926 ], [ -156.878297886730678, 21.161768965407926 ] ] ] } },
{ "type": "Feature", "properties": { "ID": 129, "GRIDCODE": 2 }, "geometry": { "type": "Polygon", "coordinates": [ [ [ -156.901692479990061, 21.161789917080458 ], [ -156.902043119732639, 21.161887002140567 ], [ -156.901786808235812, 21.162121414419637 ], [ -156.901692479990061, 21.161789917080458 ] ] ] } },
{ "type": "Feature", "properties": { "ID": 130, "GRIDCODE": 2 }, "geometry": { "type": "Polygon", "coordinates": [ [ [ -156.899959819561445, 21.161768410866877 ], [ -156.90031045778349, 21.16186549942385 ], [ -156.900054143844017, 21.162099908851431 ], [ -156.899959819561445, 21.161768410866877 ] ] ] } },
{ "type": "Feature", "properties": { "ID": 131, "GRIDCODE": 2 }, "geometry": { "type": "Polygon", "coordinates": [ [ [ -156.896783281109549, 21.161728936779213 ], [ -156.897133916542998, 21.161826031746845 ], [ -156.896877598126053, 21.162060435946167 ], [ -156.896783281109549, 21.161728936779213 ] ] ] } },
{ "type": "Feature", "properties": { "ID": 132, "GRIDCODE": 2 }, "geometry": { "type": "Polygon", "coordinates": [ [ [ -156.883792279757699, 21.161295953101117 ], [ -156.884165485858489, 21.161451299099411 ], [ -156.883899148277578, 21.161912960651037 ], [ -156.883792279757699, 21.161295953101117 ] ] ] } },
{ "type": "Feature", "properties": { "ID": 133, "GRIDCODE": 2 }, "geometry": { "type": "Polygon", "coordinates": [ [ [ -156.878594382405709, 21.16123083282066 ], [ -156.878586659274077, 21.161772587979168 ], [ -156.878297886730678, 21.161768965407926 ], [ -156.878305610911667, 21.161227210350859 ], [ -156.878594382405709, 21.16123083282066 ] ] ] } },
{ "type": "Feature", "properties": { "ID": 134, "GRIDCODE": 2 }, "geometry": { "type": "Polygon", "coordinates": [ [ [ -156.897372315116968, 21.16092347569144 ], [ -156.897722949201381, 21.161020569319341 ], [ -156.897466633136929, 21.161254974625919 ], [ -156.897372315116968, 21.16092347569144 ] ] ] } },
{ "type": "Feature", "properties": { "ID": 135, "GRIDCODE": 2 }, "geometry": { "type": "Polygon", "coordinates": [ [ [ -156.897668742969444, 21.160385303673639 ], [ -156.898341495487387, 21.160521456354971 ], [ -156.898101718669722, 21.161222520495677 ], [ -156.897668742969444, 21.160385303673639 ] ] ] } },
{ "type": "Feature", "properties": { "ID": 136, "GRIDCODE": 2 }, "geometry": { "type": "Polygon", "coordinates": [ [ [ -156.878594382405709, 21.16123083282066 ], [ -156.878740703148139, 21.160048160352659 ], [ -156.878976683905734, 21.161024628253397 ], [ -156.878594382405709, 21.16123083282066 ] ] ] } },
{ "type": "Feature", "properties": { "ID": 137, "GRIDCODE": 2 }, "geometry": { "type": "Polygon", "coordinates": [ [ [ -156.832656818660269, 21.162273893658536 ], [ -156.831982133475435, 21.161752773142581 ], [ -156.83175573039739, 21.159830744623079 ], [ -156.832978600078036, 21.159177451312988 ], [ -156.833284691886064, 21.159617914035767 ], [ -156.832749315436786, 21.160009100584823 ], [ -156.832857015943205, 21.160922190023875 ], [ -156.832656818660269, 21.162273893658536 ] ] ] } },
{ "type": "Feature", "properties": { "ID": 138, "GRIDCODE": 2 }, "geometry": { "type": "Polygon", "coordinates": [ [ [ -156.878328781985374, 21.159601944955536 ], [ -156.878679396841051, 21.159699076804301 ], [ -156.878423055984769, 21.159933450939381 ], [ -156.878328781985374, 21.159601944955536 ] ] ] } },
{ "type": "Feature", "properties": { "ID": 139, "GRIDCODE": 2 }, "geometry": { "type": "Polygon", "coordinates": [ [ [ -156.884108011666996, 21.159403416132978 ], [ -156.884602161166953, 21.159542613340061 ], [ -156.884173900261572, 21.160879322950077 ], [ -156.883926672595209, 21.160631893103357 ], [ -156.884108011666996, 21.159403416132978 ] ] ] } },
{ "type": "Feature", "properties": { "ID": 140, "GRIDCODE": 2 }, "geometry": { "type": "Polygon", "coordinates": [ [ [ -156.877755108157373, 21.159323821650769 ], [ -156.878105721886271, 21.159420954605952 ], [ -156.877849380730339, 21.159655327842348 ], [ -156.877755108157373, 21.159323821650769 ] ] ] } },
{ "type": "Feature", "properties": { "ID": 141, "GRIDCODE": 2 }, "geometry": { "type": "Polygon", "coordinates": [ [ [ -156.884108011666996, 21.159403416132978 ], [ -156.883734810573799, 21.159248070408896 ], [ -156.884001143078848, 21.158786408623406 ], [ -156.884108011666996, 21.159403416132978 ] ] ] } },
{ "type": "Feature", "properties": { "ID": 142, "GRIDCODE": 2 }, "geometry": { "type": "Polygon", "coordinates": [ [ [ -156.877766695831724, 21.158511189103383 ], [ -156.877755108157373, 21.159323821650769 ], [ -156.877466340519533, 21.159320198059362 ], [ -156.877477929767736, 21.158507565664184 ], [ -156.877766695831724, 21.158511189103383 ] ] ] } },
{ "type": "Feature", "properties": { "ID": 143, "GRIDCODE": 2 }, "geometry": { "type": "Polygon", "coordinates": [ [ [ -156.878059323868058, 21.158243934465201 ], [ -156.878055461956961, 21.158514812050402 ], [ -156.877766695831724, 21.158511189103383 ], [ -156.8777705582674, 21.15824031156891 ], [ -156.878059323868058, 21.158243934465201 ] ] ] } },
{ "type": "Feature", "properties": { "ID": 144, "GRIDCODE": 2 }, "geometry": { "type": "Polygon", "coordinates": [ [ [ -156.882972201371473, 21.158034569942529 ], [ -156.883322816581938, 21.158131692119607 ], [ -156.883066485308689, 21.158366074179384 ], [ -156.882972201371473, 21.158034569942529 ] ] ] } },
{ "type": "Feature", "properties": { "ID": 145, "GRIDCODE": 2 }, "geometry": { "type": "Polygon", "coordinates": [ [ [ -156.878059323868058, 21.158243934465201 ], [ -156.878185233833051, 21.157622436965784 ], [ -156.878428019305346, 21.15810132276901 ], [ -156.878059323868058, 21.158243934465201 ] ] ] } },
{ "type": "Feature", "properties": { "ID": 146, "GRIDCODE": 2 }, "geometry": { "type": "Polygon", "coordinates": [ [ [ -156.882691141985447, 21.15748919862542 ], [ -156.883041755705051, 21.157586321268045 ], [ -156.882785425051452, 21.157820702957338 ], [ -156.882691141985447, 21.15748919862542 ] ] ] } },
{ "type": "Feature", "properties": { "ID": 147, "GRIDCODE": 2 }, "geometry": { "type": "Polygon", "coordinates": [ [ [ -156.882117466357897, 21.157211090062187 ], [ -156.882468078951121, 21.157308213811309 ], [ -156.882211747997559, 21.157542594602099 ], [ -156.882117466357897, 21.157211090062187 ] ] ] } },
{ "type": "Feature", "properties": { "ID": 148, "GRIDCODE": 2 }, "geometry": { "type": "Polygon", "coordinates": [ [ [ -156.878363534463688, 21.157164046232239 ], [ -156.878714143753854, 21.15726117755349 ], [ -156.878457807516497, 21.157495552162082 ], [ -156.878363534463688, 21.157164046232239 ] ] ] } },
{ "type": "Feature", "properties": { "ID": 149, "GRIDCODE": 2 }, "geometry": { "type": "Polygon", "coordinates": [ [ [ -156.880103832935561, 21.156644013121458 ], [ -156.881139436095509, 21.156767647756055 ], [ -156.881370622746573, 21.157091078156363 ], [ -156.881942828214648, 21.157472355641808 ], [ -156.881041687160206, 21.157353518810673 ], [ -156.880219424863157, 21.15680572895975 ], [ -156.880103832935561, 21.156644013121458 ] ] ] } },
{ "type": "Feature", "properties": { "ID": 150, "GRIDCODE": 2 }, "geometry": { "type": "Polygon", "coordinates": [ [ [ -156.878363534463688, 21.157164046232239 ], [ -156.877990345977736, 21.157008688761987 ], [ -156.8782566907758, 21.156547037075981 ], [ -156.878363534463688, 21.157164046232239 ] ] ] } }
]
}
