{
"type": "FeatureCollection",
"name": "pitnapa",
"crs": { "type": "name", "properties": { "name": "urn:ogc:def:crs:OGC:1.3:CRS84" } },
"features": [
{ "type": "Feature", "properties": { "ID": 1, "GRIDCODE": 2 }, "geometry": { "type": "Polygon", "coordinates": [ [ [ -159.536297579688579, 22.212033804032476 ], [ -159.536689778162241, 22.212224512400827 ], [ -159.53642561300606, 22.212926382824168 ], [ -159.536297579688579, 22.212033804032476 ] ] ] } },
{ "type": "Feature", "properties": { "ID": 2, "GRIDCODE": 2 }, "geometry": { "type": "Polygon", "coordinates": [ [ [ -159.477210996939391, 22.211946740781631 ], [ -159.477880757704327, 22.212054628746756 ], [ -159.477370341397432, 22.212290395622219 ], [ -159.477210996939391, 22.211946740781631 ] ] ] } },
{ "type": "Feature", "properties": { "ID": 3, "GRIDCODE": 2 }, "geometry": { "type": "Polygon", "coordinates": [ [ [ -159.542687366641246, 22.208489347704006 ], [ -159.542589013684136, 22.208820111059573 ], [ -159.542332859880759, 22.208583308157646 ], [ -159.542687366641246, 22.208489347704006 ] ] ] } },
{ "type": "Feature", "properties": { "ID": 4, "GRIDCODE": 2 }, "geometry": { "type": "Polygon", "coordinates": [ [ [ -159.537448405985486, 22.208506728757566 ], [ -159.537803623068328, 22.2085983346532 ], [ -159.537549287727501, 22.208836831357047 ], [ -159.537448405985486, 22.208506728757566 ] ] ] } },
{ "type": "Feature", "properties": { "ID": 5, "GRIDCODE": 2 }, "geometry": { "type": "Polygon", "coordinates": [ [ [ -159.541226904345621, 22.207139102721584 ], [ -159.541128548813106, 22.207469865299156 ], [ -159.540872399909802, 22.207233059961567 ], [ -159.541226904345621, 22.207139102721584 ] ] ] } },
{ "type": "Feature", "properties": { "ID": 6, "GRIDCODE": 2 }, "geometry": { "type": "Polygon", "coordinates": [ [ [ -159.537725005660263, 22.204711512913772 ], [ -159.537929623533216, 22.207277920643381 ], [ -159.537304638558908, 22.206822648086089 ], [ -159.537571798356595, 22.20483990803244 ], [ -159.537725005660263, 22.204711512913772 ] ] ] } },
{ "type": "Feature", "properties": { "ID": 7, "GRIDCODE": 2 }, "geometry": { "type": "Polygon", "coordinates": [ [ [ -159.537725005660263, 22.204711512913772 ], [ -159.537948089895764, 22.20360220318679 ], [ -159.539260497287671, 22.202949958744153 ], [ -159.537981878597265, 22.204488283957065 ], [ -159.537725005660263, 22.204711512913772 ] ] ] } },
{ "type": "Feature", "properties": { "ID": 8, "GRIDCODE": 2 }, "geometry": { "type": "Polygon", "coordinates": [ [ [ -159.539462994680122, 22.202537590238567 ], [ -159.540132752605729, 22.202645224215534 ], [ -159.53962247824029, 22.202881181856167 ], [ -159.539462994680122, 22.202537590238567 ] ] ] } },
{ "type": "Feature", "properties": { "ID": 9, "GRIDCODE": 2 }, "geometry": { "type": "Polygon", "coordinates": [ [ [ -159.523160650828544, 22.201506698765474 ], [ -159.52351584162821, 22.20159833644216 ], [ -159.523261493986809, 22.201836811254733 ], [ -159.523160650828544, 22.201506698765474 ] ] ] } },
{ "type": "Feature", "properties": { "ID": 10, "GRIDCODE": 2 }, "geometry": { "type": "Polygon", "coordinates": [ [ [ -159.50830687148445, 22.198572496225079 ], [ -159.508208443900372, 22.198903240638732 ], [ -159.507952364923511, 22.198666381890952 ], [ -159.50830687148445, 22.198572496225079 ] ] ] } },
{ "type": "Feature", "properties": { "ID": 11, "GRIDCODE": 2 }, "geometry": { "type": "Polygon", "coordinates": [ [ [ -159.526348954252313, 22.19797313515592 ], [ -159.533172553566573, 22.19807620880891 ], [ -159.532917965574114, 22.199186360702896 ], [ -159.532009678829525, 22.199431400281053 ], [ -159.532219722827023, 22.20096033229315 ], [ -159.531398019398495, 22.201577546431142 ], [ -159.532077922891574, 22.202437988529521 ], [ -159.530570556814979, 22.202687330055529 ], [ -159.530313922589556, 22.203260192174373 ], [ -159.529662381067254, 22.203518343916191 ], [ -159.529738281527443, 22.204070769023815 ], [ -159.529107279259989, 22.204881035808867 ], [ -159.530166272521029, 22.205475302021334 ], [ -159.529742006140225, 22.205972273158331 ], [ -159.529128552499003, 22.206215307896439 ], [ -159.528871906280727, 22.206788167735937 ], [ -159.52851995026171, 22.207052444226079 ], [ -159.53013342680822, 22.207476333121054 ], [ -159.529316281879233, 22.208525707191342 ], [ -159.530487693971821, 22.20898086019146 ], [ -159.529773777876699, 22.210120855397683 ], [ -159.52945925283754, 22.211158761415128 ], [ -159.528856620705881, 22.211090953198028 ], [ -159.528510756245026, 22.212605124708475 ], [ -159.526537911015907, 22.211906353988539 ], [ -159.526006211048042, 22.212529066847264 ], [ -159.524365081412839, 22.212344370731699 ], [ -159.522687078204001, 22.212544198967183 ], [ -159.519851951259056, 22.211482033588755 ], [ -159.519572142849768, 22.210582441272813 ], [ -159.519083337616735, 22.209814245356796 ], [ -159.520574675962479, 22.209412043651895 ], [ -159.520358682508515, 22.207838952681815 ], [ -159.522381008076906, 22.208644183348529 ], [ -159.522761864002035, 22.207794399957866 ], [ -159.523922096775948, 22.207924996205222 ], [ -159.524800593994712, 22.206796980276483 ], [ -159.52467899162292, 22.205911670820164 ], [ -159.525713385420261, 22.206028092876608 ], [ -159.52563099994552, 22.205428563065869 ], [ -159.525668783969508, 22.205137349621676 ], [ -159.525366077146884, 22.203246250590247 ], [ -159.524919056189077, 22.202174488419239 ], [ -159.527948163464316, 22.201889239533347 ], [ -159.52766374427523, 22.201000018361363 ], [ -159.526518726172242, 22.200152235755532 ], [ -159.526775889210654, 22.199718407905142 ], [ -159.528229619196082, 22.19932625061189 ], [ -159.527566198322859, 22.198816347399994 ], [ -159.526479912893478, 22.198394236255954 ], [ -159.526348954252313, 22.19797313515592 ] ] ] } },
{ "type": "Feature", "properties": { "ID": 12, "GRIDCODE": 2 }, "geometry": { "type": "Polygon", "coordinates": [ [ [ -159.542687366641246, 22.208489347704006 ], [ -159.542935523611675, 22.207533812485973 ], [ -159.541226904345621, 22.207139102721584 ], [ -159.541402473635912, 22.206616336524881 ], [ -159.543109242594966, 22.206106890569398 ], [ -159.542822266754172, 22.205355986018521 ], [ -159.541954294415177, 22.205390919243648 ], [ -159.541940739746252, 22.205099265554956 ], [ -159.542811406832925, 22.204342656746942 ], [ -159.541356993541172, 22.20455880065261 ], [ -159.540091257799332, 22.205376069173624 ], [ -159.540193849712239, 22.204833685659104 ], [ -159.540732141756735, 22.203878199360247 ], [ -159.540779148769928, 22.202663933737352 ], [ -159.540427761865487, 22.20236288912734 ], [ -159.540761408513276, 22.201037498779939 ], [ -159.543079410482704, 22.200734636220279 ], [ -159.541422485570649, 22.200013209972493 ], [ -159.540766417923209, 22.199451163973201 ], [ -159.543546346091347, 22.198269843944523 ], [ -159.545801194197622, 22.199123532604801 ], [ -159.549865642390444, 22.19879850010566 ], [ -159.551530341126067, 22.198301495243346 ], [ -159.552971629374241, 22.197585023282056 ], [ -159.552293553252298, 22.198762129529044 ], [ -159.551249803436093, 22.199225190037907 ], [ -159.551233085626308, 22.199656889232948 ], [ -159.551540071301162, 22.200192396464605 ], [ -159.551236866189669, 22.201007537667117 ], [ -159.551690518356565, 22.202199080614658 ], [ -159.551151560275912, 22.202744776348752 ], [ -159.549185821468342, 22.204303067013868 ], [ -159.548050045930012, 22.204264981348825 ], [ -159.547774193868264, 22.205361135946802 ], [ -159.546895457255317, 22.205331664068133 ], [ -159.54661427483228, 22.206448716642662 ], [ -159.546313150021206, 22.206710414245311 ], [ -159.546035322247434, 22.207263723491966 ], [ -159.545734194634491, 22.207525420054527 ], [ -159.545453686862487, 22.208360771323076 ], [ -159.544869721535974, 22.208341175047796 ], [ -159.544287698727004, 22.208364607884185 ], [ -159.543178043995425, 22.208327364996698 ], [ -159.542687366641246, 22.208489347704006 ] ] ] } },
{ "type": "Feature", "properties": { "ID": 13, "GRIDCODE": 2 }, "geometry": { "type": "Polygon", "coordinates": [ [ [ -159.540899512827536, 22.197654433545587 ], [ -159.541254704509015, 22.197746032534642 ], [ -159.541000394249835, 22.197984534438145 ], [ -159.540899512827536, 22.197654433545587 ] ] ] } },
{ "type": "Feature", "properties": { "ID": 14, "GRIDCODE": 2 }, "geometry": { "type": "Polygon", "coordinates": [ [ [ -159.540316413932402, 22.197385347437109 ], [ -159.540671604584247, 22.197476947722194 ], [ -159.54041729379324, 22.197715448732943 ], [ -159.540316413932402, 22.197385347437109 ] ] ] } },
{ "type": "Feature", "properties": { "ID": 15, "GRIDCODE": 2 }, "geometry": { "type": "Polygon", "coordinates": [ [ [ -159.50830687148445, 22.198572496225079 ], [ -159.50849797016113, 22.197792663611899 ], [ -159.508426468711235, 22.197352520287886 ], [ -159.508468550871953, 22.19708136608206 ], [ -159.508396613752808, 22.196638486371967 ], [ -159.508724439343013, 22.196240196003092 ], [ -159.510590340031342, 22.196529365294086 ], [ -159.51046369145169, 22.197346147273503 ], [ -159.510553004412174, 22.197896109297371 ], [ -159.509305204609831, 22.198145395216592 ], [ -159.508761755787049, 22.19845301190286 ], [ -159.50830687148445, 22.198572496225079 ] ] ] } },
{ "type": "Feature", "properties": { "ID": 16, "GRIDCODE": 2 }, "geometry": { "type": "Polygon", "coordinates": [ [ [ -159.491118852329265, 22.193746819748561 ], [ -159.492117572487501, 22.194016470389787 ], [ -159.491546162095659, 22.194952601399233 ], [ -159.491254075360274, 22.19650793426651 ], [ -159.490553182985622, 22.195969302904629 ], [ -159.49101940612826, 22.195205549513336 ], [ -159.49096149355276, 22.194693167450463 ], [ -159.491118852329265, 22.193746819748561 ] ] ] } },
{ "type": "Feature", "properties": { "ID": 17, "GRIDCODE": 2 }, "geometry": { "type": "Polygon", "coordinates": [ [ [ -159.461721689436644, 22.19274871262089 ], [ -159.462391348287895, 22.192856668411803 ], [ -159.461880973893983, 22.193092384458421 ], [ -159.461721689436644, 22.19274871262089 ] ] ] } },
{ "type": "Feature", "properties": { "ID": 18, "GRIDCODE": 2 }, "geometry": { "type": "Polygon", "coordinates": [ [ [ -159.471025426682445, 22.190011832040575 ], [ -159.473572804160227, 22.191649456554426 ], [ -159.479103503529444, 22.192851785775005 ], [ -159.483117166871864, 22.193361506877267 ], [ -159.483403311496033, 22.193637099042917 ], [ -159.48398714656156, 22.194156156056362 ], [ -159.483540102231956, 22.194617259688119 ], [ -159.482826800922993, 22.195259533584942 ], [ -159.48254339821483, 22.195807949943532 ], [ -159.482249507209985, 22.195803233404447 ], [ -159.481933345388626, 22.195810178160823 ], [ -159.480874381694804, 22.194790298981076 ], [ -159.480217072785592, 22.196356761764925 ], [ -159.479630086327717, 22.196624097744273 ], [ -159.479056625686098, 22.197444274202585 ], [ -159.478081360765685, 22.198793226681875 ], [ -159.477610554298906, 22.200158870024367 ], [ -159.477313811858579, 22.200154099313611 ], [ -159.476770168020977, 22.201206045013816 ], [ -159.475899188317726, 22.202055516958083 ], [ -159.475851630969885, 22.201016233021516 ], [ -159.476212022427461, 22.199351023989575 ], [ -159.475567662994251, 22.199340661891707 ], [ -159.474964736794448, 22.1993538810482 ], [ -159.474985016222263, 22.198263957906441 ], [ -159.474686976919145, 22.197999013892925 ], [ -159.474716881423348, 22.1963897518281 ], [ -159.473918672812857, 22.196009774805674 ], [ -159.473369526364479, 22.19650419068887 ], [ -159.472409034504437, 22.197441002170407 ], [ -159.472066367619078, 22.195833126420872 ], [ -159.471768481355383, 22.195568279775646 ], [ -159.471781670356137, 22.194858284201832 ], [ -159.471413998715661, 22.192460110568359 ], [ -159.470881839138769, 22.19150538184121 ], [ -159.470886966668246, 22.191231840935885 ], [ -159.470873866421158, 22.190712170539985 ], [ -159.471025426682445, 22.190011832040575 ] ] ] } },
{ "type": "Feature", "properties": { "ID": 19, "GRIDCODE": 2 }, "geometry": { "type": "Polygon", "coordinates": [ [ [ -159.469275715263223, 22.188932785260036 ], [ -159.469630841780486, 22.189024541816572 ], [ -159.469376423578211, 22.18926293408488 ], [ -159.469275715263223, 22.188932785260036 ] ] ] } },
{ "type": "Feature", "properties": { "ID": 20, "GRIDCODE": 2 }, "geometry": { "type": "Polygon", "coordinates": [ [ [ -159.43898301183944, 22.180344428299666 ], [ -159.439713837204181, 22.180475261738568 ], [ -159.44123178475337, 22.181427608556596 ], [ -159.4419077492756, 22.181824452936851 ], [ -159.442329766853646, 22.181008238912625 ], [ -159.445201839719346, 22.182196317208206 ], [ -159.449685366041763, 22.183537732192363 ], [ -159.461793172090097, 22.186250809537139 ], [ -159.462136577719633, 22.187020106804582 ], [ -159.460682948329634, 22.18746396876919 ], [ -159.460107647322502, 22.187742036658353 ], [ -159.459520656825447, 22.188009300486261 ], [ -159.459237298969043, 22.188573405085283 ], [ -159.459821025677201, 22.189092550954054 ], [ -159.460107116860229, 22.189368185132597 ], [ -159.46040682117183, 22.189634740094448 ], [ -159.46010974715287, 22.190175833558932 ], [ -159.459828118269854, 22.191271677349498 ], [ -159.460410054019519, 22.19125897104092 ], [ -159.460988592512138, 22.191947082999583 ], [ -159.460116666973732, 22.192344058890125 ], [ -159.460137397093547, 22.193167742997186 ], [ -159.461299863050186, 22.193142362940819 ], [ -159.461867433928035, 22.193710275189122 ], [ -159.460705043733753, 22.194239516379476 ], [ -159.460420574531383, 22.194464911672799 ], [ -159.462172828671072, 22.194778320322328 ], [ -159.461276577580804, 22.195585100481495 ], [ -159.461890127991381, 22.196130724090548 ], [ -159.461561195527906, 22.196426840453508 ], [ -159.460421225812496, 22.196408401410022 ], [ -159.46013677903656, 22.196685758729874 ], [ -159.459636110581783, 22.19713646999638 ], [ -159.460430586966879, 22.197492633068023 ], [ -159.46042537732211, 22.197768990238799 ], [ -159.461014282604566, 22.198032980442022 ], [ -159.461300429420902, 22.198319293771938 ], [ -159.460132039720094, 22.198851256894361 ], [ -159.460726784139638, 22.199117890673133 ], [ -159.461013040224628, 22.199393633800604 ], [ -159.461606235099339, 22.199380675832519 ], [ -159.46217896672826, 22.199932376943345 ], [ -159.462472758737448, 22.199925955751887 ], [ -159.462772627326018, 22.199930802537686 ], [ -159.462762536211301, 22.200472449200593 ], [ -159.463061305581903, 22.201008437141766 ], [ -159.463365406161898, 22.201587641788866 ], [ -159.463345888460111, 22.202633874791189 ], [ -159.463649618105592, 22.20290393071657 ], [ -159.464713229025193, 22.204231477811469 ], [ -159.465947148704345, 22.204600455895978 ], [ -159.466855164930536, 22.205881450123897 ], [ -159.467153064305364, 22.206146305205628 ], [ -159.467147867484414, 22.206422554556021 ], [ -159.467445768553119, 22.20668740698758 ], [ -159.467923670805646, 22.207147755670597 ], [ -159.469455603642018, 22.209533888937283 ], [ -159.469781595692041, 22.210656075358319 ], [ -159.46400636954931, 22.209511716785315 ], [ -159.452306657504806, 22.205375053827915 ], [ -159.441975744304187, 22.201832749294311 ], [ -159.440942968792541, 22.201340860053101 ], [ -159.440049743493006, 22.201073620704587 ], [ -159.440658333268942, 22.200525951408782 ], [ -159.440059806989694, 22.199993543625411 ], [ -159.439773572553378, 22.199666569612177 ], [ -159.441805938936966, 22.19809164294065 ], [ -159.442090248720831, 22.19780336669238 ], [ -159.439916917966912, 22.197850557627365 ], [ -159.440354717369956, 22.198636254179366 ], [ -159.439475179256107, 22.199176630942375 ], [ -159.438883591894125, 22.199753326826329 ], [ -159.43890889843928, 22.200762665902609 ], [ -159.436864173686075, 22.199996730809548 ], [ -159.435984406065415, 22.199733481454047 ], [ -159.435691650396308, 22.19728962414791 ], [ -159.435324232760706, 22.19629925843331 ], [ -159.435976845482969, 22.195397104248936 ], [ -159.43643792476027, 22.194505505984299 ], [ -159.435936598950519, 22.19315411411149 ], [ -159.432510419500147, 22.191906184030564 ], [ -159.433378188057645, 22.189897321369724 ], [ -159.434500380549622, 22.190251681820826 ], [ -159.435419570107342, 22.190231754841417 ], [ -159.436770785204914, 22.188914516001976 ], [ -159.436212611296696, 22.186910150060132 ], [ -159.437842067681146, 22.18590893764658 ], [ -159.438546578277965, 22.183183238629905 ], [ -159.439284353489938, 22.181156692150228 ], [ -159.43898301183944, 22.180344428299666 ] ] ] } },
{ "type": "Feature", "properties": { "ID": 21, "GRIDCODE": 2 }, "geometry": { "type": "Polygon", "coordinates": [ [ [ -159.655408537605922, 22.163627567024257 ], [ -159.655787420807343, 22.163776779564841 ], [ -159.65552795826045, 22.16424298316867 ], [ -159.655408537605922, 22.163627567024257 ] ] ] } },
{ "type": "Feature", "properties": { "ID": 22, "GRIDCODE": 2 }, "geometry": { "type": "Polygon", "coordinates": [ [ [ -159.657402407563325, 22.154404896723193 ], [ -159.658601914429255, 22.154736035646476 ], [ -159.659244745106008, 22.155247438336406 ], [ -159.658687160970629, 22.156187910799897 ], [ -159.658856315657061, 22.15804770359129 ], [ -159.657551383110444, 22.155709609153657 ], [ -159.657402407563325, 22.154404896723193 ] ] ] } },
{ "type": "Feature", "properties": { "ID": 23, "GRIDCODE": 2 }, "geometry": { "type": "Polygon", "coordinates": [ [ [ -159.643750598043226, 22.159337703344761 ], [ -159.643381830712144, 22.159486421325344 ], [ -159.643635520230788, 22.159961416262352 ], [ -159.643750598043226, 22.159337703344761 ], [ -159.643906297438264, 22.159211661073819 ], [ -159.644166921859551, 22.157293331236946 ], [ -159.644478315208772, 22.157041245818831 ], [ -159.644777153918369, 22.156715408590991 ], [ -159.645376110421978, 22.157357471535079 ], [ -159.645204095362544, 22.159060939495088 ], [ -159.644849785625581, 22.159155115155709 ], [ -159.645106015389956, 22.159391764735613 ], [ -159.645204095362544, 22.159060939495088 ], [ -159.646256806499707, 22.158454785089745 ], [ -159.646216353870017, 22.159520289308944 ], [ -159.645349566881521, 22.160274781696081 ], [ -159.645000557968359, 22.160628625026742 ], [ -159.645108794337119, 22.16190185034916 ], [ -159.645645462436164, 22.16135768762075 ], [ -159.645946304109287, 22.161095815403794 ], [ -159.646514854378978, 22.16051930861715 ], [ -159.648572231007535, 22.160587089696861 ], [ -159.648542698680046, 22.161365758757224 ], [ -159.649150865798958, 22.161886180365993 ], [ -159.649140220895163, 22.162167075919889 ], [ -159.650703364758584, 22.162621217088226 ], [ -159.649995210256776, 22.163237672257857 ], [ -159.650612674030839, 22.163506096231476 ], [ -159.651006407316714, 22.164274647668197 ], [ -159.652185756887718, 22.164617268355759 ], [ -159.651833538200719, 22.165398352608346 ], [ -159.649451342945554, 22.164052764395127 ], [ -159.647210867895723, 22.16380099299765 ], [ -159.645082853552822, 22.164625048032121 ], [ -159.640313003957942, 22.16882908451543 ], [ -159.639027880795254, 22.172120202648397 ], [ -159.638702156772268, 22.177197980626584 ], [ -159.637551328694315, 22.178769754216972 ], [ -159.630538703263397, 22.183602341405212 ], [ -159.624827850863198, 22.188551086205447 ], [ -159.62352070482487, 22.189451716143267 ], [ -159.620749754867859, 22.190182462888696 ], [ -159.619179434149117, 22.191382572955593 ], [ -159.617075237789436, 22.194897122908479 ], [ -159.612614170999649, 22.198524787991548 ], [ -159.606737142337209, 22.201897113168833 ], [ -159.601685476495874, 22.205161770497607 ], [ -159.597885131110303, 22.205659682909271 ], [ -159.596370742853537, 22.203282500549204 ], [ -159.595150776106465, 22.201897711004289 ], [ -159.59431562140287, 22.200266495430256 ], [ -159.594038197953779, 22.202286571967132 ], [ -159.594627217634013, 22.203831967491215 ], [ -159.594616458598267, 22.204111744053257 ], [ -159.595224801811128, 22.204928134215375 ], [ -159.595204252876925, 22.205464206900629 ], [ -159.595585931202606, 22.206465458946653 ], [ -159.593191814934443, 22.209124588415843 ], [ -159.590762583030255, 22.212413374545832 ], [ -159.58824553395587, 22.214079376730666 ], [ -159.584603379720647, 22.216090784791145 ], [ -159.582607048300446, 22.216612311132273 ], [ -159.580545269652077, 22.215151835555382 ], [ -159.576329084085501, 22.215322449702622 ], [ -159.574014679413864, 22.216653179629773 ], [ -159.573027550419852, 22.217091224813299 ], [ -159.565062788269046, 22.217758255700677 ], [ -159.564404887896018, 22.215591972464889 ], [ -159.563288751368134, 22.215637038805525 ], [ -159.562822093023215, 22.217491572052516 ], [ -159.559713782938104, 22.217776741406634 ], [ -159.559031721260794, 22.217096369370555 ], [ -159.557640127729655, 22.216691381058943 ], [ -159.557066102526846, 22.216714534965092 ], [ -159.556262674957708, 22.217527888676127 ], [ -159.555759088404528, 22.217790295445244 ], [ -159.555220239396988, 22.216225573533432 ], [ -159.554221982223766, 22.216721789305591 ], [ -159.55339214862849, 22.21698529954184 ], [ -159.552991591609697, 22.215069822583708 ], [ -159.552016418652386, 22.2151091301712 ], [ -159.551550314652246, 22.214198152993415 ], [ -159.551594838805414, 22.213044821236096 ], [ -159.550468502186362, 22.213604666677533 ], [ -159.549812157062235, 22.214911965515704 ], [ -159.54922570148824, 22.215373288877572 ], [ -159.548673466331024, 22.214822353345795 ], [ -159.548096604483106, 22.214845592596216 ], [ -159.54748624473396, 22.214825123240374 ], [ -159.547520414655708, 22.213943259472373 ], [ -159.549811416189925, 22.213426960409343 ], [ -159.549218779517844, 22.212919384662793 ], [ -159.55012946758967, 22.212127953335699 ], [ -159.550104643424646, 22.211593132974631 ], [ -159.551204537098812, 22.209906714874041 ], [ -159.551857683923259, 22.210225702463944 ], [ -159.552472607917338, 22.210200917033497 ], [ -159.552410150254133, 22.208858374395142 ], [ -159.553048147621581, 22.20830392249405 ], [ -159.554493528460313, 22.208352346710996 ], [ -159.554453944818221, 22.207501122138751 ], [ -159.554492715166845, 22.20649923450986 ], [ -159.555923289964653, 22.206960667184457 ], [ -159.556209692895095, 22.206898537972741 ], [ -159.555262100238906, 22.205245654119985 ], [ -159.556800237872523, 22.204786394330576 ], [ -159.555871908949598, 22.203386076287806 ], [ -159.555923946261515, 22.202038786764323 ], [ -159.557074841515373, 22.202077324332837 ], [ -159.557350545723011, 22.200981560662186 ], [ -159.557943099644007, 22.20071865032558 ], [ -159.557908388566347, 22.199972129482074 ], [ -159.55676316924712, 22.199638794564532 ], [ -159.556476691434113, 22.197983230055925 ], [ -159.557854489313996, 22.197371943909033 ], [ -159.557334541626574, 22.196926627591917 ], [ -159.557052679708363, 22.196441485561689 ], [ -159.558432489330698, 22.196109802585998 ], [ -159.560971020608747, 22.197908755813835 ], [ -159.565266579742115, 22.199158886993068 ], [ -159.567375446666972, 22.200499465518945 ], [ -159.569707487121946, 22.203834890292484 ], [ -159.568982694689794, 22.204464962383604 ], [ -159.569020808440484, 22.205282692319088 ], [ -159.569008972306335, 22.205589918776045 ], [ -159.568430672980242, 22.206092648470751 ], [ -159.568141647598708, 22.207531647093052 ], [ -159.566416759510503, 22.209031039821792 ], [ -159.567607655377032, 22.210431849072375 ], [ -159.568152716380098, 22.209345865516784 ], [ -159.568978295681148, 22.208979530099484 ], [ -159.569311465360329, 22.20798671454671 ], [ -159.569903599485826, 22.207723956607076 ], [ -159.570476811042425, 22.207438943861693 ], [ -159.570764769186269, 22.207499304499748 ], [ -159.569872072987238, 22.208275342415096 ], [ -159.569909494343392, 22.209078316746833 ], [ -159.569609078598631, 22.209611796324843 ], [ -159.569331337664323, 22.210165143360211 ], [ -159.568606182248828, 22.211154372247815 ], [ -159.569337855936766, 22.211780908590416 ], [ -159.569620258297078, 22.212381681205603 ], [ -159.569038317680111, 22.213415013442074 ], [ -159.569345509991933, 22.213678024329202 ], [ -159.569840161575911, 22.214644472434529 ], [ -159.570787544915447, 22.213130932893549 ], [ -159.5713775028307, 22.21232613646664 ], [ -159.571654141884324, 22.211501769704515 ], [ -159.571954130226857, 22.210969009676099 ], [ -159.572706187057406, 22.209470617300909 ], [ -159.573399504767508, 22.208524741548739 ], [ -159.573967175067082, 22.20769934544877 ], [ -159.575330909089359, 22.206126853523816 ], [ -159.577672139066692, 22.203130693382096 ], [ -159.578033025976112, 22.202816926087053 ], [ -159.578311828790589, 22.202534585329445 ], [ -159.578612884114847, 22.202272825701105 ], [ -159.579085287626896, 22.201794404135388 ], [ -159.583305376991746, 22.201308868112367 ], [ -159.58415150180096, 22.20172193452737 ], [ -159.584131100923031, 22.202252402729695 ], [ -159.584502917045285, 22.202900659121351 ], [ -159.585312342641828, 22.203593650586029 ], [ -159.585594590205233, 22.204145006178447 ], [ -159.585819780051651, 22.204404885810664 ], [ -159.58616762977681, 22.201964452939674 ], [ -159.586528086600737, 22.200663018282917 ], [ -159.585767945897629, 22.200012247532321 ], [ -159.586808305692216, 22.19776859008736 ], [ -159.588454693208007, 22.195521885482666 ], [ -159.591834829483759, 22.192025140052468 ], [ -159.594653723746063, 22.190467974535895 ], [ -159.597289951764679, 22.190555623709542 ], [ -159.60000830162241, 22.193266299822476 ], [ -159.600944942630406, 22.193228261991425 ], [ -159.60244963025221, 22.193589495651416 ], [ -159.602411399691476, 22.194587823376942 ], [ -159.603028774116041, 22.194856368194085 ], [ -159.603309914077414, 22.195136677059796 ], [ -159.603613562498793, 22.195396605282706 ], [ -159.603597841927382, 22.195807994379567 ], [ -159.603654532236533, 22.197019362581852 ], [ -159.604188734504021, 22.196478187369664 ], [ -159.605258061561784, 22.195829498726972 ], [ -159.606232386392861, 22.195396844426632 ], [ -159.607089949881754, 22.194298840015659 ], [ -159.607695391719318, 22.19431892582994 ], [ -159.607656672677678, 22.193494035167198 ], [ -159.607991772091509, 22.193202564148176 ], [ -159.607954373144651, 22.192404044329628 ], [ -159.607966124093281, 22.192096816430798 ], [ -159.608544223046067, 22.191593947746696 ], [ -159.608820605957192, 22.190769525550262 ], [ -159.609120410242781, 22.190236695616203 ], [ -159.609397956326859, 22.189683287788093 ], [ -159.610767463566816, 22.188739886941551 ], [ -159.612045487541451, 22.189151672858035 ], [ -159.6126534841394, 22.1891269402022 ], [ -159.613466010793132, 22.188263530683773 ], [ -159.612877618562266, 22.187237966581947 ], [ -159.613186590005711, 22.186121436518533 ], [ -159.614450276766235, 22.185560174357452 ], [ -159.61636483394426, 22.185623604383757 ], [ -159.61676250167514, 22.18483048696455 ], [ -159.618205907228145, 22.184398860268441 ], [ -159.618971630681642, 22.182871703645969 ], [ -159.620326548989965, 22.182049517960699 ], [ -159.62136274634733, 22.182083818310893 ], [ -159.622258147135682, 22.182976482552167 ], [ -159.623318160054737, 22.182448897961319 ], [ -159.623654827276994, 22.184055418562487 ], [ -159.625382188942865, 22.183386872673314 ], [ -159.625959971344486, 22.183668774258511 ], [ -159.6274461888666, 22.183608184566243 ], [ -159.627384522769262, 22.182296205887276 ], [ -159.627995740549892, 22.182316410000571 ], [ -159.628733762943142, 22.182286315490785 ], [ -159.627982686809958, 22.180977475452053 ], [ -159.62800018239372, 22.180517991063567 ], [ -159.628887614536694, 22.180123729309191 ], [ -159.628822956664237, 22.178748548256902 ], [ -159.629803186513527, 22.177962178717479 ], [ -159.631188349848969, 22.180135874609743 ], [ -159.631807738398237, 22.18011060530635 ], [ -159.633112075902488, 22.178788463803507 ], [ -159.634797067314906, 22.178169795580889 ], [ -159.635826232096377, 22.177657440489305 ], [ -159.636418535905136, 22.17739424938814 ], [ -159.636405571660845, 22.177118305977821 ], [ -159.63641586021842, 22.176847246666739 ], [ -159.636392840348122, 22.176357524539281 ], [ -159.632466403784207, 22.174319020355593 ], [ -159.631892126638093, 22.172653715053322 ], [ -159.631413762293136, 22.172244329428786 ], [ -159.63086088922725, 22.172266886844788 ], [ -159.630531002823602, 22.172255988613923 ], [ -159.629850474200737, 22.171577539242087 ], [ -159.629361707910505, 22.171159230204719 ], [ -159.629407249823771, 22.16996346816688 ], [ -159.629387945560126, 22.169552563528214 ], [ -159.629856428146212, 22.168719557114027 ], [ -159.628551553899769, 22.168772779715717 ], [ -159.627648103630037, 22.16831127264275 ], [ -159.62909558657438, 22.166334472912673 ], [ -159.629075182237159, 22.165899454425542 ], [ -159.629101513434762, 22.165207403784333 ], [ -159.628493831287102, 22.164687276727268 ], [ -159.628212485331375, 22.164357617241546 ], [ -159.628939684411137, 22.163064599365711 ], [ -159.629576825169352, 22.161793504755625 ], [ -159.628764074439545, 22.160376970452802 ], [ -159.628823803919886, 22.158808383977032 ], [ -159.628432078790127, 22.158125652797356 ], [ -159.628510010145447, 22.156080485760839 ], [ -159.628952539533401, 22.15438674835357 ], [ -159.631072565187935, 22.155733659434745 ], [ -159.633727007014272, 22.155986405104635 ], [ -159.634276548014412, 22.156534289962952 ], [ -159.634791089532456, 22.156974696804767 ], [ -159.634114220675059, 22.158178458841981 ], [ -159.636304324460923, 22.158089047214084 ], [ -159.63663698003171, 22.158738517165197 ], [ -159.639177980048487, 22.158316117638019 ], [ -159.640252131669797, 22.157781261965408 ], [ -159.641217750451972, 22.158252389157113 ], [ -159.641816182925339, 22.157058278425616 ], [ -159.642169699871147, 22.156774420322208 ], [ -159.643543936326296, 22.158738468362269 ], [ -159.643750598043226, 22.159337703344761 ] ], [ [ -159.584301078054722, 22.206719179191314 ], [ -159.584429408428917, 22.207611714554833 ], [ -159.584693323661327, 22.206909770971844 ], [ -159.584301078054722, 22.206719179191314 ] ], [ [ -159.585457399836571, 22.204817884598199 ], [ -159.585073653709088, 22.205716794762317 ], [ -159.585873770912315, 22.205103985800449 ], [ -159.585457399836571, 22.204817884598199 ] ] ] } },
{ "type": "Feature", "properties": { "ID": 24, "GRIDCODE": 2 }, "geometry": { "type": "Polygon", "coordinates": [ [ [ -159.628722193476165, 22.116575067864648 ], [ -159.629077232342468, 22.116666475568497 ], [ -159.628823215830948, 22.116905118590196 ], [ -159.628722193476165, 22.116575067864648 ] ] ] } },
{ "type": "Feature", "properties": { "ID": 25, "GRIDCODE": 2 }, "geometry": { "type": "Polygon", "coordinates": [ [ [ -159.631898704158061, 22.111413402477044 ], [ -159.632860652426757, 22.111935377930191 ], [ -159.632989085322492, 22.114666589894682 ], [ -159.632382582304956, 22.1158769889783 ], [ -159.631191651687914, 22.115925588890054 ], [ -159.62975260452771, 22.115878003388943 ], [ -159.629099675958088, 22.116203176435874 ], [ -159.627412745256748, 22.115197329949989 ], [ -159.629969535564186, 22.115044756933205 ], [ -159.631131742585922, 22.115612030169238 ], [ -159.632083772994861, 22.114906792985618 ], [ -159.631898704158061, 22.111413402477044 ] ] ] } },
{ "type": "Feature", "properties": { "ID": 26, "GRIDCODE": 2 }, "geometry": { "type": "Polygon", "coordinates": [ [ [ -159.578080006284409, 22.037351987385399 ], [ -159.578764873840328, 22.037486818522659 ], [ -159.578446107427823, 22.03796913783949 ], [ -159.578080006284409, 22.037351987385399 ] ] ] } },
{ "type": "Feature", "properties": { "ID": 27, "GRIDCODE": 2 }, "geometry": { "type": "Polygon", "coordinates": [ [ [ -159.578080006284409, 22.037351987385399 ], [ -159.577076130285718, 22.038043166252987 ], [ -159.575334413477265, 22.038666397183913 ], [ -159.575050860602005, 22.041052235178572 ], [ -159.574277006998472, 22.040221212105077 ], [ -159.573232705947277, 22.040489015149458 ], [ -159.57247426389867, 22.041315961414846 ], [ -159.571128693035803, 22.041219901717813 ], [ -159.570577974995189, 22.042382200847982 ], [ -159.570092904034937, 22.041861986694212 ], [ -159.569367870745367, 22.040791753088715 ], [ -159.5682094485052, 22.040709029670108 ], [ -159.567771531153397, 22.041633118927606 ], [ -159.565596211677189, 22.042774526125452 ], [ -159.56514230535393, 22.042412646357338 ], [ -159.566621644298948, 22.040789930101834 ], [ -159.567141491585488, 22.03969290991326 ], [ -159.569231511702299, 22.039154722999669 ], [ -159.569498391242831, 22.038591594757197 ], [ -159.570392772774397, 22.038337124839952 ], [ -159.570315232501201, 22.037477436301881 ], [ -159.57156336481205, 22.037566564904534 ], [ -159.572418361519993, 22.03643335542387 ], [ -159.572688249627817, 22.035863842885448 ], [ -159.57376117827954, 22.036226942463575 ], [ -159.574135432238705, 22.035052067217585 ], [ -159.574483803972726, 22.034464642790518 ], [ -159.572772020974924, 22.033100039913098 ], [ -159.574481274593893, 22.033222073935946 ], [ -159.573962349535634, 22.032362561292519 ], [ -159.575298908211522, 22.032795478091685 ], [ -159.575598265936748, 22.03486811300791 ], [ -159.576559287583024, 22.036286676352418 ], [ -159.577944852811243, 22.037206877300683 ], [ -159.578080006284409, 22.037351987385399 ] ] ] } },
{ "type": "Feature", "properties": { "ID": 28, "GRIDCODE": 2 }, "geometry": { "type": "Polygon", "coordinates": [ [ [ -159.572197394458613, 22.020297987519491 ], [ -159.573302445657703, 22.020490712440406 ], [ -159.574658830431957, 22.021081793368133 ], [ -159.574868538048776, 22.025585647491624 ], [ -159.573621268062226, 22.02554393229719 ], [ -159.572940846807199, 22.025846271479899 ], [ -159.572663461139001, 22.026399616217123 ], [ -159.572362759739406, 22.026661370988727 ], [ -159.571619459892645, 22.027743472625286 ], [ -159.5712099697719, 22.027760036821807 ], [ -159.57009988068117, 22.027722878727186 ], [ -159.569751646473861, 22.028025967572606 ], [ -159.569764690153846, 22.028306195674656 ], [ -159.569419681424733, 22.02891955350734 ], [ -159.569804393383521, 22.030602387344935 ], [ -159.567454096866953, 22.02971184376586 ], [ -159.567424575014456, 22.030478078691427 ], [ -159.567462139705242, 22.031285022968436 ], [ -159.567149709793, 22.031297651316478 ], [ -159.566069080705802, 22.030769294403768 ], [ -159.56570499184258, 22.031855336046792 ], [ -159.564848978182056, 22.031826661279759 ], [ -159.564827485794439, 22.03238423863397 ], [ -159.56486503989521, 22.033192027258956 ], [ -159.564248485357211, 22.0329334480307 ], [ -159.563147588325137, 22.032395183416977 ], [ -159.563084784842403, 22.032934954411921 ], [ -159.563492064866779, 22.034005716272024 ], [ -159.562550001127988, 22.034043775495217 ], [ -159.561936406139978, 22.03374377243054 ], [ -159.561641000451061, 22.033755703367369 ], [ -159.561110563155609, 22.033737918772445 ], [ -159.560474781698929, 22.034291213530427 ], [ -159.560133919025162, 22.035647512026646 ], [ -159.559606998281396, 22.035388608893609 ], [ -159.559066199928481, 22.034848402546949 ], [ -159.558733802454839, 22.035110240972404 ], [ -159.558285481145532, 22.035564693653242 ], [ -159.557289107065316, 22.033824659706266 ], [ -159.556849201371989, 22.032130187735664 ], [ -159.556387531439924, 22.030511567614766 ], [ -159.557272338279972, 22.030247061753993 ], [ -159.557862504791359, 22.029953332199835 ], [ -159.558991561308289, 22.02999118647212 ], [ -159.559023382105295, 22.029166269338251 ], [ -159.558243703349234, 22.027804513790436 ], [ -159.559299654743654, 22.028332643743163 ], [ -159.560182654704391, 22.028894707151924 ], [ -159.560741997766883, 22.028327713621387 ], [ -159.56176068369308, 22.028023156734598 ], [ -159.561037581264287, 22.026760258573169 ], [ -159.561413646192307, 22.026312001289622 ], [ -159.563056310368324, 22.027115226445193 ], [ -159.563082637067623, 22.026432457750346 ], [ -159.562487689313684, 22.025922289879233 ], [ -159.562769035834378, 22.025607188218913 ], [ -159.565095220378907, 22.026544169283952 ], [ -159.564814027653142, 22.026145513514024 ], [ -159.56393731541192, 22.024966927076537 ], [ -159.564349532872342, 22.024709021718074 ], [ -159.56542221675042, 22.025233547843513 ], [ -159.565362468823565, 22.023947651057732 ], [ -159.567015579199534, 22.024755961942173 ], [ -159.567410422590939, 22.023968330152112 ], [ -159.567715088281602, 22.023703179448262 ], [ -159.567407225302247, 22.023165583616567 ], [ -159.567125425047408, 22.022614183487562 ], [ -159.566328695616278, 22.021543154281449 ], [ -159.567218399789937, 22.021832393694325 ], [ -159.569241736156982, 22.022821711717366 ], [ -159.568409092108652, 22.020632700313058 ], [ -159.57042665973043, 22.021619195305217 ], [ -159.571179090032587, 22.021244591193792 ], [ -159.572058320092282, 22.021274013185398 ], [ -159.572197394458613, 22.020297987519491 ] ] ] } },
{ "type": "Feature", "properties": { "ID": 29, "GRIDCODE": 2 }, "geometry": { "type": "Polygon", "coordinates": [ [ [ -159.547431408367828, 22.004934008854477 ], [ -159.547333196468372, 22.005264784306057 ], [ -159.547077410170147, 22.005027975662994 ], [ -159.547431408367828, 22.004934008854477 ] ] ] } },
{ "type": "Feature", "properties": { "ID": 30, "GRIDCODE": 2 }, "geometry": { "type": "Polygon", "coordinates": [ [ [ -159.538947668229781, 21.990326577112778 ], [ -159.539302337258704, 21.990418197268138 ], [ -159.53904838673742, 21.990656694735573 ], [ -159.538947668229781, 21.990326577112778 ] ] ] } },
{ "type": "Feature", "properties": { "ID": 31, "GRIDCODE": 2 }, "geometry": { "type": "Polygon", "coordinates": [ [ [ -159.404796933546976, 21.927290582140738 ], [ -159.403526574945772, 21.927172116064163 ], [ -159.404569695885812, 21.926935044606864 ], [ -159.404796933546976, 21.927290582140738 ] ] ] } },
{ "type": "Feature", "properties": { "ID": 32, "GRIDCODE": 2 }, "geometry": { "type": "Polygon", "coordinates": [ [ [ -159.402472300488171, 21.927025253614378 ], [ -159.403140664823809, 21.92713345953727 ], [ -159.402631133566643, 21.927368984741737 ], [ -159.402472300488171, 21.927025253614378 ] ] ] } },
{ "type": "Feature", "properties": { "ID": 33, "GRIDCODE": 2 }, "geometry": { "type": "Polygon", "coordinates": [ [ [ -159.402472300488171, 21.927025253614378 ], [ -159.400906137827491, 21.92690537349128 ], [ -159.402221003303254, 21.926661136369827 ], [ -159.402472300488171, 21.927025253614378 ] ] ] } },
{ "type": "Feature", "properties": { "ID": 34, "GRIDCODE": 2 }, "geometry": { "type": "Polygon", "coordinates": [ [ [ -159.403917070505685, 21.92431136521941 ], [ -159.404081364873946, 21.924429042994216 ], [ -159.404918519312957, 21.925545994176318 ], [ -159.406666689013491, 21.927403322211774 ], [ -159.405079729371181, 21.92763059782796 ], [ -159.404796933546976, 21.927290582140738 ], [ -159.405497380325585, 21.927081775691715 ], [ -159.404643493230026, 21.926347500200645 ], [ -159.403680033184742, 21.925382421517039 ], [ -159.403917070505685, 21.92431136521941 ] ] ] } },
{ "type": "Feature", "properties": { "ID": 35, "GRIDCODE": 2 }, "geometry": { "type": "Polygon", "coordinates": [ [ [ -159.403625064570889, 21.923770012831511 ], [ -159.403915541300222, 21.923769299677392 ], [ -159.403917070505685, 21.92431136521941 ], [ -159.403626592676687, 21.924312078392944 ], [ -159.403625064570889, 21.923770012831511 ] ] ] } },
{ "type": "Feature", "properties": { "ID": 36, "GRIDCODE": 2 }, "geometry": { "type": "Polygon", "coordinates": [ [ [ -159.403333824344429, 21.923499692668759 ], [ -159.403624300535824, 21.923498980037365 ], [ -159.403625064570889, 21.923770012831511 ], [ -159.403334587829704, 21.923770725472604 ], [ -159.403333824344429, 21.923499692668759 ] ] ] } },
{ "type": "Feature", "properties": { "ID": 37, "GRIDCODE": 2 }, "geometry": { "type": "Polygon", "coordinates": [ [ [ -159.399555363837521, 21.922695811350927 ], [ -159.399438317263758, 21.924209152591924 ], [ -159.399054164628382, 21.925713811831006 ], [ -159.400529540748323, 21.926240615278605 ], [ -159.400665060263009, 21.926871783959403 ], [ -159.398674690293433, 21.925896171974081 ], [ -159.399319439407805, 21.92285446591168 ], [ -159.399555363837521, 21.922695811350927 ] ] ] } },
{ "type": "Feature", "properties": { "ID": 38, "GRIDCODE": 2 }, "geometry": { "type": "Polygon", "coordinates": [ [ [ -159.402168874434636, 21.922418406604351 ], [ -159.402813705179398, 21.922538218505288 ], [ -159.403333824344429, 21.923499692668759 ], [ -159.402752871926083, 21.923501116392504 ], [ -159.40275134719036, 21.922959050719196 ], [ -159.402170396923822, 21.922960472352177 ], [ -159.402168874434636, 21.922418406604351 ] ] ] } },
{ "type": "Feature", "properties": { "ID": 39, "GRIDCODE": 2 }, "geometry": { "type": "Polygon", "coordinates": [ [ [ -159.402168874434636, 21.922418406604351 ], [ -159.400845980467551, 21.922542165848206 ], [ -159.399555363837521, 21.922695811350927 ], [ -159.399881338314799, 21.922252767870631 ], [ -159.401504585099872, 21.921909093351093 ], [ -159.402049780929588, 21.922258366428316 ], [ -159.402168874434636, 21.922418406604351 ] ] ] } },
{ "type": "Feature", "properties": { "ID": 40, "GRIDCODE": 2 }, "geometry": { "type": "Polygon", "coordinates": [ [ [ -159.547431408367828, 22.004934008854477 ], [ -159.547210138990437, 22.0033000935647 ], [ -159.547986154290243, 22.001353012115718 ], [ -159.547537813348328, 22.001008197842957 ], [ -159.547890999006, 22.000428321170848 ], [ -159.547810135378313, 21.999714264290326 ], [ -159.548220802170533, 21.99832537851994 ], [ -159.550244791541616, 21.996974163402022 ], [ -159.551224273104935, 21.995866415420441 ], [ -159.55096253961446, 21.995042200781203 ], [ -159.550462544682688, 21.996127991882041 ], [ -159.550022261153799, 21.996471578964044 ], [ -159.548706263771493, 21.996350927179403 ], [ -159.547854728624429, 21.996434747835664 ], [ -159.546846916448715, 21.997970816270946 ], [ -159.546242509836958, 21.997297178718235 ], [ -159.546450437771938, 21.995324467939977 ], [ -159.544934637721212, 21.994791308287919 ], [ -159.54401906482974, 21.997095821706043 ], [ -159.543176376260817, 21.99775337348029 ], [ -159.542706063275006, 21.998285225367557 ], [ -159.54228423471821, 21.997386920411593 ], [ -159.542387986995948, 21.996402809327567 ], [ -159.541716160457725, 21.99588608224397 ], [ -159.54138825098596, 21.994529822593211 ], [ -159.541684864068912, 21.991717022102058 ], [ -159.541114889095269, 21.991278614017329 ], [ -159.541158856654533, 21.990861355625725 ], [ -159.541049326942499, 21.989892786337485 ], [ -159.541487591453688, 21.988025487671315 ], [ -159.540741903834828, 21.987758440104628 ], [ -159.539757660216424, 21.988871469298054 ], [ -159.539394473330418, 21.989660076138698 ], [ -159.538947668229781, 21.990326577112778 ], [ -159.538694592040827, 21.99010140767551 ], [ -159.535883425084307, 21.986132954697549 ], [ -159.533412561727602, 21.983407208653944 ], [ -159.531618688720158, 21.980874563010229 ], [ -159.531209031537827, 21.979477137705508 ], [ -159.532070315972192, 21.976664767998397 ], [ -159.532348122814597, 21.974760160637626 ], [ -159.533802389911841, 21.975033067800595 ], [ -159.534824438837717, 21.975010287314053 ], [ -159.534376815767729, 21.973404526545988 ], [ -159.534385231051402, 21.972942339812068 ], [ -159.535542015811558, 21.972588038498458 ], [ -159.536418491775066, 21.972304999727097 ], [ -159.536398201382724, 21.971511266316266 ], [ -159.536897414168294, 21.970134967722096 ], [ -159.536130052939313, 21.970152082162212 ], [ -159.534735425480847, 21.969823534047585 ], [ -159.533790490171896, 21.970425507322009 ], [ -159.531913190807785, 21.970858838875394 ], [ -159.531465940796096, 21.970427622621866 ], [ -159.531122305896531, 21.970121775114055 ], [ -159.530003532063859, 21.967850918380268 ], [ -159.530873749253345, 21.967453638541937 ], [ -159.531157464720593, 21.967176265457223 ], [ -159.532281461866063, 21.966161905429395 ], [ -159.531434061624083, 21.965004469574264 ], [ -159.531443840916552, 21.964467754700593 ], [ -159.531422515436759, 21.963635661091615 ], [ -159.52998418390257, 21.963667703375961 ], [ -159.529547583679147, 21.962427294160385 ], [ -159.528794839208246, 21.963163141329765 ], [ -159.528246510274556, 21.964758066696835 ], [ -159.526217954418797, 21.961299452265411 ], [ -159.518058395000708, 21.951630728509315 ], [ -159.50704594119577, 21.945018571061663 ], [ -159.497666543111933, 21.942465430427305 ], [ -159.491156592836575, 21.943049377083188 ], [ -159.484128680974379, 21.946777794848206 ], [ -159.480101649411154, 21.951216143111743 ], [ -159.477582191804458, 21.956801207742934 ], [ -159.475055752238035, 21.960301341576347 ], [ -159.46101600698529, 21.979948846347099 ], [ -159.45172439769857, 21.991093703175032 ], [ -159.448020951573966, 21.99711729762987 ], [ -159.444517877589561, 22.004875879526509 ], [ -159.441789694772694, 22.016277945924177 ], [ -159.439550310171796, 22.027482255492114 ], [ -159.433902521646814, 22.053324603294755 ], [ -159.431777830454166, 22.060973358188615 ], [ -159.4287873881606, 22.071743372533192 ], [ -159.426269644580117, 22.0786626014966 ], [ -159.423637503380434, 22.083894209566015 ], [ -159.418242032061414, 22.09055925920967 ], [ -159.412995090432275, 22.097735392914725 ], [ -159.405262590276351, 22.103479935909274 ], [ -159.403405335196283, 22.102783262962177 ], [ -159.402536411141625, 22.10307872535487 ], [ -159.403119717862921, 22.103598195586542 ], [ -159.403111806507042, 22.104012681994107 ], [ -159.403998686847444, 22.104410930563429 ], [ -159.399055665122546, 22.108486581970752 ], [ -159.396425721506802, 22.110686764190373 ], [ -159.396452365410767, 22.109294716312622 ], [ -159.395425194727096, 22.109316742239759 ], [ -159.394968507578255, 22.109309162312719 ], [ -159.394122639892203, 22.10849303201659 ], [ -159.393536033764065, 22.108776425942242 ], [ -159.390414374227021, 22.109139475832894 ], [ -159.390920569308747, 22.109590366096921 ], [ -159.391207183909017, 22.110137271066236 ], [ -159.391503564408822, 22.110130920121247 ], [ -159.392125656004282, 22.110427668920014 ], [ -159.392862301187819, 22.111138424790617 ], [ -159.391502443406381, 22.111757203113729 ], [ -159.390923406599114, 22.112036913787385 ], [ -159.390635684446607, 22.111759278169917 ], [ -159.389933224200576, 22.111133615124324 ], [ -159.389180439602029, 22.111497256309011 ], [ -159.38888686573091, 22.111492372450073 ], [ -159.388512232361506, 22.111500385349679 ], [ -159.387218822331391, 22.113134947881992 ], [ -159.386564061284389, 22.113124050665913 ], [ -159.385694795009869, 22.113147420277382 ], [ -159.38627993400425, 22.113668633237786 ], [ -159.385982586940941, 22.114209805750342 ], [ -159.386002538661955, 22.115017534936719 ], [ -159.385691764917937, 22.115297114114149 ], [ -159.385992239900816, 22.115564720131971 ], [ -159.386278180820568, 22.115840606276947 ], [ -159.386571804257244, 22.115834328556819 ], [ -159.386865103034381, 22.115839208847092 ], [ -159.388318688482826, 22.115558196429202 ], [ -159.388606876450638, 22.116108236560343 ], [ -159.389486277808686, 22.115683470058826 ], [ -159.389467648806885, 22.116657416246067 ], [ -159.390512768624035, 22.116635045108893 ], [ -159.390061251205253, 22.117456902131106 ], [ -159.390942982247253, 22.117721174073814 ], [ -159.391232469567882, 22.118273546870562 ], [ -159.391846922719139, 22.118260386617514 ], [ -159.391812108830578, 22.120078845864786 ], [ -159.390461746656229, 22.120490715576423 ], [ -159.391533709359891, 22.120972101160341 ], [ -159.391821807507029, 22.122072008266514 ], [ -159.390952028271272, 22.122057559022743 ], [ -159.39066116174277, 22.122063780274193 ], [ -159.389858354217154, 22.122050438718365 ], [ -159.388628312403512, 22.122218801755675 ], [ -159.390084532183579, 22.12287276865807 ], [ -159.39064058187688, 22.123409261338779 ], [ -159.391250452284254, 22.123683122240298 ], [ -159.391245175844034, 22.123958480790925 ], [ -159.391716211374586, 22.128960671768564 ], [ -159.390820216527345, 22.134416929456233 ], [ -159.389251190749434, 22.139408311857078 ], [ -159.389634711097671, 22.14575301848873 ], [ -159.391418928787687, 22.152169862350455 ], [ -159.395537346450169, 22.157356673420477 ], [ -159.405206273071201, 22.163422843568977 ], [ -159.415914596669808, 22.16880049416055 ], [ -159.438939995230498, 22.179578464175822 ], [ -159.438518949872019, 22.179957381550111 ], [ -159.438555843636408, 22.18142967981241 ], [ -159.438547486159791, 22.181873087719858 ], [ -159.437062664943596, 22.185310648543396 ], [ -159.435060625815794, 22.186540781753333 ], [ -159.435099279630521, 22.18808776279959 ], [ -159.434179001807451, 22.188072724899147 ], [ -159.433616474038018, 22.187530526797911 ], [ -159.431881696477063, 22.188632387009893 ], [ -159.431003487298625, 22.188900353731199 ], [ -159.431010361441992, 22.189174036473457 ], [ -159.430995126662452, 22.189979336353794 ], [ -159.431381268533045, 22.190322860640041 ], [ -159.430977601908921, 22.191431420389819 ], [ -159.431032074341005, 22.193612466984117 ], [ -159.432480876941128, 22.194046056282861 ], [ -159.43218815585513, 22.196790878803938 ], [ -159.433365177320155, 22.19783798491509 ], [ -159.433341649389405, 22.19908545838738 ], [ -159.426530339623838, 22.19718567955789 ], [ -159.410214988658652, 22.192615258533543 ], [ -159.397539577344304, 22.190074943872798 ], [ -159.390848145373326, 22.188730587997245 ], [ -159.382354986465515, 22.187345584109298 ], [ -159.37571656204355, 22.185636092048028 ], [ -159.369921588204278, 22.183123053917672 ], [ -159.363355600139471, 22.177315827831041 ], [ -159.355765051030176, 22.173581196059512 ], [ -159.347143332381052, 22.167392606675612 ], [ -159.344841377368567, 22.163462689337923 ], [ -159.344191126733278, 22.158597392068433 ], [ -159.344254711529032, 22.155330427111934 ], [ -159.345819338605736, 22.153400613940075 ], [ -159.347167707343459, 22.152572985604415 ], [ -159.351664229791169, 22.152221780559657 ], [ -159.353845320320175, 22.151392151160255 ], [ -159.355298550937846, 22.149976498859541 ], [ -159.356089541574192, 22.148448610426779 ], [ -159.356378981635459, 22.138257288287829 ], [ -159.359982301392108, 22.126802987396697 ], [ -159.363232996502518, 22.118741887596428 ], [ -159.368132342843268, 22.111446081234874 ], [ -159.37573435547543, 22.104999247070495 ], [ -159.378991472848156, 22.100019334873743 ], [ -159.380980514255469, 22.092810029373283 ], [ -159.38344938649422, 22.085314248739945 ], [ -159.391302280679923, 22.07191131081694 ], [ -159.394435364156436, 22.063347792389859 ], [ -159.398429450110484, 22.051259926726122 ], [ -159.402069126239695, 22.040727182947411 ], [ -159.403623917666579, 22.036219835256855 ], [ -159.404855452706329, 22.029730462400398 ], [ -159.407338109806915, 22.017733489787016 ], [ -159.408261046948837, 22.006476498222433 ], [ -159.408720254078048, 21.998193941503157 ], [ -159.41091091148715, 21.991692496906136 ], [ -159.416108762305043, 21.984231748896434 ], [ -159.432290163034224, 21.967606614878452 ], [ -159.441382622458207, 21.956067962542694 ], [ -159.447487770819833, 21.947812542668384 ], [ -159.450641473303676, 21.941568581933041 ], [ -159.450569587889788, 21.938696762992777 ], [ -159.449098244861545, 21.934310033776743 ], [ -159.449129162481427, 21.932658870213093 ], [ -159.451745825337355, 21.931199893757096 ], [ -159.455467232177341, 21.930209480815932 ], [ -159.458220573056508, 21.929321634947865 ], [ -159.463466634454079, 21.925346084892219 ], [ -159.472447131039132, 21.920233171373468 ], [ -159.481442855916441, 21.918007525996018 ], [ -159.488631568891918, 21.917714932388705 ], [ -159.497900896176333, 21.919554255488546 ], [ -159.504592117000385, 21.922324812944264 ], [ -159.518758148837208, 21.931374816612646 ], [ -159.529754387055249, 21.941299636446846 ], [ -159.534515640656082, 21.94724844269226 ], [ -159.536175593811151, 21.950412187865659 ], [ -159.537297139313068, 21.953885661143108 ], [ -159.539043866952511, 21.964051674558451 ], [ -159.540586826689037, 21.970036642910824 ], [ -159.542166328412122, 21.973409043076533 ], [ -159.545552887448537, 21.977541238119926 ], [ -159.547779649807524, 21.982846755451519 ], [ -159.55024895698989, 21.987677735489477 ], [ -159.553185172006152, 21.991398569928442 ], [ -159.555169195695498, 21.992759828591673 ], [ -159.558253663903002, 21.99331052336931 ], [ -159.558574984663721, 21.993922517752281 ], [ -159.558872597983452, 21.994187205375763 ], [ -159.558867406346394, 21.994473899892746 ], [ -159.559493324894106, 21.995030595745607 ], [ -159.560621601965437, 21.99553632671384 ], [ -159.560616646636419, 21.995810034726116 ], [ -159.560623671624597, 21.996081038485435 ], [ -159.560617091757649, 21.996446892205366 ], [ -159.559444427410114, 21.996077025193085 ], [ -159.55806012601704, 21.996108092486427 ], [ -159.557723294286234, 21.997590941870982 ], [ -159.558846752591222, 21.998094534001805 ], [ -159.557427326661099, 21.99852944548644 ], [ -159.558020901532075, 21.999339699764693 ], [ -159.558015880268073, 21.999615955389185 ], [ -159.558606546055557, 21.999880687937335 ], [ -159.558304031208507, 22.000433219051317 ], [ -159.558318004438974, 22.000975756214963 ], [ -159.557730746432043, 22.000966588417615 ], [ -159.556794236330148, 22.002153746857147 ], [ -159.556282301275985, 22.000700579394195 ], [ -159.555971617545936, 22.000143217104696 ], [ -159.554507387494851, 22.00017604792043 ], [ -159.553859549613719, 22.000809471849379 ], [ -159.553050874868575, 22.000424417976276 ], [ -159.551631125280949, 22.000456212971034 ], [ -159.55133940852005, 22.000175115767583 ], [ -159.550801478101192, 22.000187162905419 ], [ -159.549894802267488, 22.002353714500046 ], [ -159.549492476940316, 22.003088462901026 ], [ -159.548613386563204, 22.003489809331906 ], [ -159.547579125442212, 22.004800714609445 ], [ -159.547431408367828, 22.004934008854477 ] ], [ [ -159.346973944997387, 22.159155122424107 ], [ -159.346806320632879, 22.160119329536393 ], [ -159.347432089221144, 22.16035632988045 ], [ -159.348071795506144, 22.160713932350994 ], [ -159.34792946914186, 22.15983065694153 ], [ -159.348612116258153, 22.159568708293836 ], [ -159.348221363922448, 22.158968397957452 ], [ -159.348882306479197, 22.158490924265536 ], [ -159.349134334648113, 22.157913440959565 ], [ -159.350113471332151, 22.157537702121029 ], [ -159.34999956000047, 22.156831046761766 ], [ -159.350567527520582, 22.15642076189576 ], [ -159.349129740081395, 22.15605114093287 ], [ -159.347950432786774, 22.155240576348866 ], [ -159.347965261819496, 22.155782601276748 ], [ -159.348741922013204, 22.156753709484445 ], [ -159.348235283585439, 22.157119722381811 ], [ -159.348682167285659, 22.157439521760857 ], [ -159.347709256586285, 22.158962700077989 ], [ -159.346973944997387, 22.159155122424107 ], [ -159.346873543847096, 22.158824888071749 ], [ -159.346618968886276, 22.15906310011988 ], [ -159.346973944997387, 22.159155122424107 ] ] ] } }
]
}
