{
"type": "FeatureCollection",
"name": "poasand",
"crs": { "type": "name", "properties": { "name": "urn:ogc:def:crs:OGC:1.3:CRS84" } },
"features": [
{ "type": "Feature", "properties": { "ID": 1, "GRIDCODE": 2 }, "geometry": { "type": "Polygon", "coordinates": [ [ [ -159.582459784592686, 22.18368903606833 ], [ -159.582838649579429, 22.1838384183648 ], [ -159.582578908361711, 22.184304515142909 ], [ -159.582459784592686, 22.18368903606833 ] ] ] } },
{ "type": "Feature", "properties": { "ID": 2, "GRIDCODE": 2 }, "geometry": { "type": "Polygon", "coordinates": [ [ [ -159.586813531657526, 22.180963205960168 ], [ -159.587161615791956, 22.181211460214691 ], [ -159.587277970394524, 22.181925563726281 ], [ -159.586654268786447, 22.182165925534257 ], [ -159.586207304953035, 22.182709575760267 ], [ -159.586066274716359, 22.181903145338559 ], [ -159.586813531657526, 22.180963205960168 ] ] ] } },
{ "type": "Feature", "properties": { "ID": 3, "GRIDCODE": 2 }, "geometry": { "type": "Polygon", "coordinates": [ [ [ -159.59932282248306, 22.180104614910817 ], [ -159.599224621129395, 22.180435410361781 ], [ -159.59896842720724, 22.180198696646659 ], [ -159.59932282248306, 22.180104614910817 ] ] ] } },
{ "type": "Feature", "properties": { "ID": 4, "GRIDCODE": 2 }, "geometry": { "type": "Polygon", "coordinates": [ [ [ -159.589416658086492, 22.177159519648562 ], [ -159.589301327187712, 22.177783198633268 ], [ -159.589047784393358, 22.17730811260768 ], [ -159.589416658086492, 22.177159519648562 ] ] ] } },
{ "type": "Feature", "properties": { "ID": 5, "GRIDCODE": 2 }, "geometry": { "type": "Polygon", "coordinates": [ [ [ -159.656554748408041, 22.159828691403607 ], [ -159.656909912776683, 22.159920035034169 ], [ -159.656655868791177, 22.160158720862338 ], [ -159.656554748408041, 22.159828691403607 ] ] ] } },
{ "type": "Feature", "properties": { "ID": 6, "GRIDCODE": 2 }, "geometry": { "type": "Polygon", "coordinates": [ [ [ -159.612033782196733, 22.158646765931771 ], [ -159.611679449478203, 22.158740870011876 ], [ -159.611935624389673, 22.158977573035269 ], [ -159.612033782196733, 22.158646765931771 ], [ -159.612631602099327, 22.158811981920685 ], [ -159.611678282394593, 22.159851134291046 ], [ -159.610982742899608, 22.159905815382331 ], [ -159.611320182262688, 22.159337076441723 ], [ -159.611766837410329, 22.157003249058949 ], [ -159.612776441595287, 22.157418387716596 ], [ -159.612033782196733, 22.158646765931771 ] ] ] } },
{ "type": "Feature", "properties": { "ID": 7, "GRIDCODE": 2 }, "geometry": { "type": "Polygon", "coordinates": [ [ [ -159.611436664755757, 22.155125736537521 ], [ -159.611791790766091, 22.155217179447781 ], [ -159.611537677000513, 22.155455796709003 ], [ -159.611436664755757, 22.155125736537521 ] ] ] } },
{ "type": "Feature", "properties": { "ID": 8, "GRIDCODE": 2 }, "geometry": { "type": "Polygon", "coordinates": [ [ [ -159.611436664755757, 22.155125736537521 ], [ -159.611057848960769, 22.154976419147843 ], [ -159.611317443783861, 22.154510282747118 ], [ -159.611436664755757, 22.155125736537521 ] ] ] } },
{ "type": "Feature", "properties": { "ID": 9, "GRIDCODE": 2 }, "geometry": { "type": "Polygon", "coordinates": [ [ [ -159.610847766629433, 22.153501818288888 ], [ -159.611559802725935, 22.153688586729544 ], [ -159.61104966309216, 22.154149839656963 ], [ -159.610847766629433, 22.153501818288888 ] ] ] } },
{ "type": "Feature", "properties": { "ID": 10, "GRIDCODE": 2 }, "geometry": { "type": "Polygon", "coordinates": [ [ [ -159.610554491880691, 22.152960874639753 ], [ -159.610909611902343, 22.153052319631492 ], [ -159.610655500404874, 22.153290935526552 ], [ -159.610554491880691, 22.152960874639753 ] ] ] } },
{ "type": "Feature", "properties": { "ID": 11, "GRIDCODE": 2 }, "geometry": { "type": "Polygon", "coordinates": [ [ [ -159.635281503699929, 22.152324400386494 ], [ -159.635183404603453, 22.152655220371219 ], [ -159.634927203512603, 22.15241855432231 ], [ -159.635281503699929, 22.152324400386494 ] ] ] } },
{ "type": "Feature", "properties": { "ID": 12, "GRIDCODE": 2 }, "geometry": { "type": "Polygon", "coordinates": [ [ [ -159.619856108084832, 22.151028646906408 ], [ -159.620211228700242, 22.151120071640793 ], [ -159.619957136650527, 22.151358701644963 ], [ -159.619856108084832, 22.151028646906408 ] ] ] } },
{ "type": "Feature", "properties": { "ID": 13, "GRIDCODE": 2 }, "geometry": { "type": "Polygon", "coordinates": [ [ [ -159.649493667834122, 22.14278274174762 ], [ -159.649784580145848, 22.142781583487789 ], [ -159.649785823731378, 22.143052598273776 ], [ -159.649494910862984, 22.143053756549246 ], [ -159.649493667834122, 22.14278274174762 ] ] ] } },
{ "type": "Feature", "properties": { "ID": 14, "GRIDCODE": 2 }, "geometry": { "type": "Polygon", "coordinates": [ [ [ -159.649493667834122, 22.14278274174762 ], [ -159.649138551109644, 22.142691380617691 ], [ -159.649392577573536, 22.142452706443919 ], [ -159.649493667834122, 22.14278274174762 ] ] ] } },
{ "type": "Feature", "properties": { "ID": 15, "GRIDCODE": 2 }, "geometry": { "type": "Polygon", "coordinates": [ [ [ -159.646293631139173, 22.142795448378312 ], [ -159.645938516253921, 22.142704080234445 ], [ -159.646192548272126, 22.142465410912838 ], [ -159.646293631139173, 22.142795448378312 ] ] ] } },
{ "type": "Feature", "properties": { "ID": 16, "GRIDCODE": 2 }, "geometry": { "type": "Polygon", "coordinates": [ [ [ -159.581671638325076, 22.133552833904446 ], [ -159.581991519260328, 22.134746482075538 ], [ -159.580974034498809, 22.134288480468037 ], [ -159.581209114377572, 22.133665179973534 ], [ -159.581671638325076, 22.133552833904446 ] ] ] } },
{ "type": "Feature", "properties": { "ID": 17, "GRIDCODE": 2 }, "geometry": { "type": "Polygon", "coordinates": [ [ [ -159.581671638325076, 22.133552833904446 ], [ -159.581810969605556, 22.133411656693941 ], [ -159.582693666832114, 22.133147824063116 ], [ -159.583228847396953, 22.132605505260273 ], [ -159.584388486791738, 22.132558522346692 ], [ -159.585432244732715, 22.133222181472004 ], [ -159.586233766814786, 22.132823357886593 ], [ -159.58879199811787, 22.133268861485341 ], [ -159.588314890870322, 22.133955225829357 ], [ -159.586220761422254, 22.133885443812144 ], [ -159.587454160888683, 22.135541599808708 ], [ -159.585905386000746, 22.136004558641048 ], [ -159.587060628884501, 22.136655465960494 ], [ -159.588188761386107, 22.136983746988911 ], [ -159.587645340719433, 22.137456461800323 ], [ -159.58767402261347, 22.138070004445119 ], [ -159.584732284202659, 22.136392802373397 ], [ -159.584451299907187, 22.136112447811147 ], [ -159.584139263079521, 22.13584518099448 ], [ -159.585301806148692, 22.135497680742887 ], [ -159.585341245186498, 22.134471669023046 ], [ -159.584421282885245, 22.134775780069067 ], [ -159.583589897737539, 22.133946201204786 ], [ -159.583007551432701, 22.133969786824103 ], [ -159.582114059015737, 22.133681598562369 ], [ -159.581671638325076, 22.133552833904446 ] ] ] } },
{ "type": "Feature", "properties": { "ID": 18, "GRIDCODE": 2 }, "geometry": { "type": "Polygon", "coordinates": [ [ [ -159.574354169307213, 22.122466805249378 ], [ -159.574732860750828, 22.122616211196 ], [ -159.574473199843027, 22.123082292566888 ], [ -159.574354169307213, 22.122466805249378 ] ] ] } },
{ "type": "Feature", "properties": { "ID": 19, "GRIDCODE": 2 }, "geometry": { "type": "Polygon", "coordinates": [ [ [ -159.568524715998848, 22.119505948750668 ], [ -159.568426480728988, 22.119836732885453 ], [ -159.568170449252193, 22.11959995729449 ], [ -159.568524715998848, 22.119505948750668 ] ] ] } },
{ "type": "Feature", "properties": { "ID": 20, "GRIDCODE": 2 }, "geometry": { "type": "Polygon", "coordinates": [ [ [ -159.568524715998848, 22.119505948750668 ], [ -159.568685070550629, 22.119153145940007 ], [ -159.569185268416902, 22.119395091163121 ], [ -159.568524715998848, 22.119505948750668 ] ] ] } },
{ "type": "Feature", "properties": { "ID": 21, "GRIDCODE": 2 }, "geometry": { "type": "Polygon", "coordinates": [ [ [ -159.57375596687757, 22.118403559647756 ], [ -159.573854188722947, 22.118072772535292 ], [ -159.57411022665292, 22.118309539115341 ], [ -159.57375596687757, 22.118403559647756 ] ] ] } },
{ "type": "Feature", "properties": { "ID": 22, "GRIDCODE": 2 }, "geometry": { "type": "Polygon", "coordinates": [ [ [ -159.569391880581975, 22.11814781025949 ], [ -159.569101014476018, 22.118148824120571 ], [ -159.569103190163389, 22.118690863477678 ], [ -159.568230588409023, 22.118693902035108 ], [ -159.568228416057167, 22.118151862595866 ], [ -159.569222241524699, 22.117920734626917 ], [ -159.569391880581975, 22.11814781025949 ] ] ] } },
{ "type": "Feature", "properties": { "ID": 23, "GRIDCODE": 2 }, "geometry": { "type": "Polygon", "coordinates": [ [ [ -159.568228416057167, 22.118151862595866 ], [ -159.567255005861341, 22.1180374430078 ], [ -159.568029960289152, 22.117803898035774 ], [ -159.568228416057167, 22.118151862595866 ] ] ] } },
{ "type": "Feature", "properties": { "ID": 24, "GRIDCODE": 2 }, "geometry": { "type": "Polygon", "coordinates": [ [ [ -159.559462864089511, 22.108154239729398 ], [ -159.561319069628922, 22.108274187243588 ], [ -159.561502251637279, 22.109022686802373 ], [ -159.560168069656697, 22.109346618610275 ], [ -159.559511614034392, 22.109748159000638 ], [ -159.559242484843423, 22.108648301531581 ], [ -159.559462864089511, 22.108154239729398 ] ] ] } },
{ "type": "Feature", "properties": { "ID": 25, "GRIDCODE": 2 }, "geometry": { "type": "Polygon", "coordinates": [ [ [ -159.612099882300924, 22.106610391593012 ], [ -159.611744878741945, 22.106518946040726 ], [ -159.611998906560018, 22.106280329043241 ], [ -159.612099882300924, 22.106610391593012 ] ] ] } },
{ "type": "Feature", "properties": { "ID": 26, "GRIDCODE": 2 }, "geometry": { "type": "Polygon", "coordinates": [ [ [ -159.57077968133899, 22.101610520447199 ], [ -159.570424714703648, 22.101518975927657 ], [ -159.570678804932612, 22.101280429972412 ], [ -159.57077968133899, 22.101610520447199 ] ] ] } },
{ "type": "Feature", "properties": { "ID": 27, "GRIDCODE": 2 }, "geometry": { "type": "Polygon", "coordinates": [ [ [ -159.571331888099365, 22.094290940890932 ], [ -159.570057214757128, 22.094170284279649 ], [ -159.570293784809564, 22.093832994631704 ], [ -159.571220310863623, 22.094123628029326 ], [ -159.571331888099365, 22.094290940890932 ] ] ] } },
{ "type": "Feature", "properties": { "ID": 28, "GRIDCODE": 2 }, "geometry": { "type": "Polygon", "coordinates": [ [ [ -159.561990331802718, 22.085379513506549 ], [ -159.561859380604375, 22.084958439261634 ], [ -159.561013718668221, 22.08462975778853 ], [ -159.560914453145699, 22.083907558365013 ], [ -159.561274570450962, 22.084147373287802 ], [ -159.561537249671858, 22.084450861534126 ], [ -159.562041866876882, 22.084390618540926 ], [ -159.562678371560821, 22.084862094184199 ], [ -159.561990331802718, 22.085379513506549 ] ] ] } },
{ "type": "Feature", "properties": { "ID": 29, "GRIDCODE": 2 }, "geometry": { "type": "Polygon", "coordinates": [ [ [ -159.571283909734774, 22.082366035738051 ], [ -159.571574702400454, 22.082365019548959 ], [ -159.571575793009885, 22.082636040301008 ], [ -159.571284999789412, 22.082637056503856 ], [ -159.571283909734774, 22.082366035738051 ] ] ] } },
{ "type": "Feature", "properties": { "ID": 30, "GRIDCODE": 2 }, "geometry": { "type": "Polygon", "coordinates": [ [ [ -159.571283909734774, 22.082366035738051 ], [ -159.570928991221422, 22.082274491080391 ], [ -159.571183046935857, 22.082035944535082 ], [ -159.571283909734774, 22.082366035738051 ] ] ] } },
{ "type": "Feature", "properties": { "ID": 31, "GRIDCODE": 2 }, "geometry": { "type": "Polygon", "coordinates": [ [ [ -159.575333052651331, 22.076931348689605 ], [ -159.574978145410114, 22.076839812524579 ], [ -159.575232184675372, 22.076601259884946 ], [ -159.575333052651331, 22.076931348689605 ] ] ] } },
{ "type": "Feature", "properties": { "ID": 32, "GRIDCODE": 2 }, "geometry": { "type": "Polygon", "coordinates": [ [ [ -159.579956792730428, 22.069868379275682 ], [ -159.579615792862029, 22.070502684544199 ], [ -159.578406972198792, 22.070289733036283 ], [ -159.578891776255944, 22.069963198780361 ], [ -159.579956792730428, 22.069868379275682 ] ] ] } },
{ "type": "Feature", "properties": { "ID": 33, "GRIDCODE": 2 }, "geometry": { "type": "Polygon", "coordinates": [ [ [ -159.561917441809726, 22.066950057333464 ], [ -159.561819224437812, 22.067280839170181 ], [ -159.561563300664261, 22.067044057756441 ], [ -159.561917441809726, 22.066950057333464 ] ] ] } },
{ "type": "Feature", "properties": { "ID": 34, "GRIDCODE": 2 }, "geometry": { "type": "Polygon", "coordinates": [ [ [ -159.564238155383805, 22.065586943715207 ], [ -159.564593027998569, 22.065678504052723 ], [ -159.564338989545433, 22.065917040450703 ], [ -159.564238155383805, 22.065586943715207 ] ] ] } },
{ "type": "Feature", "properties": { "ID": 35, "GRIDCODE": 2 }, "geometry": { "type": "Polygon", "coordinates": [ [ [ -159.561039808715691, 22.065597941928033 ], [ -159.560941590146967, 22.065928723315515 ], [ -159.560685670290979, 22.065691940408222 ], [ -159.561039808715691, 22.065597941928033 ] ] ] } },
{ "type": "Feature", "properties": { "ID": 36, "GRIDCODE": 2 }, "geometry": { "type": "Polygon", "coordinates": [ [ [ -159.56131665695608, 22.062073660598905 ], [ -159.560647551719967, 22.061966098376825 ], [ -159.561157287797158, 22.06173008210542 ], [ -159.56131665695608, 22.062073660598905 ] ] ] } },
{ "type": "Feature", "properties": { "ID": 37, "GRIDCODE": 2 }, "geometry": { "type": "Polygon", "coordinates": [ [ [ -159.54793579688166, 22.06049285628994 ], [ -159.548290647048645, 22.060584452522964 ], [ -159.54803658953594, 22.060822964136893 ], [ -159.54793579688166, 22.06049285628994 ] ] ] } },
{ "type": "Feature", "properties": { "ID": 38, "GRIDCODE": 2 }, "geometry": { "type": "Polygon", "coordinates": [ [ [ -159.54793579688166, 22.06049285628994 ], [ -159.547580947155097, 22.060401259277032 ], [ -159.547835004711999, 22.060162748358049 ], [ -159.54793579688166, 22.06049285628994 ] ] ] } },
{ "type": "Feature", "properties": { "ID": 39, "GRIDCODE": 2 }, "geometry": { "type": "Polygon", "coordinates": [ [ [ -159.549387447896436, 22.059945937306178 ], [ -159.549742297550921, 22.060037530406298 ], [ -159.549488243482017, 22.060276044219712 ], [ -159.549387447896436, 22.059945937306178 ] ] ] } },
{ "type": "Feature", "properties": { "ID": 40, "GRIDCODE": 2 }, "geometry": { "type": "Polygon", "coordinates": [ [ [ -159.560723397449834, 22.059094412381281 ], [ -159.560038440623316, 22.058959507972165 ], [ -159.560357315606183, 22.058477223399301 ], [ -159.560723397449834, 22.059094412381281 ] ] ] } },
{ "type": "Feature", "properties": { "ID": 41, "GRIDCODE": 2 }, "geometry": { "type": "Polygon", "coordinates": [ [ [ -159.546141351261525, 22.047489590022156 ], [ -159.546142391524711, 22.047760613107993 ], [ -159.545851668366311, 22.047761582629974 ], [ -159.545850628656837, 22.047490559531006 ], [ -159.546141351261525, 22.047489590022156 ] ] ] } },
{ "type": "Feature", "properties": { "ID": 42, "GRIDCODE": 2 }, "geometry": { "type": "Polygon", "coordinates": [ [ [ -159.546721755068148, 22.047216626387399 ], [ -159.546722796422586, 22.047487649455952 ], [ -159.546141351261525, 22.047489590022156 ], [ -159.546140311014454, 22.04721856692731 ], [ -159.546721755068148, 22.047216626387399 ] ] ] } },
{ "type": "Feature", "properties": { "ID": 43, "GRIDCODE": 2 }, "geometry": { "type": "Polygon", "coordinates": [ [ [ -159.546721755068148, 22.047216626387399 ], [ -159.546819995027647, 22.046885852364504 ], [ -159.547075857729709, 22.047122658672272 ], [ -159.546721755068148, 22.047216626387399 ] ] ] } },
{ "type": "Feature", "properties": { "ID": 44, "GRIDCODE": 2 }, "geometry": { "type": "Polygon", "coordinates": [ [ [ -159.576119715646371, 22.055788634372334 ], [ -159.576220569704049, 22.056118723738404 ], [ -159.576474570669035, 22.055880169411353 ], [ -159.576119715646371, 22.055788634372334 ], [ -159.575821790227707, 22.054610448048507 ], [ -159.576796586813543, 22.054472661197121 ], [ -159.577218920847287, 22.054978716216397 ], [ -159.57841071261484, 22.055138589801793 ], [ -159.578271007478435, 22.054279822240243 ], [ -159.578601529809987, 22.053764642521557 ], [ -159.578871003526643, 22.053144106557674 ], [ -159.579250183166437, 22.053998469863636 ], [ -159.579478395440873, 22.0537565449394 ], [ -159.57938826374334, 22.053202357321648 ], [ -159.580051883056228, 22.052946433728341 ], [ -159.580508047306068, 22.051896049542108 ], [ -159.581653641136739, 22.050501522963401 ], [ -159.58236871994967, 22.050735102192057 ], [ -159.5829385011819, 22.051417882685833 ], [ -159.583539476725889, 22.050481032162789 ], [ -159.583186367371155, 22.049652937375935 ], [ -159.583975396667, 22.049348579410207 ], [ -159.583366049384409, 22.048414967000408 ], [ -159.584071846138215, 22.04801464690647 ], [ -159.58463494125084, 22.048090169788001 ], [ -159.586192979678486, 22.046849485402205 ], [ -159.58609225495394, 22.047502413981238 ], [ -159.586803707540696, 22.047770890799089 ], [ -159.586641388013049, 22.048822670985313 ], [ -159.587676312750148, 22.048562143817843 ], [ -159.588297652004911, 22.047805726710994 ], [ -159.589751344252875, 22.048609171761765 ], [ -159.590174276368316, 22.049115902340318 ], [ -159.591313969918588, 22.049745730928258 ], [ -159.591646641610538, 22.050495256807551 ], [ -159.591922983283297, 22.050158785128808 ], [ -159.592957639801654, 22.049765955376461 ], [ -159.593058528048942, 22.050096033845801 ], [ -159.59331248961567, 22.04985745407112 ], [ -159.592957639801654, 22.049765955376461 ], [ -159.592236913314792, 22.048229508466793 ], [ -159.593385910581617, 22.047192379779247 ], [ -159.59369788588748, 22.046586934601351 ], [ -159.596482764129917, 22.050112376435866 ], [ -159.596010958697178, 22.05097447931395 ], [ -159.596434409679006, 22.051733440638383 ], [ -159.595151701025799, 22.052319346692357 ], [ -159.595437812516906, 22.052605426342936 ], [ -159.596026206695711, 22.052868883905646 ], [ -159.596316334021139, 22.053959832971564 ], [ -159.597371800026508, 22.05344809453937 ], [ -159.598063574072341, 22.054764150017608 ], [ -159.598640028903816, 22.054751075378537 ], [ -159.600992715091422, 22.059927614400781 ], [ -159.599833768852534, 22.060450855460239 ], [ -159.599545824494697, 22.060173690544332 ], [ -159.598951419573467, 22.059907555665141 ], [ -159.598970502007745, 22.058826101251373 ], [ -159.598386030733479, 22.059333399406373 ], [ -159.598366879513378, 22.060416425513129 ], [ -159.598949286041204, 22.061524396254836 ], [ -159.599854335984418, 22.061809457986325 ], [ -159.601006734052476, 22.061783294897747 ], [ -159.600999117584564, 22.062214936860443 ], [ -159.601927894937006, 22.061764607779182 ], [ -159.604225397670575, 22.066661056686534 ], [ -159.604956893065605, 22.068422721731761 ], [ -159.604602779092431, 22.068516814761534 ], [ -159.604858775577867, 22.068753527172163 ], [ -159.604956893065605, 22.068422721731761 ], [ -159.605227286982142, 22.068622905250347 ], [ -159.606149937508746, 22.071589932231614 ], [ -159.605651440414164, 22.072387579950636 ], [ -159.605758906509834, 22.073167317999872 ], [ -159.60473413305067, 22.073444532104478 ], [ -159.604238582975825, 22.07423740062805 ], [ -159.603943086854343, 22.075215361631052 ], [ -159.602456102782384, 22.075048527732413 ], [ -159.602602816082992, 22.076113737040981 ], [ -159.601187222866344, 22.076496136625515 ], [ -159.600095648748209, 22.07610963888008 ], [ -159.599304561875954, 22.076423743770476 ], [ -159.598758786410997, 22.077268788187862 ], [ -159.597566726619704, 22.0780562453828 ], [ -159.597206269318917, 22.079249047759102 ], [ -159.596569149133643, 22.079023457743432 ], [ -159.596468230538193, 22.078693383237251 ], [ -159.596214224113623, 22.078931968103305 ], [ -159.596569149133643, 22.079023457743432 ], [ -159.596713349677856, 22.079432180234278 ], [ -159.597062258268892, 22.079696504768183 ], [ -159.598454603021906, 22.078335188419359 ], [ -159.599897192869179, 22.078674141666898 ], [ -159.600217225048823, 22.077429441034692 ], [ -159.601392156345753, 22.077799436619713 ], [ -159.602237030676918, 22.077780265415473 ], [ -159.602531931264764, 22.07806408156253 ], [ -159.60324443920527, 22.077367403616496 ], [ -159.603699601469145, 22.076956608165634 ], [ -159.604411700594767, 22.076967509448512 ], [ -159.605283969502665, 22.076947692017644 ], [ -159.606013817796935, 22.076958868015105 ], [ -159.606482435130943, 22.075594453567156 ], [ -159.607116999513835, 22.075604174986619 ], [ -159.608353482721299, 22.081428618376972 ], [ -159.607336272367888, 22.081893258259242 ], [ -159.606603832144344, 22.082943479515539 ], [ -159.606632329805137, 22.084030609965758 ], [ -159.608771224750342, 22.083981967348272 ], [ -159.609245884566832, 22.086096178306494 ], [ -159.607788631607434, 22.085074165412177 ], [ -159.607505965704945, 22.085897102381768 ], [ -159.607203357879428, 22.085892486435277 ], [ -159.607224404404292, 22.086696842938068 ], [ -159.606897146608389, 22.087519977515822 ], [ -159.605647540662204, 22.08692587579818 ], [ -159.60460273815039, 22.087007688511328 ], [ -159.605186558421224, 22.087526318530895 ], [ -159.605475099527041, 22.088343844785211 ], [ -159.605768718733657, 22.08833718244998 ], [ -159.606661576535117, 22.088350843684001 ], [ -159.60722605731479, 22.089424354416025 ], [ -159.608384196379603, 22.088598542946585 ], [ -159.60891773540294, 22.088330959267758 ], [ -159.609270215816707, 22.091766761441583 ], [ -159.608108482728966, 22.092122868035293 ], [ -159.607795688820318, 22.09242871718088 ], [ -159.606640934484346, 22.092941389996042 ], [ -159.605856069380138, 22.092186134569097 ], [ -159.605501721778751, 22.093237893403444 ], [ -159.606085571462842, 22.093756519165808 ], [ -159.606600170373923, 22.094251711708701 ], [ -159.60436236394537, 22.094768913957587 ], [ -159.60595967178935, 22.096946269528125 ], [ -159.604979051219402, 22.097394135819968 ], [ -159.602552749488893, 22.097844851566148 ], [ -159.601132672946477, 22.097823068158743 ], [ -159.60057264070079, 22.096758023439953 ], [ -159.599052912273294, 22.096792499660065 ], [ -159.597378269778204, 22.097859348243716 ], [ -159.595638867927903, 22.09893121320599 ], [ -159.595335102123272, 22.099520435770696 ], [ -159.593601435967372, 22.099493774209762 ], [ -159.593307934567605, 22.099500414690734 ], [ -159.592730522056826, 22.099225862476185 ], [ -159.59185264610835, 22.099245735015504 ], [ -159.590979424027807, 22.098405354836977 ], [ -159.590653039945295, 22.099996150280671 ], [ -159.589239499999678, 22.100322679975793 ], [ -159.588954102507699, 22.101153304317169 ], [ -159.588079696714374, 22.101139828806453 ], [ -159.587760898618939, 22.101451369027345 ], [ -159.587218516672237, 22.102503567716422 ], [ -159.586610793763839, 22.102781008688545 ], [ -159.585779904365381, 22.103593147501819 ], [ -159.585472358669591, 22.103588393924159 ], [ -159.584729205051048, 22.103948526748219 ], [ -159.583607971647211, 22.103246102775074 ], [ -159.582864924736668, 22.104687343116357 ], [ -159.581985099202996, 22.105088983470068 ], [ -159.582009713862362, 22.106034980026362 ], [ -159.581690652071131, 22.106322771891296 ], [ -159.581719051769426, 22.107412951132275 ], [ -159.58052888669755, 22.10739455518743 ], [ -159.579963170946741, 22.106318384255555 ], [ -159.579304226559259, 22.106023380252285 ], [ -159.576939339821081, 22.106076725962335 ], [ -159.576477501390883, 22.107420240605165 ], [ -159.57491677912455, 22.108233385388431 ], [ -159.574252399444873, 22.106349805005507 ], [ -159.572982476349921, 22.106219578868885 ], [ -159.573856596197714, 22.106610970865852 ], [ -159.574142927778183, 22.106934129658935 ], [ -159.573569653219181, 22.109051596748657 ], [ -159.573580324367981, 22.109460402313552 ], [ -159.573572961071761, 22.109869643372718 ], [ -159.574993078877185, 22.110186946363701 ], [ -159.575892180310035, 22.109308304063127 ], [ -159.576781265676459, 22.109322073286261 ], [ -159.577931395925134, 22.108764795711512 ], [ -159.578534798903377, 22.108497062257719 ], [ -159.579382063427261, 22.109312547408898 ], [ -159.580014064575153, 22.1098740297289 ], [ -159.581143190265919, 22.110379541992998 ], [ -159.581720413927258, 22.110654044063601 ], [ -159.582581322520838, 22.110634599490428 ], [ -159.583647649127499, 22.111302586272092 ], [ -159.58433233699256, 22.110633448542806 ], [ -159.585424458941276, 22.110650306689031 ], [ -159.585782004180317, 22.108194680340038 ], [ -159.587219654683054, 22.108216854670438 ], [ -159.58752595089112, 22.107917502206721 ], [ -159.58902042052398, 22.10736199382341 ], [ -159.589847069445199, 22.106554022712618 ], [ -159.591471238627463, 22.106252463755879 ], [ -159.59191703455781, 22.105387740627283 ], [ -159.594917949996074, 22.10578526151664 ], [ -159.595380809212742, 22.107096863962205 ], [ -159.595965108843075, 22.107615911739398 ], [ -159.596252501951369, 22.108162442122541 ], [ -159.596546162966177, 22.108155787174677 ], [ -159.596839799911038, 22.10816029758438 ], [ -159.597641727854892, 22.10737642183599 ], [ -159.598579288457842, 22.106798711856914 ], [ -159.598863140286937, 22.106521223063901 ], [ -159.599766472949113, 22.105710266731474 ], [ -159.600608207270312, 22.106520242946608 ], [ -159.601931110903365, 22.106780971317018 ], [ -159.602350996828278, 22.105966248148704 ], [ -159.604059248264235, 22.10599242958509 ], [ -159.604970559371509, 22.105411869159056 ], [ -159.605259342515438, 22.105961033104602 ], [ -159.605557137854106, 22.106225526479566 ], [ -159.605844493061426, 22.10677193205705 ], [ -159.606639099195036, 22.107477688226751 ], [ -159.607019170916345, 22.106740128796318 ], [ -159.608755835983857, 22.106766692963497 ], [ -159.609933090538334, 22.106739912709678 ], [ -159.610890897779456, 22.107661464285492 ], [ -159.611663620365334, 22.107286868485058 ], [ -159.612102221018318, 22.107152427501237 ], [ -159.612203197672073, 22.107482489932469 ], [ -159.612457226383299, 22.107243872228484 ], [ -159.612102221018318, 22.107152427501237 ], [ -159.612099882300924, 22.106610391593012 ], [ -159.612539627187971, 22.106741541772834 ], [ -159.613991549083977, 22.10755458421643 ], [ -159.615054249796486, 22.108030086408402 ], [ -159.615467021746383, 22.107229046198878 ], [ -159.615428648621901, 22.105765540053035 ], [ -159.625560513873836, 22.109294619099114 ], [ -159.624988813069052, 22.110339134455916 ], [ -159.626545942853426, 22.109835830498927 ], [ -159.626513228026596, 22.111705168517165 ], [ -159.626524053766076, 22.11211434750275 ], [ -159.623930202924925, 22.112596504403541 ], [ -159.62274149514343, 22.11185228183264 ], [ -159.62243334446768, 22.11185932042239 ], [ -159.62187386368322, 22.112945207713636 ], [ -159.621477322447845, 22.1136696870742 ], [ -159.619542821818214, 22.112947060417817 ], [ -159.619184259989908, 22.113297651830226 ], [ -159.617374354109216, 22.112728043579725 ], [ -159.616640284180818, 22.113780654363378 ], [ -159.614955528004941, 22.112725778914495 ], [ -159.614312489379103, 22.113158651220996 ], [ -159.615655399535171, 22.11355912726977 ], [ -159.616158188304183, 22.114514988933294 ], [ -159.617814836706088, 22.115256166665901 ], [ -159.618680484317252, 22.11566755293634 ], [ -159.619560042719883, 22.115929814798818 ], [ -159.620170662833033, 22.116220006894679 ], [ -159.621591537458556, 22.116187584187436 ], [ -159.622026616209496, 22.116606123777693 ], [ -159.62277124005891, 22.11726729231782 ], [ -159.623343747725642, 22.117817994485037 ], [ -159.623862944226261, 22.118081607755794 ], [ -159.624212167018214, 22.116722659501015 ], [ -159.62537746426608, 22.117284006884606 ], [ -159.624612791069552, 22.117974205376697 ], [ -159.623934990080642, 22.118655259961329 ], [ -159.624648690711894, 22.119933175864134 ], [ -159.625918380773868, 22.120311712473296 ], [ -159.625392911512449, 22.120785970282849 ], [ -159.625110396729468, 22.121360979192382 ], [ -159.626284323151424, 22.12240326440596 ], [ -159.627398174414338, 22.123474595686329 ], [ -159.628505582542203, 22.123969916215813 ], [ -159.6279829485932, 22.124924818701885 ], [ -159.626341330954801, 22.124408320261367 ], [ -159.625268658532576, 22.124928396023435 ], [ -159.624538148758631, 22.124581290998954 ], [ -159.624254496984349, 22.125158552415741 ], [ -159.624842250606321, 22.126210895020698 ], [ -159.624257378926529, 22.127570256667251 ], [ -159.624761349224485, 22.127834941586691 ], [ -159.625708902998156, 22.126476206752553 ], [ -159.626309890382174, 22.125666264492789 ], [ -159.627289899051362, 22.126608768522839 ], [ -159.628625931484265, 22.1270070431354 ], [ -159.629207296616954, 22.127283268402937 ], [ -159.630693398815794, 22.125399161929838 ], [ -159.631503900924258, 22.126178638508879 ], [ -159.632120063364567, 22.126454222530597 ], [ -159.63209880099609, 22.127673899050937 ], [ -159.632124870984114, 22.128662485115196 ], [ -159.633006006626317, 22.129429306612931 ], [ -159.632988149664726, 22.128754536628517 ], [ -159.632995281891482, 22.128347977698002 ], [ -159.632981012709735, 22.127808596626654 ], [ -159.633282473311084, 22.127536514149359 ], [ -159.633580276967706, 22.126669089334133 ], [ -159.633559668509321, 22.125887627006009 ], [ -159.632974088164246, 22.125367747972717 ], [ -159.633270363525583, 22.124826351948776 ], [ -159.633549720756292, 22.123550928692048 ], [ -159.632384656195086, 22.123203658769881 ], [ -159.631489320363016, 22.122921992702341 ], [ -159.630930008853767, 22.121837696601176 ], [ -159.632390804593257, 22.121859819393226 ], [ -159.632375248635128, 22.121269957148922 ], [ -159.633545457618851, 22.120213601576403 ], [ -159.632370148420335, 22.119951461730139 ], [ -159.632082232251804, 22.119308222912398 ], [ -159.633247617032396, 22.118589837546949 ], [ -159.632493091353666, 22.118252380534173 ], [ -159.634099170216501, 22.117518643129348 ], [ -159.635265884185912, 22.116135654420066 ], [ -159.6355636504166, 22.116978583554449 ], [ -159.636703783324236, 22.115863558201749 ], [ -159.637306569419906, 22.115872670643476 ], [ -159.636909585093122, 22.11480663516793 ], [ -159.638058234744761, 22.114454351957647 ], [ -159.64434538703307, 22.117221983548806 ], [ -159.652567712269246, 22.119055115920858 ], [ -159.675131813380489, 22.119503824615609 ], [ -159.679386045125199, 22.120102649048246 ], [ -159.681533900096809, 22.121334417377629 ], [ -159.678309624517169, 22.121934841892198 ], [ -159.677164655820917, 22.122490449602331 ], [ -159.677186280034704, 22.123300655391493 ], [ -159.675709387777687, 22.123278694470436 ], [ -159.676317245883695, 22.124106248897139 ], [ -159.676604908457648, 22.124652521332088 ], [ -159.677031557951864, 22.125415806433288 ], [ -159.678070259127168, 22.12572509336665 ], [ -159.67894766831958, 22.126141639100574 ], [ -159.678940406429462, 22.126567733733104 ], [ -159.677854582330298, 22.12855326255665 ], [ -159.676490120154, 22.129177011251823 ], [ -159.67784052346633, 22.129993903778484 ], [ -159.680051528987548, 22.130652222606241 ], [ -159.678382556038343, 22.131415196667877 ], [ -159.67780798722174, 22.131706550277553 ], [ -159.679611063769613, 22.132797238752726 ], [ -159.679503999781247, 22.133307664495184 ], [ -159.675931048593867, 22.132470346612667 ], [ -159.67548857624854, 22.133329757452444 ], [ -159.675322806948571, 22.133596036773941 ], [ -159.674031514607037, 22.132788317134413 ], [ -159.673000622719599, 22.132255958302402 ], [ -159.67371673026193, 22.133537119347668 ], [ -159.675603247614248, 22.133957329399603 ], [ -159.676901893604906, 22.133327227175979 ], [ -159.677238056411767, 22.13540516361137 ], [ -159.675784708907116, 22.134948425961401 ], [ -159.674624510292944, 22.135230563661697 ], [ -159.674331102740922, 22.135226201649754 ], [ -159.673894799174349, 22.135236299400923 ], [ -159.673211246810467, 22.135226118609626 ], [ -159.671716655718598, 22.135384617454665 ], [ -159.672591215891089, 22.135775468865322 ], [ -159.673460684592783, 22.136319347098087 ], [ -159.674340465371387, 22.13658130759363 ], [ -159.675220354257533, 22.136857836044445 ], [ -159.675210459502608, 22.137434131302637 ], [ -159.674052771301575, 22.138479628792538 ], [ -159.673769007994935, 22.138757245230607 ], [ -159.673456534890278, 22.139024128330298 ], [ -159.672894879682474, 22.138484299809875 ], [ -159.672094580388716, 22.138502816140292 ], [ -159.67319232949518, 22.139838275260178 ], [ -159.673483267486972, 22.141068735177235 ], [ -159.67261241863045, 22.141466780083061 ], [ -159.671919541646872, 22.141802924783825 ], [ -159.671306898398115, 22.14161037863828 ], [ -159.67120575859613, 22.141280358034976 ], [ -159.670951771909444, 22.141519065246619 ], [ -159.671306898398115, 22.14161037863828 ], [ -159.671523612262291, 22.142767809876968 ], [ -159.672896167226043, 22.143284549614922 ], [ -159.672329203770744, 22.143507296417628 ], [ -159.670810049460755, 22.143304536850451 ], [ -159.669126452302606, 22.143675267771833 ], [ -159.668570214390883, 22.14336579509914 ], [ -159.663586164765007, 22.143150008842099 ], [ -159.663167794767219, 22.142998756994249 ], [ -159.663066672705952, 22.142668730955304 ], [ -159.662812669513301, 22.142907425858571 ], [ -159.663167794767219, 22.142998756994249 ], [ -159.663009256436027, 22.143959655207386 ], [ -159.664205107139423, 22.144201585196512 ], [ -159.667030203821412, 22.145217588142476 ], [ -159.666220964985939, 22.14554846142164 ], [ -159.665378110755512, 22.146185728945309 ], [ -159.666022941594321, 22.14668028296089 ], [ -159.666966622111858, 22.146586780036181 ], [ -159.670090752691834, 22.146870504024406 ], [ -159.669112490087059, 22.147634319818739 ], [ -159.66729237835662, 22.148378549630483 ], [ -159.667827550883942, 22.14924022390872 ], [ -159.668625135275818, 22.149851918261295 ], [ -159.668133597219793, 22.150659635837705 ], [ -159.667431993558324, 22.149879813913135 ], [ -159.666660811364778, 22.149571992157131 ], [ -159.665683317114286, 22.149668840772215 ], [ -159.66534519710973, 22.149293011986785 ], [ -159.664501529156354, 22.149376595324082 ], [ -159.661899330100624, 22.148818281141327 ], [ -159.659862026239352, 22.148647305487966 ], [ -159.660506849884086, 22.149141881359068 ], [ -159.661201997860871, 22.149073030783949 ], [ -159.661882404347978, 22.150743016749068 ], [ -159.662646709166893, 22.150667312202753 ], [ -159.663924249528549, 22.152087356934341 ], [ -159.664871023525905, 22.15234198070554 ], [ -159.663926674391234, 22.152604307631695 ], [ -159.663068748334069, 22.152908599734069 ], [ -159.661483433048488, 22.152361030908441 ], [ -159.657605705139332, 22.151914759129095 ], [ -159.655619320448267, 22.152440742162621 ], [ -159.654566627376767, 22.154045958524083 ], [ -159.654655242694531, 22.154822475413798 ], [ -159.654626805974061, 22.15509360871064 ], [ -159.654686253057122, 22.155614400418482 ], [ -159.65587885341472, 22.15714409033318 ], [ -159.655439939771497, 22.158246671284019 ], [ -159.656554748408041, 22.159828691403607 ], [ -159.655744855435188, 22.160003479264589 ], [ -159.654646910963521, 22.159715839058492 ], [ -159.653363967647579, 22.158236574468102 ], [ -159.652310589842699, 22.157828067855917 ], [ -159.651873050372018, 22.157323517408823 ], [ -159.649979310012696, 22.157024318535807 ], [ -159.649719234416381, 22.156724362029998 ], [ -159.649394939451895, 22.156484607947231 ], [ -159.648930279101023, 22.155948777596524 ], [ -159.648139857915254, 22.155642210326096 ], [ -159.647675205072261, 22.155106376163019 ], [ -159.646767804107043, 22.1545979117552 ], [ -159.646419330418354, 22.153836604307791 ], [ -159.645599111853585, 22.153518463934134 ], [ -159.645337816294614, 22.152947485248969 ], [ -159.644722604360624, 22.152708872198421 ], [ -159.643730285027459, 22.152170752241453 ], [ -159.642996732175789, 22.152554965556238 ], [ -159.642690806327977, 22.154572682281895 ], [ -159.640086855924437, 22.155005365202982 ], [ -159.63857509692204, 22.156043164611646 ], [ -159.637549269966371, 22.15349129770323 ], [ -159.636609804303617, 22.152981784503726 ], [ -159.635994606031119, 22.152743138184654 ], [ -159.635281503699929, 22.152324400386494 ], [ -159.634860738915705, 22.151631045334554 ], [ -159.633948170595687, 22.151127441033186 ], [ -159.633502019959707, 22.150123874045502 ], [ -159.632802992140995, 22.149734754397326 ], [ -159.630435858996407, 22.150427954880808 ], [ -159.628679974858755, 22.149792729112427 ], [ -159.626147721101461, 22.150062339950136 ], [ -159.624056373904864, 22.151130698549881 ], [ -159.623805488279913, 22.151708585689644 ], [ -159.62347928707274, 22.152216987145042 ], [ -159.623229590620639, 22.153065889275968 ], [ -159.622903384315862, 22.153574289616 ], [ -159.622345975403391, 22.155585986364446 ], [ -159.621147793525353, 22.156454787287991 ], [ -159.621285098367593, 22.157296108031495 ], [ -159.620812836659667, 22.158032112938027 ], [ -159.620966932440865, 22.158976772456612 ], [ -159.620597669256171, 22.15955239251544 ], [ -159.620687747357209, 22.160104668701692 ], [ -159.620541389586549, 22.161053796653277 ], [ -159.620651905986222, 22.161730926617292 ], [ -159.620546228172259, 22.162416041952543 ], [ -159.621244644603252, 22.163888204146485 ], [ -159.62119988871649, 22.164178599778833 ], [ -159.621960686246695, 22.165342686873515 ], [ -159.622490185196312, 22.167633236502176 ], [ -159.623296294449574, 22.168207876799766 ], [ -159.623650642247952, 22.16974075971795 ], [ -159.625070755375788, 22.171439933645306 ], [ -159.626476019906676, 22.172441619746753 ], [ -159.626772154663001, 22.173107795153449 ], [ -159.628811451135732, 22.17521963745995 ], [ -159.627364774676295, 22.175509796452964 ], [ -159.627112659990189, 22.175816681039731 ], [ -159.626420831228359, 22.176083508817083 ], [ -159.625752816289861, 22.177124663562974 ], [ -159.62516242779634, 22.178484003821392 ], [ -159.624325212343052, 22.178602517563412 ], [ -159.623920080847711, 22.177691177092999 ], [ -159.623584913492834, 22.17717845072406 ], [ -159.623630703198899, 22.176881186137464 ], [ -159.622586596490976, 22.176494135992108 ], [ -159.622485542335909, 22.176164088585718 ], [ -159.622231410314868, 22.176402714086024 ], [ -159.622586596490976, 22.176494135992108 ], [ -159.622751896925621, 22.177200473000273 ], [ -159.621994185826878, 22.177836253201011 ], [ -159.621313897751321, 22.178551246731107 ], [ -159.619698671232157, 22.178018409657977 ], [ -159.618459627805436, 22.179320658479071 ], [ -159.617500983688103, 22.179893610829996 ], [ -159.616594854015801, 22.180845875917264 ], [ -159.616046097681078, 22.179914360839796 ], [ -159.615767550520331, 22.17908621775177 ], [ -159.614895078705359, 22.179137954758932 ], [ -159.61519071842875, 22.178197623741852 ], [ -159.616303301548299, 22.177264171088016 ], [ -159.616351828098686, 22.176450493691522 ], [ -159.616028600736655, 22.175801555005073 ], [ -159.614870066874659, 22.175870256763726 ], [ -159.614586209229827, 22.175026271600114 ], [ -159.613972841713974, 22.174519945282078 ], [ -159.614137481526171, 22.17408701458778 ], [ -159.614491850631254, 22.173992900366532 ], [ -159.614235643724669, 22.173756210781466 ], [ -159.614137481526171, 22.17408701458778 ], [ -159.612834424238741, 22.174261447571805 ], [ -159.613521327495107, 22.175491132780717 ], [ -159.613106221282692, 22.175865558378298 ], [ -159.613134463042456, 22.176939077809827 ], [ -159.611964533396616, 22.178300105452141 ], [ -159.611985725052989, 22.179108979327829 ], [ -159.611957281224051, 22.180727389834153 ], [ -159.612857394791234, 22.18152633504851 ], [ -159.612573493055891, 22.181819678617785 ], [ -159.611987601793857, 22.182348180510704 ], [ -159.612004107528975, 22.182976989941011 ], [ -159.609672299572026, 22.184815012854116 ], [ -159.609372586088085, 22.184245535052515 ], [ -159.608792907272573, 22.183730987694158 ], [ -159.608363362498807, 22.183317931951223 ], [ -159.608065396094872, 22.183053445829316 ], [ -159.607964370519483, 22.182723389014772 ], [ -159.607710201884032, 22.182961992504026 ], [ -159.608065396094872, 22.183053445829316 ], [ -159.60793070735906, 22.184278703442278 ], [ -159.606787835463109, 22.184620374172113 ], [ -159.607661937653489, 22.185368574681096 ], [ -159.606781477432179, 22.186134422425102 ], [ -159.606486175796505, 22.186723266713553 ], [ -159.605706992554559, 22.187401052215343 ], [ -159.605265918493416, 22.189156653903304 ], [ -159.60498466451395, 22.18884775608317 ], [ -159.605055399765575, 22.186999416668723 ], [ -159.604438056409975, 22.186730878592833 ], [ -159.604156931420022, 22.186450571062238 ], [ -159.602137694022986, 22.186099281015007 ], [ -159.602104004713738, 22.185379256105676 ], [ -159.602115000082307, 22.185091843820221 ], [ -159.601413536861827, 22.185120330870269 ], [ -159.601818971172776, 22.184029323266213 ], [ -159.601805843542223, 22.183749435569368 ], [ -159.60237246489379, 22.183256601448999 ], [ -159.602422708099795, 22.181943173614361 ], [ -159.602095737951544, 22.181304443396606 ], [ -159.600989285333753, 22.181854944005124 ], [ -159.599998983995675, 22.181133840906735 ], [ -159.600626400334647, 22.180018859762722 ], [ -159.600341900168218, 22.179959253634159 ], [ -159.59932282248306, 22.180104614910817 ], [ -159.59919428459358, 22.179681109577864 ], [ -159.597885727499175, 22.178958727138845 ], [ -159.598311957126981, 22.177977835759826 ], [ -159.599510564397377, 22.178138310833539 ], [ -159.600669934968067, 22.177691383689073 ], [ -159.600517189683615, 22.176754085868325 ], [ -159.601061331221871, 22.176359700694942 ], [ -159.600576799739088, 22.175618223578645 ], [ -159.600947853998377, 22.173947579372935 ], [ -159.601707216848069, 22.174049230797589 ], [ -159.602263328910254, 22.173182753068428 ], [ -159.601196676446193, 22.171550323990754 ], [ -159.601770954130473, 22.171531882241137 ], [ -159.602097125649749, 22.1719222382734 ], [ -159.602924880737504, 22.171805180832308 ], [ -159.604023855997809, 22.171952291487333 ], [ -159.603254996618972, 22.171404070134493 ], [ -159.603188321888609, 22.170995098021315 ], [ -159.603648353358409, 22.170873955101516 ], [ -159.603807953815704, 22.171217482632716 ], [ -159.60431800299051, 22.170981327773177 ], [ -159.603648353358409, 22.170873955101516 ], [ -159.603092648698862, 22.170232834489354 ], [ -159.602590142898947, 22.170822058555242 ], [ -159.601610824572589, 22.170712265470627 ], [ -159.600684019375194, 22.170823114104184 ], [ -159.599826874774607, 22.1703580468795 ], [ -159.600480167554196, 22.172988461264083 ], [ -159.599116679634307, 22.172835599885612 ], [ -159.599358403960935, 22.174589108064286 ], [ -159.597813944790261, 22.174415938911679 ], [ -159.596333437442695, 22.175003397894972 ], [ -159.595941372848017, 22.175630186029085 ], [ -159.59557702015141, 22.176444579901521 ], [ -159.594426324429719, 22.176100832769869 ], [ -159.594610993907139, 22.174672466013238 ], [ -159.594225575847531, 22.175124391574904 ], [ -159.593903354098302, 22.175366604831872 ], [ -159.593590463734131, 22.175733454838895 ], [ -159.592662433244698, 22.175629364377453 ], [ -159.592881369554334, 22.177218213725219 ], [ -159.591904027640624, 22.177335052896076 ], [ -159.591071796840652, 22.176374840561962 ], [ -159.590611141783313, 22.176914896526114 ], [ -159.589577775060349, 22.177038417430445 ], [ -159.589416658086492, 22.177159519648562 ], [ -159.589546981952282, 22.174850205649921 ], [ -159.590440409708521, 22.174308237996861 ], [ -159.590414974156033, 22.173763170197091 ], [ -159.591007350691086, 22.173500142475913 ], [ -159.592043305801297, 22.172830620703117 ], [ -159.593426408017621, 22.171429388504922 ], [ -159.593893490181443, 22.170498087700434 ], [ -159.598266906469917, 22.16995039204922 ], [ -159.602092482832461, 22.168295617719377 ], [ -159.604728098773904, 22.16659193353377 ], [ -159.609083000729157, 22.162773460676931 ], [ -159.610720306362197, 22.160390769808537 ], [ -159.611018727052738, 22.160688396511965 ], [ -159.611715177428636, 22.160991369953212 ], [ -159.610255407144223, 22.161877218330989 ], [ -159.609873634968523, 22.162463175495237 ], [ -159.611626229665944, 22.162845102700384 ], [ -159.611321344463789, 22.163387129203688 ], [ -159.611043854965999, 22.163940549011976 ], [ -159.609872402304148, 22.164747658086583 ], [ -159.60930442928148, 22.165414893593404 ], [ -159.610047064596586, 22.165831086613903 ], [ -159.610527189096246, 22.16487350546436 ], [ -159.612486603577594, 22.163713500596241 ], [ -159.611618824058837, 22.165256102772727 ], [ -159.61163299266866, 22.165559293427897 ], [ -159.611622463940677, 22.165835034671723 ], [ -159.612086143126135, 22.166365484659217 ], [ -159.612512307121506, 22.165515448360583 ], [ -159.613850343672453, 22.164351276167899 ], [ -159.613348814886393, 22.163921927903655 ], [ -159.613369550123736, 22.163379627086471 ], [ -159.612774999152776, 22.163120990581842 ], [ -159.612450249492355, 22.162486642562069 ], [ -159.612503847095468, 22.161084186291813 ], [ -159.612471843016777, 22.160402495610633 ], [ -159.613422413958773, 22.158221899807909 ], [ -159.614649329025212, 22.158262579741553 ], [ -159.614212086136405, 22.159039937500616 ], [ -159.613882291088515, 22.15969774746706 ], [ -159.613955482373598, 22.161258991053021 ], [ -159.615142385917267, 22.16174663554332 ], [ -159.615079285041077, 22.160401737761358 ], [ -159.615663742090533, 22.159893237993121 ], [ -159.6161516960222, 22.158919855094727 ], [ -159.615664511043605, 22.158502758053956 ], [ -159.615382243211201, 22.157951443795621 ], [ -159.615072824033774, 22.157412058750097 ], [ -159.616218010031332, 22.157069563680285 ], [ -159.616811279867392, 22.158228396597202 ], [ -159.617186622008433, 22.158213114481747 ], [ -159.61710995275925, 22.156578630310101 ], [ -159.618113212562406, 22.156611867971705 ], [ -159.61768172840155, 22.158572768689591 ], [ -159.617716188373237, 22.159307010208821 ], [ -159.617354262603442, 22.160281400963541 ], [ -159.617852808601441, 22.161150379019535 ], [ -159.618729314677694, 22.161462043790866 ], [ -159.619152670566933, 22.157758769302031 ], [ -159.618238907584754, 22.155710352595314 ], [ -159.618283527042053, 22.154542383392574 ], [ -159.620235657560187, 22.154101386621292 ], [ -159.620586924601582, 22.153052947624143 ], [ -159.621176987608777, 22.153072487006099 ], [ -159.621454829651725, 22.151965966401569 ], [ -159.622452947180648, 22.15043336109181 ], [ -159.623899938424643, 22.149174098669999 ], [ -159.624948744353304, 22.148708072205096 ], [ -159.624739025231833, 22.148440493404998 ], [ -159.622309742986914, 22.149380899020187 ], [ -159.622329646135199, 22.149804433319193 ], [ -159.621993120828193, 22.150097282283642 ], [ -159.620875320972431, 22.150060277166219 ], [ -159.620586027804762, 22.150353489385093 ], [ -159.620134726067192, 22.150746236965826 ], [ -159.619856108084832, 22.151028646906408 ], [ -159.619196310754347, 22.15081603516856 ], [ -159.618822436663038, 22.151195061603019 ], [ -159.618846799199446, 22.151714827893173 ], [ -159.618545500954724, 22.151977024923564 ], [ -159.618167013488574, 22.152732020821762 ], [ -159.617679400574843, 22.152245753061472 ], [ -159.617275887903389, 22.152654779281413 ], [ -159.616809587108946, 22.151663192308281 ], [ -159.617464373841187, 22.150499059467279 ], [ -159.617334500119682, 22.149823785730977 ], [ -159.616393165172354, 22.151701456149631 ], [ -159.615931108285679, 22.150360793655196 ], [ -159.615760004877757, 22.15010075747589 ], [ -159.615234191588002, 22.151149680012868 ], [ -159.613515195909002, 22.150310603902916 ], [ -159.612731564900258, 22.150531173260951 ], [ -159.613606019032858, 22.150911598058141 ], [ -159.614002310833513, 22.151685743452031 ], [ -159.615952356036104, 22.152534048596333 ], [ -159.615931630408937, 22.153076168239242 ], [ -159.615945098009064, 22.15336348961495 ], [ -159.615211176626474, 22.153339164077721 ], [ -159.614746293492175, 22.153358087277418 ], [ -159.614797098816553, 22.154441573286743 ], [ -159.614449707182416, 22.154430054246898 ], [ -159.613901604781546, 22.153883402172116 ], [ -159.613622372757959, 22.15471657125789 ], [ -159.613320802171955, 22.154706572958382 ], [ -159.612864582624638, 22.155168976846078 ], [ -159.61191598948821, 22.153812621086026 ], [ -159.612742656322354, 22.153093348771552 ], [ -159.613206806045582, 22.151708395913506 ], [ -159.612414538694168, 22.151740626588566 ], [ -159.611861247112728, 22.151188784215673 ], [ -159.611548133471587, 22.151201512869552 ], [ -159.611573249544307, 22.151737464084459 ], [ -159.611557746041456, 22.152144053527323 ], [ -159.611589750422212, 22.152827506889697 ], [ -159.61125351618557, 22.152816352667365 ], [ -159.610691117820835, 22.151717734664601 ], [ -159.610554491880691, 22.152960874639753 ], [ -159.610127100586368, 22.152581433489026 ], [ -159.609816676797806, 22.151471679808438 ], [ -159.610911360190102, 22.150116531655371 ], [ -159.610104067258817, 22.150385148308867 ], [ -159.609371289742057, 22.151101335589274 ], [ -159.60807105169377, 22.14985069733644 ], [ -159.606026744199198, 22.148035553562913 ], [ -159.606900363640676, 22.148228930186988 ], [ -159.608067865693926, 22.148596351671504 ], [ -159.608051124255752, 22.147956336747988 ], [ -159.608067564988687, 22.147021464236989 ], [ -159.607184102036143, 22.146601639738378 ], [ -159.606745055023481, 22.146611626797963 ], [ -159.606305936372934, 22.146604905701121 ], [ -159.6052408886911, 22.147121036627166 ], [ -159.597693580701417, 22.142106419123142 ], [ -159.59057061786379, 22.139209332204103 ], [ -159.59085789061487, 22.138796490670163 ], [ -159.592032834861897, 22.138814572144067 ], [ -159.591722055009086, 22.13825796530007 ], [ -159.592595533531721, 22.137859254869703 ], [ -159.592309621296209, 22.137712598720416 ], [ -159.592016040725014, 22.137719246869207 ], [ -159.59172511253729, 22.137714777005161 ], [ -159.590873416119422, 22.137734057402572 ], [ -159.590238608276081, 22.137170250184553 ], [ -159.591720520631753, 22.135833428278865 ], [ -159.591698795658658, 22.135002095708998 ], [ -159.592881033175843, 22.134462444112231 ], [ -159.592287036405196, 22.133652882432074 ], [ -159.591989223666616, 22.133086584587165 ], [ -159.591128247400405, 22.13232188030101 ], [ -159.590815981741827, 22.131728139809784 ], [ -159.588212496627307, 22.131787052260812 ], [ -159.588784989200065, 22.130949903888229 ], [ -159.589080599895226, 22.130683240731507 ], [ -159.589364517370171, 22.130405767787398 ], [ -159.590235544897922, 22.130008162720667 ], [ -159.588815823331743, 22.129329083979197 ], [ -159.588210377759339, 22.129822461760472 ], [ -159.587918161036328, 22.130958453944167 ], [ -159.587331655535337, 22.131226161962974 ], [ -159.58677540846324, 22.131769768947326 ], [ -159.586461600893784, 22.131776860060768 ], [ -159.585444693180477, 22.131456653173277 ], [ -159.583692480890221, 22.13202244976933 ], [ -159.58295096305622, 22.13069389815394 ], [ -159.584414197536773, 22.13071648132269 ], [ -159.584428896823908, 22.129889548548011 ], [ -159.583686557621775, 22.128877672821837 ], [ -159.584433883089218, 22.128515593063231 ], [ -159.58528715107775, 22.128528755478467 ], [ -159.585578014821124, 22.128522187412088 ], [ -159.586138881910358, 22.128530835873871 ], [ -159.586163249551134, 22.127159267300776 ], [ -159.585024204014388, 22.127711154807606 ], [ -159.584407108793499, 22.127447768109082 ], [ -159.584117985030446, 22.127169534022784 ], [ -159.583683401884059, 22.127594213882155 ], [ -159.582692689175303, 22.12664082804152 ], [ -159.582656481983378, 22.127248252294716 ], [ -159.582675631438462, 22.127984828418356 ], [ -159.582085171209997, 22.127998158482388 ], [ -159.581791492959098, 22.127993622443409 ], [ -159.581235094944731, 22.128537318975432 ], [ -159.580635755698779, 22.128550849142343 ], [ -159.580343856089854, 22.128269905313296 ], [ -159.579183068174672, 22.1279235044071 ], [ -159.579171022601201, 22.127461043323244 ], [ -159.580323119855905, 22.127108198786221 ], [ -159.580336169488618, 22.126375485964434 ], [ -159.580322173381944, 22.125836426239474 ], [ -159.58062183731866, 22.125829662128023 ], [ -159.581063874951894, 22.12583649280705 ], [ -159.581635416215846, 22.124728134087945 ], [ -159.583580253083738, 22.12475817373705 ], [ -159.582940282268652, 22.124471704192029 ], [ -159.582945193009351, 22.124198008880629 ], [ -159.582927905072694, 22.123534276439681 ], [ -159.584100662032597, 22.122966063800728 ], [ -159.584972098797493, 22.12338040422361 ], [ -159.585560771202779, 22.123643891153989 ], [ -159.586138057672883, 22.123918375804873 ], [ -159.586703504871934, 22.123905592716618 ], [ -159.587888921971881, 22.124184104513034 ], [ -159.588262301508507, 22.123819218176255 ], [ -159.589053541036549, 22.124173372978095 ], [ -159.589614754860975, 22.124713392432032 ], [ -159.590499411918273, 22.12352173401294 ], [ -159.589551147968677, 22.122806786983947 ], [ -159.588751447910994, 22.122824882712052 ], [ -159.588162847350048, 22.122545022284598 ], [ -159.587586825574277, 22.122558055155107 ], [ -159.586976027893201, 22.122267633801322 ], [ -159.583810112349283, 22.122339188148263 ], [ -159.58409274785302, 22.12175198958586 ], [ -159.58467698546221, 22.120942255935848 ], [ -159.585107572858504, 22.12026044364999 ], [ -159.585461829101007, 22.120166398574689 ], [ -159.585205769225951, 22.119929650329617 ], [ -159.585107572858504, 22.12026044364999 ], [ -159.584361164629456, 22.120145048386995 ], [ -159.584082906091652, 22.119518368796438 ], [ -159.583545809700894, 22.121342473017844 ], [ -159.581961182726559, 22.121929444588442 ], [ -159.582199988745799, 22.120541858774796 ], [ -159.582554247773885, 22.12044781995349 ], [ -159.58229819212022, 22.120211067062481 ], [ -159.582199988745799, 22.120541858774796 ], [ -159.581736598981422, 22.120432811646459 ], [ -159.581410629448726, 22.11999647986179 ], [ -159.580576244721641, 22.121200384416532 ], [ -159.580208543418649, 22.122556806218064 ], [ -159.579416283466685, 22.122067199287706 ], [ -159.579142657104995, 22.121700897761112 ], [ -159.578845462894321, 22.122449514551516 ], [ -159.578252788826035, 22.12207132372987 ], [ -159.578133328413713, 22.121911422310156 ], [ -159.57848759375932, 22.12181739219519 ], [ -159.578231542207845, 22.121580632873165 ], [ -159.578133328413713, 22.121911422310156 ], [ -159.57760519269516, 22.121772751070402 ], [ -159.576922799109354, 22.120984872412393 ], [ -159.576435594719072, 22.123122041298632 ], [ -159.57619562609392, 22.122840856550948 ], [ -159.576269365257019, 22.122270552916714 ], [ -159.575062547956122, 22.121801741138764 ], [ -159.574691612430684, 22.120989977511385 ], [ -159.574163158720694, 22.121244580838233 ], [ -159.574714111283384, 22.121652469286062 ], [ -159.574351973131428, 22.121924766640916 ], [ -159.574251072851467, 22.121594679674974 ], [ -159.573996953244375, 22.12183323951708 ], [ -159.574351973131428, 22.121924766640916 ], [ -159.574354169307213, 22.122466805249378 ], [ -159.573604171903014, 22.12264123797112 ], [ -159.573480448684847, 22.122198853018041 ], [ -159.573834718080121, 22.122104832920051 ], [ -159.573578673588713, 22.1218680661542 ], [ -159.573480448684847, 22.122198853018041 ], [ -159.572779216626287, 22.122033802305094 ], [ -159.57301576345381, 22.121769136631606 ], [ -159.573699868891481, 22.121527893681026 ], [ -159.573041140125838, 22.121107568257973 ], [ -159.572756953197114, 22.12009150017801 ], [ -159.572410743335269, 22.120562472379792 ], [ -159.571868532067469, 22.119836642087332 ], [ -159.571283142397192, 22.12080072957535 ], [ -159.570889091055847, 22.119391980642753 ], [ -159.570096330092071, 22.119118747576341 ], [ -159.569857432785909, 22.118798932091607 ], [ -159.569512416644102, 22.118578738084402 ], [ -159.569391880581975, 22.11814781025949 ], [ -159.569846452418062, 22.118028156506156 ], [ -159.570117250105909, 22.117698696350164 ], [ -159.570390689623423, 22.11802625658061 ], [ -159.570724985564425, 22.118264798157153 ], [ -159.570631135075246, 22.118871926425932 ], [ -159.571584914668705, 22.118518712041801 ], [ -159.572107043431771, 22.119144162860657 ], [ -159.572720758813574, 22.118796284895463 ], [ -159.57375596687757, 22.118403559647756 ], [ -159.573876516361821, 22.118834483950511 ], [ -159.574221539687272, 22.119054668572531 ], [ -159.575142387672145, 22.120318541016236 ], [ -159.576048220745548, 22.118826837920032 ], [ -159.5768404510832, 22.119316462025932 ], [ -159.577106140939577, 22.119672117931621 ], [ -159.577368927742299, 22.11931459442556 ], [ -159.577722493960295, 22.11908529680322 ], [ -159.577572287727747, 22.118472122089418 ], [ -159.578245773394485, 22.118610295660098 ], [ -159.578527976404359, 22.118226399894663 ], [ -159.578895065620657, 22.117988309464813 ], [ -159.578507433300331, 22.117438216077556 ], [ -159.579102987550073, 22.116578893676039 ], [ -159.578834402421393, 22.116296540215398 ], [ -159.578059342315953, 22.117351055203237 ], [ -159.577695976465066, 22.116864593437839 ], [ -159.577362151556542, 22.116935556114012 ], [ -159.577238639007419, 22.116494124241008 ], [ -159.577899169769296, 22.116383231811582 ], [ -159.577398968443077, 22.116141313281052 ], [ -159.577238639007419, 22.116494124241008 ], [ -159.576925097568079, 22.116244365212776 ], [ -159.576462351327763, 22.115747714313365 ], [ -159.572734854931156, 22.114972438416771 ], [ -159.575198469950749, 22.11467723285589 ], [ -159.576207651007024, 22.115018542350832 ], [ -159.577058666395288, 22.114951801706283 ], [ -159.577671334261055, 22.115609345379124 ], [ -159.578457420388332, 22.114752585150757 ], [ -159.581512303690545, 22.114451269070553 ], [ -159.580563370441467, 22.114188724783158 ], [ -159.579707354968576, 22.113899253974608 ], [ -159.578312434792565, 22.114008669526861 ], [ -159.578100177123417, 22.113780844253615 ], [ -159.578454422311381, 22.113686814555024 ], [ -159.578198385834355, 22.113450054628849 ], [ -159.578100177123417, 22.113780844253615 ], [ -159.57740738545624, 22.113551972143664 ], [ -159.576967098644985, 22.114454783174573 ], [ -159.575905081560876, 22.113727285908737 ], [ -159.575941523359489, 22.11311853751436 ], [ -159.575036335429161, 22.113377498474911 ], [ -159.574167217578719, 22.113671520696357 ], [ -159.573887717094181, 22.113109629695533 ], [ -159.573583367113486, 22.113127612885943 ], [ -159.572092925915967, 22.112635199709025 ], [ -159.572162447883784, 22.113656753318342 ], [ -159.571838502052458, 22.113675885421653 ], [ -159.571301070592, 22.11259550795684 ], [ -159.570961853740215, 22.112577861002194 ], [ -159.570672219665084, 22.11288220321919 ], [ -159.570090379304673, 22.112851928513834 ], [ -159.569815451188532, 22.113140883511846 ], [ -159.569517143835355, 22.113125357108689 ], [ -159.569008685559822, 22.113155374570269 ], [ -159.568329522616835, 22.112867783119171 ], [ -159.569231253843157, 22.112328989314641 ], [ -159.569504626346401, 22.112041761067129 ], [ -159.570266268674033, 22.111402816931729 ], [ -159.568098748879379, 22.111842239128933 ], [ -159.567768318873021, 22.1115001833317 ], [ -159.567191476595411, 22.111794856226229 ], [ -159.566748565681621, 22.111771795619269 ], [ -159.566021593921107, 22.111814703527191 ], [ -159.565221996461162, 22.11177307360143 ], [ -159.564560113263269, 22.112058925186581 ], [ -159.564274074057096, 22.112645383914145 ], [ -159.562712104605424, 22.113319920380683 ], [ -159.5620008860609, 22.114777989097682 ], [ -159.56095409328401, 22.113015953982668 ], [ -159.560300987884347, 22.111339324188187 ], [ -159.561501204522614, 22.110821036570051 ], [ -159.561949156503943, 22.109643964424038 ], [ -159.562225063750617, 22.10823800437635 ], [ -159.563227345455601, 22.107397237665847 ], [ -159.562771882634479, 22.106622971088203 ], [ -159.565274383105134, 22.106779114871394 ], [ -159.565506849127928, 22.107203431264942 ], [ -159.566775435259984, 22.107407009377699 ], [ -159.566496255018109, 22.106879237843852 ], [ -159.565274383105134, 22.106779114871394 ], [ -159.565477516289718, 22.106257612140375 ], [ -159.565091472908165, 22.10496208032589 ], [ -159.565147483694233, 22.104281299272557 ], [ -159.5639435249945, 22.103948043716589 ], [ -159.563670963213212, 22.103115747094691 ], [ -159.56308743885603, 22.102650761719698 ], [ -159.563863318182513, 22.102544061788929 ], [ -159.564792972799552, 22.102610435044735 ], [ -159.565436428879309, 22.102272977803668 ], [ -159.567451824118621, 22.103102660654219 ], [ -159.568002282518734, 22.10369353865477 ], [ -159.572364441594686, 22.104004838681067 ], [ -159.571504196331006, 22.103650749759872 ], [ -159.570220079247377, 22.102809014201522 ], [ -159.569536794909055, 22.102862578153537 ], [ -159.569457805758987, 22.101987906188363 ], [ -159.570373466557385, 22.102053254335029 ], [ -159.57077968133899, 22.101610520447199 ], [ -159.571502381735797, 22.101454881821336 ], [ -159.573843909575487, 22.101753695032659 ], [ -159.574404022287354, 22.101444244723638 ], [ -159.574956051950636, 22.101506254628298 ], [ -159.57556058145164, 22.101172228156209 ], [ -159.576257142475953, 22.100928723524525 ], [ -159.576770429050157, 22.101521398269924 ], [ -159.577304464440289, 22.100895052807463 ], [ -159.577760248521486, 22.100652392275869 ], [ -159.578181494472375, 22.102006020983605 ], [ -159.578903339969031, 22.102286465315419 ], [ -159.578637668227884, 22.102938002060018 ], [ -159.577977200467586, 22.103048896294933 ], [ -159.578477356012144, 22.103290814414553 ], [ -159.578637668227884, 22.102938002060018 ], [ -159.579070093188989, 22.103077515271931 ], [ -159.579365285653921, 22.103065567712761 ], [ -159.579825180524125, 22.103080916740673 ], [ -159.579074703754685, 22.101771402796313 ], [ -159.57944154486708, 22.101691709980262 ], [ -159.580237263334027, 22.101718281501739 ], [ -159.581113416308114, 22.101151847837333 ], [ -159.582164570405524, 22.10118693037197 ], [ -159.583422220415429, 22.100810945577447 ], [ -159.58302764854804, 22.100154132431474 ], [ -159.581096948410845, 22.100632918637444 ], [ -159.580813904815244, 22.10035039550883 ], [ -159.579137280130311, 22.099984515500061 ], [ -159.578773680019793, 22.099273539210454 ], [ -159.578470714060444, 22.099013910330143 ], [ -159.57806288766875, 22.098216458451851 ], [ -159.57644161192465, 22.099023263736953 ], [ -159.575571246988687, 22.098742421367795 ], [ -159.574649986072785, 22.098779706813442 ], [ -159.575266677543993, 22.09824314828343 ], [ -159.575297896780484, 22.097431901999112 ], [ -159.57498414473676, 22.097118724872484 ], [ -159.574376954460774, 22.096598381112109 ], [ -159.574406956021306, 22.095818370315794 ], [ -159.57381318434804, 22.095225672016035 ], [ -159.571472324929914, 22.094431123135479 ], [ -159.571331888099365, 22.094290940890932 ], [ -159.572305529735246, 22.094097549789254 ], [ -159.572635950888582, 22.094427447588842 ], [ -159.573217498697744, 22.094403921077763 ], [ -159.573756585585187, 22.094942043127521 ], [ -159.574533660838512, 22.094968013825614 ], [ -159.574975218271305, 22.094950150694341 ], [ -159.575258440964689, 22.095772961925139 ], [ -159.576143034985563, 22.096030547829418 ], [ -159.577006146669277, 22.09645226815465 ], [ -159.576722473447376, 22.095486456315527 ], [ -159.57613455809377, 22.093942002329506 ], [ -159.576426151432088, 22.094132381670459 ], [ -159.57796986667168, 22.096558337818013 ], [ -159.578728203874022, 22.096583659892367 ], [ -159.579052385980731, 22.096301612230345 ], [ -159.579328770035062, 22.095477239009618 ], [ -159.579958336409732, 22.095197613763652 ], [ -159.580587642229546, 22.094559786948373 ], [ -159.581363108265322, 22.094938670623559 ], [ -159.581804025419956, 22.094920824419816 ], [ -159.582481401302459, 22.094943423300641 ], [ -159.583117195568434, 22.094661017860197 ], [ -159.583690990177729, 22.094375440294574 ], [ -159.584561343105747, 22.094656239801878 ], [ -159.58542258721215, 22.09462133059057 ], [ -159.585727658040355, 22.094925784402438 ], [ -159.587176395522818, 22.094365140024433 ], [ -159.588058840781088, 22.09410126612396 ], [ -159.588467199122647, 22.093286725597004 ], [ -159.589510625963243, 22.093543667161967 ], [ -159.590051766377229, 22.094083761708809 ], [ -159.590952674231517, 22.093310561308467 ], [ -159.590427248959003, 22.092725121035709 ], [ -159.589507168844818, 22.092762435592892 ], [ -159.589214187064186, 22.092189617953213 ], [ -159.588893618506347, 22.091914952332999 ], [ -159.589780396788683, 22.091143281465545 ], [ -159.588374082153649, 22.090948323732142 ], [ -159.586975557516382, 22.09273971937219 ], [ -159.586845976116138, 22.092394804761618 ], [ -159.586935201235775, 22.090070915640954 ], [ -159.585718329146033, 22.090857782000295 ], [ -159.585422504847458, 22.090847907430422 ], [ -159.584927863500468, 22.090867956990468 ], [ -159.583643183194454, 22.090587596548581 ], [ -159.585260284614805, 22.089180394752475 ], [ -159.584819766979081, 22.088411610922041 ], [ -159.588022835452392, 22.088082283857009 ], [ -159.587621191932556, 22.087376971788618 ], [ -159.585493028209441, 22.087306016046998 ], [ -159.583529213168532, 22.088026807433181 ], [ -159.582779665933884, 22.088679035430019 ], [ -159.581430969802682, 22.090046021094345 ], [ -159.581057079756334, 22.090061163043249 ], [ -159.57997788873999, 22.090025129164449 ], [ -159.578821169266917, 22.090407593961533 ], [ -159.577562485014965, 22.089515138641115 ], [ -159.577233798438556, 22.090170651446311 ], [ -159.576397511744545, 22.089806419456959 ], [ -159.575674361254045, 22.089397270203094 ], [ -159.57557348291914, 22.089067182316811 ], [ -159.575319422460126, 22.089305735592074 ], [ -159.575674361254045, 22.089397270203094 ], [ -159.575545173680752, 22.090087824389201 ], [ -159.57522852452135, 22.090334885416699 ], [ -159.574747575686445, 22.090878625446617 ], [ -159.574644373148686, 22.090079281611878 ], [ -159.574677531738928, 22.08976402330704 ], [ -159.574076622838618, 22.089823237613153 ], [ -159.573785703393611, 22.089796633817357 ], [ -159.573278333434502, 22.089846633799777 ], [ -159.572868890861542, 22.089532067110937 ], [ -159.572980620024481, 22.088470687522179 ], [ -159.572303811957141, 22.088915821712497 ], [ -159.572433890441687, 22.090062786332958 ], [ -159.572030704347014, 22.090102508952118 ], [ -159.571763472401216, 22.089804992862842 ], [ -159.571444837431414, 22.089560160343957 ], [ -159.571178585906978, 22.088993964417366 ], [ -159.570857389948259, 22.088747171126577 ], [ -159.570939113187706, 22.087971214058346 ], [ -159.570279014277304, 22.087910840249922 ], [ -159.569717354688436, 22.088213234625407 ], [ -159.56941706395844, 22.088185762363516 ], [ -159.568992094346584, 22.08822763758122 ], [ -159.567409612530298, 22.087800811748497 ], [ -159.567348090170043, 22.087258182156116 ], [ -159.567407599906801, 22.086692982726351 ], [ -159.566488134729184, 22.086325116880868 ], [ -159.566106483115391, 22.085513364877222 ], [ -159.565887281077977, 22.086680634648271 ], [ -159.566028709365099, 22.087927777949762 ], [ -159.565621129020826, 22.087683241693185 ], [ -159.565244992029733, 22.086883230094223 ], [ -159.564356190353749, 22.087888052879578 ], [ -159.563497874420221, 22.087972582272545 ], [ -159.562737679199444, 22.087126064967684 ], [ -159.561570906634387, 22.086229561298399 ], [ -159.561832000398311, 22.08550303117697 ], [ -159.561990331802718, 22.085379513506549 ], [ -159.562129206235454, 22.085793199163259 ], [ -159.562456291398178, 22.086349292846858 ], [ -159.563069068281351, 22.086313123593442 ], [ -159.563583146266353, 22.08577294215986 ], [ -159.565079755691727, 22.084878576004314 ], [ -159.565028549512647, 22.08412463462178 ], [ -159.566896067532809, 22.084221889070346 ], [ -159.565626308301972, 22.083172376775014 ], [ -159.566530301636192, 22.08278189890223 ], [ -159.566473884953183, 22.081951435944951 ], [ -159.567430317355843, 22.082001236362359 ], [ -159.567932200837134, 22.082520849339815 ], [ -159.57055488610095, 22.083875063517862 ], [ -159.571294210397923, 22.083497275848519 ], [ -159.571575793009885, 22.082636040301008 ], [ -159.572047870938064, 22.082766709141278 ], [ -159.57196726347351, 22.083747139140641 ], [ -159.573479516020825, 22.083317010097151 ], [ -159.573848488935596, 22.082914819745845 ], [ -159.575104536548764, 22.083562178974656 ], [ -159.57493230974643, 22.083020735789006 ], [ -159.574617280465134, 22.082769660058741 ], [ -159.574640286648417, 22.082489787485347 ], [ -159.574567748037452, 22.081687043049101 ], [ -159.576092187212765, 22.082203580264061 ], [ -159.576749208430101, 22.083173058009375 ], [ -159.57781581518185, 22.082310067165622 ], [ -159.576643973847524, 22.081367140208421 ], [ -159.574926161910128, 22.081501869118306 ], [ -159.576740237635534, 22.080771370760718 ], [ -159.578526504986343, 22.081375593834654 ], [ -159.579554580002792, 22.080836223826399 ], [ -159.580409447595116, 22.080477042386722 ], [ -159.58044921248063, 22.079992534577567 ], [ -159.579192781093496, 22.079475336861542 ], [ -159.578514380315113, 22.078747027520571 ], [ -159.577659582190449, 22.080029855538399 ], [ -159.57608084183326, 22.079406050250654 ], [ -159.576698081741881, 22.07920111921484 ], [ -159.577512615374786, 22.079259235268715 ], [ -159.577172774505812, 22.078194764844241 ], [ -159.57606481852747, 22.078115712970632 ], [ -159.574850298398417, 22.078210984138995 ], [ -159.575201236571928, 22.077619447955751 ], [ -159.575333052651331, 22.076931348689605 ], [ -159.57594930093461, 22.077149635341545 ], [ -159.57693105595348, 22.07660708700417 ], [ -159.577817792600484, 22.077088720704431 ], [ -159.578083809805406, 22.075921617525502 ], [ -159.578673242249522, 22.075987835176551 ], [ -159.579029732687729, 22.075945234991639 ], [ -159.580149588513137, 22.077238607666022 ], [ -159.581205947627979, 22.07735725149006 ], [ -159.581601578717255, 22.077059676798616 ], [ -159.582073540630233, 22.076505990706583 ], [ -159.583579531209693, 22.076098851673116 ], [ -159.583661204089879, 22.075467201165974 ], [ -159.583029299284874, 22.075396223373478 ], [ -159.580450498583645, 22.075858994219768 ], [ -159.58120849013028, 22.07528879534301 ], [ -159.580429473804287, 22.074865670765245 ], [ -159.579555745755755, 22.074526150543377 ], [ -159.579893445109349, 22.074263672349321 ], [ -159.581192754475467, 22.074409609717762 ], [ -159.581904109435754, 22.07401645725508 ], [ -159.582682955796344, 22.074103937881468 ], [ -159.583159020685628, 22.073342499406429 ], [ -159.582438494180906, 22.07295120103538 ], [ -159.581007603698652, 22.074026260967845 ], [ -159.581402289634923, 22.072805744443162 ], [ -159.581886302371402, 22.072441653795448 ], [ -159.581512048532829, 22.07185344339457 ], [ -159.582417573322118, 22.071172246933941 ], [ -159.581639907211354, 22.071022264737497 ], [ -159.580866711957924, 22.071114702929972 ], [ -159.58152656268868, 22.068929207534488 ], [ -159.580588683003839, 22.069194878749158 ], [ -159.580117798387732, 22.069747283152822 ], [ -159.579956792730428, 22.069868379275682 ], [ -159.580098559147842, 22.068894708716932 ], [ -159.580899083988783, 22.067432595987597 ], [ -159.578421244904405, 22.068633543314789 ], [ -159.580375709452767, 22.066359071985332 ], [ -159.578397463511806, 22.066156158762325 ], [ -159.577914045649209, 22.066628736310456 ], [ -159.577037022431, 22.066897430894858 ], [ -159.577212522887777, 22.066220374455394 ], [ -159.577126334565179, 22.065868233620712 ], [ -159.576046629683219, 22.066097837490911 ], [ -159.576625751547937, 22.066467530447508 ], [ -159.5768645728987, 22.066787339636118 ], [ -159.577037022431, 22.066897430894858 ], [ -159.576912300789814, 22.067597913570559 ], [ -159.576280875173723, 22.067513210438015 ], [ -159.576376682310894, 22.068101918660144 ], [ -159.576004533846856, 22.067867108146402 ], [ -159.575750013077055, 22.067562075412948 ], [ -159.575415830491011, 22.067323556808731 ], [ -159.575462246675585, 22.067023039568038 ], [ -159.574831908533895, 22.066785131014747 ], [ -159.575014808106886, 22.065600623273205 ], [ -159.573999014528567, 22.065976981738512 ], [ -159.57300582350382, 22.066238519118478 ], [ -159.572314529518934, 22.067079802924088 ], [ -159.571932551690054, 22.067028551454751 ], [ -159.571666609865332, 22.067640842226655 ], [ -159.571387489454565, 22.067306344360421 ], [ -159.57094083135425, 22.066987467443454 ], [ -159.571346740458665, 22.06649341141685 ], [ -159.571808727814073, 22.066158491542733 ], [ -159.571324309794505, 22.065416303864623 ], [ -159.57248711425197, 22.064967969384337 ], [ -159.572592201911476, 22.06428742523217 ], [ -159.570882556572599, 22.064920806415024 ], [ -159.570214497120759, 22.064831162044303 ], [ -159.570470249457003, 22.065447272999148 ], [ -159.571055375351108, 22.066343846249087 ], [ -159.570501305505587, 22.066534937623356 ], [ -159.570187514245589, 22.066492823614059 ], [ -159.569697676763013, 22.067088935861609 ], [ -159.569332319727096, 22.067039903233781 ], [ -159.569025116941305, 22.067083319633447 ], [ -159.568601702012558, 22.066113888297558 ], [ -159.568955835829968, 22.066019872776092 ], [ -159.568699902761864, 22.065783102693274 ], [ -159.568601702012558, 22.066113888297558 ], [ -159.568438053955134, 22.066232517653777 ], [ -159.568186693309997, 22.067086316180475 ], [ -159.56787851246051, 22.067044955747495 ], [ -159.567576559264012, 22.067087623363033 ], [ -159.56680832619665, 22.06665931613248 ], [ -159.567648161571668, 22.064646030380828 ], [ -159.566984464681553, 22.064172151449043 ], [ -159.566021580288123, 22.064718131312286 ], [ -159.565251959439252, 22.064614823304851 ], [ -159.564389673291373, 22.064736654683163 ], [ -159.564238155383805, 22.065586943715207 ], [ -159.562936024518478, 22.066407366893909 ], [ -159.562658470276801, 22.067431267072479 ], [ -159.562380642160406, 22.067059165404316 ], [ -159.561917441809726, 22.066950057333464 ], [ -159.562101091295546, 22.066538256607114 ], [ -159.56175877722464, 22.065313564901043 ], [ -159.561039808715691, 22.065597941928033 ], [ -159.560850185836046, 22.064604098503075 ], [ -159.559479015682939, 22.064767861377636 ], [ -159.558254625981647, 22.063860789220822 ], [ -159.557994916462036, 22.063560675158929 ], [ -159.557601433372724, 22.063269155272096 ], [ -159.557701955536061, 22.06249255837503 ], [ -159.557629542782877, 22.061965740895026 ], [ -159.558514940137229, 22.062290668389121 ], [ -159.558993109301667, 22.063828293797979 ], [ -159.559463731730204, 22.063138799117578 ], [ -159.55938100694317, 22.06253670168666 ], [ -159.55999830213878, 22.062195609817923 ], [ -159.561317726905173, 22.062344682504932 ], [ -159.561803781016749, 22.062995765231925 ], [ -159.562891707882869, 22.062708875593636 ], [ -159.562346485135521, 22.062444042155423 ], [ -159.562044057423662, 22.062508338119738 ], [ -159.561317726905173, 22.062344682504932 ], [ -159.56131665695608, 22.062073660598905 ], [ -159.563155434679175, 22.061207303306745 ], [ -159.562957414531098, 22.060532918582798 ], [ -159.562570543849745, 22.060352153656272 ], [ -159.562296696559571, 22.059852167231512 ], [ -159.561716248086213, 22.060118883674004 ], [ -159.56150046162503, 22.059724847158261 ], [ -159.560822848431513, 22.05954507529415 ], [ -159.560723397449834, 22.059094412381281 ], [ -159.562342776041305, 22.059477942587282 ], [ -159.562888000559468, 22.059781997622785 ], [ -159.564901171612121, 22.060458827985986 ], [ -159.565297541792205, 22.059546470129085 ], [ -159.566533987262602, 22.057990298843087 ], [ -159.566888102454413, 22.057896288104473 ], [ -159.566632187703988, 22.057659514170144 ], [ -159.566533987262602, 22.057990298843087 ], [ -159.565805282056488, 22.058135048560278 ], [ -159.565225073369987, 22.057851404608009 ], [ -159.564650252244718, 22.058137482633907 ], [ -159.56347723805419, 22.058402228799519 ], [ -159.562317512328434, 22.058689749056807 ], [ -159.562023829983275, 22.058396457457615 ], [ -159.561255840891562, 22.058427479221535 ], [ -159.560580753858488, 22.058382697608749 ], [ -159.561160260302415, 22.057878460482424 ], [ -159.561403992671444, 22.056793521676259 ], [ -159.560856703706946, 22.057348218436179 ], [ -159.560275915848422, 22.057328736009154 ], [ -159.559406370302355, 22.057616184902688 ], [ -159.559119252132803, 22.057329399602729 ], [ -159.558035967754677, 22.057868481929948 ], [ -159.557571339478386, 22.056517615977462 ], [ -159.5564815040062, 22.056561588513862 ], [ -159.556505379934435, 22.05707611580247 ], [ -159.556472124648792, 22.057937857635167 ], [ -159.555304740137501, 22.058430162274956 ], [ -159.554763868096131, 22.057889944715136 ], [ -159.554461035018704, 22.05763026725916 ], [ -159.553979528982666, 22.057149364345538 ], [ -159.55360093442755, 22.057904204795886 ], [ -159.552978379968749, 22.058754109265813 ], [ -159.550935931216031, 22.059661070673322 ], [ -159.550117213158927, 22.059260759603355 ], [ -159.549172061112358, 22.059003230128923 ], [ -159.549387447896436, 22.059945937306178 ], [ -159.548932130677969, 22.059829404095129 ], [ -159.548498398910482, 22.059309434211944 ], [ -159.547753746488723, 22.059209400174453 ], [ -159.547884401632274, 22.060013224190975 ], [ -159.547207436768957, 22.060108786741342 ], [ -159.546351348919416, 22.059993767869447 ], [ -159.545995313286113, 22.060812881372048 ], [ -159.54517531528893, 22.060928647503403 ], [ -159.544738959937177, 22.060870019608647 ], [ -159.544168905051407, 22.060950491279957 ], [ -159.54392057475485, 22.05942214605329 ], [ -159.544025451209279, 22.058744231832691 ], [ -159.543980161938379, 22.058465448969393 ], [ -159.544340365224286, 22.057602323589101 ], [ -159.543376338512815, 22.056913801133859 ], [ -159.54383936056314, 22.055020570758394 ], [ -159.543156426834457, 22.054532827150414 ], [ -159.54307065112792, 22.054004441475445 ], [ -159.543199909944519, 22.053168452438882 ], [ -159.54252890624943, 22.051655516437858 ], [ -159.542223192700249, 22.052027503531047 ], [ -159.541761282662549, 22.050022486612637 ], [ -159.541224499827905, 22.048762740850435 ], [ -159.541648228448338, 22.048702945720315 ], [ -159.543089601702007, 22.049225683390393 ], [ -159.544236477573065, 22.048427074205961 ], [ -159.544854498775123, 22.048188895979944 ], [ -159.545397298113755, 22.0478811581781 ], [ -159.545851668366311, 22.047761582629974 ], [ -159.545713422003104, 22.048173744469779 ], [ -159.545350426340264, 22.048818790940281 ], [ -159.545800284959938, 22.050001676343832 ], [ -159.545419897632343, 22.050332612485033 ], [ -159.544854784014319, 22.051710701391539 ], [ -159.54575439021005, 22.051674455004608 ], [ -159.546878901826915, 22.051722677588597 ], [ -159.546027427158265, 22.052463415132689 ], [ -159.545690363239373, 22.053135504789278 ], [ -159.545742756849563, 22.054266580688392 ], [ -159.545684255461396, 22.05578043064072 ], [ -159.546114696642661, 22.058036946093608 ], [ -159.54709119122424, 22.057551068275345 ], [ -159.547547232054114, 22.055737518593538 ], [ -159.548338218206311, 22.055764084000693 ], [ -159.549435056528722, 22.055218320312903 ], [ -159.549803907640978, 22.056290847601961 ], [ -159.550130231585797, 22.05657065289077 ], [ -159.551068191104946, 22.056532841815969 ], [ -159.551542003942501, 22.054648520839045 ], [ -159.551709798348128, 22.054116225339818 ], [ -159.55250930520782, 22.055680729160276 ], [ -159.552997795959783, 22.055185661160245 ], [ -159.55358933026497, 22.054922957790829 ], [ -159.553878575267589, 22.054629862008767 ], [ -159.554745729000729, 22.054658967482116 ], [ -159.55502873121867, 22.054094682855489 ], [ -159.555547757373716, 22.053643075792657 ], [ -159.556714079088607, 22.05421332310938 ], [ -159.557642164003283, 22.053272722422069 ], [ -159.558867034137364, 22.052736815470084 ], [ -159.559683965890315, 22.053552676830805 ], [ -159.560222054452282, 22.053007295525024 ], [ -159.560902162585137, 22.052729854714361 ], [ -159.562220477038124, 22.053374361660602 ], [ -159.56287322577441, 22.052712766688803 ], [ -159.563173998920746, 22.052451028629655 ], [ -159.563479903080804, 22.052140969423316 ], [ -159.565227468951036, 22.051630873731074 ], [ -159.565863502458058, 22.052875355141371 ], [ -159.566557152008329, 22.051491988432034 ], [ -159.567240357103316, 22.052174283344296 ], [ -159.567519536626236, 22.051341595628934 ], [ -159.568034902924893, 22.050537053270332 ], [ -159.569676991700419, 22.051701865804848 ], [ -159.570136603960549, 22.050785074461171 ], [ -159.571067678605232, 22.051377576015838 ], [ -159.57100188172447, 22.049963158951485 ], [ -159.572089570129606, 22.049999558897174 ], [ -159.572456282617594, 22.049919884036875 ], [ -159.571558273787645, 22.048352019079619 ], [ -159.572460387555822, 22.04808229141581 ], [ -159.572447332342392, 22.04780120417696 ], [ -159.573620666786866, 22.047536294863942 ], [ -159.574168575016699, 22.046980842841133 ], [ -159.57450214381285, 22.046991996585934 ], [ -159.574468161226946, 22.047874901037371 ], [ -159.575173194993454, 22.048333602575585 ], [ -159.57680693058083, 22.046677368265094 ], [ -159.577172803091713, 22.047740777166052 ], [ -159.576535397614037, 22.048295545153181 ], [ -159.576242846168071, 22.048931609189761 ], [ -159.57711807404047, 22.049681885730529 ], [ -159.577650231088626, 22.050213242822213 ], [ -159.575577101978922, 22.051642022371368 ], [ -159.575967671694855, 22.052668259085163 ], [ -159.575956171009295, 22.052965825344785 ], [ -159.574169120276878, 22.053500176174605 ], [ -159.574244582909245, 22.055120191403791 ], [ -159.572918077023985, 22.055419669315864 ], [ -159.573507256936551, 22.056448293082308 ], [ -159.575324670942649, 22.055847343103618 ], [ -159.5756852974813, 22.056207436636097 ], [ -159.57596933796205, 22.055919515131492 ], [ -159.576119715646371, 22.055788634372334 ] ], [ [ -159.614044539860714, 22.152676752334163 ], [ -159.613943523963997, 22.152346693691637 ], [ -159.613689418941476, 22.152585314188737 ], [ -159.614044539860714, 22.152676752334163 ], [ -159.614145556247195, 22.153006810890087 ], [ -159.614399661220006, 22.152768189694871 ], [ -159.614044539860714, 22.152676752334163 ] ], [ [ -159.609770461728573, 22.173561370921444 ], [ -159.609500774928563, 22.174760557342413 ], [ -159.610200297099453, 22.173916183434635 ], [ -159.609770461728573, 22.173561370921444 ] ], [ [ -159.620810948258878, 22.169725413677543 ], [ -159.620913055811911, 22.170718058751682 ], [ -159.621733349903536, 22.170897023509067 ], [ -159.62121171676992, 22.169912330432243 ], [ -159.620810948258878, 22.169725413677543 ] ], [ [ -159.609158152492085, 22.166517130941056 ], [ -159.609478056759116, 22.167709656005361 ], [ -159.609229274710373, 22.168763238256791 ], [ -159.609855969948626, 22.16965183470413 ], [ -159.610734186900999, 22.169874176448356 ], [ -159.609850040190707, 22.16882037651391 ], [ -159.610219694775253, 22.168286902306122 ], [ -159.610150348987389, 22.168004032898029 ], [ -159.610246412483633, 22.167597142717185 ], [ -159.610011479290904, 22.166639136664696 ], [ -159.609158152492085, 22.166517130941056 ] ], [ [ -159.62080856884171, 22.169183382813582 ], [ -159.62068902004026, 22.169023515443826 ], [ -159.620161536984341, 22.167057815694051 ], [ -159.619191847504936, 22.167651239927395 ], [ -159.61878043167448, 22.168211044880312 ], [ -159.619814928498329, 22.168755821268476 ], [ -159.620054023963064, 22.169075557259507 ], [ -159.62080856884171, 22.169183382813582 ], [ -159.620909613705038, 22.169513435881552 ], [ -159.621163735902343, 22.169274804205607 ], [ -159.62080856884171, 22.169183382813582 ] ], [ [ -159.619044966082527, 22.165124788139462 ], [ -159.619379952590464, 22.166320502169434 ], [ -159.620293282292408, 22.166856861519452 ], [ -159.620021033394096, 22.165747052224987 ], [ -159.619044966082527, 22.165124788139462 ] ], [ [ -159.617286197068637, 22.162150233546836 ], [ -159.616733594746137, 22.162943567072965 ], [ -159.616921862619904, 22.163812480327103 ], [ -159.617722692468931, 22.163334658200441 ], [ -159.618675860368029, 22.163695285554983 ], [ -159.618505969555002, 22.164513647297206 ], [ -159.617421169998039, 22.165244099498025 ], [ -159.617212489485752, 22.165786930094313 ], [ -159.618583825872776, 22.16496867214482 ], [ -159.619221639627142, 22.164736750589906 ], [ -159.618680181675217, 22.162263207332963 ], [ -159.617286197068637, 22.162150233546836 ] ], [ [ -159.606742127790966, 22.14592855135044 ], [ -159.607994727710263, 22.145624117270053 ], [ -159.608312897695555, 22.145303169581151 ], [ -159.6068027769048, 22.144783176577253 ], [ -159.606962394529859, 22.145434430024373 ], [ -159.606742127790966, 22.14592855135044 ], [ -159.606387822872477, 22.146022643439043 ], [ -159.606643965576751, 22.14625935586221 ], [ -159.606742127790966, 22.14592855135044 ] ], [ [ -159.649785823731378, 22.143052598273776 ], [ -159.650510098169633, 22.14346179160653 ], [ -159.651091542628677, 22.14343800124135 ], [ -159.651442738581324, 22.143788028411862 ], [ -159.653427183399202, 22.143295122893935 ], [ -159.654497742673442, 22.143817388062697 ], [ -159.656036430835456, 22.143356749677853 ], [ -159.655320746597766, 22.142167199332956 ], [ -159.654564691129167, 22.14179836786354 ], [ -159.653678049621391, 22.141834666582518 ], [ -159.653728829316179, 22.140495484844223 ], [ -159.653120238401812, 22.139435074342053 ], [ -159.65457616729239, 22.139640602658925 ], [ -159.654524891963632, 22.140993731292117 ], [ -159.655430939293979, 22.141023550105881 ], [ -159.655482398891877, 22.139666070155062 ], [ -159.655144838889811, 22.139377201145564 ], [ -159.655165604534972, 22.13883028136604 ], [ -159.655140015436871, 22.138288344752116 ], [ -159.655150267312564, 22.138017283908979 ], [ -159.655137276275525, 22.137742197475607 ], [ -159.655438279006802, 22.136930998222997 ], [ -159.655098614415721, 22.136339158970458 ], [ -159.655137732820208, 22.135307136874072 ], [ -159.655112144843997, 22.134765200005369 ], [ -159.655142406599026, 22.133968105942994 ], [ -159.654018179489981, 22.133419657351698 ], [ -159.652992849018148, 22.133709463321591 ], [ -159.651052616537726, 22.135047294596227 ], [ -159.648874139758732, 22.136617478043544 ], [ -159.646988730427665, 22.136960595496426 ], [ -159.645839961671697, 22.137788544449165 ], [ -159.644783723995175, 22.138258073685794 ], [ -159.642622258644337, 22.139502764982318 ], [ -159.640393829804822, 22.140240264303291 ], [ -159.638277583441266, 22.140518161627558 ], [ -159.637999022099507, 22.140800609854679 ], [ -159.637116388456661, 22.141064740119614 ], [ -159.636837823699352, 22.141347186425982 ], [ -159.635811724542663, 22.141803241290535 ], [ -159.635102086353299, 22.143522113973873 ], [ -159.634802052580028, 22.144055703100662 ], [ -159.63482647023099, 22.144575118742704 ], [ -159.633718664063991, 22.145698326912935 ], [ -159.633355736412966, 22.145686345669738 ], [ -159.632495393173514, 22.146242823436591 ], [ -159.631908483874724, 22.146223436310741 ], [ -159.631326738825805, 22.146247168017908 ], [ -159.630708715262699, 22.146226747319616 ], [ -159.629881292473641, 22.147065617694409 ], [ -159.629580449380654, 22.147327460721915 ], [ -159.6292911800914, 22.147620687927013 ], [ -159.628709237846067, 22.14760145219579 ], [ -159.628419612759643, 22.14789506799454 ], [ -159.62784285518876, 22.147875999450935 ], [ -159.627406540542665, 22.147893789746767 ], [ -159.626429057693542, 22.147861460241213 ], [ -159.625814193290068, 22.148396556311265 ], [ -159.628502330669846, 22.14876842776399 ], [ -159.632915322964919, 22.148137956115672 ], [ -159.633669298860241, 22.148395710743682 ], [ -159.634105510650073, 22.148830594080852 ], [ -159.635632353823041, 22.149911933039572 ], [ -159.636084797407136, 22.14900909888356 ], [ -159.636580917848391, 22.151375933720882 ], [ -159.63856081428068, 22.151807088636954 ], [ -159.639228704576425, 22.152971029026538 ], [ -159.639857902109071, 22.154199523336004 ], [ -159.64134878215151, 22.153294384728326 ], [ -159.641993176564512, 22.151370130491227 ], [ -159.644411625454808, 22.151271285203009 ], [ -159.646781731073645, 22.151723443429386 ], [ -159.646763085235818, 22.151326904766321 ], [ -159.647060536312466, 22.150250620627485 ], [ -159.647472743859311, 22.147772142831741 ], [ -159.648782969728501, 22.147815305414273 ], [ -159.64879387149, 22.147528370652296 ], [ -159.648740924310886, 22.146405356633075 ], [ -159.65006034284238, 22.147339575298194 ], [ -159.652568830292608, 22.147236926818405 ], [ -159.653121788522782, 22.147255126488176 ], [ -159.654014417534057, 22.146478001991266 ], [ -159.653151402257635, 22.145575940931849 ], [ -159.651413292631304, 22.145647080178943 ], [ -159.65063340364253, 22.144869687451095 ], [ -159.649640446243126, 22.144277935190672 ], [ -159.648624808540518, 22.143632795687665 ], [ -159.64760839042259, 22.144290355767922 ], [ -159.647091241111752, 22.143774841525641 ], [ -159.643538167122358, 22.143393000730192 ], [ -159.643848386059062, 22.143185741171997 ], [ -159.646475501176724, 22.143272345814605 ], [ -159.646293631139173, 22.142795448378312 ], [ -159.647879455911038, 22.143210675793931 ], [ -159.64945103836871, 22.143445473984748 ], [ -159.649785823731378, 22.143052598273776 ] ], [ [ -159.589489774739434, 22.124852067868307 ], [ -159.589590712780591, 22.125182144464226 ], [ -159.589844811397541, 22.124943560888859 ], [ -159.589489774739434, 22.124852067868307 ] ], [ [ -159.573177520999394, 22.119218660836669 ], [ -159.57327841696852, 22.119548748651113 ], [ -159.573532533811886, 22.119310189922587 ], [ -159.573177520999394, 22.119218660836669 ] ], [ [ -159.584501254335635, 22.114300109489186 ], [ -159.584699744911404, 22.114648053417014 ], [ -159.585474650165963, 22.114414426588091 ], [ -159.584501254335635, 22.114300109489186 ] ], [ [ -159.583627566598466, 22.114032210608716 ], [ -159.583728482744277, 22.114362291729623 ], [ -159.583982572522501, 22.114123717170418 ], [ -159.583627566598466, 22.114032210608716 ] ], [ [ -159.589432311423082, 22.111030113356698 ], [ -159.589533238676751, 22.111360190762692 ], [ -159.589787313210536, 22.111121607417797 ], [ -159.589432311423082, 22.111030113356698 ] ], [ [ -159.591393710613858, 22.093135490635657 ], [ -159.591512786968451, 22.093750966659655 ], [ -159.591772339906413, 22.093284850661071 ], [ -159.591393710613858, 22.093135490635657 ] ], [ [ -159.590508869582351, 22.090157429943542 ], [ -159.590306223989217, 22.090939505277984 ], [ -159.591587124949029, 22.090667010706465 ], [ -159.591496984363147, 22.090298914169935 ], [ -159.590508869582351, 22.090157429943542 ] ], [ [ -159.587293170581319, 22.086103656665308 ], [ -159.587192267948012, 22.085773576353038 ], [ -159.586938233215193, 22.086012147227599 ], [ -159.587293170581319, 22.086103656665308 ], [ -159.587452631106942, 22.086447206723246 ], [ -159.587962407409066, 22.08621110668312 ], [ -159.587293170581319, 22.086103656665308 ] ], [ [ -159.588744920751935, 22.0855563877364 ], [ -159.588904384105888, 22.08589993633754 ], [ -159.589414155938158, 22.085663831851257 ], [ -159.588744920751935, 22.0855563877364 ] ], [ [ -159.57012944205897, 22.084538261636936 ], [ -159.570288859625776, 22.08488182943432 ], [ -159.570798660239177, 22.084645782372114 ], [ -159.57012944205897, 22.084538261636936 ] ], [ [ -159.568009354334151, 22.063405693098179 ], [ -159.567908513628595, 22.063075598666746 ], [ -159.56765448540898, 22.06331414007154 ], [ -159.568009354334151, 22.063405693098179 ], [ -159.568110195525236, 22.063735787444259 ], [ -159.568364223699007, 22.063497245344436 ], [ -159.568009354334151, 22.063405693098179 ] ], [ [ -159.563347623010742, 22.060982579248726 ], [ -159.563448451592791, 22.061312676830241 ], [ -159.563702483533916, 22.061074141823475 ], [ -159.563347623010742, 22.060982579248726 ] ] ] } },
{ "type": "Feature", "properties": { "ID": 45, "GRIDCODE": 2 }, "geometry": { "type": "Polygon", "coordinates": [ [ [ -159.537963207311691, 22.037488667132777 ], [ -159.538674569775253, 22.037675770143004 ], [ -159.538164595339623, 22.03813680651664 ], [ -159.537963207311691, 22.037488667132777 ] ] ] } },
{ "type": "Feature", "properties": { "ID": 46, "GRIDCODE": 2 }, "geometry": { "type": "Polygon", "coordinates": [ [ [ -159.560563285954203, 22.018441005449837 ], [ -159.560661475308279, 22.018110223051362 ], [ -159.560917307664766, 22.018347009163094 ], [ -159.560563285954203, 22.018441005449837 ] ] ] } },
{ "type": "Feature", "properties": { "ID": 47, "GRIDCODE": 2 }, "geometry": { "type": "Polygon", "coordinates": [ [ [ -159.56142779924582, 22.016540857076421 ], [ -159.561819483558708, 22.016731520050374 ], [ -159.561555784769467, 22.017433431595954 ], [ -159.56142779924582, 22.016540857076421 ] ] ] } },
{ "type": "Feature", "properties": { "ID": 48, "GRIDCODE": 2 }, "geometry": { "type": "Polygon", "coordinates": [ [ [ -159.560563285954203, 22.018441005449837 ], [ -159.560328665436288, 22.01961014859706 ], [ -159.559195208506935, 22.019948998993769 ], [ -159.557894416400501, 22.021267675219864 ], [ -159.556635908467939, 22.021826729776894 ], [ -159.556078906226134, 22.022391336098405 ], [ -159.553265223070838, 22.022819029614361 ], [ -159.552458781083828, 22.023920316804244 ], [ -159.551961450454058, 22.025898667719606 ], [ -159.5511455958179, 22.02593157041014 ], [ -159.550389056991492, 22.025906157120691 ], [ -159.551015031457496, 22.026999608795304 ], [ -159.550568429433326, 22.027017619206294 ], [ -159.549711736227408, 22.026988833957159 ], [ -159.549338626390494, 22.027366998965654 ], [ -159.548241799852946, 22.027012699869257 ], [ -159.547647233149718, 22.027308593276882 ], [ -159.546842351844617, 22.02728155529125 ], [ -159.546461226960304, 22.029179802096557 ], [ -159.545637191438345, 22.02921300273346 ], [ -159.545051609269876, 22.028374079433345 ], [ -159.544616271909376, 22.028815301223361 ], [ -159.544054895143717, 22.028254417590421 ], [ -159.543592297088111, 22.028656902712452 ], [ -159.543671491308714, 22.030365448092763 ], [ -159.542790312998903, 22.029485066652619 ], [ -159.542153070251572, 22.029463620578596 ], [ -159.541863850533758, 22.029756695991615 ], [ -159.541144867290541, 22.03007598777592 ], [ -159.541858739541823, 22.031323159117008 ], [ -159.541492055950641, 22.031402764998248 ], [ -159.540696379139945, 22.031375981080227 ], [ -159.540287702117467, 22.032190824775217 ], [ -159.539535500679278, 22.031932598963412 ], [ -159.53834561056766, 22.031350572459068 ], [ -159.538385256349045, 22.032207046665878 ], [ -159.537771178533774, 22.032741275740801 ], [ -159.539250310557009, 22.033386174021381 ], [ -159.538809415240763, 22.034092884581845 ], [ -159.537028940538846, 22.033807224962327 ], [ -159.534761287358066, 22.025062625091596 ], [ -159.535157688498174, 22.024358187510881 ], [ -159.535434198943221, 22.023533878844443 ], [ -159.537440051419935, 22.022797999312317 ], [ -159.537754476941387, 22.022171142725774 ], [ -159.538055234167388, 22.021909450203069 ], [ -159.538585514167721, 22.021372021726172 ], [ -159.539215265000422, 22.02109237249633 ], [ -159.53920251140309, 22.02081640759711 ], [ -159.53921821712072, 22.020409814423608 ], [ -159.539198279192306, 22.019979335746161 ], [ -159.539790017381762, 22.019464496407977 ], [ -159.540067519208009, 22.01891120448143 ], [ -159.540927261703814, 22.017737362175883 ], [ -159.540955180450197, 22.017016244334602 ], [ -159.540878271695846, 22.015356138833784 ], [ -159.541512930300541, 22.015666608669477 ], [ -159.542665326558989, 22.015285701064929 ], [ -159.542682648056456, 22.015660192649335 ], [ -159.542104586770449, 22.016163202387137 ], [ -159.542092698309318, 22.016470430709425 ], [ -159.542111488498392, 22.016876910115364 ], [ -159.542090558749834, 22.017419034710581 ], [ -159.542109349121205, 22.017825514067539 ], [ -159.542078205427799, 22.018630081533644 ], [ -159.542986266894445, 22.019172588165155 ], [ -159.543338964980251, 22.019862982904534 ], [ -159.543849561005715, 22.018340315852328 ], [ -159.544137895705006, 22.019179091038531 ], [ -159.544440626950859, 22.019438790864854 ], [ -159.544727851451142, 22.019725770118644 ], [ -159.545479010266916, 22.01863257789174 ], [ -159.546182541428067, 22.018890940046923 ], [ -159.546937490515376, 22.019972532230454 ], [ -159.547106807925218, 22.018419084309674 ], [ -159.54630247558714, 22.017337442140818 ], [ -159.547625486692993, 22.016186172436122 ], [ -159.547900937213313, 22.01509040584218 ], [ -159.548503269126826, 22.015110657217232 ], [ -159.549061405010747, 22.014544881285037 ], [ -159.550209016011479, 22.014035139493046 ], [ -159.550231143232224, 22.013462010060319 ], [ -159.550193679916902, 22.012654214307073 ], [ -159.550520516550023, 22.013184849795 ], [ -159.550802233709874, 22.013736280840913 ], [ -159.551268363327125, 22.014136094006393 ], [ -159.550793807852529, 22.014549027724982 ], [ -159.550818733554735, 22.015086201684742 ], [ -159.550797960441429, 22.015623529170703 ], [ -159.551141421168609, 22.015918099622823 ], [ -159.549953739257262, 22.016951658987175 ], [ -159.550646282717281, 22.017047892256333 ], [ -159.551695191097593, 22.016701147507273 ], [ -159.552027545705783, 22.017351675285994 ], [ -159.55286049357548, 22.016981680674949 ], [ -159.553139344737389, 22.01669899318162 ], [ -159.553440549705641, 22.016709109321145 ], [ -159.553718204146662, 22.0161553810279 ], [ -159.554600234322351, 22.015891694012776 ], [ -159.554878726620927, 22.015609401846788 ], [ -159.555470094624894, 22.015346693910359 ], [ -159.556403264329703, 22.01398839246685 ], [ -159.556629504776879, 22.014519356661264 ], [ -159.556913366206345, 22.015612823892557 ], [ -159.557476067659877, 22.016095431799787 ], [ -159.556044527193222, 22.016418533034365 ], [ -159.555766035708672, 22.016700827138326 ], [ -159.555464898195453, 22.016962916800409 ], [ -159.55549030530014, 22.017509682418154 ], [ -159.555469161305496, 22.018056605765242 ], [ -159.556098940145148, 22.018596772682496 ], [ -159.554892020645042, 22.019132893177872 ], [ -159.554905036396605, 22.019413768534392 ], [ -159.553799469910132, 22.020084770315215 ], [ -159.553345641509594, 22.021306157241543 ], [ -159.554038940055023, 22.021043109988849 ], [ -159.554615547833748, 22.020756137775997 ], [ -159.555106120259779, 22.021246242867075 ], [ -159.556662689691279, 22.020471470339348 ], [ -159.557747099314923, 22.02050784852252 ], [ -159.558394712841789, 22.019944218232599 ], [ -159.558672142563609, 22.019390896308714 ], [ -159.559263518770535, 22.019128174623404 ], [ -159.559542007811444, 22.01884587470531 ], [ -159.560563285954203, 22.018441005449837 ] ], [ [ -159.536472934222274, 22.027736570294106 ], [ -159.536207705648508, 22.028372212631673 ], [ -159.536891354949347, 22.028035523461536 ], [ -159.536472934222274, 22.027736570294106 ] ], [ [ -159.538214982039847, 22.027188802048649 ], [ -159.538685103593792, 22.027083934467573 ], [ -159.539451701028213, 22.026578314269749 ], [ -159.54046296432503, 22.026253268950892 ], [ -159.540089372017235, 22.025724174321514 ], [ -159.539263387882443, 22.02626894979414 ], [ -159.538372478572171, 22.026555297136465 ], [ -159.538214982039847, 22.027188802048649 ], [ -159.537924300505722, 22.027189756649747 ], [ -159.53792532407553, 22.027460780776444 ], [ -159.53757126351374, 22.027554728061688 ], [ -159.537827075674443, 22.027791550391832 ], [ -159.53792532407553, 22.027460780776444 ], [ -159.538216006162713, 22.027459826162403 ], [ -159.538214982039847, 22.027188802048649 ] ] ] } },
{ "type": "Feature", "properties": { "ID": 49, "GRIDCODE": 2 }, "geometry": { "type": "Polygon", "coordinates": [ [ [ -159.550363919868289, 22.01169988515435 ], [ -159.550718649130118, 22.011791479141802 ], [ -159.550464680898244, 22.012029994058597 ], [ -159.550363919868289, 22.01169988515435 ] ] ] } }
]
}
