{
"type": "FeatureCollection",
"name": "priarec",
"crs": { "type": "name", "properties": { "name": "urn:ogc:def:crs:OGC:1.3:CRS84" } },
"features": [
{ "type": "Feature", "properties": { "ID": 1, "GRIDCODE": 1 }, "geometry": { "type": "Polygon", "coordinates": [ [ [ -156.598691400780922, 20.912603282160077 ], [ -156.598341589129944, 20.912505638891552 ], [ -156.598597861430278, 20.912271682607308 ], [ -156.598691400780922, 20.912603282160077 ] ] ] } },
{ "type": "Feature", "properties": { "ID": 2, "GRIDCODE": 1 }, "geometry": { "type": "Polygon", "coordinates": [ [ [ -156.607088992599529, 20.910283132105192 ], [ -156.605769617506297, 20.909259495489092 ], [ -156.604412238257453, 20.907386257957135 ], [ -156.603842675336978, 20.906944412338625 ], [ -156.604413919306239, 20.906713409900977 ], [ -156.605816516684087, 20.907706740558236 ], [ -156.606982698241438, 20.908394901237699 ], [ -156.607088992599529, 20.910283132105192 ] ] ] } },
{ "type": "Feature", "properties": { "ID": 3, "GRIDCODE": 1 }, "geometry": { "type": "Polygon", "coordinates": [ [ [ -156.605746738709485, 20.904033734448856 ], [ -156.606056572318579, 20.904219291587108 ], [ -156.606412195346678, 20.905351241590211 ], [ -156.604276521050394, 20.905260979052837 ], [ -156.605337482598173, 20.904737376147409 ], [ -156.605746738709485, 20.904033734448856 ] ] ] } },
{ "type": "Feature", "properties": { "ID": 4, "GRIDCODE": 1 }, "geometry": { "type": "Polygon", "coordinates": [ [ [ -156.604619661918548, 20.902392561745557 ], [ -156.605190147766223, 20.902669075553714 ], [ -156.605667303568538, 20.902458308543498 ], [ -156.605851469850364, 20.90353706277801 ], [ -156.604739826618157, 20.902998204835157 ], [ -156.604619661918548, 20.902392561745557 ] ] ] } },
{ "type": "Feature", "properties": { "ID": 5, "GRIDCODE": 1 }, "geometry": { "type": "Polygon", "coordinates": [ [ [ -156.557365893372094, 20.900910651768793 ], [ -156.556993721963693, 20.900754674222082 ], [ -156.557260465916869, 20.900293562201245 ], [ -156.557365893372094, 20.900910651768793 ] ] ] } },
{ "type": "Feature", "properties": { "ID": 6, "GRIDCODE": 1 }, "geometry": { "type": "Polygon", "coordinates": [ [ [ -156.603793731675466, 20.899942924021325 ], [ -156.60536843293832, 20.900447670640474 ], [ -156.604726131979334, 20.900882440509992 ], [ -156.603793731675466, 20.899942924021325 ] ] ] } },
{ "type": "Feature", "properties": { "ID": 7, "GRIDCODE": 1 }, "geometry": { "type": "Polygon", "coordinates": [ [ [ -156.569828758927173, 20.914632897985538 ], [ -156.569540524349463, 20.914628794655993 ], [ -156.569536156984213, 20.914899621721897 ], [ -156.56918337544127, 20.914987320119977 ], [ -156.569432032496962, 20.91522841776721 ], [ -156.569536156984213, 20.914899621721897 ], [ -156.56982439207863, 20.914903725109429 ], [ -156.569828758927173, 20.914632897985538 ], [ -156.569981551213715, 20.914760465074085 ], [ -156.570463269865996, 20.915302089805657 ], [ -156.571121397509415, 20.9155893547196 ], [ -156.571532606454895, 20.916051669687572 ], [ -156.571086910380245, 20.91640153236224 ], [ -156.570798956827275, 20.917253090833668 ], [ -156.570211934360316, 20.917200293138677 ], [ -156.569606171789047, 20.917506472256658 ], [ -156.569664661189108, 20.918348939722751 ], [ -156.568737312099955, 20.919076974619504 ], [ -156.56820789114559, 20.920147565278111 ], [ -156.569094909373632, 20.921361477441433 ], [ -156.568967106378693, 20.922616354380295 ], [ -156.569132979792045, 20.923416834324058 ], [ -156.571024286470077, 20.922068022166112 ], [ -156.571726036992914, 20.922131180897136 ], [ -156.572303239036643, 20.922095743317755 ], [ -156.572768544266808, 20.922137545475966 ], [ -156.5726902277828, 20.922909154556891 ], [ -156.573035836928256, 20.923512460600442 ], [ -156.573722678647158, 20.923470377054173 ], [ -156.574298480802952, 20.923522211649846 ], [ -156.574875688575531, 20.923486765828581 ], [ -156.575307541866806, 20.923525572946936 ], [ -156.577074107261296, 20.923417466718952 ], [ -156.578056863005514, 20.922920455108034 ], [ -156.57763638392538, 20.921386232377337 ], [ -156.577678191211533, 20.920974934932733 ], [ -156.577649394722101, 20.920559460907327 ], [ -156.577988442019091, 20.920293382180365 ], [ -156.577914611095679, 20.919228878121672 ], [ -156.577113480176791, 20.918132624086503 ], [ -156.576533324004629, 20.917232222809663 ], [ -156.576586867947043, 20.91670390047171 ], [ -156.575999715823912, 20.915678799752882 ], [ -156.575626071826008, 20.914017995106793 ], [ -156.576223208595849, 20.914071578225322 ], [ -156.576589256327708, 20.914874499115111 ], [ -156.577007710983196, 20.915605149925327 ], [ -156.577638684421743, 20.914937804361706 ], [ -156.578867528619895, 20.917012180069449 ], [ -156.579535893908371, 20.913841205635176 ], [ -156.579431665993241, 20.912336998344227 ], [ -156.580304263182427, 20.908173572485019 ], [ -156.581344114852158, 20.907356980439623 ], [ -156.581615612860674, 20.90706982917229 ], [ -156.581929248094866, 20.906823484472774 ], [ -156.582200744016916, 20.906536332055566 ], [ -156.582636978649958, 20.906193708631456 ], [ -156.584148310453543, 20.906329377964209 ], [ -156.586009366856359, 20.906039302271434 ], [ -156.586743341488727, 20.906864468336181 ], [ -156.587995300987416, 20.90741084566751 ], [ -156.588908230802986, 20.908437071162687 ], [ -156.58969045108293, 20.91101841750061 ], [ -156.589610607347907, 20.911803645307188 ], [ -156.590119249250648, 20.913659189705804 ], [ -156.590805843691896, 20.91459861788308 ], [ -156.59066686645761, 20.915965668419368 ], [ -156.590976277802213, 20.918044716370428 ], [ -156.590940515811496, 20.918397244716271 ], [ -156.591824354037556, 20.919134697750202 ], [ -156.591747174351951, 20.919894303389004 ], [ -156.592089294218482, 20.920491575240785 ], [ -156.592550921936265, 20.922014979514291 ], [ -156.593207924713141, 20.921320030982702 ], [ -156.593895123910983, 20.921043484080812 ], [ -156.594422293689746, 20.921090728933645 ], [ -156.594950409697418, 20.92053191558308 ], [ -156.595693995822273, 20.920232610962238 ], [ -156.596117850439981, 20.919643357042673 ], [ -156.594933345606876, 20.918655133210969 ], [ -156.595582558739466, 20.918393783295375 ], [ -156.595861213946307, 20.918099038059665 ], [ -156.596839031338135, 20.91862999115013 ], [ -156.596159261337959, 20.917047440146984 ], [ -156.595905691686482, 20.916211084381207 ], [ -156.595322847382931, 20.914854494189232 ], [ -156.595883255735828, 20.914334621547098 ], [ -156.597338148074499, 20.915438677130165 ], [ -156.59821595562434, 20.91597271107555 ], [ -156.59905034293331, 20.916546341058478 ], [ -156.599626785738451, 20.916557357688674 ], [ -156.598284489340898, 20.913597801354388 ], [ -156.598691400780922, 20.912603282160077 ], [ -156.599007609287071, 20.912848597181512 ], [ -156.599384927417049, 20.913305216261861 ], [ -156.600612830857415, 20.913653820023676 ], [ -156.602115779648869, 20.91481856432123 ], [ -156.602209327925777, 20.91515016275612 ], [ -156.602465599803395, 20.914916200580628 ], [ -156.602115779648869, 20.91481856432123 ], [ -156.601993287671263, 20.914129555789192 ], [ -156.601146803328078, 20.912971522818999 ], [ -156.602111479285924, 20.913195255482712 ], [ -156.60350120306299, 20.914150729795512 ], [ -156.603311113123652, 20.913321357453139 ], [ -156.602000411194666, 20.911699677170262 ], [ -156.602507894819041, 20.911301256249192 ], [ -156.60091360331208, 20.909509188575395 ], [ -156.600060053803162, 20.908796943672417 ], [ -156.600927144558881, 20.908445907899033 ], [ -156.603647086969801, 20.909189113482157 ], [ -156.604504827054114, 20.909904707576121 ], [ -156.605868085330343, 20.91174588602226 ], [ -156.606844177917623, 20.911445686703065 ], [ -156.607088992599529, 20.910283132105192 ], [ -156.607237501570268, 20.910416428055864 ], [ -156.608253457538012, 20.918302226370844 ], [ -156.607842616625106, 20.926515770816451 ], [ -156.606326189042676, 20.93485215100192 ], [ -156.604147205304884, 20.941243252232539 ], [ -156.60180339967485, 20.944922658857017 ], [ -156.59986145872611, 20.947075971270703 ], [ -156.59656157836497, 20.949684180156623 ], [ -156.593393288128681, 20.950854795183719 ], [ -156.590164898683014, 20.950342140203361 ], [ -156.590748796798948, 20.949192093652044 ], [ -156.591638291538857, 20.947668858872557 ], [ -156.591058783938564, 20.947842016021319 ], [ -156.590488938080171, 20.948115172417584 ], [ -156.589749169129647, 20.948430367737203 ], [ -156.588853432282377, 20.949691473225176 ], [ -156.587858127839411, 20.949714429699462 ], [ -156.587587186493835, 20.947275089511241 ], [ -156.5862006585443, 20.945074053194066 ], [ -156.586232147411437, 20.944532981559394 ], [ -156.585892912610973, 20.944228585468373 ], [ -156.585989760367511, 20.9425622840408 ], [ -156.585655703728605, 20.939442573169092 ], [ -156.586603080274671, 20.937820581973511 ], [ -156.586636494578386, 20.937246865921043 ], [ -156.586069860956826, 20.936654606322858 ], [ -156.585262616890191, 20.935930636250134 ], [ -156.586210263266793, 20.93430798767465 ], [ -156.585301713700829, 20.933492905377427 ], [ -156.584938557989176, 20.930941943773458 ], [ -156.586447970509624, 20.929666913904157 ], [ -156.586102190391216, 20.928543008044755 ], [ -156.585207313708452, 20.92728104475842 ], [ -156.585912338793264, 20.926685351075676 ], [ -156.586216767279723, 20.926102241265436 ], [ -156.58657980997171, 20.925480807381884 ], [ -156.586525866613187, 20.923417274165647 ], [ -156.587212313656977, 20.922837315044109 ], [ -156.586651692633353, 20.921081555217349 ], [ -156.585745051911147, 20.920134104141262 ], [ -156.585018488658875, 20.920266281505793 ], [ -156.584521232601304, 20.919618126618484 ], [ -156.583747694979053, 20.919923173605131 ], [ -156.585018488658875, 20.920266281505793 ], [ -156.585154730177067, 20.920408813464565 ], [ -156.585985766028188, 20.921154410362952 ], [ -156.586342098371148, 20.922515230589781 ], [ -156.585650281744449, 20.923430153076101 ], [ -156.585691257925504, 20.925001982374088 ], [ -156.585365011749218, 20.925277516690247 ], [ -156.584816596182776, 20.925817225910979 ], [ -156.583305374200023, 20.926066192090282 ], [ -156.583924362006996, 20.926621501337738 ], [ -156.583877762568079, 20.927420155376538 ], [ -156.585019198877688, 20.928863122541621 ], [ -156.584734447045065, 20.929342278149548 ], [ -156.58364462647998, 20.929806726394936 ], [ -156.582989817490954, 20.930359867357584 ], [ -156.582942387797033, 20.931174645633796 ], [ -156.58326510311295, 20.931769410275887 ], [ -156.582393628621219, 20.932505451380546 ], [ -156.583213409072215, 20.934463829983301 ], [ -156.582326745405283, 20.935636147718991 ], [ -156.582592280796632, 20.936355099432415 ], [ -156.583149949327321, 20.937382016657558 ], [ -156.583158658390232, 20.937716520762439 ], [ -156.582845936646265, 20.938515502221861 ], [ -156.582542651583907, 20.940146864238166 ], [ -156.581995701760889, 20.940608539304357 ], [ -156.58192879488692, 20.941758345856769 ], [ -156.581942896449277, 20.942300326596815 ], [ -156.581911389335062, 20.942841660594794 ], [ -156.581928945397152, 20.943519135446547 ], [ -156.581849578251905, 20.944883307807956 ], [ -156.582175595238965, 20.945904695554812 ], [ -156.583168174929597, 20.947732728280787 ], [ -156.582423671949101, 20.949831493215235 ], [ -156.57970624232027, 20.949893990967276 ], [ -156.576367914087598, 20.949096725118558 ], [ -156.573816905674789, 20.947921199395804 ], [ -156.57148916432314, 20.945407602166267 ], [ -156.571252971731951, 20.939121417033352 ], [ -156.570153756583437, 20.93541609137279 ], [ -156.570201754445577, 20.937257443206672 ], [ -156.570169882017666, 20.937801544325374 ], [ -156.570504007508077, 20.940530534829662 ], [ -156.570052741089484, 20.944010870588059 ], [ -156.565958866530536, 20.938595434359225 ], [ -156.562992914227777, 20.93410684547257 ], [ -156.561606948736625, 20.929692258719044 ], [ -156.562915702651111, 20.929134660116979 ], [ -156.563988241462539, 20.928505559453026 ], [ -156.564269787986035, 20.928228373789459 ], [ -156.565434133962754, 20.927545284746142 ], [ -156.564863092777642, 20.926728174970094 ], [ -156.562874809471168, 20.92604135088019 ], [ -156.560051351085576, 20.925637658122128 ], [ -156.558337454298766, 20.919541456983673 ], [ -156.558673709600754, 20.918406767012616 ], [ -156.558983427811938, 20.916998031095069 ], [ -156.559861750790617, 20.916256653395809 ], [ -156.560332101501928, 20.915793951958797 ], [ -156.561597600612089, 20.915187588722389 ], [ -156.563303601043486, 20.914831408534724 ], [ -156.56336118272597, 20.913847085775046 ], [ -156.562041389864532, 20.913877447920967 ], [ -156.564138958606378, 20.912983617343016 ], [ -156.565956739676409, 20.911195329124077 ], [ -156.567105284642281, 20.910871632768981 ], [ -156.567454076435808, 20.909582472287688 ], [ -156.568051178428504, 20.90907829887195 ], [ -156.568029977363977, 20.908263345335367 ], [ -156.568945595100701, 20.907176027673401 ], [ -156.569235821274958, 20.90635717387174 ], [ -156.569684608301685, 20.905691496179383 ], [ -156.57034784513155, 20.905362056948626 ], [ -156.569840961785246, 20.905056046173375 ], [ -156.569684608301685, 20.905691496179383 ], [ -156.56869624080349, 20.905948846170965 ], [ -156.568211392841278, 20.907418738827563 ], [ -156.567773737365798, 20.907166747885796 ], [ -156.567242710519395, 20.905966636581653 ], [ -156.566748969441193, 20.907463380270322 ], [ -156.566041617149068, 20.907385445021276 ], [ -156.565646892118139, 20.908206240973826 ], [ -156.563982954789736, 20.910337451037407 ], [ -156.562835879989251, 20.910430865569666 ], [ -156.562529229177727, 20.908658439253756 ], [ -156.561700543613995, 20.906752109769702 ], [ -156.561860664532077, 20.905467941044954 ], [ -156.561460766713651, 20.905423873085962 ], [ -156.561188677518061, 20.905989276181952 ], [ -156.560596946286068, 20.90692668439252 ], [ -156.560847717234992, 20.907609735397873 ], [ -156.56116417718664, 20.908147963292809 ], [ -156.560576467827389, 20.908592591599263 ], [ -156.560270276912036, 20.909229195184821 ], [ -156.559538753021258, 20.909148638574774 ], [ -156.5586064996034, 20.909224461348291 ], [ -156.558199260108154, 20.907842772019418 ], [ -156.557660168003594, 20.908622594025267 ], [ -156.556749083764714, 20.910623491905056 ], [ -156.556316923968637, 20.9059340500582 ], [ -156.556921927435724, 20.901971716055868 ], [ -156.557365893372094, 20.900910651768793 ], [ -156.558082452532204, 20.900504513250372 ], [ -156.561048498240268, 20.899494949921113 ], [ -156.564314090208228, 20.899074897453051 ], [ -156.566904765171955, 20.899307842422818 ], [ -156.567818055598593, 20.899251936000351 ], [ -156.568984895237122, 20.899673557688462 ], [ -156.57021330476968, 20.899052169906867 ], [ -156.571352655617687, 20.898593786164653 ], [ -156.574887247031029, 20.899247950504929 ], [ -156.57724143311529, 20.898800419792888 ], [ -156.578691680636467, 20.898930635182634 ], [ -156.581004721424591, 20.900521428025186 ], [ -156.581736895492526, 20.900841045527436 ], [ -156.582487068283712, 20.902005070029702 ], [ -156.581830731268553, 20.903609619762815 ], [ -156.580981751675466, 20.904989882860932 ], [ -156.579611431888992, 20.905541481363734 ], [ -156.578472973987346, 20.906117386968688 ], [ -156.576710760655914, 20.908192056057278 ], [ -156.574424359866384, 20.907986716074248 ], [ -156.573624963369525, 20.909604005938373 ], [ -156.573052404808976, 20.91005352460439 ], [ -156.572509366091936, 20.910627794918966 ], [ -156.571411563142249, 20.911489797198346 ], [ -156.570555452027378, 20.912395308538411 ], [ -156.570589712734318, 20.912889825412762 ], [ -156.569968891854955, 20.914218506243067 ], [ -156.569828758927173, 20.914632897985538 ] ], [ [ -156.583302029553039, 20.919429312735648 ], [ -156.583407570207669, 20.920046396698503 ], [ -156.58367427857749, 20.919585239749448 ], [ -156.583302029553039, 20.919429312735648 ] ] ] } },
{ "type": "Feature", "properties": { "ID": 8, "GRIDCODE": 1 }, "geometry": { "type": "Polygon", "coordinates": [ [ [ -156.602985037573262, 20.896409946948758 ], [ -156.604170243496554, 20.896620881135075 ], [ -156.604772699166432, 20.898162636714655 ], [ -156.604851968094778, 20.898843895515178 ], [ -156.603391549559831, 20.898429768544574 ], [ -156.602989166112422, 20.898471079655312 ], [ -156.60150550442853, 20.89804986517759 ], [ -156.60083594661242, 20.896941541889845 ], [ -156.602344258401132, 20.89713943392324 ], [ -156.602985037573262, 20.896409946948758 ] ] ] } },
{ "type": "Feature", "properties": { "ID": 9, "GRIDCODE": 1 }, "geometry": { "type": "Polygon", "coordinates": [ [ [ -156.598808473345031, 20.887140891703421 ], [ -156.599481451802376, 20.887499942552303 ], [ -156.598937324871429, 20.887747187984072 ], [ -156.598808473345031, 20.887140891703421 ] ] ] } },
{ "type": "Feature", "properties": { "ID": 10, "GRIDCODE": 1 }, "geometry": { "type": "Polygon", "coordinates": [ [ [ -156.584782657712225, 20.880983619147969 ], [ -156.587809176920359, 20.881159155017038 ], [ -156.588184945400656, 20.882305302550687 ], [ -156.58947292003549, 20.88395147452702 ], [ -156.588895408541561, 20.884967113640599 ], [ -156.588897191699289, 20.885243190319464 ], [ -156.58715794307281, 20.885484247258066 ], [ -156.586006142262789, 20.885744298375684 ], [ -156.585463994433638, 20.885726322786009 ], [ -156.584555634396736, 20.885989273710592 ], [ -156.58425999185846, 20.886803062551721 ], [ -156.583955933552772, 20.887069656469205 ], [ -156.583962042195026, 20.888147623611982 ], [ -156.581715520833939, 20.888158968560152 ], [ -156.581039738828053, 20.887819651883706 ], [ -156.579772907792091, 20.88782605349693 ], [ -156.579191369935671, 20.887806573651257 ], [ -156.577047111403203, 20.889128656901367 ], [ -156.574865142657387, 20.889396769666625 ], [ -156.573558464901197, 20.888536846333398 ], [ -156.572987546010523, 20.888539717420812 ], [ -156.57244792717151, 20.888521735647267 ], [ -156.571350900777901, 20.888839073519783 ], [ -156.570795364301262, 20.891313895437175 ], [ -156.569874578533557, 20.892187808146709 ], [ -156.56666688018538, 20.894403976895109 ], [ -156.561948432424913, 20.894012118829426 ], [ -156.562767050829763, 20.89340186543658 ], [ -156.569979425482046, 20.888648550828844 ], [ -156.574629515351347, 20.885946711572558 ], [ -156.582360458746138, 20.881689173276815 ], [ -156.584639176527816, 20.881119683470207 ], [ -156.584782657712225, 20.880983619147969 ] ] ] } },
{ "type": "Feature", "properties": { "ID": 11, "GRIDCODE": 2 }, "geometry": { "type": "Polygon", "coordinates": [ [ [ -156.266073636056916, 20.862099741340437 ], [ -156.266749403500086, 20.862247681991754 ], [ -156.26642282242338, 20.862723313223086 ], [ -156.266073636056916, 20.862099741340437 ] ] ] } },
{ "type": "Feature", "properties": { "ID": 12, "GRIDCODE": 2 }, "geometry": { "type": "Polygon", "coordinates": [ [ [ -156.147821812771923, 20.80708753631464 ], [ -156.147663882567002, 20.807722426078488 ], [ -156.147158312185695, 20.807415286597852 ], [ -156.147821812771923, 20.80708753631464 ] ] ] } },
{ "type": "Feature", "properties": { "ID": 13, "GRIDCODE": 2 }, "geometry": { "type": "Polygon", "coordinates": [ [ [ -156.1013870583715, 20.719918355460496 ], [ -156.101735995004844, 20.720016932778151 ], [ -156.101479408027956, 20.72025010191685 ], [ -156.1013870583715, 20.719918355460496 ] ] ] } },
{ "type": "Feature", "properties": { "ID": 14, "GRIDCODE": 2 }, "geometry": { "type": "Polygon", "coordinates": [ [ [ -156.071390425293146, 20.693141449502484 ], [ -156.071482698959414, 20.693473203261412 ], [ -156.071739275220153, 20.693240078383322 ], [ -156.071390425293146, 20.693141449502484 ], [ -156.071585478654015, 20.691399961786953 ], [ -156.075270535174695, 20.69132521141697 ], [ -156.082209177773734, 20.692428343734136 ], [ -156.088218420212741, 20.693728120543483 ], [ -156.094538665580501, 20.695439038126324 ], [ -156.099717398257951, 20.698184947466299 ], [ -156.100769582567466, 20.699135986887711 ], [ -156.100423603700989, 20.699534400611448 ], [ -156.099319052654579, 20.700463383137656 ], [ -156.099299052029778, 20.700790591408708 ], [ -156.09930532791779, 20.70106627429286 ], [ -156.098697489056832, 20.701577429848058 ], [ -156.098133543534061, 20.702130183413043 ], [ -156.097576830048126, 20.702598162084904 ], [ -156.096389192681585, 20.705185790812511 ], [ -156.098353561731557, 20.706206453639091 ], [ -156.099589083088659, 20.706181266177271 ], [ -156.102581373824165, 20.707572143058627 ], [ -156.104156045293735, 20.709460786083824 ], [ -156.10270979595569, 20.710676933126901 ], [ -156.102233055241499, 20.7135735740931 ], [ -156.101918811694276, 20.714370416439671 ], [ -156.10162665196728, 20.715188258553383 ], [ -156.100752087436462, 20.717407227677938 ], [ -156.100668812625884, 20.718768898425349 ], [ -156.1013870583715, 20.719918355460496 ], [ -156.100947134823599, 20.719785581782862 ], [ -156.100156489798479, 20.719352936296247 ], [ -156.099786527923442, 20.721390911293664 ], [ -156.098897123828181, 20.721626625850199 ], [ -156.097319591246929, 20.72214163705808 ], [ -156.096198555934052, 20.721846605726974 ], [ -156.0946992693666, 20.720927380004493 ], [ -156.094544128010796, 20.718584216039414 ], [ -156.094752806535894, 20.716590080571958 ], [ -156.093244998662499, 20.716134977481282 ], [ -156.092600724905083, 20.715782263716456 ], [ -156.092720882079306, 20.717600792272194 ], [ -156.09168845114101, 20.719217879879416 ], [ -156.090490137479208, 20.719820696830229 ], [ -156.089774491014509, 20.719010425822198 ], [ -156.08840654872327, 20.719090547094705 ], [ -156.087155559601797, 20.718405816556125 ], [ -156.085611181832462, 20.718496150983484 ], [ -156.0840268221786, 20.716520575975434 ], [ -156.083432628641617, 20.714963373818083 ], [ -156.081663911240611, 20.712959929657043 ], [ -156.081802351382606, 20.713597657805355 ], [ -156.082358415834989, 20.714576490652391 ], [ -156.082611840970344, 20.716695063294939 ], [ -156.083137658572355, 20.717859566150789 ], [ -156.084182707598984, 20.719300776357933 ], [ -156.084704850557671, 20.720716853732675 ], [ -156.082359032727226, 20.720499482080875 ], [ -156.081637036739181, 20.721063766867339 ], [ -156.081347051754221, 20.722172246284785 ], [ -156.080727820066073, 20.721833401038346 ], [ -156.078776705319939, 20.724015693119274 ], [ -156.076694997061253, 20.725193547013173 ], [ -156.078644951674818, 20.726295789275468 ], [ -156.078673097535443, 20.726718618368356 ], [ -156.077908567064469, 20.727694989858989 ], [ -156.078099815501332, 20.730588578278144 ], [ -156.076537243558477, 20.731809623793037 ], [ -156.076263806312198, 20.732097471027242 ], [ -156.07520587725395, 20.731999340735193 ], [ -156.074181152131672, 20.733478240443354 ], [ -156.07147822894305, 20.733227514932416 ], [ -156.069594378370198, 20.734690419694665 ], [ -156.06870486783248, 20.734925962695357 ], [ -156.067807545513062, 20.735377037116802 ], [ -156.066878868060058, 20.734596496527029 ], [ -156.065863293357211, 20.733001906723619 ], [ -156.064970547775403, 20.731482137353531 ], [ -156.063029600266589, 20.730120062927476 ], [ -156.062222449351481, 20.728857480686319 ], [ -156.059328326781269, 20.728557290022138 ], [ -156.05776437298249, 20.728114268757817 ], [ -156.057672119444391, 20.727782509855246 ], [ -156.057415459016198, 20.728015603347288 ], [ -156.05776437298249, 20.728114268757817 ], [ -156.058104666659688, 20.729836446989307 ], [ -156.056701014008468, 20.730668216432903 ], [ -156.05699285508183, 20.730941905680069 ], [ -156.057535710026457, 20.732045142874384 ], [ -156.058112781948552, 20.732585926478396 ], [ -156.058101261807678, 20.732861826962743 ], [ -156.058395597721699, 20.733137672851985 ], [ -156.05837264219204, 20.73369965713167 ], [ -156.059227216774104, 20.734500656838613 ], [ -156.059216030171456, 20.734773918637575 ], [ -156.059216416706931, 20.735044733831035 ], [ -156.059203581770674, 20.73535962009144 ], [ -156.060624220624732, 20.736691024344207 ], [ -156.060612703702589, 20.736966925392117 ], [ -156.060901252214506, 20.737237379941131 ], [ -156.061172843788285, 20.737788931476057 ], [ -156.061725916700567, 20.73884605428589 ], [ -156.062339979690194, 20.741417734298707 ], [ -156.062826802539718, 20.74187405516264 ], [ -156.063189750847357, 20.742994569799105 ], [ -156.064817594960857, 20.742991179519592 ], [ -156.065211753875985, 20.743005449679266 ], [ -156.065662270163699, 20.744396811813697 ], [ -156.065641522200906, 20.744903696398101 ], [ -156.065642186845395, 20.745204269291754 ], [ -156.066489957415058, 20.745998779208158 ], [ -156.066466058169794, 20.746581643251794 ], [ -156.067892098565977, 20.747918384688461 ], [ -156.068445524214837, 20.748480160564995 ], [ -156.069598016050207, 20.749030734197671 ], [ -156.070429606949972, 20.750404259169603 ], [ -156.070717916429913, 20.750674697186636 ], [ -156.071176225645246, 20.751139901722553 ], [ -156.072716908646157, 20.751521207979533 ], [ -156.073846775907811, 20.75235818210518 ], [ -156.076806003267563, 20.752954161751422 ], [ -156.077589340761023, 20.752952417761399 ], [ -156.078143095808514, 20.75351456987136 ], [ -156.078472580613095, 20.753823383441048 ], [ -156.080707608557248, 20.753818544940941 ], [ -156.08312145513645, 20.754326471214686 ], [ -156.085433212940643, 20.75381073699241 ], [ -156.087369068203827, 20.754218061659593 ], [ -156.088065253855518, 20.754216511357708 ], [ -156.088928383001814, 20.754247804919231 ], [ -156.089930488524971, 20.754245481609626 ], [ -156.090786175109969, 20.7548124492195 ], [ -156.092306753675246, 20.75511853530638 ], [ -156.095268667654466, 20.755111797008322 ], [ -156.097087152524608, 20.756543959080798 ], [ -156.098526819413706, 20.756833814920743 ], [ -156.099379678011985, 20.7571244594216 ], [ -156.099672667811632, 20.757123854211336 ], [ -156.100237705762851, 20.757409633447615 ], [ -156.1011506422644, 20.757705515743851 ], [ -156.102226664562949, 20.758797286985253 ], [ -156.103520373483178, 20.759414962246588 ], [ -156.105090037410292, 20.759923559757347 ], [ -156.105937208293369, 20.760352131549453 ], [ -156.106895740895652, 20.760809684150349 ], [ -156.108602648340991, 20.761362615125446 ], [ -156.112674585794764, 20.761352987048113 ], [ -156.113788714550822, 20.761732721134507 ], [ -156.115949076540829, 20.762825848874275 ], [ -156.116551396566194, 20.762824461130073 ], [ -156.120787417244713, 20.763714752099105 ], [ -156.121665317466579, 20.7637126786335 ], [ -156.123146053081854, 20.764023788294107 ], [ -156.129145369386066, 20.764519336055006 ], [ -156.130657411374614, 20.763591716186792 ], [ -156.131506583414051, 20.763622171203934 ], [ -156.131794533138134, 20.763621428023182 ], [ -156.132082273244947, 20.763631788751628 ], [ -156.132372753000254, 20.763631086861924 ], [ -156.132937889444833, 20.76391676820683 ], [ -156.13408988619355, 20.764201534223265 ], [ -156.135202063800079, 20.764763987580807 ], [ -156.137441386376963, 20.76509622972598 ], [ -156.138684138751131, 20.764818619458978 ], [ -156.139057736423354, 20.765197358577304 ], [ -156.140065043284125, 20.764730285039246 ], [ -156.141267581537846, 20.765139753267931 ], [ -156.142486044093744, 20.764867660950639 ], [ -156.143844690572905, 20.764916320507364 ], [ -156.145198973720454, 20.764613804967123 ], [ -156.147122392179568, 20.765268884020632 ], [ -156.148163326111444, 20.765795296044583 ], [ -156.148739670891416, 20.766070403793304 ], [ -156.14930485373776, 20.766356035753113 ], [ -156.149598153545014, 20.766355351954665 ], [ -156.150728609306015, 20.767192013084571 ], [ -156.152168536534276, 20.76748144195324 ], [ -156.153815401281179, 20.767907587060176 ], [ -156.155312220452998, 20.76889853522329 ], [ -156.155885336644417, 20.768897056324747 ], [ -156.15619688466839, 20.769528898135679 ], [ -156.157577022770312, 20.770820987970204 ], [ -156.157854098288311, 20.771101691262412 ], [ -156.158718350163042, 20.771381536254079 ], [ -156.160228338434905, 20.772498954096672 ], [ -156.160995513819103, 20.77249696751376 ], [ -156.161540021468483, 20.773048815963431 ], [ -156.162137326138293, 20.773333883651595 ], [ -156.162985098483233, 20.773894842037187 ], [ -156.164137251454122, 20.7741794211422 ], [ -156.16470500361703, 20.774466372725918 ], [ -156.165286813413047, 20.77419642938785 ], [ -156.165827755743635, 20.774744636886165 ], [ -156.166425076688967, 20.77502969128043 ], [ -156.167272873861691, 20.775590763477883 ], [ -156.16756366530484, 20.77559000922562 ], [ -156.167851438318451, 20.77560031280796 ], [ -156.168142229904788, 20.775599557575767 ], [ -156.168555722345673, 20.776438169215336 ], [ -156.169566468571816, 20.77643553648015 ], [ -156.170047167959837, 20.77741066772964 ], [ -156.170421471946725, 20.776716761666492 ], [ -156.170840720172095, 20.777141817286406 ], [ -156.17128516412734, 20.777558030635689 ], [ -156.171849321111551, 20.777556486007214 ], [ -156.172329100523342, 20.779034771178335 ], [ -156.173253427290007, 20.779475550305335 ], [ -156.173813183460766, 20.780042957294388 ], [ -156.174679965047147, 20.780040570107015 ], [ -156.175149862953788, 20.780057299404724 ], [ -156.177242853502605, 20.781442450284057 ], [ -156.177536188608286, 20.781441722021942 ], [ -156.178384002184259, 20.781870109295191 ], [ -156.179470047495244, 20.782387969274971 ], [ -156.180702671196599, 20.781223086893213 ], [ -156.181808668356922, 20.780258045797662 ], [ -156.184779633858341, 20.779404933332213 ], [ -156.185355554991474, 20.778860687411296 ], [ -156.192369621099402, 20.781094774809919 ], [ -156.199664992043949, 20.784252138823856 ], [ -156.199643609246664, 20.784785916932002 ], [ -156.199644474596425, 20.785059011653129 ], [ -156.199155161613106, 20.786732352839131 ], [ -156.196675573870834, 20.789343170788346 ], [ -156.197543939199278, 20.789623961499853 ], [ -156.198073736681408, 20.790160792615836 ], [ -156.198963493374833, 20.790730478953783 ], [ -156.199240685848196, 20.791011127691597 ], [ -156.199817235579161, 20.791286084556745 ], [ -156.20022552888932, 20.792113314304089 ], [ -156.200650994096691, 20.792924690176516 ], [ -156.201195390329275, 20.794028014117671 ], [ -156.20177987277043, 20.794026311683783 ], [ -156.202217220239504, 20.794041910980017 ], [ -156.201696387948516, 20.794953423877249 ], [ -156.202621469232014, 20.795394338232381 ], [ -156.203208613039379, 20.795690881895858 ], [ -156.204932547292572, 20.795685929957518 ], [ -156.204326855390462, 20.796746031697513 ], [ -156.203838038535565, 20.798499004060819 ], [ -156.204365761018352, 20.800035805507399 ], [ -156.204840002530204, 20.800034545353288 ], [ -156.205678110432473, 20.801137093991667 ], [ -156.20596895915628, 20.80113628011658 ], [ -156.20668853999473, 20.801161891388805 ], [ -156.207411444775317, 20.801159782791355 ], [ -156.207688668836425, 20.801440553700122 ], [ -156.208265274837032, 20.801715488072762 ], [ -156.208542501544372, 20.801996257877573 ], [ -156.208833352527279, 20.801995439321864 ], [ -156.209123999108215, 20.802005725357084 ], [ -156.209414262004032, 20.801731285371797 ], [ -156.209697010234123, 20.802017829842566 ], [ -156.209990135222228, 20.801740658259131 ], [ -156.210270126319244, 20.802024247669003 ], [ -156.210846740208382, 20.80229917411355 ], [ -156.211123975601254, 20.802579808180681 ], [ -156.212101553548763, 20.803045732647274 ], [ -156.212879873711017, 20.802309759019856 ], [ -156.212876311013872, 20.801249109488328 ], [ -156.213391757396494, 20.799909399152735 ], [ -156.213816884754721, 20.801218509441444 ], [ -156.213375952962707, 20.803079545274283 ], [ -156.213706946705713, 20.803710568871217 ], [ -156.214559541015745, 20.803708158718194 ], [ -156.214842308144512, 20.803994431743728 ], [ -156.215131277763277, 20.804264671454774 ], [ -156.215120349203545, 20.804537973472236 ], [ -156.215121685757055, 20.804955091177938 ], [ -156.215974931273706, 20.805361714563485 ], [ -156.216824235057175, 20.806626531237033 ], [ -156.21679795781364, 20.807276214162652 ], [ -156.217375167558941, 20.807551131201681 ], [ -156.217352928394945, 20.808103548607811 ], [ -156.218235088058719, 20.808100941279307 ], [ -156.217811357074538, 20.808842562770618 ], [ -156.218806020472329, 20.808381041886371 ], [ -156.218783788425753, 20.808933327802215 ], [ -156.219079496546613, 20.809496327136412 ], [ -156.220231435597896, 20.809492930027314 ], [ -156.220187734112358, 20.810587068152504 ], [ -156.220781852061236, 20.810585330933581 ], [ -156.220759620993647, 20.811137882166356 ], [ -156.221347833553153, 20.811136179660867 ], [ -156.221325519342201, 20.811693358321449 ], [ -156.221897698154351, 20.812228701460668 ], [ -156.22245224234436, 20.812790206022637 ], [ -156.223043490412181, 20.812515860217758 ], [ -156.223316888403019, 20.813069500099154 ], [ -156.223916439205567, 20.813355207460226 ], [ -156.224757843241747, 20.813352702592493 ], [ -156.224746008366907, 20.813645564082677 ], [ -156.225616389248785, 20.813642995458228 ], [ -156.225893668337903, 20.813923875117283 ], [ -156.226187358066255, 20.813923075175349 ], [ -156.226464641200693, 20.814203821872908 ], [ -156.226770242979967, 20.814474314739286 ], [ -156.227335591965812, 20.81393980680437 ], [ -156.227915613612481, 20.814232723100954 ], [ -156.228627338521534, 20.814230614348105 ], [ -156.229346997321187, 20.814256137784888 ], [ -156.229923130952642, 20.814254343842283 ], [ -156.230360548679585, 20.814269878129902 ], [ -156.230809549562395, 20.813436322959234 ], [ -156.231672835392772, 20.81268298723915 ], [ -156.231977116837413, 20.812117795044781 ], [ -156.232543790673191, 20.812556478601579 ], [ -156.231438292705008, 20.814034310312781 ], [ -156.232810265121657, 20.814030154716455 ], [ -156.233376088358, 20.814315683001873 ], [ -156.235270188259562, 20.814309886534947 ], [ -156.236581059011769, 20.814648552507837 ], [ -156.237405318775103, 20.814645974003454 ], [ -156.237837118856703, 20.814661266508988 ], [ -156.238751400840641, 20.814658413435691 ], [ -156.242098233403965, 20.815034595615586 ], [ -156.243432893237014, 20.816386199601279 ], [ -156.251683798781272, 20.827411875439271 ], [ -156.263581437452302, 20.84852361776074 ], [ -156.265987875282235, 20.854318404742742 ], [ -156.266845683563417, 20.857888766959896 ], [ -156.266945173471981, 20.861163077520121 ], [ -156.266540430033757, 20.860344083388032 ], [ -156.266256442143828, 20.859803150562669 ], [ -156.265842752280946, 20.858965762295998 ], [ -156.264980168242772, 20.858428539050106 ], [ -156.265409420567863, 20.859245282613252 ], [ -156.265026125260079, 20.859916259404137 ], [ -156.265456458469231, 20.860735665386599 ], [ -156.265068797889711, 20.861414374628698 ], [ -156.265070892434238, 20.861967200585408 ], [ -156.265637050056228, 20.862496380206078 ], [ -156.265896789569041, 20.863755424787701 ], [ -156.263863093832242, 20.864472079705088 ], [ -156.263864716982681, 20.864910768526851 ], [ -156.263496216741885, 20.865555923614558 ], [ -156.262707344366191, 20.865157931503699 ], [ -156.262121460709523, 20.864878901801237 ], [ -156.261589415917797, 20.863244145861479 ], [ -156.261300535155641, 20.862973968934796 ], [ -156.261171632621284, 20.862292156920635 ], [ -156.261459696972935, 20.862296769504852 ], [ -156.26146460400463, 20.862026006838526 ], [ -156.261817361283477, 20.861938949620782 ], [ -156.261569327174044, 20.861697463527868 ], [ -156.26146460400463, 20.862026006838526 ], [ -156.261176540167554, 20.862021394319623 ], [ -156.261171632621284, 20.862292156920635 ], [ -156.260303659888223, 20.862486808598621 ], [ -156.260575030764386, 20.8637226357563 ], [ -156.259105591794878, 20.86317883492703 ], [ -156.258355251768421, 20.862054351456742 ], [ -156.258625261271845, 20.861006658708323 ], [ -156.258335204822828, 20.859809146591896 ], [ -156.258687957755541, 20.859722095442518 ], [ -156.258439932421055, 20.859480605708267 ], [ -156.258335204822828, 20.859809146591896 ], [ -156.258187911827065, 20.859676522924573 ], [ -156.257887414141493, 20.858046661731823 ], [ -156.257309784268273, 20.858601829117802 ], [ -156.257335277139958, 20.859662457166145 ], [ -156.257023230758648, 20.859925252402117 ], [ -156.257669215687798, 20.860224568589565 ], [ -156.257545616886546, 20.862275050817242 ], [ -156.25809814727495, 20.864018850018045 ], [ -156.259314535332095, 20.864582409215412 ], [ -156.258801468471717, 20.866463326636424 ], [ -156.257927153927056, 20.866416776823439 ], [ -156.257201140981977, 20.866432112080183 ], [ -156.256773819830102, 20.865541720454122 ], [ -156.254935379477786, 20.864228374848022 ], [ -156.254982913941461, 20.863439628363601 ], [ -156.253448265360987, 20.863357727628188 ], [ -156.254323703782802, 20.86414648168687 ], [ -156.254358426702851, 20.865595927134919 ], [ -156.253471190404412, 20.865548618623531 ], [ -156.253169283916577, 20.866908680193681 ], [ -156.252842643763444, 20.867183529945827 ], [ -156.252888674919973, 20.869108844211542 ], [ -156.251987635064523, 20.868504417114352 ], [ -156.250920201957882, 20.868167885734113 ], [ -156.250286592705663, 20.866847672135773 ], [ -156.24969728726839, 20.867128738935769 ], [ -156.249446686388808, 20.865467934742558 ], [ -156.248748788572101, 20.866798472231597 ], [ -156.247685529895477, 20.866820903817022 ], [ -156.247124928482037, 20.866530329452161 ], [ -156.245691583799157, 20.86618496743462 ], [ -156.246381055625562, 20.865009168388067 ], [ -156.246000023284836, 20.864608941539313 ], [ -156.245595678963781, 20.865379503349974 ], [ -156.244516637739594, 20.86568162506542 ], [ -156.245115206502192, 20.866790755994792 ], [ -156.244377812889894, 20.866751367961339 ], [ -156.24337817837025, 20.866772417482878 ], [ -156.242813511491732, 20.865918796827827 ], [ -156.242228259151148, 20.865931180255192 ], [ -156.241927693112075, 20.864299057770673 ], [ -156.240815985087409, 20.86538854467527 ], [ -156.239505392600734, 20.865318595775573 ], [ -156.238502392342042, 20.86533969545868 ], [ -156.23735949858721, 20.864747426800658 ], [ -156.236721892485349, 20.864760929642426 ], [ -156.235651217221459, 20.863636475268915 ], [ -156.235076110654092, 20.863648602187084 ], [ -156.235065829127848, 20.863226311578909 ], [ -156.235106954593107, 20.862547371988331 ], [ -156.233909857443081, 20.862258765962487 ], [ -156.233377570975222, 20.861699887794853 ], [ -156.232279154521592, 20.86238446605434 ], [ -156.231699670304096, 20.86117669048582 ], [ -156.23080933387385, 20.860579345778081 ], [ -156.229699135031041, 20.860064659444188 ], [ -156.228824535916658, 20.858824722439515 ], [ -156.229114439490132, 20.858114375213081 ], [ -156.230864563434437, 20.856950798252488 ], [ -156.230591324412558, 20.856506530872313 ], [ -156.230061541195226, 20.857025739975832 ], [ -156.229140393614301, 20.857312603193925 ], [ -156.228140019384654, 20.857592623104061 ], [ -156.226745465538926, 20.858959374422394 ], [ -156.226838026892239, 20.857426581862363 ], [ -156.225976202893321, 20.856979774591249 ], [ -156.225388457149364, 20.856992195206931 ], [ -156.225438949057747, 20.856157630338121 ], [ -156.224830376484022, 20.856170505013782 ], [ -156.224702456686032, 20.855475076100308 ], [ -156.225055209802917, 20.855388095386566 ], [ -156.224807250682147, 20.855146563516584 ], [ -156.224702456686032, 20.855475076100308 ], [ -156.224540190454491, 20.855592917676471 ], [ -156.223893924219936, 20.856555215950081 ], [ -156.223122097413665, 20.856111575106922 ], [ -156.221937542725158, 20.855619572815986 ], [ -156.222263650593391, 20.853460835221867 ], [ -156.220740641369559, 20.852585644421275 ], [ -156.221395050588143, 20.854272591264497 ], [ -156.221130134667106, 20.854754944333457 ], [ -156.220805598934447, 20.85499062008169 ], [ -156.220416508757467, 20.855431678150236 ], [ -156.21910024675455, 20.854406560925703 ], [ -156.218380403489533, 20.855222039800683 ], [ -156.217924647254961, 20.854973681924299 ], [ -156.217618228787131, 20.854255379342057 ], [ -156.216575686456025, 20.854808785381245 ], [ -156.21643815267862, 20.853598507660088 ], [ -156.217144983084438, 20.852511727113473 ], [ -156.216985153588126, 20.852099702823793 ], [ -156.21764874633206, 20.851771688212462 ], [ -156.217142871257238, 20.851464724045346 ], [ -156.216985153588126, 20.852099702823793 ], [ -156.21616697342435, 20.852525571883447 ], [ -156.214839312523424, 20.85392438603029 ], [ -156.214233494961547, 20.852979169068405 ], [ -156.213948849949588, 20.853279089442296 ], [ -156.213346780743251, 20.853520016601198 ], [ -156.212840328885534, 20.8540534331507 ], [ -156.210733465822102, 20.853456669778986 ], [ -156.210814887755362, 20.852673137547654 ], [ -156.209908291648929, 20.85240035075951 ], [ -156.209937375436112, 20.852120338683971 ], [ -156.20991863149348, 20.851840075652344 ], [ -156.211084977464338, 20.85117962837047 ], [ -156.210824693338623, 20.850769004212289 ], [ -156.210210085692751, 20.85080540172293 ], [ -156.210659299206384, 20.849714053841975 ], [ -156.210249207521002, 20.849676291458191 ], [ -156.209971320822092, 20.850235113932122 ], [ -156.209068228672919, 20.850596483862272 ], [ -156.208209689831705, 20.851028531736741 ], [ -156.207952052490413, 20.850170306780583 ], [ -156.20670033354827, 20.850974143700089 ], [ -156.206882155528746, 20.849691452533815 ], [ -156.207984108041472, 20.847474275535916 ], [ -156.208298135291045, 20.847228667036003 ], [ -156.208434142816657, 20.847085419023045 ], [ -156.208805670366672, 20.846956062808434 ], [ -156.208439140801232, 20.84681466804108 ], [ -156.208346508365025, 20.846482947631138 ], [ -156.208089825013047, 20.846716267676666 ], [ -156.208439140801232, 20.84681466804108 ], [ -156.208434142816657, 20.847085419023045 ], [ -156.207526990283725, 20.847225739145593 ], [ -156.206710542062325, 20.848868087947004 ], [ -156.205513400746781, 20.850129307488295 ], [ -156.204812887697813, 20.850170762564808 ], [ -156.204774789783187, 20.849598589889911 ], [ -156.204862735311877, 20.848752751301006 ], [ -156.203662803868752, 20.8491448164487 ], [ -156.203605532372308, 20.848286026634106 ], [ -156.204009558119594, 20.84763194719887 ], [ -156.202526874800327, 20.847719592535306 ], [ -156.20290494230747, 20.846902301788472 ], [ -156.203665118222915, 20.845672310871031 ], [ -156.201975998881295, 20.845772052420397 ], [ -156.201677989464457, 20.845744698803827 ], [ -156.201325511671826, 20.847094678428043 ], [ -156.199932484321124, 20.846549668746142 ], [ -156.199962596573585, 20.846260552053522 ], [ -156.199205722066637, 20.8459281420465 ], [ -156.199802579228049, 20.845299313653364 ], [ -156.200456050159687, 20.844788442703639 ], [ -156.199427925701571, 20.843926068571651 ], [ -156.199989670840267, 20.843552022871723 ], [ -156.201161438680117, 20.843083348139753 ], [ -156.201454787404373, 20.842221828161019 ], [ -156.201939428167435, 20.841437357633499 ], [ -156.201249223179474, 20.841790664549684 ], [ -156.200771145922175, 20.842752311797209 ], [ -156.200297358736691, 20.842493832189728 ], [ -156.199746092088219, 20.841633441794638 ], [ -156.199202548593206, 20.842726651151512 ], [ -156.198374675932683, 20.842385407434314 ], [ -156.197915731853442, 20.841371536125333 ], [ -156.197432666802342, 20.841614357576429 ], [ -156.19701114358773, 20.842058398985113 ], [ -156.195968527760357, 20.841600429020964 ], [ -156.196038732503979, 20.840924502846352 ], [ -156.195966740058907, 20.839845158931453 ], [ -156.196613796105311, 20.839163472537003 ], [ -156.197198448531992, 20.838706365524281 ], [ -156.196936785336163, 20.838069569794698 ], [ -156.196421728994153, 20.838612185985433 ], [ -156.195769716208673, 20.838650700427628 ], [ -156.194921241800046, 20.838572530122718 ], [ -156.194875719193533, 20.839009635404071 ], [ -156.194919948383443, 20.839674079646439 ], [ -156.194309615894753, 20.839710097227449 ], [ -156.193807461591632, 20.838600825091532 ], [ -156.193458636324408, 20.838568658371109 ], [ -156.192846924061513, 20.838876404190319 ], [ -156.192957154430076, 20.837817901602168 ], [ -156.192032295672277, 20.837732646425451 ], [ -156.191727558814051, 20.838053622139963 ], [ -156.191188302843983, 20.837443871699382 ], [ -156.190319897359586, 20.837727560506739 ], [ -156.190025559684244, 20.837700513002257 ], [ -156.189592953097161, 20.837726075150879 ], [ -156.189017763756766, 20.837672992046869 ], [ -156.188311115739793, 20.837714812789176 ], [ -156.18827475790772, 20.837173350618698 ], [ -156.188877949079483, 20.836869977654331 ], [ -156.189862969770076, 20.836608707494154 ], [ -156.189468950288784, 20.835738441585395 ], [ -156.187746527328869, 20.836062182614928 ], [ -156.187081181796231, 20.835698698299016 ], [ -156.185798027617949, 20.835774411456477 ], [ -156.185191107572507, 20.835264961382162 ], [ -156.185133633628908, 20.834407361853152 ], [ -156.185821920459375, 20.833869480786216 ], [ -156.185219433230401, 20.833364071540281 ], [ -156.186073493647058, 20.832761471232828 ], [ -156.186675507058936, 20.832520635175239 ], [ -156.187219548648756, 20.831947713523874 ], [ -156.188161607459307, 20.831210999682934 ], [ -156.188715696466517, 20.830096578208835 ], [ -156.189463756170653, 20.829171003947337 ], [ -156.189816456921307, 20.829084091065116 ], [ -156.189568598469833, 20.82884251867873 ], [ -156.189463756170653, 20.829171003947337 ], [ -156.189021253267924, 20.829291485892199 ], [ -156.187097561015349, 20.830776436397922 ], [ -156.185237109301426, 20.831687683105415 ], [ -156.184775810408325, 20.831184726248992 ], [ -156.18330316994377, 20.831905816248877 ], [ -156.1828621555334, 20.831598110871834 ], [ -156.182991689657712, 20.830019439414276 ], [ -156.182675263916849, 20.8297441988482 ], [ -156.182133745530422, 20.829153695670104 ], [ -156.181322556147961, 20.829977427197811 ], [ -156.179790192445637, 20.829540401681303 ], [ -156.179822951912399, 20.829141046786283 ], [ -156.179505705417284, 20.828864994107597 ], [ -156.179550105236103, 20.828324069519748 ], [ -156.178986209999863, 20.827833295245032 ], [ -156.178929787537385, 20.8265738362369 ], [ -156.179311459411281, 20.825626406270583 ], [ -156.1800251139843, 20.822954870258176 ], [ -156.180949781985248, 20.821639620053467 ], [ -156.181994394007461, 20.821209438248708 ], [ -156.184796210548171, 20.819240686395844 ], [ -156.185939159619807, 20.818770040977203 ], [ -156.18651321899074, 20.818304592277325 ], [ -156.187067144985292, 20.817741613615059 ], [ -156.18759264728655, 20.817315432324484 ], [ -156.189015696288124, 20.814952758934567 ], [ -156.189438660844701, 20.814124329595526 ], [ -156.190190067158284, 20.812876657833488 ], [ -156.189322792034773, 20.813046646834906 ], [ -156.18842150201084, 20.813488225385115 ], [ -156.188568327301056, 20.811700089204262 ], [ -156.188109601409963, 20.811666908027966 ], [ -156.187040222548916, 20.812753702602322 ], [ -156.186150284451543, 20.813265410503643 ], [ -156.185100955302687, 20.814331493259903 ], [ -156.184695142143624, 20.814069336928661 ], [ -156.184265866754743, 20.813147573962137 ], [ -156.183355503376447, 20.812155089217054 ], [ -156.180295578633348, 20.811933119024403 ], [ -156.177643241179851, 20.813025267282047 ], [ -156.174884846629709, 20.814975842860893 ], [ -156.173349424546871, 20.816535810939349 ], [ -156.171213671217856, 20.818036260774342 ], [ -156.170618805326967, 20.816104864559293 ], [ -156.1701285966505, 20.817063968659657 ], [ -156.168807198971137, 20.816515825049063 ], [ -156.168540902305296, 20.816225258380832 ], [ -156.165659969123027, 20.815380486717036 ], [ -156.16507592830996, 20.815069319270581 ], [ -156.1643057531262, 20.81509968465803 ], [ -156.163654449237185, 20.814805648509424 ], [ -156.163398039462265, 20.813972794417385 ], [ -156.163101908102448, 20.813984421742678 ], [ -156.162807239360234, 20.813963013035213 ], [ -156.160798850067408, 20.81537392597237 ], [ -156.158989664521499, 20.814815644073732 ], [ -156.158200927906677, 20.813391579268501 ], [ -156.158378855543162, 20.812408559291296 ], [ -156.158731525515265, 20.812321707913412 ], [ -156.158483746554168, 20.812080098911977 ], [ -156.158378855543162, 20.812408559291296 ], [ -156.157747396815068, 20.812902179998638 ], [ -156.157026629061107, 20.813942709007687 ], [ -156.154525939372121, 20.81354177667771 ], [ -156.155054464693507, 20.812478761357522 ], [ -156.155642189628708, 20.811528203103997 ], [ -156.153408525444121, 20.812651767952744 ], [ -156.1530695952396, 20.811902562419633 ], [ -156.152319714526698, 20.811946700545882 ], [ -156.151619132820144, 20.811358499281983 ], [ -156.151362308075846, 20.810790896469435 ], [ -156.150258474584007, 20.810855854064652 ], [ -156.149871297036924, 20.810175398820075 ], [ -156.149950569952551, 20.809415291535188 ], [ -156.149068427477744, 20.809149499585196 ], [ -156.148807334754508, 20.808854232975648 ], [ -156.148230276704453, 20.808369766131875 ], [ -156.14797410476271, 20.80721543190618 ], [ -156.147821812771923, 20.80708753631464 ], [ -156.14813832101467, 20.806007263336372 ], [ -156.148600717065335, 20.805365007471575 ], [ -156.148726358315002, 20.804936002220877 ], [ -156.149079013256141, 20.804849169295828 ], [ -156.148831262208887, 20.804607549326846 ], [ -156.148726358315002, 20.804936002220877 ], [ -156.147841458720734, 20.805176895799804 ], [ -156.146771591616414, 20.806263539051386 ], [ -156.145460885851463, 20.806905150880048 ], [ -156.144797890830858, 20.806638624856451 ], [ -156.144243730965314, 20.806343230789317 ], [ -156.142797698060036, 20.805792827288446 ], [ -156.142460285767186, 20.804310244309502 ], [ -156.14138293855828, 20.804837627155891 ], [ -156.139968457802837, 20.803958061254129 ], [ -156.140395124722659, 20.803362310594053 ], [ -156.141701602911581, 20.802824736743279 ], [ -156.141433186042462, 20.802501569265868 ], [ -156.139129041098244, 20.803040874905502 ], [ -156.138250743467438, 20.802976890233847 ], [ -156.137484863124683, 20.803006947474735 ], [ -156.136398498787287, 20.802671567089767 ], [ -156.135979819879537, 20.801310732754843 ], [ -156.135297584844039, 20.802644974258229 ], [ -156.134504684882586, 20.802676153550642 ], [ -156.133976017492387, 20.801540263238675 ], [ -156.132899501878825, 20.802633181047394 ], [ -156.132205905519214, 20.802366098288473 ], [ -156.13100384459733, 20.801457488772872 ], [ -156.129393011800772, 20.801520708038506 ], [ -156.129059318728793, 20.801230151092444 ], [ -156.128666916668749, 20.800386392237407 ], [ -156.127433538621005, 20.800434889953831 ], [ -156.126706802704774, 20.800047690191136 ], [ -156.125020272555162, 20.800113964639777 ], [ -156.124084227323237, 20.79909274432833 ], [ -156.123635172189694, 20.798701859751748 ], [ -156.123150211740153, 20.798172714407769 ], [ -156.122070862373363, 20.798094036362961 ], [ -156.120795852935146, 20.798144037009575 ], [ -156.120500199479721, 20.79782144228307 ], [ -156.118975794884363, 20.79752739608638 ], [ -156.118217530978228, 20.796699819422265 ], [ -156.116528725050927, 20.796178190066165 ], [ -156.115363137500964, 20.795296941357684 ], [ -156.114313598608703, 20.795338126385026 ], [ -156.112511020484959, 20.793895645884252 ], [ -156.11155172915241, 20.793599416901806 ], [ -156.110601494009813, 20.792562424808125 ], [ -156.109649705672581, 20.792492962791332 ], [ -156.10857598561671, 20.792535029160682 ], [ -156.107907900650133, 20.791952907497421 ], [ -156.107375357404379, 20.791371747598813 ], [ -156.106036540979034, 20.791054939351383 ], [ -156.104182970768221, 20.78993351313229 ], [ -156.102785896015661, 20.78998820080605 ], [ -156.101779368898661, 20.789914730841584 ], [ -156.100310529671845, 20.789972152477411 ], [ -156.099051371163227, 20.789079967944602 ], [ -156.098785264012605, 20.788789313166266 ], [ -156.097448346182262, 20.788184733608563 ], [ -156.09527264274189, 20.784520210492605 ], [ -156.093535855668534, 20.783594251102119 ], [ -156.092686364385969, 20.783532120192614 ], [ -156.091550241887518, 20.783576466026172 ], [ -156.089953353890081, 20.782967956378123 ], [ -156.089334544883258, 20.782637851430877 ], [ -156.087938553958821, 20.782918428194286 ], [ -156.087414276718704, 20.783450624098599 ], [ -156.085439867481028, 20.781957111140908 ], [ -156.082787837563785, 20.781221386352829 ], [ -156.080810211845886, 20.780089163012107 ], [ -156.080119947059615, 20.779776985698344 ], [ -156.079391738927768, 20.778981777491484 ], [ -156.077631192678894, 20.778641584141521 ], [ -156.075632478830045, 20.777819693383371 ], [ -156.074811594869942, 20.777851585209437 ], [ -156.07364974208906, 20.776972533192296 ], [ -156.072654668732241, 20.777011229441776 ], [ -156.071792037094269, 20.776948113938953 ], [ -156.070924160924847, 20.776981962419455 ], [ -156.06906643307309, 20.77663857164244 ], [ -156.068343204592367, 20.776666811692227 ], [ -156.066894687331882, 20.776218786176205 ], [ -156.066010976783758, 20.775253731644476 ], [ -156.065634425786726, 20.775226136107221 ], [ -156.06491064318655, 20.775254352786 ], [ -156.063057162136232, 20.774911633998258 ], [ -156.061030864327449, 20.774621473117595 ], [ -156.059125979824387, 20.774204445210977 ], [ -156.057417872463816, 20.774603325631752 ], [ -156.056437387248963, 20.774253422443216 ], [ -156.055659255846422, 20.774633986527949 ], [ -156.055295781933211, 20.774237010217629 ], [ -156.054996587684087, 20.773976407661738 ], [ -156.054172108044071, 20.772586669299546 ], [ -156.053503845885274, 20.772913441079616 ], [ -156.052708521225782, 20.771688559652606 ], [ -156.052170713586662, 20.771219824785835 ], [ -156.051904732901477, 20.770929111087426 ], [ -156.051345916699859, 20.770442030032488 ], [ -156.050969668833346, 20.76963253516335 ], [ -156.046362927041173, 20.770708475601456 ], [ -156.044220277225378, 20.770045484141473 ], [ -156.043694669098414, 20.769587382021193 ], [ -156.043006545841422, 20.768623744532341 ], [ -156.043030051978093, 20.768340782902929 ], [ -156.042735352103961, 20.767807848006438 ], [ -156.042612919330679, 20.767121057387183 ], [ -156.042965514991693, 20.767034439366199 ], [ -156.042718007459399, 20.766792692310744 ], [ -156.042612919330679, 20.767121057387183 ], [ -156.041605294474437, 20.766970936471168 ], [ -156.041039526914631, 20.766684429935847 ], [ -156.03844498280074, 20.766950952184018 ], [ -156.03844452216731, 20.76664298399054 ], [ -156.038476537527856, 20.765866429221354 ], [ -156.038188769009196, 20.765281906746999 ], [ -156.037059424794222, 20.764742231337198 ], [ -156.036598346956197, 20.763861036370074 ], [ -156.038195752166246, 20.763121677396942 ], [ -156.040663667407586, 20.763116765835839 ], [ -156.041679576716376, 20.763446466932631 ], [ -156.042425752430347, 20.763824407334997 ], [ -156.042833903418938, 20.763468998783495 ], [ -156.041821617511459, 20.762520006639097 ], [ -156.040853033290858, 20.761536590089953 ], [ -156.04056448475626, 20.761266101219892 ], [ -156.040584771665266, 20.760773237524244 ], [ -156.038699382532258, 20.760393100808976 ], [ -156.038315460758014, 20.758784793801723 ], [ -156.037749982596409, 20.758254587725542 ], [ -156.038053075421544, 20.757677613681711 ], [ -156.038778122916511, 20.757046032712299 ], [ -156.037821454880998, 20.756074181316148 ], [ -156.037499758661028, 20.756062549456466 ], [ -156.035546099603692, 20.756403835093014 ], [ -156.034923763461506, 20.755474500438169 ], [ -156.034325119737389, 20.755751627607523 ], [ -156.033496679085999, 20.754910231371042 ], [ -156.032909611309037, 20.754911328888859 ], [ -156.031868360189605, 20.753853626461353 ], [ -156.03044120554901, 20.752819659639616 ], [ -156.029306163112153, 20.750650402229876 ], [ -156.02859765741141, 20.748178180237712 ], [ -156.027782921486192, 20.74405127165253 ], [ -156.026751831025166, 20.731766525705545 ], [ -156.027605835719555, 20.724658173964357 ], [ -156.028197048936306, 20.722063367869492 ], [ -156.02977684464642, 20.719884831221766 ], [ -156.030746320989152, 20.720215879722449 ], [ -156.031723981065426, 20.720213980966935 ], [ -156.032917192696686, 20.720257580015694 ], [ -156.031289268746889, 20.719212780534445 ], [ -156.031337311091306, 20.71804642949105 ], [ -156.031335896692354, 20.717369395457915 ], [ -156.031374832094372, 20.716424898522632 ], [ -156.030521066101926, 20.715624194921073 ], [ -156.031039715663809, 20.715087838208138 ], [ -156.031690876442809, 20.714804471545019 ], [ -156.031338867879867, 20.714131965045176 ], [ -156.031709196215701, 20.713446536381671 ], [ -156.032012989800847, 20.712915459354534 ], [ -156.033123274862618, 20.710402962328459 ], [ -156.038131500953455, 20.703256191468309 ], [ -156.043379155628315, 20.698301339607763 ], [ -156.047822560116202, 20.695776378174436 ], [ -156.050386454165704, 20.694444737296713 ], [ -156.055326898142283, 20.692656796242002 ], [ -156.063333232754957, 20.691255699830862 ], [ -156.070064442287986, 20.691241058285964 ], [ -156.071246317403535, 20.693006236763168 ], [ -156.071390425293146, 20.693141449502484 ] ], [ [ -156.230756325998925, 20.855302341272274 ], [ -156.230863188895171, 20.856196455019827 ], [ -156.231140152128972, 20.855500440190049 ], [ -156.230756325998925, 20.855302341272274 ] ], [ [ -156.190049776033163, 20.828638961112059 ], [ -156.190142361116102, 20.828970686248834 ], [ -156.190399035066775, 20.8287373924477 ], [ -156.190049776033163, 20.828638961112059 ] ], [ [ -156.080814281525335, 20.711987618485342 ], [ -156.080721981048129, 20.711655866588249 ], [ -156.080465381882846, 20.711889002382094 ], [ -156.080814281525335, 20.711987618485342 ], [ -156.080906582314554, 20.712319370369688 ], [ -156.081163181707041, 20.712086233932869 ], [ -156.080814281525335, 20.711987618485342 ] ], [ [ -156.065752216533497, 20.70198219554516 ], [ -156.065606060411994, 20.702391076318985 ], [ -156.06503839982517, 20.702868273026194 ], [ -156.063009544221472, 20.703196899266356 ], [ -156.063566188129869, 20.703700018654256 ], [ -156.063837247567591, 20.703985767965992 ], [ -156.064698880009104, 20.704764633737657 ], [ -156.064677601627153, 20.705110453042533 ], [ -156.065256120813558, 20.706185710831516 ], [ -156.065155803893163, 20.707818382376722 ], [ -156.066344279745579, 20.708892801588828 ], [ -156.066712328857278, 20.709280433132445 ], [ -156.067447254214954, 20.710817593817087 ], [ -156.067840387375185, 20.711172857746138 ], [ -156.070969162255551, 20.710714947000998 ], [ -156.070078477775979, 20.708695936530727 ], [ -156.069687201564278, 20.707455151756157 ], [ -156.069137480838407, 20.705889154118921 ], [ -156.068425067102766, 20.704876419318797 ], [ -156.068159206452606, 20.704319953890014 ], [ -156.067497361379509, 20.703090027724183 ], [ -156.066552293529782, 20.702235703431583 ], [ -156.065752216533497, 20.70198219554516 ] ] ] } }
]
}
