{
"type": "FeatureCollection",
"name": "prilowr",
"crs": { "type": "name", "properties": { "name": "urn:ogc:def:crs:OGC:1.3:CRS84" } },
"features": [
{ "type": "Feature", "properties": { "ID": 1, "GRIDCODE": 2 }, "geometry": { "type": "Polygon", "coordinates": [ [ [ -156.849811454799152, 21.154365206969029 ], [ -156.850162033318469, 21.154462395404007 ], [ -156.849905661510007, 21.154696723380415 ], [ -156.849811454799152, 21.154365206969029 ] ] ] } },
{ "type": "Feature", "properties": { "ID": 2, "GRIDCODE": 2 }, "geometry": { "type": "Polygon", "coordinates": [ [ [ -156.937846444882098, 21.137308695526826 ], [ -156.938135181030503, 21.137312212589311 ], [ -156.938131432478798, 21.137583101270888 ], [ -156.937842695806381, 21.137579584159109 ], [ -156.937846444882098, 21.137308695526826 ] ] ] } },
{ "type": "Feature", "properties": { "ID": 3, "GRIDCODE": 2 }, "geometry": { "type": "Polygon", "coordinates": [ [ [ -156.937846444882098, 21.137308695526826 ], [ -156.93720702398781, 21.13721332768792 ], [ -156.937763472261338, 21.136722093594081 ], [ -156.937846444882098, 21.137308695526826 ] ] ] } },
{ "type": "Feature", "properties": { "ID": 4, "GRIDCODE": 2 }, "geometry": { "type": "Polygon", "coordinates": [ [ [ -156.938026330586524, 21.124306030249958 ], [ -156.937922800373087, 21.124635103704509 ], [ -156.937673181641941, 21.124394467339783 ], [ -156.938026330586524, 21.124306030249958 ] ] ] } },
{ "type": "Feature", "properties": { "ID": 5, "GRIDCODE": 2 }, "geometry": { "type": "Polygon", "coordinates": [ [ [ -156.930343938989466, 21.116084311020032 ], [ -156.93024039965556, 21.116413379149954 ], [ -156.929990806918596, 21.116172733388225 ], [ -156.930343938989466, 21.116084311020032 ] ] ] } },
{ "type": "Feature", "properties": { "ID": 6, "GRIDCODE": 2 }, "geometry": { "type": "Polygon", "coordinates": [ [ [ -156.912843635040957, 21.10801259808694 ], [ -156.912740065364375, 21.108341653077243 ], [ -156.912490515586825, 21.108100984759034 ], [ -156.912843635040957, 21.10801259808694 ] ] ] } },
{ "type": "Feature", "properties": { "ID": 7, "GRIDCODE": 2 }, "geometry": { "type": "Polygon", "coordinates": [ [ [ -156.913136098071647, 21.107745267758489 ], [ -156.913132309905706, 21.108016153081032 ], [ -156.912843635040957, 21.10801259808694 ], [ -156.91284742373, 21.107741712814267 ], [ -156.913136098071647, 21.107745267758489 ] ] ] } },
{ "type": "Feature", "properties": { "ID": 8, "GRIDCODE": 2 }, "geometry": { "type": "Polygon", "coordinates": [ [ [ -156.913136098071647, 21.107745267758489 ], [ -156.912855045324562, 21.107196767803977 ], [ -156.913642917538994, 21.106847695520194 ], [ -156.913616253349005, 21.107524697397238 ], [ -156.913136098071647, 21.107745267758489 ] ] ] } },
{ "type": "Feature", "properties": { "ID": 9, "GRIDCODE": 2 }, "geometry": { "type": "Polygon", "coordinates": [ [ [ -156.91430972550603, 21.106405054876667 ], [ -156.91420616043078, 21.106734111182895 ], [ -156.913956610529084, 21.106493445009413 ], [ -156.91430972550603, 21.106405054876667 ] ] ] } },
{ "type": "Feature", "properties": { "ID": 10, "GRIDCODE": 2 }, "geometry": { "type": "Polygon", "coordinates": [ [ [ -156.914602182722945, 21.1061377214894 ], [ -156.914598397533013, 21.106408607117 ], [ -156.91430972550603, 21.106405054876667 ], [ -156.914313511219007, 21.106134169298905 ], [ -156.914602182722945, 21.1061377214894 ] ] ] } },
{ "type": "Feature", "properties": { "ID": 11, "GRIDCODE": 2 }, "geometry": { "type": "Polygon", "coordinates": [ [ [ -156.914894638893742, 21.105870387502264 ], [ -156.914890854286938, 21.106141273188996 ], [ -156.914602182722945, 21.1061377214894 ], [ -156.914605967852737, 21.105866835852499 ], [ -156.914894638893742, 21.105870387502264 ] ] ] } },
{ "type": "Feature", "properties": { "ID": 12, "GRIDCODE": 2 }, "geometry": { "type": "Polygon", "coordinates": [ [ [ -156.848876479676079, 21.079036629705804 ], [ -156.854280866795818, 21.079239472277905 ], [ -156.859930866535393, 21.079989871534583 ], [ -156.8634000430242, 21.080768459521835 ], [ -156.86901277071982, 21.084121532164417 ], [ -156.872008112520035, 21.084709457411012 ], [ -156.876106894075264, 21.084324408520938 ], [ -156.880675256534602, 21.082731504670573 ], [ -156.88468241022295, 21.081566176905614 ], [ -156.88735284288731, 21.08125020960804 ], [ -156.890279952579988, 21.081342727926277 ], [ -156.894530723144015, 21.082607845441188 ], [ -156.899612315265642, 21.084818841280093 ], [ -156.905748796713084, 21.088934614339362 ], [ -156.911274890001664, 21.092188995245195 ], [ -156.920219847638208, 21.095796332716446 ], [ -156.934505854526236, 21.100340588985659 ], [ -156.946868531809685, 21.105904732948193 ], [ -156.958280163438815, 21.113494695381576 ], [ -156.964694316404092, 21.11921321425292 ], [ -156.972504597044065, 21.126215156986106 ], [ -156.976877705281424, 21.130132839614443 ], [ -156.985637768315172, 21.137745949220371 ], [ -156.989109616464816, 21.140765721722392 ], [ -156.999046689586635, 21.149560896407653 ], [ -157.009613825578015, 21.158892157769234 ], [ -157.012388084353603, 21.162768452181403 ], [ -157.01419942960905, 21.169520639649484 ], [ -157.01400319230072, 21.175112020322107 ], [ -157.012497610648069, 21.177140152958515 ], [ -157.011715174932874, 21.177827820649238 ], [ -157.00680497028668, 21.178095966242481 ], [ -156.999829155381889, 21.176773886698527 ], [ -156.989612848115684, 21.177574318458774 ], [ -156.97641193581066, 21.17909494016714 ], [ -156.972885738187244, 21.179318198231535 ], [ -156.970437948997358, 21.178698395896845 ], [ -156.968632284662647, 21.177641507296524 ], [ -156.967747240196729, 21.177360328221773 ], [ -156.966957745405239, 21.176569509228351 ], [ -156.96660306344728, 21.178164405030547 ], [ -156.966265710195813, 21.178759899522724 ], [ -156.965399127002257, 21.179520871925252 ], [ -156.963683323417598, 21.18002038459321 ], [ -156.9604990746098, 21.181267214651427 ], [ -156.957583123131599, 21.180291662561071 ], [ -156.954498418225171, 21.178995327443243 ], [ -156.952473382427854, 21.176362792927542 ], [ -156.952182582867437, 21.176093759080921 ], [ -156.951051705333754, 21.174719956221931 ], [ -156.949624063347301, 21.173082328778502 ], [ -156.949653031452982, 21.172270140266281 ], [ -156.949072876239597, 21.171179231701018 ], [ -156.948052512553687, 21.169139669063366 ], [ -156.947662592360842, 21.167551265041322 ], [ -156.947707729427776, 21.166283129279403 ], [ -156.947703337542265, 21.165722222514145 ], [ -156.947133491664971, 21.165195132079358 ], [ -156.94658010387451, 21.16464078916589 ], [ -156.94626866928698, 21.164642960343997 ], [ -156.946277926342532, 21.16581147821125 ], [ -156.945093317994662, 21.166519600672039 ], [ -156.944771190508362, 21.16682591085932 ], [ -156.944014563207929, 21.168241961793548 ], [ -156.942448535702198, 21.168931203555424 ], [ -156.942455795153023, 21.169854293116195 ], [ -156.941509240070616, 21.170540015806672 ], [ -156.938696708362016, 21.169963881271748 ], [ -156.936148123856782, 21.169598422864279 ], [ -156.934664803306276, 21.169101877430357 ], [ -156.933507662270358, 21.168822229595929 ], [ -156.932229286297314, 21.168498229112199 ], [ -156.931564741357079, 21.165067855734041 ], [ -156.933001966799793, 21.164208800155325 ], [ -156.932712790769216, 21.163664788551568 ], [ -156.93216198947718, 21.162563475060423 ], [ -156.931562972636925, 21.162009389310775 ], [ -156.931648523159225, 21.159608486106141 ], [ -156.931053974419996, 21.159058555018625 ], [ -156.930651664532974, 21.158254064194697 ], [ -156.929326512642803, 21.157933775355946 ], [ -156.928190669343337, 21.15736715388843 ], [ -156.926453865000553, 21.156814855445532 ], [ -156.92560081552881, 21.156257108033227 ], [ -156.925149363715548, 21.155986063026297 ], [ -156.924726320036086, 21.156833489554369 ], [ -156.927659276468148, 21.15929196401623 ], [ -156.928699585578272, 21.161474680532397 ], [ -156.927822369716068, 21.162244849741693 ], [ -156.927324707281997, 21.162718108273879 ], [ -156.926935169492907, 21.16413592615643 ], [ -156.926628328521872, 21.164942248769144 ], [ -156.926923450683148, 21.165786775283514 ], [ -156.92689060775561, 21.166706523168152 ], [ -156.926895836054456, 21.167383917488873 ], [ -156.92687672326565, 21.167925547291144 ], [ -156.926885319634835, 21.169029158388675 ], [ -156.925276222501765, 21.168978597121235 ], [ -156.921986634916607, 21.169001169219527 ], [ -156.918743171144996, 21.167803930884681 ], [ -156.916508637649457, 21.166169810230524 ], [ -156.914196415577692, 21.165875797772422 ], [ -156.913917142983109, 21.165595998332069 ], [ -156.912054420552636, 21.16452738703887 ], [ -156.909891252077244, 21.163926128733657 ], [ -156.907031593003268, 21.163111374530082 ], [ -156.906659313239004, 21.162366605004092 ], [ -156.905966640631647, 21.161981069848029 ], [ -156.905559570220532, 21.163107503583483 ], [ -156.90556639422914, 21.164005372640059 ], [ -156.905551534798491, 21.164419784718472 ], [ -156.904688520912515, 21.164392623560069 ], [ -156.903814041499203, 21.164398520589739 ], [ -156.902665938859286, 21.163825692268858 ], [ -156.902713276931394, 21.162508344239079 ], [ -156.90239811267395, 21.161915416052004 ], [ -156.901204466324089, 21.161353722137445 ], [ -156.899210697978958, 21.161367133595544 ], [ -156.899269690813099, 21.15972562554699 ], [ -156.89899325520804, 21.158368606511036 ], [ -156.899298702054864, 21.157830079727407 ], [ -156.898716749141045, 21.157556288029664 ], [ -156.898445171346623, 21.156734704066892 ], [ -156.897898654937933, 21.156228851587869 ], [ -156.897552011502938, 21.15862552909357 ], [ -156.897250023917479, 21.159158208240846 ], [ -156.896943182008272, 21.160273759009538 ], [ -156.896137575603007, 21.161694447613673 ], [ -156.895020450138617, 21.162185692975129 ], [ -156.894013939844967, 21.163729278275333 ], [ -156.893719882922767, 21.163719927555174 ], [ -156.891790936073249, 21.164312555774945 ], [ -156.891395736791651, 21.165051157952004 ], [ -156.890991302946361, 21.165764376526869 ], [ -156.89136509992565, 21.16721277247354 ], [ -156.891630834295597, 21.168444784907024 ], [ -156.890174662967127, 21.167718081903651 ], [ -156.887336230306772, 21.167737010371532 ], [ -156.887029476633899, 21.167429575007521 ], [ -156.886161253081326, 21.167153219918983 ], [ -156.885893959197119, 21.166034289268563 ], [ -156.887334069429699, 21.164770676413671 ], [ -156.885905629002423, 21.162493336013995 ], [ -156.885101068049266, 21.161748612182933 ], [ -156.884805937846096, 21.161299241312914 ], [ -156.886288936089841, 21.160647211557407 ], [ -156.886274656723799, 21.158753189398837 ], [ -156.886301208342985, 21.158015615251951 ], [ -156.883978695691837, 21.157369648862208 ], [ -156.882301317571859, 21.15463687679021 ], [ -156.881663850769996, 21.153728805286466 ], [ -156.882041502718948, 21.152737534192436 ], [ -156.880882650812225, 21.152457122845448 ], [ -156.880292590188958, 21.152162665157874 ], [ -156.878650417718944, 21.152173500594255 ], [ -156.87831220741748, 21.15079147774965 ], [ -156.877494215816114, 21.151173915398612 ], [ -156.877117720465321, 21.150420771572861 ], [ -156.877308056634575, 21.145140561178383 ], [ -156.876952233411401, 21.143393134079382 ], [ -156.876988652116466, 21.14238132129989 ], [ -156.876979866087595, 21.141197098894416 ], [ -156.876569851716994, 21.140482295098625 ], [ -156.876132061334602, 21.141300627062758 ], [ -156.875112753610665, 21.141268320649907 ], [ -156.875554652719217, 21.142100205968415 ], [ -156.875535476812388, 21.142634012557011 ], [ -156.875555838565248, 21.145358676189424 ], [ -156.874007918113989, 21.147682520212328 ], [ -156.872859530425387, 21.148016203397621 ], [ -156.872283506765342, 21.148301118906531 ], [ -156.872853561862172, 21.148828905254327 ], [ -156.873121114970189, 21.149921394962583 ], [ -156.873407843198038, 21.150461426542485 ], [ -156.873710560213823, 21.151066942786613 ], [ -156.873663367099311, 21.152376859880107 ], [ -156.874239285116857, 21.15291020644197 ], [ -156.874510720540826, 21.153731817840242 ], [ -156.875405442698479, 21.154298335724274 ], [ -156.875939042657023, 21.154833460912418 ], [ -156.876504681333074, 21.155357080924837 ], [ -156.876789864377997, 21.155927845670419 ], [ -156.877265866208035, 21.156823986115967 ], [ -156.877632747964327, 21.157579787758234 ], [ -156.877047795086696, 21.158093066654114 ], [ -156.876744893362542, 21.159475775271364 ], [ -156.877605909024822, 21.160272769885943 ], [ -156.877565661441139, 21.161394001237024 ], [ -156.876378868063227, 21.162435223972672 ], [ -156.876393044552827, 21.164327317810596 ], [ -156.875662277840519, 21.164304116692083 ], [ -156.875196554017975, 21.164307194874667 ], [ -156.874057608931309, 21.164839493065831 ], [ -156.873488669945658, 21.164821425586432 ], [ -156.873055384600207, 21.164824310373433 ], [ -156.872589915091282, 21.16480952560584 ], [ -156.870866991890807, 21.163949402463352 ], [ -156.869713454698172, 21.162249531958874 ], [ -156.868599445348309, 21.161218138878077 ], [ -156.865094186677368, 21.160386354697941 ], [ -156.861148881485292, 21.16223012890001 ], [ -156.857345608958184, 21.162450328646656 ], [ -156.855218789668356, 21.162714333001798 ], [ -156.852530928330168, 21.162628763081155 ], [ -156.851567963479823, 21.162924296319488 ], [ -156.849816112530988, 21.163433028057476 ], [ -156.848087061714608, 21.163963725780224 ], [ -156.845113754817049, 21.164228533145469 ], [ -156.843026950714233, 21.164161911307367 ], [ -156.839994021189, 21.164181270955261 ], [ -156.836309569633983, 21.16406359339511 ], [ -156.83396147699392, 21.162125980120955 ], [ -156.834705413011363, 21.160815498340867 ], [ -156.835142036385434, 21.160000191391127 ], [ -156.8366917585968, 21.157757543119804 ], [ -156.839686615115966, 21.156757047329961 ], [ -156.838250854360126, 21.15471070011375 ], [ -156.839279042261495, 21.154096868447386 ], [ -156.838990240492762, 21.15355272636647 ], [ -156.838693147923976, 21.152958143306922 ], [ -156.838749926512975, 21.151397699465164 ], [ -156.838305748332601, 21.150561138544155 ], [ -156.838762180057813, 21.149756918252812 ], [ -156.839053223153343, 21.149213369693488 ], [ -156.839357412089242, 21.148677197888922 ], [ -156.83877969763904, 21.148141933555642 ], [ -156.838790058746696, 21.14785553502924 ], [ -156.83822681505174, 21.147334013249715 ], [ -156.837938453410374, 21.14681884642231 ], [ -156.83940675854376, 21.145159357169447 ], [ -156.839404600009573, 21.144861025134468 ], [ -156.837465551971377, 21.144873363352239 ], [ -156.838482028351081, 21.14350713860706 ], [ -156.837234562287506, 21.143515078564022 ], [ -156.836858159204212, 21.141664287512082 ], [ -156.838309408250524, 21.14135198298673 ], [ -156.837868000881798, 21.140520683109003 ], [ -156.83687185362291, 21.140527004064346 ], [ -156.835897119212206, 21.1404958915228 ], [ -156.835449002279631, 21.139137607023301 ], [ -156.83472615346966, 21.13914225160336 ], [ -156.83427007966668, 21.139127685875746 ], [ -156.833453485916721, 21.137492174290003 ], [ -156.832241869729899, 21.135950683625644 ], [ -156.831169087705064, 21.13572204510599 ], [ -156.832244329794406, 21.137254718909855 ], [ -156.832573310474118, 21.138600239873032 ], [ -156.833399777424404, 21.140157634795056 ], [ -156.83368528222519, 21.141022533878321 ], [ -156.833968996556763, 21.14183621524765 ], [ -156.833659966370789, 21.142646939964322 ], [ -156.834752334435535, 21.143161553753981 ], [ -156.833858362102745, 21.14436310522143 ], [ -156.83420651233061, 21.145361752606131 ], [ -156.833450505468107, 21.146693713675131 ], [ -156.833874161163351, 21.148337492223156 ], [ -156.833504121350757, 21.149308425302454 ], [ -156.833849997007064, 21.149959795374617 ], [ -156.833798772628086, 21.15136771404908 ], [ -156.832934890193258, 21.152125294487394 ], [ -156.832335150584271, 21.153781560962617 ], [ -156.831751884301013, 21.154809283814085 ], [ -156.831363963132446, 21.155533995964181 ], [ -156.830581093499916, 21.155877952406964 ], [ -156.829387484771473, 21.156614812534215 ], [ -156.825623056131434, 21.15385832978999 ], [ -156.824717750678019, 21.152949866737917 ], [ -156.822624673139387, 21.151010964591798 ], [ -156.820501013104746, 21.150606344843261 ], [ -156.81996976086586, 21.151178443248863 ], [ -156.820524073813345, 21.152768567162298 ], [ -156.820982073269164, 21.154157038290371 ], [ -156.82047379530934, 21.155489936409474 ], [ -156.821046054734865, 21.15656815151414 ], [ -156.821790473338041, 21.15918070108415 ], [ -156.823029630568612, 21.159575650550018 ], [ -156.82299985131101, 21.160396688032453 ], [ -156.823581444593913, 21.160935494345214 ], [ -156.823867999333402, 21.161803661435794 ], [ -156.825003378529885, 21.162855511178527 ], [ -156.824927063732417, 21.164950314615616 ], [ -156.825655536838156, 21.167039462264153 ], [ -156.822506636260215, 21.168157882501642 ], [ -156.818711966169246, 21.169109235107562 ], [ -156.818256582817099, 21.169541682549401 ], [ -156.817921698134001, 21.16983539661264 ], [ -156.81628704680071, 21.170553294736877 ], [ -156.81322248609132, 21.170914303551342 ], [ -156.811210426989419, 21.171649623373025 ], [ -156.809125548343502, 21.171582666863245 ], [ -156.807418342626619, 21.171593207100539 ], [ -156.805139959809424, 21.172291794077712 ], [ -156.804105444307766, 21.1712535615276 ], [ -156.802344336767447, 21.170961083793166 ], [ -156.799977143822616, 21.170474183076976 ], [ -156.798260706809657, 21.16979492132451 ], [ -156.797184427930603, 21.168705376618533 ], [ -156.797794248072108, 21.168171027758071 ], [ -156.799510306998855, 21.167673234850138 ], [ -156.800641229615849, 21.16697540765518 ], [ -156.800978201699905, 21.166046004901297 ], [ -156.801563713289113, 21.165532621887749 ], [ -156.80185492257894, 21.164989152758459 ], [ -156.802436111758965, 21.163965890779181 ], [ -156.803049049961885, 21.162358148464882 ], [ -156.800958579388691, 21.162831867487935 ], [ -156.799863167035681, 21.163343179594058 ], [ -156.799276080089214, 21.163601032056548 ], [ -156.798984865033987, 21.164144496238841 ], [ -156.798541496133907, 21.164925278588473 ], [ -156.796366904788528, 21.164372253747107 ], [ -156.794973818274542, 21.165022649967028 ], [ -156.794625337520188, 21.165984098914475 ], [ -156.79410722082568, 21.166896373348663 ], [ -156.793155865153665, 21.167314075328424 ], [ -156.79257987156538, 21.167582894314069 ], [ -156.790698345837967, 21.167901988393609 ], [ -156.789981048290485, 21.167543520984793 ], [ -156.789362339597204, 21.167269942180646 ], [ -156.788092668046176, 21.168475160686384 ], [ -156.78671055737442, 21.168876010279916 ], [ -156.785482231281236, 21.168836379342032 ], [ -156.78469663582095, 21.168841167549317 ], [ -156.782906434402292, 21.169389753331252 ], [ -156.778180226761322, 21.172416214565491 ], [ -156.774523431331801, 21.173029914541956 ], [ -156.771708677447918, 21.172450415420741 ], [ -156.770488009332951, 21.172726727265161 ], [ -156.767431958288171, 21.172627858522166 ], [ -156.765732479994085, 21.17342084808708 ], [ -156.757859039741305, 21.173645113211357 ], [ -156.754507265606179, 21.173536398634898 ], [ -156.751461597125768, 21.17355424704304 ], [ -156.747332954122669, 21.172167090980359 ], [ -156.744278926326785, 21.170878972930574 ], [ -156.741142157661614, 21.168579681903505 ], [ -156.741163884736238, 21.167984716804209 ], [ -156.741161312456995, 21.167578321404179 ], [ -156.741176545530635, 21.167169518288613 ], [ -156.740307303870338, 21.166759478869945 ], [ -156.740332293834513, 21.166079832944966 ], [ -156.739890910469455, 21.165670416696038 ], [ -156.738911660016271, 21.16468672824714 ], [ -156.740066416754303, 21.164180060801044 ], [ -156.740642473465442, 21.163911427996172 ], [ -156.741566099248558, 21.163506227595104 ], [ -156.741131262846238, 21.16225706257508 ], [ -156.744591842063386, 21.162369524526948 ], [ -156.743948852632968, 21.161156743413592 ], [ -156.744624838765418, 21.160564682863807 ], [ -156.745902985613981, 21.160194343395464 ], [ -156.746461824825815, 21.159664207252153 ], [ -156.747364118165223, 21.159268211605799 ], [ -156.747359787013778, 21.15858545932312 ], [ -156.747981082985973, 21.158325668665537 ], [ -156.749097093810548, 21.158883929612951 ], [ -156.749977056290078, 21.158341320527136 ], [ -156.750834571692991, 21.158369195019066 ], [ -156.751127571655729, 21.158091202950544 ], [ -156.751575157102764, 21.157698925255428 ], [ -156.752123952885228, 21.157178290902291 ], [ -156.753156115760135, 21.157854926120951 ], [ -156.753445677097403, 21.157580190927131 ], [ -156.75403280273099, 21.157322502434351 ], [ -156.755184818757812, 21.156785063667449 ], [ -156.755774885020628, 21.157080140111763 ], [ -156.756377351705737, 21.157076624436684 ], [ -156.759220413789137, 21.157662218457638 ], [ -156.761980900334379, 21.157964254703831 ], [ -156.763336498826902, 21.15712818308128 ], [ -156.764133885547977, 21.156371365379869 ], [ -156.766958863913629, 21.155664008786211 ], [ -156.764829964592565, 21.154660121819632 ], [ -156.765635590634957, 21.153954199966353 ], [ -156.765633349307876, 21.153633786224582 ], [ -156.763017630298009, 21.153649284985562 ], [ -156.761785655276185, 21.154818685838535 ], [ -156.761007478146354, 21.154429536117028 ], [ -156.760139626055292, 21.154152560075428 ], [ -156.759288118494425, 21.153726782448931 ], [ -156.758419453224349, 21.15331704400586 ], [ -156.757364260024815, 21.151941563770215 ], [ -156.756710199665406, 21.151945392509919 ], [ -156.75584425917657, 21.151917372673541 ], [ -156.75406794679526, 21.151927795881878 ], [ -156.753528902865554, 21.152439440990559 ], [ -156.753202331039233, 21.152700589971587 ], [ -156.752376687021581, 21.151871338507107 ], [ -156.751513070286705, 21.151876397392936 ], [ -156.750915484349918, 21.151857011628142 ], [ -156.750082082459443, 21.15101977641066 ], [ -156.749498968028718, 21.151573151318736 ], [ -156.749161113524025, 21.151834142019105 ], [ -156.747477846367644, 21.151268531711256 ], [ -156.746917614202459, 21.151800044720279 ], [ -156.746285928310243, 21.152077288327096 ], [ -156.745734572706283, 21.152059359902793 ], [ -156.745301354546967, 21.152061920207792 ], [ -156.744865852261626, 21.152047715602286 ], [ -156.744289565887755, 21.152316496438644 ], [ -156.743702447448442, 21.152574151482401 ], [ -156.742832756008198, 21.152979824722422 ], [ -156.741971798737495, 21.152549075823242 ], [ -156.740792417516218, 21.153904402971826 ], [ -156.739949342274542, 21.153057534216067 ], [ -156.739647748882277, 21.153343724940495 ], [ -156.739070741088995, 21.153324902574283 ], [ -156.73849415709941, 21.153593790716329 ], [ -156.738182680048425, 21.153583607632676 ], [ -156.737636567642454, 21.153034953290767 ], [ -156.737329316803851, 21.152765360146777 ], [ -156.736766182771873, 21.153299641373561 ], [ -156.736060343937254, 21.153555680107285 ], [ -156.735043570010532, 21.150466257067595 ], [ -156.735113046687417, 21.148587108426803 ], [ -156.736321326771844, 21.145423491556958 ], [ -156.739420708674203, 21.139523076091407 ], [ -156.747899034025778, 21.127140348233649 ], [ -156.756006360025566, 21.116436686865075 ], [ -156.757572975152442, 21.114555233983793 ], [ -156.765197739279984, 21.106799133937962 ], [ -156.765775989148352, 21.106817870086665 ], [ -156.766579359337015, 21.108428668836396 ], [ -156.767788932683743, 21.109875892911813 ], [ -156.770843577506469, 21.111813290200704 ], [ -156.771175403189858, 21.111418561472405 ], [ -156.768383409430498, 21.108207318549645 ], [ -156.768052159643702, 21.106113171320903 ], [ -156.767228457276076, 21.104937582016706 ], [ -156.768288100272002, 21.103513901741078 ], [ -156.772934790896556, 21.100155135963696 ], [ -156.778630144655438, 21.097223087354632 ], [ -156.779187231900494, 21.097240968568403 ], [ -156.779486915234884, 21.096956385961473 ], [ -156.783079173507133, 21.095680703570483 ], [ -156.787084449849488, 21.09434326371537 ], [ -156.788461791829832, 21.09438755907259 ], [ -156.788972760992209, 21.093902129785427 ], [ -156.79745885731441, 21.091519030048385 ], [ -156.821061444467233, 21.08455792369741 ], [ -156.833760328553637, 21.081189596409224 ], [ -156.845640206615087, 21.079417296054945 ], [ -156.84873300700599, 21.079172918422767 ], [ -156.848876479676079, 21.079036629705804 ] ], [ [ -156.863740323275124, 21.129616613369677 ], [ -156.86361007838201, 21.129200976177547 ], [ -156.863308684066226, 21.128941461446988 ], [ -156.863036376792337, 21.128364360213602 ], [ -156.862314036212638, 21.128395590605287 ], [ -156.861077039161756, 21.128310717732777 ], [ -156.860149273408268, 21.128901565216015 ], [ -156.858081429256202, 21.129177168240563 ], [ -156.857250377745885, 21.129120154935407 ], [ -156.855051180831566, 21.12921520596916 ], [ -156.850596537832189, 21.127986856696747 ], [ -156.846025487602986, 21.127638802312525 ], [ -156.842823140661551, 21.128952649496032 ], [ -156.840684086035139, 21.129237514504954 ], [ -156.84019374541657, 21.131064282456947 ], [ -156.842232337105315, 21.133318436471956 ], [ -156.842728374894989, 21.134369884651218 ], [ -156.844450628123241, 21.136274057066249 ], [ -156.844423980465336, 21.136615082385195 ], [ -156.845038279359898, 21.138889562557289 ], [ -156.845553744661146, 21.139809098010236 ], [ -156.846082660833702, 21.140930010886681 ], [ -156.846799108321562, 21.142208017357696 ], [ -156.846327677483345, 21.148247235706705 ], [ -156.846928765632214, 21.148221284707414 ], [ -156.846811749865822, 21.149721376623027 ], [ -156.846880326472956, 21.151122564994143 ], [ -156.847724920398349, 21.151499281391121 ], [ -156.848240476667911, 21.152591843449656 ], [ -156.848553918409465, 21.153150704649665 ], [ -156.848481580668278, 21.1540773760135 ], [ -156.848546260465156, 21.155397886344396 ], [ -156.848898996867376, 21.156106995087171 ], [ -156.849649805014906, 21.155031991921842 ], [ -156.849971010658692, 21.155053999536413 ], [ -156.849890316639858, 21.156091024771207 ], [ -156.850617010467857, 21.157095715098134 ], [ -156.852584007112029, 21.155568514923843 ], [ -156.85251655928252, 21.156431489513846 ], [ -156.852530134655808, 21.156702584596101 ], [ -156.852501810539934, 21.157062771818953 ], [ -156.854644693169291, 21.156970244817117 ], [ -156.855673208374128, 21.15591956927312 ], [ -156.856264626595305, 21.155960203265998 ], [ -156.85687336588515, 21.155659754765495 ], [ -156.857141037958826, 21.156226819845347 ], [ -156.859066873477985, 21.157085737553427 ], [ -156.859743916373191, 21.157056471549112 ], [ -156.860013041172181, 21.157346873169931 ], [ -156.8606658455152, 21.157610841742102 ], [ -156.862660363746897, 21.156341229986857 ], [ -156.866877694764412, 21.155931657980407 ], [ -156.868335297802901, 21.156443134284523 ], [ -156.868694935932382, 21.156125678195131 ], [ -156.867575161194765, 21.153649431082723 ], [ -156.867318501210775, 21.152547283492243 ], [ -156.866616878391625, 21.150632307239203 ], [ -156.867133214075977, 21.146954807702059 ], [ -156.86709760735269, 21.146231208937348 ], [ -156.866507188418353, 21.145178099223394 ], [ -156.865393271038499, 21.144681401157957 ], [ -156.863270090951119, 21.143412626891596 ], [ -156.861073161122647, 21.142745663118735 ], [ -156.859878268462211, 21.142116811217203 ], [ -156.858377742587294, 21.139836051987359 ], [ -156.857003891923256, 21.138221165290872 ], [ -156.856096972543156, 21.136299390944135 ], [ -156.855457602911855, 21.133874343299286 ], [ -156.856082210887564, 21.132307509319855 ], [ -156.858891133819412, 21.130681064046751 ], [ -156.86052583805423, 21.130229990885802 ], [ -156.862109725476188, 21.129448136192213 ], [ -156.863740323275124, 21.129616613369677 ], [ -156.863892153251527, 21.129962542674839 ], [ -156.864402721364939, 21.129734767736828 ], [ -156.863740323275124, 21.129616613369677 ] ], [ [ -156.802179141815088, 21.133434340065683 ], [ -156.801620643219053, 21.134171381685835 ], [ -156.800924731687218, 21.134015508766968 ], [ -156.800698781987194, 21.134880352739266 ], [ -156.802077781884662, 21.134609090663947 ], [ -156.802581810548162, 21.133703009712104 ], [ -156.802179141815088, 21.133434340065683 ] ], [ [ -156.863922716932763, 21.116885432244054 ], [ -156.86332290098639, 21.117677679646377 ], [ -156.862495730375855, 21.117157275697554 ], [ -156.861775022603865, 21.117491466978947 ], [ -156.862633032520193, 21.118063524962221 ], [ -156.863383989998169, 21.119337867064861 ], [ -156.863962540976871, 21.118573992194317 ], [ -156.864325468593165, 21.117154027303247 ], [ -156.863922716932763, 21.116885432244054 ] ], [ [ -156.807909384537794, 21.136488724306179 ], [ -156.808632916526392, 21.136359458714022 ], [ -156.808918456953705, 21.136406147155931 ], [ -156.808311888517522, 21.137996813170933 ], [ -156.808316417114213, 21.138666624974366 ], [ -156.809180196375792, 21.138263295624274 ], [ -156.809474183554755, 21.138272788658028 ], [ -156.809761322123961, 21.13800003089008 ], [ -156.810162768452614, 21.137739730950464 ], [ -156.811015941896557, 21.138998072411148 ], [ -156.812298399299465, 21.139810738699598 ], [ -156.812650725536315, 21.140879253404979 ], [ -156.812636243748926, 21.138850158548887 ], [ -156.812938756183371, 21.138317456922156 ], [ -156.813295686469189, 21.137650659975588 ], [ -156.813957158154636, 21.139656298737716 ], [ -156.815087410827715, 21.139965291358756 ], [ -156.81551971583059, 21.139158116575395 ], [ -156.815817963242637, 21.138896470812579 ], [ -156.816261859544994, 21.138067550026218 ], [ -156.817234061940866, 21.137018308493481 ], [ -156.817550936752639, 21.138661001951071 ], [ -156.818126869703434, 21.139194456168543 ], [ -156.817825484125393, 21.139458777628452 ], [ -156.817292208140316, 21.141845786461015 ], [ -156.818380388768077, 21.140812190104231 ], [ -156.818667761043173, 21.14110057029685 ], [ -156.819249268605716, 21.141639384776422 ], [ -156.819220085254159, 21.142438470257396 ], [ -156.819516909395162, 21.14381527589952 ], [ -156.820361432298711, 21.143013067987081 ], [ -156.820682774630427, 21.14302335755939 ], [ -156.821828516500204, 21.142488200356208 ], [ -156.822200588614294, 21.143233584558462 ], [ -156.822703631359758, 21.142755828915153 ], [ -156.822693986954334, 21.141428425802573 ], [ -156.823033646835256, 21.14113065662632 ], [ -156.82302186690751, 21.139485940537668 ], [ -156.82246865113828, 21.137898484177335 ], [ -156.82220149064662, 21.13680594654797 ], [ -156.821192483714384, 21.134376781628958 ], [ -156.820821303441505, 21.132453478482866 ], [ -156.820257705922899, 21.131096786799048 ], [ -156.820272705724875, 21.13068815391431 ], [ -156.82026742986551, 21.129969118389941 ], [ -156.81971227801364, 21.12892267588466 ], [ -156.819453072185922, 21.12728839975621 ], [ -156.818948638149635, 21.125840793836279 ], [ -156.816272750034614, 21.124987865112761 ], [ -156.814023490848939, 21.123425538373795 ], [ -156.813159660691298, 21.122877973540223 ], [ -156.812880667013587, 21.122598028944729 ], [ -156.811733365345106, 21.122057313311451 ], [ -156.811453149372596, 21.121495916039361 ], [ -156.811162725710432, 21.121226668619773 ], [ -156.810727839549116, 21.119907597755454 ], [ -156.809189709693186, 21.11795014453098 ], [ -156.808914711690136, 21.117399328174805 ], [ -156.808614830894868, 21.116834233637089 ], [ -156.80796987876198, 21.114193964279355 ], [ -156.808579252576237, 21.112596181703925 ], [ -156.810018170000546, 21.110436989451969 ], [ -156.810754005561989, 21.110113670455426 ], [ -156.811374877186154, 21.109823786275157 ], [ -156.812058537625717, 21.109174235121181 ], [ -156.815494715228226, 21.106952661595084 ], [ -156.814818212952019, 21.106633732376402 ], [ -156.814266684514962, 21.106637202834602 ], [ -156.813692357241706, 21.106618814978418 ], [ -156.812359668250622, 21.107884909461177 ], [ -156.808447184472499, 21.108726614791639 ], [ -156.808455615929944, 21.109918604945538 ], [ -156.806484678655664, 21.110982197955508 ], [ -156.806111562458625, 21.111679134402802 ], [ -156.805524694814068, 21.111937160976463 ], [ -156.804363647669391, 21.112740163541531 ], [ -156.801166006764674, 21.113507346147706 ], [ -156.801754860095798, 21.114052985325518 ], [ -156.801447504772113, 21.114322559894465 ], [ -156.800856426786652, 21.114884105227439 ], [ -156.800859798819289, 21.11540124587923 ], [ -156.80083649511613, 21.116044767971434 ], [ -156.799394594437928, 21.11646324127674 ], [ -156.799396479060192, 21.116736828155336 ], [ -156.799386525580502, 21.1170101289628 ], [ -156.799673480456335, 21.117550663075786 ], [ -156.799663527280416, 21.117823963914944 ], [ -156.799667255055653, 21.118373981218099 ], [ -156.800500809336995, 21.11836886633002 ], [ -156.801978320779284, 21.118672851346318 ], [ -156.801928230390928, 21.120043520228265 ], [ -156.800187846540581, 21.121082171460472 ], [ -156.800794929762418, 21.121368379617518 ], [ -156.801349328821743, 21.121364928300498 ], [ -156.802330436146264, 21.122350144610245 ], [ -156.801093796971486, 21.123434627254063 ], [ -156.802086766931922, 21.123902770672206 ], [ -156.802450217691728, 21.124649664538513 ], [ -156.800693480478174, 21.12514937989376 ], [ -156.800146654180537, 21.124600444352648 ], [ -156.799192149342872, 21.123780717143521 ], [ -156.798420244687463, 21.124191742635613 ], [ -156.799387077334075, 21.125570664066334 ], [ -156.798954280681102, 21.125950248773023 ], [ -156.798388905793558, 21.125932052217674 ], [ -156.797516002963334, 21.1267654628132 ], [ -156.798273455041794, 21.12819319170351 ], [ -156.797771513693021, 21.128633319010426 ], [ -156.797482325870618, 21.129044728717332 ], [ -156.799752824763857, 21.128530165522655 ], [ -156.800293117047744, 21.127038545761835 ], [ -156.801423877249533, 21.127074925040468 ], [ -156.801825123717492, 21.127878663864809 ], [ -156.802692926444905, 21.128155420116812 ], [ -156.802974474040923, 21.128261328595958 ], [ -156.801808943209835, 21.128956763258127 ], [ -156.801810830149179, 21.129230350137906 ], [ -156.801801196963538, 21.129501141782534 ], [ -156.801802840877485, 21.129772079820988 ], [ -156.801793207544648, 21.130042871444822 ], [ -156.801795098172136, 21.130316193774579 ], [ -156.80132900169059, 21.13153793118552 ], [ -156.803011893859178, 21.131021845756873 ], [ -156.803525429095146, 21.130062507237604 ], [ -156.803837437483992, 21.130072573347306 ], [ -156.803797799147361, 21.131155131694324 ], [ -156.804088785797376, 21.131424663819285 ], [ -156.804068962657595, 21.131966240611089 ], [ -156.804365513986681, 21.132241003630121 ], [ -156.804350026430996, 21.132660605018302 ], [ -156.803481515379247, 21.133042155435216 ], [ -156.803041258042668, 21.133716446631226 ], [ -156.802688033308414, 21.133804593212112 ], [ -156.802937429052292, 21.134045411258413 ], [ -156.803041258042668, 21.133716446631226 ], [ -156.803829277492156, 21.133898573535721 ], [ -156.804328061350191, 21.133309303818493 ], [ -156.804946159018414, 21.133081324823664 ], [ -156.805211044623491, 21.132768402457941 ], [ -156.806097123949399, 21.133108612254404 ], [ -156.806393048166285, 21.132161987638106 ], [ -156.806621228188476, 21.134457620780498 ], [ -156.806964266191216, 21.135310731728229 ], [ -156.807494549678722, 21.135244183002516 ], [ -156.807782667732482, 21.135287996323775 ], [ -156.80814654920448, 21.135242307964671 ], [ -156.807909384537794, 21.136488724306179 ], [ -156.807556154939988, 21.136576880704229 ], [ -156.807805563468122, 21.136817692590498 ], [ -156.807909384537794, 21.136488724306179 ] ], [ [ -156.823974174380538, 21.104185603817296 ], [ -156.82377499168831, 21.104542862527492 ], [ -156.823095768046528, 21.104854402527717 ], [ -156.823627809256976, 21.105084929815561 ], [ -156.824646582333713, 21.104322023028669 ], [ -156.823974174380538, 21.104185603817296 ] ], [ [ -156.914894638893742, 21.105870387502264 ], [ -156.9150428690171, 21.105189720998393 ], [ -156.917035040855239, 21.10303551044192 ], [ -156.916796382841284, 21.101428545401419 ], [ -156.915999340760237, 21.102214877279064 ], [ -156.915204858562589, 21.102554885722501 ], [ -156.914517599140424, 21.10220260685783 ], [ -156.914206504501522, 21.102210288476027 ], [ -156.914255237967069, 21.101345703985935 ], [ -156.915271547261938, 21.100484951446749 ], [ -156.916279314727404, 21.09934653973556 ], [ -156.914511349207686, 21.098149260150834 ], [ -156.913501333278361, 21.099145685022034 ], [ -156.913070423173082, 21.099475871246828 ], [ -156.912278409145472, 21.098652132497122 ], [ -156.911819533518496, 21.098663546535334 ], [ -156.91097260934751, 21.098621627304219 ], [ -156.910252672839448, 21.097544240458035 ], [ -156.909640373904267, 21.09755944615198 ], [ -156.909706019637014, 21.096394640120032 ], [ -156.90903610078459, 21.095914365594858 ], [ -156.907782493519676, 21.097150901179237 ], [ -156.907343859916182, 21.097508758150237 ], [ -156.907377301041265, 21.096913068648057 ], [ -156.907966636897925, 21.09590051162731 ], [ -156.907958937778488, 21.095624987101321 ], [ -156.907984139267569, 21.095174450849647 ], [ -156.906889228888218, 21.094804149699044 ], [ -156.905360237186414, 21.095874814031372 ], [ -156.905087588966296, 21.095313443463645 ], [ -156.904502672582225, 21.09504560297778 ], [ -156.904197010126211, 21.094727634862696 ], [ -156.904245080666186, 21.093873763880627 ], [ -156.902093124968644, 21.0943745946939 ], [ -156.901170048485028, 21.094818514854531 ], [ -156.901943051514479, 21.093116507335527 ], [ -156.901934736827258, 21.092825365362312 ], [ -156.901358840187157, 21.092839669909818 ], [ -156.900713085467601, 21.09250875567496 ], [ -156.900129020142117, 21.091901057845718 ], [ -156.899350716712348, 21.09227532479763 ], [ -156.898607005150438, 21.091893977512687 ], [ -156.896885228252643, 21.093099491468351 ], [ -156.897333564053099, 21.094796381656231 ], [ -156.897117615053929, 21.095756643621751 ], [ -156.896720613012121, 21.094938928636314 ], [ -156.89642817761171, 21.094403759075206 ], [ -156.896158585204603, 21.093848235296878 ], [ -156.895849115173462, 21.093281765442484 ], [ -156.895000500401693, 21.093302717831609 ], [ -156.894445815947421, 21.092472325611539 ], [ -156.89409714469943, 21.092207384491719 ], [ -156.892997791316958, 21.092735984632071 ], [ -156.892142746033244, 21.092693476129202 ], [ -156.891839683346916, 21.092992520079196 ], [ -156.891505834839904, 21.092975933900998 ], [ -156.891611846127233, 21.096749363986262 ], [ -156.891102527781726, 21.098057195878049 ], [ -156.889728240193563, 21.098645055618512 ], [ -156.889430308624782, 21.098938866148185 ], [ -156.88887738895076, 21.098363533190966 ], [ -156.887318992360321, 21.097994610987335 ], [ -156.886868329862438, 21.097525716619355 ], [ -156.886525320650378, 21.097219556411389 ], [ -156.884818119700014, 21.096688819533625 ], [ -156.884098801374023, 21.095940478896715 ], [ -156.883131103871364, 21.096405699216916 ], [ -156.882538839868715, 21.096658913151 ], [ -156.881968831916964, 21.09693304001388 ], [ -156.881376564151736, 21.097186249527326 ], [ -156.880805551085018, 21.097749411272961 ], [ -156.880519034177354, 21.097377139903571 ], [ -156.881150458055401, 21.095755494966475 ], [ -156.88110729312254, 21.094207833913462 ], [ -156.881175889698739, 21.092989514097049 ], [ -156.881157028219377, 21.092311957784588 ], [ -156.881192456219196, 21.091682703892531 ], [ -156.882604354705933, 21.090487378857439 ], [ -156.88114312741547, 21.08957564642008 ], [ -156.880637224115674, 21.089049163738423 ], [ -156.880341014740196, 21.088784852110368 ], [ -156.880023755120618, 21.087798904040387 ], [ -156.878912978419379, 21.088496069786348 ], [ -156.878263445503478, 21.088773821649145 ], [ -156.877121469400066, 21.091228704374753 ], [ -156.877142775853571, 21.091990823123552 ], [ -156.877097604780914, 21.092788621316863 ], [ -156.877400679945254, 21.093343531125374 ], [ -156.877663700572697, 21.094356320360987 ], [ -156.876283460307349, 21.093439209558838 ], [ -156.875965186570539, 21.092783700421492 ], [ -156.874848460928376, 21.091378824071704 ], [ -156.87274314781294, 21.09269991922292 ], [ -156.872782353597728, 21.094103861246882 ], [ -156.872147170155358, 21.094361394479339 ], [ -156.871562387846325, 21.093752935557326 ], [ -156.869638919110912, 21.094200123680473 ], [ -156.870454771753032, 21.092799250956276 ], [ -156.870834351231423, 21.091723617138751 ], [ -156.86987744677063, 21.090008385277759 ], [ -156.868331873979855, 21.092978285154533 ], [ -156.866952694968035, 21.094025200493316 ], [ -156.867028904483504, 21.09267668652441 ], [ -156.867009673888731, 21.091990000713064 ], [ -156.866089056910027, 21.088606125912875 ], [ -156.865231657359061, 21.089816223448718 ], [ -156.86470421039229, 21.088730243814471 ], [ -156.863870781576082, 21.089130767520469 ], [ -156.863317719303097, 21.088555358398818 ], [ -156.863030626340759, 21.088838541679273 ], [ -156.862438366259852, 21.089091685219099 ], [ -156.861858708475381, 21.089370252428939 ], [ -156.861591510229857, 21.088539157526096 ], [ -156.861474885050256, 21.088277079635155 ], [ -156.860635866912844, 21.089461190139868 ], [ -156.859830433603122, 21.089048078784888 ], [ -156.859260237285383, 21.089610381254758 ], [ -156.858701077809542, 21.088773216008835 ], [ -156.858262547926927, 21.088783949886846 ], [ -156.857268103977646, 21.0887343478208 ], [ -156.856964986217321, 21.08903332428909 ], [ -156.856666370895681, 21.089018438398437 ], [ -156.856384412997215, 21.089296515092261 ], [ -156.856047092922523, 21.089581960885063 ], [ -156.856105882722574, 21.091692559145915 ], [ -156.855756855387142, 21.091987909697657 ], [ -156.855826661091584, 21.094489291724319 ], [ -156.85516002877344, 21.094147363464131 ], [ -156.854575222922335, 21.09387935854847 ], [ -156.853612349976459, 21.093239468838647 ], [ -156.852101314452881, 21.091666884809822 ], [ -156.851581273908579, 21.091679610850832 ], [ -156.850856700472434, 21.091643442645463 ], [ -156.850554872712479, 21.093026780900917 ], [ -156.849401519149382, 21.092969163381213 ], [ -156.849105173594069, 21.093618373762069 ], [ -156.84994896796465, 21.095165061533528 ], [ -156.850623073182021, 21.096554025230919 ], [ -156.849885234372209, 21.096517286140269 ], [ -156.849333598063851, 21.095943042345425 ], [ -156.848127032874686, 21.095389853794945 ], [ -156.846597431595171, 21.09379780636225 ], [ -156.846077337488822, 21.096178714319883 ], [ -156.846161010185114, 21.099192478472361 ], [ -156.845367099720136, 21.099152757527516 ], [ -156.844714390522569, 21.097807834902298 ], [ -156.844201596921863, 21.096868164197943 ], [ -156.843167291669459, 21.096393857727648 ], [ -156.84210462554114, 21.095287912608246 ], [ -156.842140073597818, 21.096561093455925 ], [ -156.842104127863593, 21.09719508256293 ], [ -156.840041668429507, 21.097537500947425 ], [ -156.839464303500364, 21.098646376893168 ], [ -156.838040446415135, 21.09770010357461 ], [ -156.838079783880119, 21.099111042133625 ], [ -156.837188721461047, 21.098518939388377 ], [ -156.836846228020079, 21.099488328610622 ], [ -156.836272115494324, 21.100409518549522 ], [ -156.835742948238703, 21.099319075039908 ], [ -156.834682515914807, 21.097984127381665 ], [ -156.833670363381771, 21.097519968951474 ], [ -156.832554761261889, 21.100103938655558 ], [ -156.831379592101712, 21.099798805874816 ], [ -156.830819554281277, 21.100350548153017 ], [ -156.830525995431202, 21.100335811673641 ], [ -156.830237193324137, 21.10034296273167 ], [ -156.82966528793645, 21.100314343453295 ], [ -156.829372963027453, 21.100602555133339 ], [ -156.828780608674009, 21.100855571777746 ], [ -156.828491267526545, 21.101674946903373 ], [ -156.828081534073533, 21.102378219254941 ], [ -156.825711669247795, 21.102875787549046 ], [ -156.824993846375349, 21.103940867787529 ], [ -156.825854706865755, 21.103527276318932 ], [ -156.827013628659046, 21.103032177402923 ], [ -156.832344081087257, 21.102807947005552 ], [ -156.835360373708568, 21.103440458974621 ], [ -156.836838433486861, 21.104423033843297 ], [ -156.842287792582596, 21.105904654321204 ], [ -156.84387693900706, 21.106541069974657 ], [ -156.846311574810102, 21.104662996332657 ], [ -156.847953161630215, 21.104361464942073 ], [ -156.848349905449197, 21.105179272830192 ], [ -156.849512056281895, 21.105454628012222 ], [ -156.849804891675319, 21.107007820935941 ], [ -156.849742564469722, 21.108104747415485 ], [ -156.848656450930235, 21.110493689352111 ], [ -156.850299987391736, 21.110883099266609 ], [ -156.850980672013719, 21.111232240163385 ], [ -156.852329169824969, 21.110807895332549 ], [ -156.852316902100142, 21.1103673561059 ], [ -156.853057042014086, 21.109386830527118 ], [ -156.851767006032844, 21.108473707370109 ], [ -156.851212093378734, 21.10769292501254 ], [ -156.852744410702741, 21.105973696915704 ], [ -156.85450413232121, 21.105221573043913 ], [ -156.858237165713064, 21.105726370779216 ], [ -156.859142599010113, 21.106190763173021 ], [ -156.860557174167582, 21.107662467743516 ], [ -156.861662647218282, 21.108649925438456 ], [ -156.863474543636102, 21.108605444329513 ], [ -156.863884808317835, 21.109450644197171 ], [ -156.86486748041122, 21.109426517035619 ], [ -156.864441304404153, 21.110520062229973 ], [ -156.864195126831845, 21.111329736101883 ], [ -156.866073460098562, 21.110151565162312 ], [ -156.866461852918889, 21.110555833240749 ], [ -156.867470438575111, 21.110869484587802 ], [ -156.867012578622735, 21.111655730203651 ], [ -156.867027525898806, 21.112187980790793 ], [ -156.866426848009695, 21.112983935352872 ], [ -156.866441756925241, 21.113518698766846 ], [ -156.865982251451442, 21.114202131962621 ], [ -156.865693573422988, 21.11419849567574 ], [ -156.865689697878196, 21.114469372484034 ], [ -156.864369938613521, 21.11479642562627 ], [ -156.864266452981411, 21.116194990606093 ], [ -156.865689697878196, 21.114469372484034 ], [ -156.865978376429865, 21.114473008821921 ], [ -156.865982251451442, 21.114202131962621 ], [ -156.868051518612987, 21.114087957417325 ], [ -156.868779122825458, 21.112380805413068 ], [ -156.87011368025199, 21.111291656802425 ], [ -156.87126717542472, 21.112536300789909 ], [ -156.871932731409998, 21.112507488150907 ], [ -156.87244451110999, 21.113059604562174 ], [ -156.873804731452935, 21.113472486072776 ], [ -156.874341233072215, 21.114051497646763 ], [ -156.876241635392489, 21.114628295764618 ], [ -156.876144299860869, 21.115879980592169 ], [ -156.877621311554407, 21.115815942243145 ], [ -156.879775202811857, 21.115006846278622 ], [ -156.880277634115885, 21.114493238047118 ], [ -156.880872284046148, 21.114534013569276 ], [ -156.880830506022647, 21.115073229591651 ], [ -156.882037304026881, 21.115352633446872 ], [ -156.882846011241384, 21.116225000899778 ], [ -156.885089632080565, 21.119208428784169 ], [ -156.88617562281479, 21.119161263186204 ], [ -156.889470887140646, 21.118098065854156 ], [ -156.89069065266267, 21.118181519373955 ], [ -156.892487756302756, 21.119392838688739 ], [ -156.892879532406113, 21.120642292659142 ], [ -156.893283863391105, 21.121362743928664 ], [ -156.894320452901525, 21.121999643642198 ], [ -156.894874663711676, 21.12249071271513 ], [ -156.893902421049944, 21.124604519678471 ], [ -156.893988191459044, 21.12633798415408 ], [ -156.893893437092771, 21.127555986100901 ], [ -156.89397040874718, 21.129113726420854 ], [ -156.895811384852578, 21.133060851702638 ], [ -156.895237053387717, 21.135429235665686 ], [ -156.894643782643527, 21.136422099213117 ], [ -156.893513618723574, 21.136891822114325 ], [ -156.893913872070442, 21.139180381591043 ], [ -156.895211315064387, 21.140704817952699 ], [ -156.895458036102468, 21.142524484344317 ], [ -156.894541470051053, 21.143721547750523 ], [ -156.892257788381329, 21.144190131939126 ], [ -156.890832266665882, 21.145198339775146 ], [ -156.891860170698095, 21.146618439864451 ], [ -156.892194988443521, 21.148826613998001 ], [ -156.8933960269012, 21.147420785098856 ], [ -156.895132530996392, 21.146699126943211 ], [ -156.897730120123271, 21.147810503256444 ], [ -156.89828719043652, 21.14778633530284 ], [ -156.899187001887867, 21.148756542423346 ], [ -156.901445181458541, 21.149181036637444 ], [ -156.90233427344296, 21.149492822131673 ], [ -156.902884295539621, 21.149468948900953 ], [ -156.903601896463471, 21.150242807457083 ], [ -156.905798563551031, 21.152958010145586 ], [ -156.906586446926156, 21.153309069380413 ], [ -156.906545460217473, 21.153836994482226 ], [ -156.907223710245205, 21.155045388813505 ], [ -156.908861453705015, 21.155775179633345 ], [ -156.909159576664138, 21.156096559401835 ], [ -156.910296079510118, 21.156047103753206 ], [ -156.91062761400579, 21.157102972152323 ], [ -156.912242534436047, 21.157592740906043 ], [ -156.912564665521927, 21.158274505858653 ], [ -156.91377056316847, 21.159312186545183 ], [ -156.913621519004977, 21.15630246227953 ], [ -156.914093864621151, 21.155584063649744 ], [ -156.914637605745071, 21.156735013716172 ], [ -156.91457358710548, 21.157559915156845 ], [ -156.915221512730284, 21.158562990907839 ], [ -156.915754896716294, 21.158017714563147 ], [ -156.91632217307216, 21.158879168104182 ], [ -156.916973834708728, 21.15885074873497 ], [ -156.916893755990316, 21.15723674375829 ], [ -156.916086820755993, 21.154253971443168 ], [ -156.915833585889743, 21.152880983147075 ], [ -156.915257640003745, 21.15131087427573 ], [ -156.915311334604041, 21.15061833338309 ], [ -156.913881829841216, 21.148071121503193 ], [ -156.913606993867234, 21.146893059513484 ], [ -156.912759938258517, 21.143761881343906 ], [ -156.912790918126547, 21.143362415393309 ], [ -156.91218833171672, 21.142288853889024 ], [ -156.912657054302883, 21.141906362666528 ], [ -156.912211325205362, 21.139360292064374 ], [ -156.912565665488046, 21.138767502712689 ], [ -156.912863237627221, 21.136972483235926 ], [ -156.912156450375306, 21.13365597419515 ], [ -156.91241178124082, 21.130366012087148 ], [ -156.911742768105512, 21.129790103585147 ], [ -156.913761129038022, 21.128352707202453 ], [ -156.916420073335246, 21.128534271594262 ], [ -156.918666997209385, 21.130212631282351 ], [ -156.920663425974425, 21.132364996293084 ], [ -156.921564338981739, 21.134272385992375 ], [ -156.921865854566136, 21.134531806170706 ], [ -156.922459878451434, 21.135433980663269 ], [ -156.923263558886418, 21.136125604377806 ], [ -156.923551459471156, 21.136735162214663 ], [ -156.92409347744146, 21.137201588120117 ], [ -156.924687524692189, 21.138103756515846 ], [ -156.926410112106225, 21.140006182643901 ], [ -156.926670975463253, 21.140837390091573 ], [ -156.927253716354812, 21.141642112394319 ], [ -156.92921692564579, 21.144661620309979 ], [ -156.930373840633393, 21.14610042051347 ], [ -156.931756072584278, 21.148395778352494 ], [ -156.932040472224344, 21.149302012364146 ], [ -156.932492817997172, 21.149691119808619 ], [ -156.933298397459311, 21.150559468313414 ], [ -156.934052039193944, 21.151207905841886 ], [ -156.935304081379911, 21.152871611265141 ], [ -156.936605851413219, 21.154490274934293 ], [ -156.93761090823665, 21.155825515718877 ], [ -156.938673087052535, 21.156682947799556 ], [ -156.939458442303675, 21.155879714280292 ], [ -156.940183326590358, 21.155287804302166 ], [ -156.939765749483229, 21.154544000593269 ], [ -156.939508990073932, 21.153409644423572 ], [ -156.940682329552288, 21.153489547827299 ], [ -156.940638670516364, 21.152608546304631 ], [ -156.941539240666771, 21.152669909286811 ], [ -156.942155489576692, 21.152365394945662 ], [ -156.942102127535549, 21.151287887308328 ], [ -156.942962960649567, 21.151346509893564 ], [ -156.941698579520363, 21.149773987451166 ], [ -156.941172900872118, 21.149321965661109 ], [ -156.939594744854588, 21.148619004144059 ], [ -156.939424873403823, 21.146953693195485 ], [ -156.940165733866422, 21.148078464927181 ], [ -156.941452601031642, 21.148022224308804 ], [ -156.942230855700132, 21.148075214462221 ], [ -156.942735797315976, 21.148619585417833 ], [ -156.943663121588799, 21.149417467643921 ], [ -156.944176062921514, 21.148892811344972 ], [ -156.944502108845114, 21.148626565170769 ], [ -156.944475184181471, 21.148084368420481 ], [ -156.944897359017261, 21.147739516655314 ], [ -156.944489961149372, 21.147013773129842 ], [ -156.944521878189249, 21.146601673039754 ], [ -156.944494953136058, 21.146059476195422 ], [ -156.944528950447932, 21.145619223025896 ], [ -156.943930533302847, 21.145104347563652 ], [ -156.944519566584404, 21.144623409936504 ], [ -156.942970526824467, 21.143672655121193 ], [ -156.94133405199932, 21.143744170788107 ], [ -156.94219166831715, 21.142623832063968 ], [ -156.940293326310439, 21.142706772595588 ], [ -156.941962295723641, 21.141343892892937 ], [ -156.942267023422346, 21.140741566567186 ], [ -156.943164784175536, 21.140368102800046 ], [ -156.943137439770936, 21.139815714200299 ], [ -156.940841816813162, 21.139384774605809 ], [ -156.940573385335767, 21.139095360713302 ], [ -156.939983086059073, 21.138832456914798 ], [ -156.939139528638577, 21.13826424649729 ], [ -156.938554833025137, 21.138289803253834 ], [ -156.937868765069879, 21.138243082203729 ], [ -156.938131432478798, 21.137583101270888 ], [ -156.93855424043511, 21.137741511112932 ], [ -156.939720655495535, 21.137619781124297 ], [ -156.941677728884713, 21.138731362956893 ], [ -156.942307242591482, 21.138013326537287 ], [ -156.943257524768114, 21.138553185161598 ], [ -156.94399679111109, 21.138648619026775 ], [ -156.944935515442893, 21.138146127699951 ], [ -156.946420139858645, 21.138754434682525 ], [ -156.947669931054804, 21.140257885273101 ], [ -156.94833574673936, 21.139871790743026 ], [ -156.948096106143169, 21.138637438860354 ], [ -156.94765221486503, 21.137510744294797 ], [ -156.947862340382557, 21.136075732336796 ], [ -156.947798181786425, 21.135533083382171 ], [ -156.947932958994357, 21.134613363934601 ], [ -156.946693742758214, 21.134453478507353 ], [ -156.945523964928526, 21.134575614859951 ], [ -156.94519412335498, 21.134178835049717 ], [ -156.943793154911532, 21.13466473604694 ], [ -156.942534962188518, 21.133694166222131 ], [ -156.943839349096208, 21.133197114271585 ], [ -156.944107559269156, 21.132357535213945 ], [ -156.944811766183676, 21.132089262171256 ], [ -156.945571370327372, 21.130911616698103 ], [ -156.945030398648015, 21.129629155405567 ], [ -156.942768159350948, 21.128036334717109 ], [ -156.94127266697879, 21.128529999983403 ], [ -156.94100327299094, 21.129373131741882 ], [ -156.940501077795375, 21.129308286784703 ], [ -156.939593443039172, 21.129972267151238 ], [ -156.939253398001483, 21.130702946858211 ], [ -156.938640476819216, 21.130936390530575 ], [ -156.938085328192102, 21.131233638772038 ], [ -156.937498396116382, 21.131157896886627 ], [ -156.936920015141283, 21.131218253542453 ], [ -156.936487628499748, 21.131162449032377 ], [ -156.935780749986492, 21.131236184727538 ], [ -156.936041963923202, 21.130904736110736 ], [ -156.936943611244345, 21.13067482021556 ], [ -156.937493078405311, 21.130380549238222 ], [ -156.938713098812741, 21.130069304918113 ], [ -156.938626486123979, 21.129337930932216 ], [ -156.939321886199593, 21.128829065678467 ], [ -156.939221130651248, 21.12797819194256 ], [ -156.940013207665913, 21.127676280467497 ], [ -156.940638325759238, 21.125721721773726 ], [ -156.941028842668771, 21.125275815544182 ], [ -156.941612259161786, 21.124848987782087 ], [ -156.940954346219996, 21.123850053399167 ], [ -156.939249150765875, 21.124441365424737 ], [ -156.939014079197449, 21.124188604715382 ], [ -156.93918866303855, 21.123778307510396 ], [ -156.939541809883451, 21.123689867059117 ], [ -156.939292189756941, 21.123449232972682 ], [ -156.93918866303855, 21.123778307510396 ], [ -156.938727565611202, 21.123883359059398 ], [ -156.938026330586524, 21.124306030249958 ], [ -156.937715452858896, 21.123478990067394 ], [ -156.938630031718816, 21.122758943561241 ], [ -156.939210769704971, 21.121811454298879 ], [ -156.938062217583877, 21.121710825111236 ], [ -156.937628706874506, 21.121738223559522 ], [ -156.937280030048726, 21.121707651624959 ], [ -156.936117693371017, 21.122297605457 ], [ -156.932853651295687, 21.122503666577298 ], [ -156.931994633452916, 21.122428357590589 ], [ -156.929178252877335, 21.122968821968186 ], [ -156.928926800659411, 21.122699047221062 ], [ -156.929833112094116, 21.122455068158217 ], [ -156.930953157436164, 21.121886603232397 ], [ -156.932458942298013, 21.121278058222927 ], [ -156.933867211127591, 21.120563269537435 ], [ -156.934660878583202, 21.120632876738139 ], [ -156.935617362841668, 21.120246336616098 ], [ -156.935119056902977, 21.119903050220721 ], [ -156.93217596315128, 21.120088870577909 ], [ -156.933020010179604, 21.11959540369028 ], [ -156.934476289215695, 21.119240433722787 ], [ -156.936774892741397, 21.118779757654103 ], [ -156.934587925749412, 21.118285454639739 ], [ -156.934124760120085, 21.117767307161774 ], [ -156.932597094654028, 21.116722878141562 ], [ -156.931718189699495, 21.117169087161912 ], [ -156.930893509700525, 21.116246863741377 ], [ -156.930343938989466, 21.116084311020032 ], [ -156.930757048854474, 21.115676606111421 ], [ -156.932219775750355, 21.115748969182285 ], [ -156.931954364928231, 21.114879613442611 ], [ -156.930966401607265, 21.114427283557291 ], [ -156.931681420726079, 21.113821649253918 ], [ -156.931669061112814, 21.113391152239391 ], [ -156.931706857985688, 21.112719040636673 ], [ -156.931370958063752, 21.112419399635368 ], [ -156.932860884392881, 21.111157258944523 ], [ -156.932353487591769, 21.110536571378081 ], [ -156.931292368680658, 21.110563043665877 ], [ -156.93172574813579, 21.109729072513048 ], [ -156.932317299429343, 21.108712217603852 ], [ -156.931748945990194, 21.108645353802142 ], [ -156.931168750918033, 21.108659835510704 ], [ -156.930591691120839, 21.108631226288537 ], [ -156.930014033581671, 21.108645735018737 ], [ -156.929611330368942, 21.107817033233804 ], [ -156.92940330301829, 21.108442746492504 ], [ -156.929445684449405, 21.109940148312624 ], [ -156.92773287553058, 21.11076402751452 ], [ -156.927672519641902, 21.110501219207929 ], [ -156.92772865233303, 21.109504821731523 ], [ -156.926838938866183, 21.108580067478634 ], [ -156.926050764202984, 21.109357824398082 ], [ -156.924811467635152, 21.109748391585896 ], [ -156.924800882579973, 21.109374141012932 ], [ -156.925673248817844, 21.10787484322486 ], [ -156.924672743712136, 21.107416771085639 ], [ -156.925619820013765, 21.10616061365554 ], [ -156.924577018513929, 21.106109085705583 ], [ -156.922242178122673, 21.107342143124523 ], [ -156.922529450016356, 21.106636317242284 ], [ -156.923162642559731, 21.105548041311824 ], [ -156.922405614284145, 21.105566941397736 ], [ -156.921930285525718, 21.105543387031815 ], [ -156.918950186178364, 21.106482735736186 ], [ -156.919672920368527, 21.104433815206576 ], [ -156.920749455425067, 21.102831745217479 ], [ -156.919576847426669, 21.103214893126495 ], [ -156.917952038614459, 21.10442300360447 ], [ -156.914894638893742, 21.105870387502264 ] ] ] } }
]
}
