{
"type": "FeatureCollection",
"name": "primart",
"crs": { "type": "name", "properties": { "name": "urn:ogc:def:crs:OGC:1.3:CRS84" } },
"features": [
{ "type": "Feature", "properties": { "ID": 1, "GRIDCODE": 2 }, "geometry": { "type": "Polygon", "coordinates": [ [ [ -157.895833780659785, 21.536267712501349 ], [ -157.895481326979279, 21.536172614542348 ], [ -157.895737135765472, 21.535936640611208 ], [ -157.895833780659785, 21.536267712501349 ] ] ] } },
{ "type": "Feature", "properties": { "ID": 2, "GRIDCODE": 2 }, "geometry": { "type": "Polygon", "coordinates": [ [ [ -157.885468358601628, 21.528068336164797 ], [ -157.886147494738765, 21.52842255708595 ], [ -157.885602764332361, 21.528673988523671 ], [ -157.885468358601628, 21.528068336164797 ] ] ] } },
{ "type": "Feature", "properties": { "ID": 3, "GRIDCODE": 2 }, "geometry": { "type": "Polygon", "coordinates": [ [ [ -157.901441138131247, 21.522482931449812 ], [ -157.901339519099793, 21.522812695577596 ], [ -157.901087317786335, 21.522573366757609 ], [ -157.901441138131247, 21.522482931449812 ] ] ] } },
{ "type": "Feature", "properties": { "ID": 4, "GRIDCODE": 2 }, "geometry": { "type": "Polygon", "coordinates": [ [ [ -158.145063294314781, 21.517675085580823 ], [ -158.145415888773755, 21.517769660838873 ], [ -158.145160500190258, 21.518006034311966 ], [ -158.145063294314781, 21.517675085580823 ] ] ] } },
{ "type": "Feature", "properties": { "ID": 5, "GRIDCODE": 2 }, "geometry": { "type": "Polygon", "coordinates": [ [ [ -158.145063294314781, 21.517675085580823 ], [ -158.14471070033801, 21.517580509591973 ], [ -158.144966088853295, 21.517344136794687 ], [ -158.145063294314781, 21.517675085580823 ] ] ] } },
{ "type": "Feature", "properties": { "ID": 6, "GRIDCODE": 2 }, "geometry": { "type": "Polygon", "coordinates": [ [ [ -158.143338178596025, 21.515497996715869 ], [ -158.144144564389734, 21.515696075862195 ], [ -158.14402141665721, 21.516197274594937 ], [ -158.144608638858244, 21.516581156763671 ], [ -158.144256958805954, 21.517224772410003 ], [ -158.143509656357452, 21.516137942373678 ], [ -158.143338178596025, 21.515497996715869 ] ] ] } },
{ "type": "Feature", "properties": { "ID": 7, "GRIDCODE": 2 }, "geometry": { "type": "Polygon", "coordinates": [ [ [ -158.131752885682289, 21.515438143925824 ], [ -158.13210546511317, 21.515532746858234 ], [ -158.131850059826348, 21.515769099438945 ], [ -158.131752885682289, 21.515438143925824 ] ] ] } },
{ "type": "Feature", "properties": { "ID": 8, "GRIDCODE": 2 }, "geometry": { "type": "Polygon", "coordinates": [ [ [ -158.143338178596025, 21.515497996715869 ], [ -158.142985591072602, 21.515403417269756 ], [ -158.143240978340259, 21.515167047017432 ], [ -158.143338178596025, 21.515497996715869 ] ] ] } },
{ "type": "Feature", "properties": { "ID": 9, "GRIDCODE": 2 }, "geometry": { "type": "Polygon", "coordinates": [ [ [ -158.154356786500443, 21.513385926297666 ], [ -158.155078627207672, 21.513555733202733 ], [ -158.155386307032188, 21.513492840713443 ], [ -158.155919836170511, 21.513969843773719 ], [ -158.154476854971875, 21.514730971019201 ], [ -158.154356786500443, 21.513385926297666 ] ] ] } },
{ "type": "Feature", "properties": { "ID": 10, "GRIDCODE": 2 }, "geometry": { "type": "Polygon", "coordinates": [ [ [ -158.147405686298384, 21.513350573145726 ], [ -158.14785014631812, 21.513478299982605 ], [ -158.14827158632869, 21.514814298399944 ], [ -158.149283413302584, 21.514292747052135 ], [ -158.150734124065394, 21.515150347380402 ], [ -158.151011858254122, 21.514034881950653 ], [ -158.151572772784192, 21.514079883535651 ], [ -158.152188824370739, 21.513762420942168 ], [ -158.152457889683291, 21.51433496399984 ], [ -158.152814999887994, 21.514626004355019 ], [ -158.15334273273595, 21.514589045913571 ], [ -158.153903556316493, 21.514772466332097 ], [ -158.15286314943242, 21.515200535553074 ], [ -158.148966845794462, 21.515735815676102 ], [ -158.146591479655541, 21.517618390060459 ], [ -158.145796578161736, 21.517945370716671 ], [ -158.146384474478481, 21.516472266587559 ], [ -158.146663805793821, 21.514556363766069 ], [ -158.147266027961848, 21.514308525655789 ], [ -158.147405686298384, 21.513350573145726 ] ] ] } },
{ "type": "Feature", "properties": { "ID": 11, "GRIDCODE": 2 }, "geometry": { "type": "Polygon", "coordinates": [ [ [ -158.134085994882469, 21.5127399604836 ], [ -158.135532703375134, 21.512916719110489 ], [ -158.136244532542634, 21.512837625274244 ], [ -158.136529352128434, 21.513174180970278 ], [ -158.137906044099594, 21.514217576349587 ], [ -158.135135359709182, 21.514891143832521 ], [ -158.133357263673275, 21.515598471771849 ], [ -158.133071398262473, 21.5155818346845 ], [ -158.133951453562048, 21.513702888729206 ], [ -158.134085994882469, 21.5127399604836 ] ] ] } },
{ "type": "Feature", "properties": { "ID": 12, "GRIDCODE": 2 }, "geometry": { "type": "Polygon", "coordinates": [ [ [ -158.131752885682289, 21.515438143925824 ], [ -158.130983762175902, 21.515041823453736 ], [ -158.129908478934482, 21.513477535814225 ], [ -158.130153295846156, 21.512548601688916 ], [ -158.130466289030977, 21.512616004508519 ], [ -158.130890508678533, 21.512529347799845 ], [ -158.131482611068378, 21.512916476465303 ], [ -158.131295507683888, 21.513678039682745 ], [ -158.131638829446757, 21.514735162153549 ], [ -158.131752885682289, 21.515438143925824 ] ] ] } },
{ "type": "Feature", "properties": { "ID": 13, "GRIDCODE": 2 }, "geometry": { "type": "Polygon", "coordinates": [ [ [ -158.142198731438839, 21.512239778593518 ], [ -158.142404702500244, 21.512374433106476 ], [ -158.142783395122649, 21.513997135801024 ], [ -158.142329673065262, 21.514604955157207 ], [ -158.141955082131233, 21.514091208666905 ], [ -158.14047241319355, 21.513652817964466 ], [ -158.138304051199384, 21.514139367498721 ], [ -158.138843661641346, 21.513118509080414 ], [ -158.139584157545556, 21.513575191336646 ], [ -158.140284142112961, 21.513153724142366 ], [ -158.141778225323833, 21.51280316902011 ], [ -158.142198731438839, 21.512239778593518 ] ] ] } },
{ "type": "Feature", "properties": { "ID": 14, "GRIDCODE": 2 }, "geometry": { "type": "Polygon", "coordinates": [ [ [ -158.156392012975772, 21.512041065845519 ], [ -158.156849700801388, 21.512156528102025 ], [ -158.157668963546627, 21.512476425578196 ], [ -158.159691773839711, 21.512743159047698 ], [ -158.159750104919311, 21.513027254921528 ], [ -158.157646608404463, 21.513410894757705 ], [ -158.156425565307785, 21.513873211462791 ], [ -158.156623444172681, 21.512961862506856 ], [ -158.156392012975772, 21.512041065845519 ] ] ] } },
{ "type": "Feature", "properties": { "ID": 15, "GRIDCODE": 2 }, "geometry": { "type": "Polygon", "coordinates": [ [ [ -158.130914602654059, 21.510284211375211 ], [ -158.131180028740857, 21.510478212013052 ], [ -158.131759962314476, 21.511389139906665 ], [ -158.130436083458306, 21.5122969766708 ], [ -158.130457240680471, 21.511355297181151 ], [ -158.130914602654059, 21.510284211375211 ] ] ] } },
{ "type": "Feature", "properties": { "ID": 16, "GRIDCODE": 2 }, "geometry": { "type": "Polygon", "coordinates": [ [ [ -157.881868975767048, 21.506363065909721 ], [ -157.88224423660273, 21.506516303945475 ], [ -157.881980217269444, 21.506979682171998 ], [ -157.881868975767048, 21.506363065909721 ] ] ] } },
{ "type": "Feature", "properties": { "ID": 17, "GRIDCODE": 2 }, "geometry": { "type": "Polygon", "coordinates": [ [ [ -157.880441763154408, 21.503643351941477 ], [ -157.881409591042797, 21.503767612411352 ], [ -157.880635357670485, 21.503993277335876 ], [ -157.880441763154408, 21.503643351941477 ] ] ] } },
{ "type": "Feature", "properties": { "ID": 18, "GRIDCODE": 2 }, "geometry": { "type": "Polygon", "coordinates": [ [ [ -158.132105259730764, 21.504869799300199 ], [ -158.132838571934172, 21.504714801707667 ], [ -158.133388936304982, 21.505029449352833 ], [ -158.13487292947687, 21.505273236387414 ], [ -158.135413400672263, 21.505516230812844 ], [ -158.134253164186589, 21.505812085533613 ], [ -158.133344024481346, 21.506141195216284 ], [ -158.133419423842298, 21.506638321104486 ], [ -158.133372324474919, 21.506925914095511 ], [ -158.135466233848831, 21.507176433652578 ], [ -158.134590184169014, 21.508269516060938 ], [ -158.136053217910842, 21.509098652948737 ], [ -158.135906513165935, 21.509992902907332 ], [ -158.135050653497501, 21.509869962005524 ], [ -158.134536241917004, 21.511027578778638 ], [ -158.134136376769533, 21.510537108554352 ], [ -158.133648040873737, 21.510180370146969 ], [ -158.133385772855036, 21.509858682613974 ], [ -158.132592749177434, 21.510300811851572 ], [ -158.13223529249683, 21.509862434446525 ], [ -158.131785643660919, 21.509922230152952 ], [ -158.13108479457415, 21.509821580036125 ], [ -158.132539751577752, 21.508006374122271 ], [ -158.132799930837194, 21.506676262668119 ], [ -158.132228883114777, 21.505294455972333 ], [ -158.132105259730764, 21.504869799300199 ] ] ] } },
{ "type": "Feature", "properties": { "ID": 19, "GRIDCODE": 2 }, "geometry": { "type": "Polygon", "coordinates": [ [ [ -158.132105259730764, 21.504869799300199 ], [ -158.131752705749534, 21.50477519711356 ], [ -158.132008091299269, 21.504538843733286 ], [ -158.132105259730764, 21.504869799300199 ] ] ] } },
{ "type": "Feature", "properties": { "ID": 20, "GRIDCODE": 2 }, "geometry": { "type": "Polygon", "coordinates": [ [ [ -158.131532475170303, 21.503782700335151 ], [ -158.132174524780027, 21.503873646231618 ], [ -158.131620207050332, 21.504368955261796 ], [ -158.131532475170303, 21.503782700335151 ] ] ] } },
{ "type": "Feature", "properties": { "ID": 21, "GRIDCODE": 2 }, "geometry": { "type": "Polygon", "coordinates": [ [ [ -158.131246085995173, 21.503239150171026 ], [ -158.131598635942765, 21.503333753308677 ], [ -158.131343251934737, 21.503570106145034 ], [ -158.131246085995173, 21.503239150171026 ] ] ] } },
{ "type": "Feature", "properties": { "ID": 22, "GRIDCODE": 2 }, "geometry": { "type": "Polygon", "coordinates": [ [ [ -158.153549083861151, 21.502811610141649 ], [ -158.154471539872446, 21.502981310126049 ], [ -158.153828521342518, 21.504668956730935 ], [ -158.154382417915684, 21.506337520679274 ], [ -158.158804437184699, 21.509407239304299 ], [ -158.160587942733542, 21.511739702240558 ], [ -158.160148354514604, 21.51246138942232 ], [ -158.158852196142362, 21.511381060778529 ], [ -158.157725240884787, 21.509728545579716 ], [ -158.157126940465929, 21.509204108480521 ], [ -158.156849549911271, 21.508920957036985 ], [ -158.156270184249223, 21.508939535773113 ], [ -158.155982673890037, 21.508645943148998 ], [ -158.155393908876817, 21.508382257226472 ], [ -158.154853901708549, 21.507830845161987 ], [ -158.151935212729029, 21.507380584657465 ], [ -158.152255921386569, 21.506946551400002 ], [ -158.153089338499115, 21.506231845616302 ], [ -158.152814124314261, 21.505648552682622 ], [ -158.152066554258084, 21.505313711286629 ], [ -158.15164624803208, 21.504560549867843 ], [ -158.152242691388381, 21.504300818384419 ], [ -158.152560518632953, 21.503679310540061 ], [ -158.153408980439224, 21.502951577042882 ], [ -158.153549083861151, 21.502811610141649 ] ] ] } },
{ "type": "Feature", "properties": { "ID": 23, "GRIDCODE": 2 }, "geometry": { "type": "Polygon", "coordinates": [ [ [ -158.135315014189729, 21.500820990265524 ], [ -158.135188366713521, 21.501528812347267 ], [ -158.134322057889307, 21.501363929568264 ], [ -158.134556553616477, 21.502601126192836 ], [ -158.135398584047351, 21.503644878876823 ], [ -158.133972526451174, 21.503411190432221 ], [ -158.133178203881357, 21.502933428104111 ], [ -158.132050477537319, 21.502519702379843 ], [ -158.131940391666205, 21.501982760002864 ], [ -158.13309451868389, 21.501305487456452 ], [ -158.135145645768176, 21.500933263387672 ], [ -158.135315014189729, 21.500820990265524 ] ] ] } },
{ "type": "Feature", "properties": { "ID": 24, "GRIDCODE": 2 }, "geometry": { "type": "Polygon", "coordinates": [ [ [ -158.135315014189729, 21.500820990265524 ], [ -158.136211908815142, 21.499709349647809 ], [ -158.136395423357129, 21.498589716071919 ], [ -158.136079397282487, 21.497148561796084 ], [ -158.135055854756388, 21.495670064941592 ], [ -158.135506934569293, 21.495551904833299 ], [ -158.136493299793955, 21.495016069127743 ], [ -158.137352398833514, 21.494023396595466 ], [ -158.13785785108729, 21.49516379312724 ], [ -158.138670994522784, 21.494722069899005 ], [ -158.139423303730894, 21.494813555431374 ], [ -158.137877219099522, 21.497060580202724 ], [ -158.139264470289987, 21.4974395410513 ], [ -158.139210422107936, 21.497829200395227 ], [ -158.138588476998365, 21.4982901083659 ], [ -158.139278872086891, 21.498813363611522 ], [ -158.138283471103875, 21.499199889773902 ], [ -158.138749276239992, 21.500353114505739 ], [ -158.138198034563686, 21.500956385110154 ], [ -158.137215900540895, 21.5004092533411 ], [ -158.136570100996465, 21.500164926593786 ], [ -158.136737797091627, 21.501485943221937 ], [ -158.135764686167505, 21.50094381235844 ], [ -158.135315014189729, 21.500820990265524 ] ] ] } },
{ "type": "Feature", "properties": { "ID": 25, "GRIDCODE": 2 }, "geometry": { "type": "Polygon", "coordinates": [ [ [ -158.135055854756388, 21.495670064941592 ], [ -158.13176022215734, 21.494049349719877 ], [ -158.131704935626487, 21.493357722427223 ], [ -158.132041089067826, 21.493089695580817 ], [ -158.132593494046375, 21.49140636388772 ], [ -158.133174837259702, 21.492044940117172 ], [ -158.133772674633576, 21.49140275423985 ], [ -158.134130636990534, 21.492537897099218 ], [ -158.134639388455355, 21.4919913247453 ], [ -158.135212543860774, 21.492294503946148 ], [ -158.13607900090858, 21.492233809160169 ], [ -158.13572346526459, 21.492672660398387 ], [ -158.135203475895366, 21.493087235612546 ], [ -158.135226656800114, 21.493375987599755 ], [ -158.134910683803326, 21.493627781586795 ], [ -158.134954796856505, 21.494178872239122 ], [ -158.134886480308609, 21.494923323899052 ], [ -158.135055854756388, 21.495670064941592 ] ] ] } },
{ "type": "Feature", "properties": { "ID": 26, "GRIDCODE": 2 }, "geometry": { "type": "Polygon", "coordinates": [ [ [ -158.128142768383043, 21.489400428245279 ], [ -158.129463509691476, 21.489533499458972 ], [ -158.129132362079474, 21.490362996421112 ], [ -158.130655363991735, 21.490631172122768 ], [ -158.130580530417177, 21.491445859964816 ], [ -158.130622779256981, 21.491974708733302 ], [ -158.129586002125052, 21.492047258748038 ], [ -158.128274331173913, 21.489817718342032 ], [ -158.128142768383043, 21.489400428245279 ] ] ] } },
{ "type": "Feature", "properties": { "ID": 27, "GRIDCODE": 2 }, "geometry": { "type": "Polygon", "coordinates": [ [ [ -158.128149225565835, 21.488316339362292 ], [ -158.128524722849704, 21.488469032359614 ], [ -158.128261501937232, 21.488932831681421 ], [ -158.128149225565835, 21.488316339362292 ] ] ] } },
{ "type": "Feature", "properties": { "ID": 28, "GRIDCODE": 2 }, "geometry": { "type": "Polygon", "coordinates": [ [ [ -158.130486776468786, 21.484805117742273 ], [ -158.130718203161734, 21.485669041523721 ], [ -158.131451678084233, 21.487329412225748 ], [ -158.130588227470099, 21.4876266558942 ], [ -158.130342641778952, 21.487955696823043 ], [ -158.130034078728841, 21.487889244522592 ], [ -158.129454202005064, 21.488007712142622 ], [ -158.128875770334162, 21.487883210458577 ], [ -158.128322508235215, 21.487996254614224 ], [ -158.128635744291927, 21.486802468072501 ], [ -158.129798958375005, 21.485244345125672 ], [ -158.130486776468786, 21.484805117742273 ] ] ] } },
{ "type": "Feature", "properties": { "ID": 29, "GRIDCODE": 2 }, "geometry": { "type": "Polygon", "coordinates": [ [ [ -158.130486776468786, 21.484805117742273 ], [ -158.130587854631727, 21.484475192325043 ], [ -158.130840383365154, 21.48471418718454 ], [ -158.130486776468786, 21.484805117742273 ] ] ] } },
{ "type": "Feature", "properties": { "ID": 30, "GRIDCODE": 2 }, "geometry": { "type": "Polygon", "coordinates": [ [ [ -158.131069135749613, 21.484266084641238 ], [ -158.133050630840188, 21.484438093429947 ], [ -158.133869715411663, 21.485565438388697 ], [ -158.135009402694266, 21.487858562638046 ], [ -158.137365502587471, 21.490264960036566 ], [ -158.140153935037574, 21.492433685955731 ], [ -158.144011636775502, 21.495518741700771 ], [ -158.145040489101945, 21.495862137524757 ], [ -158.146540910498658, 21.49613819396836 ], [ -158.151930042497099, 21.497979485865827 ], [ -158.152573284917139, 21.499132252467234 ], [ -158.153359150617206, 21.500712733549527 ], [ -158.154272481282874, 21.501969293617027 ], [ -158.153404224917153, 21.501867426804068 ], [ -158.152549635274539, 21.501310707448908 ], [ -158.151938056435057, 21.501036770373883 ], [ -158.151990636258574, 21.499943448961695 ], [ -158.151379733357032, 21.499407878009844 ], [ -158.151444522240865, 21.498063041043974 ], [ -158.150818278677718, 21.498320567783807 ], [ -158.150537648913485, 21.498600891985681 ], [ -158.150238073744617, 21.498588251781523 ], [ -158.149368150266838, 21.499141966327539 ], [ -158.149089997151009, 21.498582407542834 ], [ -158.148794960448498, 21.498591822409328 ], [ -158.148360654435464, 21.498573529511592 ], [ -158.14792078669808, 21.498587564134496 ], [ -158.147645156572366, 21.498032978692965 ], [ -158.147328905523068, 21.498043076789106 ], [ -158.146772059315055, 21.496923287939516 ], [ -158.145908456942948, 21.496950901055708 ], [ -158.145552195055672, 21.496935845288874 ], [ -158.144350411616131, 21.498136563856857 ], [ -158.143614551743212, 21.496656612671199 ], [ -158.143278078252848, 21.496667393542381 ], [ -158.14273323939031, 21.496111022667161 ], [ -158.142434143466545, 21.495848778900935 ], [ -158.141888104915068, 21.49475053540079 ], [ -158.141421800683474, 21.494765409975951 ], [ -158.141008401465143, 21.493933913786293 ], [ -158.140344270379728, 21.493636373550714 ], [ -158.139322813444295, 21.49259317677873 ], [ -158.138694144849126, 21.492566645450118 ], [ -158.138399403120417, 21.492576043801485 ], [ -158.138122080310353, 21.492292862941724 ], [ -158.137823000509741, 21.49203061133759 ], [ -158.13740765269938, 21.491606437324457 ], [ -158.136698225165389, 21.490984417722903 ], [ -158.135751358830134, 21.489457620341295 ], [ -158.134667875219463, 21.488751607068739 ], [ -158.134078807169061, 21.488487648628386 ], [ -158.13410492050221, 21.487945589644774 ], [ -158.133794462885731, 21.487673280575805 ], [ -158.133275735500973, 21.48610964845486 ], [ -158.132173911537308, 21.484687237960742 ], [ -158.131785875839086, 21.484670797653894 ], [ -158.131205315481452, 21.484954493893174 ], [ -158.131069135749613, 21.484266084641238 ] ] ] } },
{ "type": "Feature", "properties": { "ID": 31, "GRIDCODE": 2 }, "geometry": { "type": "Polygon", "coordinates": [ [ [ -157.857922448800423, 21.383159983347618 ], [ -157.858274370047667, 21.383255144027249 ], [ -157.858019065009245, 21.383491075828079 ], [ -157.857922448800423, 21.383159983347618 ] ] ] } },
{ "type": "Feature", "properties": { "ID": 32, "GRIDCODE": 2 }, "geometry": { "type": "Polygon", "coordinates": [ [ [ -157.839260295680418, 21.36460278469664 ], [ -157.839938715415371, 21.364957162365592 ], [ -157.839394534432586, 21.365208471614718 ], [ -157.839260295680418, 21.36460278469664 ] ] ] } },
{ "type": "Feature", "properties": { "ID": 33, "GRIDCODE": 2 }, "geometry": { "type": "Polygon", "coordinates": [ [ [ -157.840721764947233, 21.362715765899168 ], [ -157.840625199388285, 21.362384665023459 ], [ -157.840369905353839, 21.362620570900276 ], [ -157.840721764947233, 21.362715765899168 ], [ -157.840263965633312, 21.36337267816646 ], [ -157.839999931670775, 21.363964695594831 ], [ -157.839063590207843, 21.363426776442662 ], [ -157.839260295680418, 21.36460278469664 ], [ -157.838530347530224, 21.364728083395136 ], [ -157.838229048181091, 21.365028444024432 ], [ -157.837371826873266, 21.364990683515561 ], [ -157.836801438650781, 21.365268467622684 ], [ -157.836209459863625, 21.365525059196113 ], [ -157.835070092049108, 21.366079832895018 ], [ -157.833886402958456, 21.366593002980135 ], [ -157.833193186339599, 21.366930529058703 ], [ -157.83272816016401, 21.368136877321501 ], [ -157.833879966074988, 21.367406006814761 ], [ -157.835375540673624, 21.36661366302074 ], [ -157.835910021773913, 21.367162115833601 ], [ -157.836787008515813, 21.366881034425479 ], [ -157.837062608441329, 21.367438805520326 ], [ -157.837502075075349, 21.367425572743983 ], [ -157.838080532745948, 21.367451015663406 ], [ -157.839154188576629, 21.367418612083483 ], [ -157.839681322953339, 21.366893390601938 ], [ -157.840543922538188, 21.366931441565388 ], [ -157.840832017904177, 21.3663700923675 ], [ -157.84268719117577, 21.36583397777833 ], [ -157.843590176535457, 21.365873746953692 ], [ -157.845119110543692, 21.365827501835458 ], [ -157.851020033692976, 21.368477198524158 ], [ -157.855627231456708, 21.373687053690126 ], [ -157.85925977502913, 21.37788940101272 ], [ -157.861552975700477, 21.380354788241409 ], [ -157.860982651413934, 21.380329744107058 ], [ -157.860693227355483, 21.380338497961748 ], [ -157.860398602168942, 21.380325579570076 ], [ -157.860113901421528, 21.381147417319557 ], [ -157.859474433575912, 21.381694171279037 ], [ -157.858657499492381, 21.381658245251788 ], [ -157.858369437626806, 21.382219625767785 ], [ -157.857777422838922, 21.382476291555655 ], [ -157.856335602460518, 21.383289842487851 ], [ -157.855743580089182, 21.383546500713905 ], [ -157.855436293585484, 21.383852805608672 ], [ -157.853736763286719, 21.384589806618173 ], [ -157.853429470502618, 21.384896107514116 ], [ -157.853126786759248, 21.385154733429619 ], [ -157.852986666770761, 21.385294444832951 ], [ -157.852462295134814, 21.385389909331156 ], [ -157.852861716691763, 21.386170557827963 ], [ -157.852986666770761, 21.385294444832951 ], [ -157.854003910363588, 21.385628324981713 ], [ -157.853995437759266, 21.385010869646734 ], [ -157.855444356794891, 21.385722587850189 ], [ -157.856025199895868, 21.384905955591449 ], [ -157.856765458302419, 21.384374393346082 ], [ -157.857180450691402, 21.385190405174672 ], [ -157.857617367067661, 21.385184978089185 ], [ -157.858065171691379, 21.385196628734857 ], [ -157.858911882962673, 21.384383251084945 ], [ -157.859507446603033, 21.384398681805013 ], [ -157.859501619589992, 21.383983779043774 ], [ -157.859517728953023, 21.383436560312408 ], [ -157.860376615650353, 21.383858319075177 ], [ -157.860999732340758, 21.383563015683659 ], [ -157.861807699895763, 21.382786809434037 ], [ -157.862415363188717, 21.382515678702639 ], [ -157.862701194688896, 21.382241040929344 ], [ -157.862993321930219, 21.382248645179583 ], [ -157.863999114444908, 21.382236204332081 ], [ -157.874006640425705, 21.390914128136604 ], [ -157.879789653562, 21.396632533051584 ], [ -157.877916642581823, 21.398062705480349 ], [ -157.877360769546016, 21.398596786297023 ], [ -157.876752921844712, 21.398867968018912 ], [ -157.875587799787382, 21.399596128527715 ], [ -157.875601929543109, 21.400594080607398 ], [ -157.873007675748369, 21.402012870768839 ], [ -157.872812753121934, 21.403587049712868 ], [ -157.872439153459482, 21.403768149012922 ], [ -157.872680042171197, 21.404492703721203 ], [ -157.872812753121934, 21.403587049712868 ], [ -157.873242429694585, 21.403206040608655 ], [ -157.873540685888116, 21.402640667639325 ], [ -157.87396533738962, 21.401881944435161 ], [ -157.874992465219691, 21.402386213949026 ], [ -157.876135273016047, 21.401844631068531 ], [ -157.876446372862659, 21.401852671360629 ], [ -157.876874999510108, 21.401440745518208 ], [ -157.877320737123796, 21.401045342360565 ], [ -157.877900098220493, 21.400230740844485 ], [ -157.878775921364706, 21.39997100780981 ], [ -157.879351139292851, 21.39969840971494 ], [ -157.879937576435054, 21.399436735832101 ], [ -157.880804233085257, 21.398895060837852 ], [ -157.881614481311033, 21.398634874698597 ], [ -157.886554848910237, 21.403817113261731 ], [ -157.896516611731442, 21.413710741102786 ], [ -157.896893497431535, 21.414465869566374 ], [ -157.895731897520591, 21.414984177945943 ], [ -157.895435564671658, 21.416353861142465 ], [ -157.894564193756253, 21.416331440461416 ], [ -157.893300917985329, 21.416930312865393 ], [ -157.892140580531219, 21.418045360483351 ], [ -157.892534611501276, 21.418774078509177 ], [ -157.890559408430477, 21.418723295214754 ], [ -157.889611699457475, 21.419020059820806 ], [ -157.889630909740902, 21.420367471584306 ], [ -157.88814344333062, 21.420629153641261 ], [ -157.887586723033593, 21.421174706422846 ], [ -157.889954606491955, 21.421145155505645 ], [ -157.890502553809483, 21.42061859240475 ], [ -157.890487517019977, 21.419559562267537 ], [ -157.890499671863239, 21.419147821700552 ], [ -157.891400677406239, 21.419590022865261 ], [ -157.892105585248885, 21.420286855224205 ], [ -157.893870869750657, 21.419183413165335 ], [ -157.894553634015665, 21.418223076919034 ], [ -157.895690797392177, 21.418252278864244 ], [ -157.896288327472774, 21.417969052710738 ], [ -157.896917493548671, 21.417688282290904 ], [ -157.898020283685128, 21.416628534040665 ], [ -157.899262632620633, 21.416367930881034 ], [ -157.905158879531285, 21.422195369341612 ], [ -157.917556107318831, 21.435523891110876 ], [ -157.929115590158915, 21.44581839212168 ], [ -157.928478273808366, 21.446102801394087 ], [ -157.928065308356167, 21.446499739652815 ], [ -157.927711687634286, 21.446590240562553 ], [ -157.927963809487835, 21.446829527654927 ], [ -157.928065308356167, 21.446499739652815 ], [ -157.929476649370656, 21.446315896146888 ], [ -157.933991075927054, 21.450085203858535 ], [ -157.933963409404726, 21.451032672664496 ], [ -157.934832517443795, 21.451825132475101 ], [ -157.935113906513578, 21.452163780151846 ], [ -157.93336759062899, 21.453441922610256 ], [ -157.933284913663584, 21.453983436050503 ], [ -157.935306758015628, 21.452567435639736 ], [ -157.935751088068315, 21.451724712880281 ], [ -157.945953263214761, 21.460785187809581 ], [ -157.953909326463048, 21.469911762320876 ], [ -157.963129758913311, 21.482118243173222 ], [ -157.970487228918671, 21.494078018854601 ], [ -157.975974377943373, 21.505356885752466 ], [ -157.977781089462809, 21.518579380820007 ], [ -157.978570331123848, 21.533454365018329 ], [ -157.979736099786521, 21.54365150065825 ], [ -157.983584204311029, 21.561805770459539 ], [ -157.986831560391551, 21.572331874283456 ], [ -157.992362937800834, 21.589589552206817 ], [ -157.994281539807616, 21.596685051021943 ], [ -157.994673690097073, 21.604339023559799 ], [ -157.993975170559509, 21.617664298077475 ], [ -157.992239761252904, 21.627454265138805 ], [ -157.990410574991927, 21.631208971620801 ], [ -157.987526855021571, 21.634188708330878 ], [ -157.984341542243527, 21.635851621400516 ], [ -157.981076939957347, 21.636136003300528 ], [ -157.971408892368061, 21.63441137189271 ], [ -157.966114346297985, 21.632075407102306 ], [ -157.963659088136183, 21.630873426380951 ], [ -157.963682216669213, 21.630071371886959 ], [ -157.963382698315286, 21.629798619968472 ], [ -157.962596080837585, 21.629022876778134 ], [ -157.962188910059524, 21.630170236886215 ], [ -157.959203195367678, 21.62889811803127 ], [ -157.955873934874205, 21.626754367409209 ], [ -157.957037061760445, 21.626235714207933 ], [ -157.958055816574188, 21.625599364582236 ], [ -157.957033125192339, 21.62433857475639 ], [ -157.957049081266092, 21.625428496931519 ], [ -157.955621469120047, 21.625392274546229 ], [ -157.9548638384573, 21.625751228401196 ], [ -157.954055731279624, 21.625355501820081 ], [ -157.954443904521298, 21.624317812772592 ], [ -157.953717706183085, 21.623908506490917 ], [ -157.953606093194082, 21.623291930279137 ], [ -157.953342066084531, 21.623755415872832 ], [ -157.953717706183085, 21.623908506490917 ], [ -157.953245621478374, 21.624707864653885 ], [ -157.9525865278178, 21.624276214846066 ], [ -157.953266987879488, 21.622271301412496 ], [ -157.95257945130939, 21.621821012438119 ], [ -157.952399773928192, 21.621046994631282 ], [ -157.952581808555635, 21.620649159948961 ], [ -157.952935843195888, 21.620558624804726 ], [ -157.952683391802196, 21.62031936638552 ], [ -157.952581808555635, 21.620649159948961 ], [ -157.951003569453718, 21.620783188380145 ], [ -157.950902711184654, 21.621502240189923 ], [ -157.95153782894306, 21.622528246996637 ], [ -157.950441940605117, 21.622732998094197 ], [ -157.948494779080505, 21.621254721402419 ], [ -157.948363772812769, 21.620211645867098 ], [ -157.948532091756078, 21.619539537180497 ], [ -157.948821914859451, 21.619541369523848 ], [ -157.948823874161832, 21.619270365851122 ], [ -157.949113696755944, 21.61927219766433 ], [ -157.949115655487702, 21.619001193957395 ], [ -157.9494696878848, 21.618910666101574 ], [ -157.949217245175731, 21.618671402718693 ], [ -157.949115655487702, 21.619001193957395 ], [ -157.948825833433546, 21.618999362169404 ], [ -157.948823874161832, 21.619270365851122 ], [ -157.948534051598415, 21.619268533533003 ], [ -157.948532091756078, 21.619539537180497 ], [ -157.948076972472137, 21.619674482581498 ], [ -157.947353152603569, 21.620369342987757 ], [ -157.942328466006927, 21.615302032008582 ], [ -157.942344153283926, 21.614760100206375 ], [ -157.942038802056487, 21.614481981401521 ], [ -157.942062602737707, 21.613661343995684 ], [ -157.940993683856732, 21.614329103360639 ], [ -157.94002337206075, 21.61311625411739 ], [ -157.940323483378165, 21.612850128151742 ], [ -157.940315479803672, 21.612297657648487 ], [ -157.941196287160608, 21.611517016619903 ], [ -157.941204765895947, 21.611227065131789 ], [ -157.941193356892171, 21.610442065529131 ], [ -157.941506242782538, 21.609605601403636 ], [ -157.941798310143184, 21.608517970241394 ], [ -157.942672676581878, 21.607743035461734 ], [ -157.942685508472522, 21.607301458796172 ], [ -157.941810097931352, 21.606897374967481 ], [ -157.940949394763663, 21.606475846310133 ], [ -157.941248981971739, 21.60692126387703 ], [ -157.942110444889693, 21.607705848845729 ], [ -157.941000798370084, 21.608376064039149 ], [ -157.940399859456306, 21.609514593107367 ], [ -157.939456163627028, 21.610420677073876 ], [ -157.938302905161891, 21.610934840252568 ], [ -157.938013464398153, 21.611212609801374 ], [ -157.931389826394195, 21.604659338158768 ], [ -157.932272494493077, 21.60412621614152 ], [ -157.932264827452059, 21.603589760071401 ], [ -157.932863494719385, 21.60330617608648 ], [ -157.933733448490187, 21.603328360941457 ], [ -157.933725473638731, 21.602775228918958 ], [ -157.934315131144871, 21.602252590378512 ], [ -157.934307149586914, 21.601700053690781 ], [ -157.934616503225584, 21.601425858000486 ], [ -157.934608707995125, 21.60088635712118 ], [ -157.934620598090135, 21.600479909642097 ], [ -157.934610616282129, 21.599794498770045 ], [ -157.935498067794811, 21.599007972831803 ], [ -157.935493938303892, 21.598721315395711 ], [ -157.935946418767344, 21.598320265774017 ], [ -157.935229260856403, 21.597667119895405 ], [ -157.934927527560291, 21.596823822504607 ], [ -157.935388549561878, 21.594789851885889 ], [ -157.9350929508131, 21.594520584047046 ], [ -157.934996183353121, 21.594189531862906 ], [ -157.93474032848701, 21.59442556284402 ], [ -157.9350929508131, 21.594520584047046 ], [ -157.934940495098033, 21.595225533620987 ], [ -157.934055174806531, 21.596805996810051 ], [ -157.934400143026465, 21.598101883011939 ], [ -157.933761018979567, 21.598715514788132 ], [ -157.933173852215106, 21.59897734183636 ], [ -157.93267792929197, 21.600824425884085 ], [ -157.931767163331244, 21.601255805969338 ], [ -157.931293164768789, 21.600325778162386 ], [ -157.930839538060241, 21.601130683596789 ], [ -157.930847119403836, 21.601658868412212 ], [ -157.929572826098422, 21.602262445412848 ], [ -157.92809127104303, 21.601802252343617 ], [ -157.922240481990713, 21.595922022049983 ], [ -157.92307340008864, 21.594039173690287 ], [ -157.923069480345589, 21.593765684993937 ], [ -157.92308140110714, 21.59335923930584 ], [ -157.923075512838381, 21.592950164072366 ], [ -157.923966601890982, 21.591597078940939 ], [ -157.923952908057146, 21.590654722471555 ], [ -157.923976743198722, 21.589841830421602 ], [ -157.923970850130019, 21.589433019602438 ], [ -157.924123690714282, 21.588758718535296 ], [ -157.925091151910607, 21.588650964197864 ], [ -157.924894341504711, 21.587730582905387 ], [ -157.924419455077924, 21.587947583291381 ], [ -157.924322715846245, 21.587616525827929 ], [ -157.924066856505107, 21.587852540346159 ], [ -157.924419455077924, 21.587947583291381 ], [ -157.924318783447319, 21.588397919525256 ], [ -157.924123690714282, 21.588758718535296 ], [ -157.923685240370702, 21.588888679331703 ], [ -157.922579922742102, 21.591277659291578 ], [ -157.921643315313872, 21.592107731888728 ], [ -157.920777525515717, 21.59374766401757 ], [ -157.920354839084951, 21.593752928885195 ], [ -157.915008101195497, 21.587872817799752 ], [ -157.914992730720627, 21.586802354430631 ], [ -157.915020839684871, 21.585840090621303 ], [ -157.913995099067847, 21.585852988201914 ], [ -157.912715029600463, 21.58312773665622 ], [ -157.913020250861791, 21.582857192706964 ], [ -157.913008997831099, 21.58207100401161 ], [ -157.913308505671353, 21.581503867181176 ], [ -157.913608024795934, 21.581238445662546 ], [ -157.913041131943118, 21.580191444603535 ], [ -157.913029058685311, 21.579344443973611 ], [ -157.913334338406401, 21.578799311427463 ], [ -157.913622499952993, 21.578253735713815 ], [ -157.915669268531161, 21.575766932398281 ], [ -157.915385842728995, 21.575278834241804 ], [ -157.915063681653152, 21.575889167017017 ], [ -157.913773509509554, 21.577032439954166 ], [ -157.91334444428955, 21.577444302084373 ], [ -157.912717077559535, 21.578000367056553 ], [ -157.911321288915474, 21.580643965771674 ], [ -157.91085002284234, 21.581096501359983 ], [ -157.908314344657327, 21.578116071448932 ], [ -157.905163412858144, 21.570700843069869 ], [ -157.905717569921109, 21.570209763029176 ], [ -157.90581425668708, 21.570540829723658 ], [ -157.906070112507706, 21.570304842736729 ], [ -157.905717569921109, 21.570209763029176 ], [ -157.905505220297641, 21.569267689960668 ], [ -157.906602041700978, 21.568966692093266 ], [ -157.904989125449987, 21.568006885175301 ], [ -157.905024207266678, 21.567630566578373 ], [ -157.904959790374079, 21.566808298632829 ], [ -157.90588271891275, 21.566075091934401 ], [ -157.905329428750463, 21.56545439596346 ], [ -157.904044721439789, 21.565083362493841 ], [ -157.904469863913619, 21.564382287113556 ], [ -157.904441984751514, 21.56402593359233 ], [ -157.906249097305164, 21.564173709704828 ], [ -157.905821117787042, 21.563444333545593 ], [ -157.907355778844988, 21.562815837477185 ], [ -157.907090042282135, 21.562484787626662 ], [ -157.906188111087772, 21.562101195510255 ], [ -157.906228716333146, 21.561666752761099 ], [ -157.905581039850773, 21.561391286918351 ], [ -157.906234677805458, 21.560871942140302 ], [ -157.906198917577285, 21.560415295718851 ], [ -157.906799151065343, 21.559772727990172 ], [ -157.907427020422233, 21.559273720399975 ], [ -157.907095286748216, 21.55870820943235 ], [ -157.907134035744122, 21.55829439773078 ], [ -157.907101359938309, 21.557878860500423 ], [ -157.907678984226635, 21.557419949383991 ], [ -157.907711743210029, 21.55706902188734 ], [ -157.906519839963778, 21.556724753232345 ], [ -157.905956326725942, 21.556264114093771 ], [ -157.905690318268626, 21.555971238199341 ], [ -157.905121327764931, 21.555506061158177 ], [ -157.905094610957434, 21.555164337667446 ], [ -157.905136763110335, 21.554712304933517 ], [ -157.904769490990873, 21.553927547395919 ], [ -157.90339418089664, 21.553109032880908 ], [ -157.903665411252859, 21.552705749766535 ], [ -157.905021140587934, 21.551628415719108 ], [ -157.904273656525021, 21.550805032852441 ], [ -157.90321645700709, 21.551347720511888 ], [ -157.902998981873907, 21.55088544462178 ], [ -157.903766991119255, 21.550275154219168 ], [ -157.903423704131114, 21.549180961695271 ], [ -157.903116448821009, 21.548657024336883 ], [ -157.902851801710284, 21.548091550031984 ], [ -157.901935011536466, 21.548154393255096 ], [ -157.902280549555343, 21.547292873571124 ], [ -157.90225615801964, 21.546981468858647 ], [ -157.903177135810637, 21.547056805451554 ], [ -157.903095574559785, 21.546014421253474 ], [ -157.903428678252283, 21.545657794711012 ], [ -157.903923447228152, 21.545264581799493 ], [ -157.903422123036819, 21.544854762527994 ], [ -157.903756093229333, 21.54458944978224 ], [ -157.903217151693326, 21.543670765516602 ], [ -157.904564116105917, 21.54260045328202 ], [ -157.902925759041352, 21.542712751701348 ], [ -157.904041050854573, 21.541262913260098 ], [ -157.903180584640182, 21.541045260813373 ], [ -157.902540201517724, 21.541373994719908 ], [ -157.902620647474379, 21.540513242619223 ], [ -157.902596000124987, 21.540198196919604 ], [ -157.903048633006989, 21.539838519296133 ], [ -157.903145296843547, 21.540169587612887 ], [ -157.903401101130868, 21.53993360180673 ], [ -157.903048633006989, 21.539838519296133 ], [ -157.902915645851635, 21.539692079552861 ], [ -157.902339837091318, 21.539221291945044 ], [ -157.902610598989554, 21.538877025990139 ], [ -157.903186451876024, 21.538419372750521 ], [ -157.903238589505094, 21.537861738335973 ], [ -157.902777630461856, 21.537354059105617 ], [ -157.902350437469664, 21.537811366162593 ], [ -157.901168426867656, 21.538054484319854 ], [ -157.900896036530526, 21.538614834952241 ], [ -157.900582991565727, 21.538863672755046 ], [ -157.900299677847272, 21.539446578946574 ], [ -157.899424125363225, 21.5393749023862 ], [ -157.899139699210082, 21.541042389523152 ], [ -157.898688761059333, 21.541400677711032 ], [ -157.899428678928814, 21.542391764116523 ], [ -157.898924374841044, 21.542792509842386 ], [ -157.899571177680514, 21.543321408102479 ], [ -157.897619426154876, 21.545410868928567 ], [ -157.896768719092222, 21.545341260289916 ], [ -157.896493811772501, 21.546174188425688 ], [ -157.895594169055613, 21.546421117521231 ], [ -157.895913076999307, 21.547251558445573 ], [ -157.895296708446523, 21.547504066489093 ], [ -157.895871548790467, 21.549001168537441 ], [ -157.895585869979925, 21.549442719014952 ], [ -157.894513623745212, 21.549354956627585 ], [ -157.895166620855434, 21.550468354790638 ], [ -157.893809951194498, 21.550561253583766 ], [ -157.891756992616962, 21.547514188252084 ], [ -157.890738421175143, 21.54299088011317 ], [ -157.891582982201328, 21.543439078224676 ], [ -157.892116037324797, 21.542868500690769 ], [ -157.893003196630815, 21.542941153440591 ], [ -157.893314212664421, 21.542608286828479 ], [ -157.89442203076004, 21.542698937647653 ], [ -157.895293603126049, 21.541261505875717 ], [ -157.895648558526005, 21.540186148469232 ], [ -157.896262227945499, 21.539388413701232 ], [ -157.895926668971697, 21.538816372813663 ], [ -157.895974835456968, 21.538301260026884 ], [ -157.895953689634524, 21.53803010490364 ], [ -157.896003545970501, 21.537497204630448 ], [ -157.895668003529522, 21.537222843389348 ], [ -157.895833780659785, 21.536267712501349 ], [ -157.896574804247962, 21.536152128174749 ], [ -157.896964606647686, 21.535703190617262 ], [ -157.897777315953334, 21.535103079069252 ], [ -157.897409124451855, 21.534507468851235 ], [ -157.89803738240721, 21.534264689264187 ], [ -157.898303472597775, 21.533152345720055 ], [ -157.8986268994, 21.532913505158181 ], [ -157.899130758842858, 21.531816624242211 ], [ -157.900193745834571, 21.531539783429249 ], [ -157.900051929588642, 21.530407344895213 ], [ -157.900713555121285, 21.529918769304022 ], [ -157.900613088100613, 21.529117366981332 ], [ -157.901264296716846, 21.528865660544344 ], [ -157.901675093277902, 21.527971220763469 ], [ -157.902412964348201, 21.528062025840242 ], [ -157.902847799320597, 21.528014334867365 ], [ -157.903295016069677, 21.52806934760919 ], [ -157.903720013846453, 21.527579799216134 ], [ -157.904144911670613, 21.528083533288626 ], [ -157.904721888679632, 21.527771246630387 ], [ -157.905336264638379, 21.527846803908226 ], [ -157.905295561796947, 21.527522058604639 ], [ -157.905333514258444, 21.527251291482134 ], [ -157.905299623501776, 21.526980053018633 ], [ -157.905396584903855, 21.526289650884259 ], [ -157.90428955939575, 21.525844564629775 ], [ -157.90500052710675, 21.524730826778818 ], [ -157.903397817064928, 21.524906692069642 ], [ -157.904213861174156, 21.523171422394416 ], [ -157.903792268921933, 21.522850924232685 ], [ -157.904993545801062, 21.521963649797055 ], [ -157.905114702282788, 21.521101440441225 ], [ -157.902444049788102, 21.521796970318182 ], [ -157.901967423642986, 21.522345858317436 ], [ -157.901441138131247, 21.522482931449812 ], [ -157.901312910691558, 21.522063057940116 ], [ -157.900990108672829, 21.521526972782702 ], [ -157.901510296370645, 21.521128306504515 ], [ -157.900990391829112, 21.52071835970666 ], [ -157.901341163838595, 21.520449653071623 ], [ -157.901007964464128, 21.520187029896881 ], [ -157.901102448969226, 21.519376522620707 ], [ -157.900435519782604, 21.519618135578554 ], [ -157.899420172369105, 21.520153475347552 ], [ -157.899274923993943, 21.519628615087242 ], [ -157.899307129102084, 21.519352187403332 ], [ -157.899264090008359, 21.51892652230617 ], [ -157.900437038608402, 21.517423815310362 ], [ -157.899639033665181, 21.517494581392391 ], [ -157.899458659192106, 21.516507518424262 ], [ -157.899812465505505, 21.51641708592236 ], [ -157.899560277335212, 21.516177755191578 ], [ -157.899458659192106, 21.516507518424262 ], [ -157.89903128594122, 21.516658006867178 ], [ -157.898723275719021, 21.516620113079085 ], [ -157.897976216599801, 21.517024419445924 ], [ -157.897020194854377, 21.515527848349734 ], [ -157.896700443146614, 21.51528475876308 ], [ -157.896445064001284, 21.51498201543556 ], [ -157.896089036764494, 21.514711358376996 ], [ -157.896214562586238, 21.513819476798716 ], [ -157.895264158476351, 21.513923687392513 ], [ -157.894862066739876, 21.513012699493594 ], [ -157.894270218876358, 21.51322104101871 ], [ -157.894115433292541, 21.512875886543767 ], [ -157.893605011491132, 21.513106798322347 ], [ -157.894270218876358, 21.51322104101871 ], [ -157.894489443320111, 21.513834329614106 ], [ -157.894112300755779, 21.514168550277411 ], [ -157.894690670574391, 21.514695885827784 ], [ -157.894098493383296, 21.517152344647908 ], [ -157.893797511097887, 21.517419182458333 ], [ -157.894673866796296, 21.517965166691578 ], [ -157.89437009296671, 21.518507435782983 ], [ -157.894665606177909, 21.51877690188757 ], [ -157.894657597522752, 21.519050444989276 ], [ -157.894667321757197, 21.519728048517322 ], [ -157.894647348471096, 21.520405455316229 ], [ -157.894657072440793, 21.521083058738839 ], [ -157.894583395239124, 21.523587413498632 ], [ -157.894919812691455, 21.524209285245256 ], [ -157.894904156099471, 21.524745985476791 ], [ -157.895209232980562, 21.525024248149691 ], [ -157.895185607583926, 21.525829330653153 ], [ -157.895197054493963, 21.526634645289036 ], [ -157.894881957782047, 21.526913962192452 ], [ -157.894893383789054, 21.52772179085564 ], [ -157.894304526461781, 21.527452299949353 ], [ -157.89402469415603, 21.526902856707803 ], [ -157.893442514109068, 21.526910112770082 ], [ -157.893159899720956, 21.52635509181707 ], [ -157.892864567170051, 21.526358822814728 ], [ -157.892584743296169, 21.525809245084162 ], [ -157.892003557736558, 21.525816502879554 ], [ -157.891432387017034, 21.524988547721538 ], [ -157.891139886253512, 21.524992228410696 ], [ -157.890705505098509, 21.524981004495437 ], [ -157.889989670975922, 21.524989940714239 ], [ -157.889210199229893, 21.524607608883439 ], [ -157.888676941680444, 21.525119622265329 ], [ -157.887966798178894, 21.52441803336523 ], [ -157.887181306368376, 21.524790074315433 ], [ -157.886636247136721, 21.524251554609712 ], [ -157.885638315479298, 21.525608106367333 ], [ -157.885617704388693, 21.526307737500638 ], [ -157.885629202492879, 21.527117947439386 ], [ -157.884933868449764, 21.527126535312451 ], [ -157.883828385839422, 21.523618316490754 ], [ -157.884615839629959, 21.523267345179743 ], [ -157.884136108764949, 21.522380296296465 ], [ -157.884500454609707, 21.5216903075289 ], [ -157.885087524553256, 21.521428574936266 ], [ -157.88508369213514, 21.521152373458712 ], [ -157.885384782337553, 21.520614868909316 ], [ -157.885091924326048, 21.520073397178017 ], [ -157.885099970198723, 21.519797341170367 ], [ -157.88480644068008, 21.51952952611731 ], [ -157.884821723773257, 21.519009366786676 ], [ -157.884528149073816, 21.518432755346563 ], [ -157.88394614537404, 21.518439980659807 ], [ -157.883083175594749, 21.518016636166841 ], [ -157.882051733988106, 21.518505113880568 ], [ -157.875788961350082, 21.514360051762761 ], [ -157.874155387843359, 21.511797894190977 ], [ -157.874523604541878, 21.510184809891197 ], [ -157.876612550270295, 21.506228339583796 ], [ -157.877860736938203, 21.506840692885188 ], [ -157.878393960811991, 21.506328711716741 ], [ -157.878822296778964, 21.506752005457464 ], [ -157.879114760257096, 21.506748344783091 ], [ -157.879693860327137, 21.506763280670366 ], [ -157.880124477968309, 21.505947565988453 ], [ -157.881438473286181, 21.506221962371246 ], [ -157.881766207092625, 21.507190509077482 ], [ -157.88259262183513, 21.50759594753724 ], [ -157.882581062605624, 21.50677693577525 ], [ -157.882998075922359, 21.50640727830865 ], [ -157.882313461645111, 21.50541477541573 ], [ -157.8811591254657, 21.504881093378724 ], [ -157.881562579205251, 21.504102311348575 ], [ -157.88420332908737, 21.504069491459621 ], [ -157.884924082278644, 21.5040880680098 ], [ -157.884932310878924, 21.503806322435132 ], [ -157.884638812346878, 21.503538507985894 ], [ -157.884654852911183, 21.50299268036666 ], [ -157.882917545281657, 21.502584007596319 ], [ -157.882907978297879, 21.501911102899587 ], [ -157.883319372572117, 21.500812192111571 ], [ -157.882780147156268, 21.500818907950297 ], [ -157.882059128499009, 21.500800254793191 ], [ -157.881572377035667, 21.501267633799234 ], [ -157.880600053329289, 21.500790614620783 ], [ -157.879503926689864, 21.500804173066378 ], [ -157.878301466998266, 21.50043013876919 ], [ -157.878291469632273, 21.499723883967793 ], [ -157.878880504536596, 21.499158415626724 ], [ -157.879469770046967, 21.498636086676349 ], [ -157.879465724231437, 21.498352009589397 ], [ -157.87947375873938, 21.498078401568165 ], [ -157.877738945296983, 21.497538619594586 ], [ -157.87744933869044, 21.496969632611059 ], [ -157.876296534236246, 21.496983914979392 ], [ -157.877058896597305, 21.496237397955657 ], [ -157.878911180127119, 21.495911863900201 ], [ -157.878903469799837, 21.4953679950248 ], [ -157.879788050629287, 21.494833684694079 ], [ -157.880074079525457, 21.49455916137163 ], [ -157.881524446517091, 21.494238511535073 ], [ -157.880209527442162, 21.493987866759138 ], [ -157.877894206931074, 21.494016596672363 ], [ -157.878362130863479, 21.493181285130948 ], [ -157.87747845951904, 21.493192222468863 ], [ -157.876759901937731, 21.492839625380483 ], [ -157.875835767327629, 21.493277316253796 ], [ -157.875467472341256, 21.4918180648793 ], [ -157.875050626675034, 21.491047139750034 ], [ -157.874570693059923, 21.488294254556052 ], [ -157.875492458899998, 21.4885660498893 ], [ -157.87604520843189, 21.489112196451384 ], [ -157.876934001060221, 21.489388790901625 ], [ -157.877505481577685, 21.489669204312964 ], [ -157.878357598006772, 21.489658649719644 ], [ -157.879322657201243, 21.490132190228898 ], [ -157.879827464610457, 21.489684654574436 ], [ -157.880113482890778, 21.489410130577895 ], [ -157.882143218729993, 21.48905339104104 ], [ -157.88089256313441, 21.488004097018457 ], [ -157.879267363815472, 21.487252609781891 ], [ -157.879259681414254, 21.486704770581124 ], [ -157.879567310573577, 21.486155340398323 ], [ -157.878699281431523, 21.485754044622357 ], [ -157.878984307240216, 21.485608340636052 ], [ -157.88017398993, 21.485345301034382 ], [ -157.879108991981951, 21.484373792786727 ], [ -157.88016568649337, 21.483713659066517 ], [ -157.88074172680291, 21.483728567509029 ], [ -157.881031874653644, 21.482911904864245 ], [ -157.8816187911128, 21.482650176799211 ], [ -157.881611197208571, 21.482108027969954 ], [ -157.881917533572732, 21.481836481069259 ], [ -157.881621274031858, 21.481566195845605 ], [ -157.880816713327903, 21.479985464244933 ], [ -157.880479515204058, 21.479652243839869 ], [ -157.880049987463167, 21.480466185643806 ], [ -157.879606917073687, 21.479926610246718 ], [ -157.879324855380133, 21.479372498130239 ], [ -157.878559366434672, 21.480448449958889 ], [ -157.877865527345534, 21.480457092752516 ], [ -157.87758528349741, 21.479906364605036 ], [ -157.876425137200954, 21.480176401026775 ], [ -157.875369067065577, 21.480149118260922 ], [ -157.872948700014717, 21.48046351293673 ], [ -157.873334829361653, 21.480039677018539 ], [ -157.874270377776099, 21.479210503592519 ], [ -157.873822508460904, 21.47880188985717 ], [ -157.874125839706579, 21.47826004946015 ], [ -157.873824828994344, 21.477985352147577 ], [ -157.873840872290316, 21.477443429151112 ], [ -157.873265529439834, 21.476918628135191 ], [ -157.873841187151612, 21.476630252259508 ], [ -157.875239228956104, 21.476215937662179 ], [ -157.876015951535379, 21.474744668350873 ], [ -157.876464315802565, 21.474756283683192 ], [ -157.876898672921897, 21.474750865229275 ], [ -157.877335729195721, 21.474762203764168 ], [ -157.877627953006709, 21.473674411922516 ], [ -157.877923091008483, 21.473682083228134 ], [ -157.878699875716165, 21.472936111885392 ], [ -157.879665003314074, 21.472333126342235 ], [ -157.88025173676246, 21.472071466230648 ], [ -157.880849518370837, 21.471788307786408 ], [ -157.882289716195544, 21.471825400259689 ], [ -157.881983714450712, 21.47125948705321 ], [ -157.881999383304532, 21.470725366808725 ], [ -157.881995513931116, 21.470454324619404 ], [ -157.882011178976114, 21.469920667456858 ], [ -157.88142849634491, 21.469634770788652 ], [ -157.880266795043411, 21.469361405113236 ], [ -157.879985045360314, 21.469082944042228 ], [ -157.879404086825645, 21.469090167761927 ], [ -157.878649331223102, 21.467995485636131 ], [ -157.878538023356896, 21.468260329759936 ], [ -157.878189233313691, 21.469242077878704 ], [ -157.877369576819291, 21.469607570004062 ], [ -157.876556977448303, 21.469992491997182 ], [ -157.876076619944087, 21.469048449594084 ], [ -157.875349892436077, 21.469057458382601 ], [ -157.87477009486733, 21.469042442026758 ], [ -157.874477344473405, 21.469866223232543 ], [ -157.873346377359098, 21.46949535578544 ], [ -157.873026159287889, 21.47039682631824 ], [ -157.872439421053599, 21.470658460850117 ], [ -157.870414609541569, 21.471617631688545 ], [ -157.870408316597349, 21.471186981539493 ], [ -157.870804243136831, 21.470480092655841 ], [ -157.870422613543553, 21.470102817527675 ], [ -157.870123591464846, 21.469829914082574 ], [ -157.87015574681476, 21.468740048061722 ], [ -157.86928678730672, 21.468750782272718 ], [ -157.868832224566944, 21.468336023853233 ], [ -157.867759246565328, 21.46492810054988 ], [ -157.86844192237308, 21.464945755502612 ], [ -157.868432191830379, 21.464265239427604 ], [ -157.868453274469971, 21.463548739011106 ], [ -157.866440831817073, 21.461712307679498 ], [ -157.866421902443108, 21.46035789564408 ], [ -157.867022352461618, 21.459781225368172 ], [ -157.867785234742968, 21.459441136777993 ], [ -157.868204360467672, 21.458692724853822 ], [ -157.867173740562237, 21.457752345928579 ], [ -157.867911611735906, 21.457098327932567 ], [ -157.866421817528362, 21.456785795328184 ], [ -157.86532588247303, 21.456799274273273 ], [ -157.864277329107182, 21.455842281536771 ], [ -157.863660347668173, 21.453518712356182 ], [ -157.863146344178176, 21.451078859321424 ], [ -157.863899334622317, 21.451098397607403 ], [ -157.864486132557971, 21.450820513692985 ], [ -157.865362282250459, 21.450560866684992 ], [ -157.865660673483347, 21.449995516464188 ], [ -157.866245079568642, 21.449477493465082 ], [ -157.866233826105116, 21.448665825151888 ], [ -157.868377879333451, 21.448115279265487 ], [ -157.868001110122947, 21.44623705632149 ], [ -157.867701149004432, 21.445396571105153 ], [ -157.867739790955511, 21.444089391353732 ], [ -157.867192706618567, 21.443548553582907 ], [ -157.866576784716102, 21.443246239776023 ], [ -157.864555798828349, 21.442770439071147 ], [ -157.864551144032305, 21.442422175765184 ], [ -157.864566537686585, 21.441894209201259 ], [ -157.863686972767965, 21.441871434496615 ], [ -157.862512915557147, 21.442604916393464 ], [ -157.862558844660754, 21.441056282773957 ], [ -157.861952298998659, 21.441588766325768 ], [ -157.86165780106117, 21.441871542203671 ], [ -157.860821232182275, 21.441044466778454 ], [ -157.860796264674775, 21.441311011853447 ], [ -157.860809219379433, 21.442227564683435 ], [ -157.859639871013684, 21.441843912190457 ], [ -157.859076692973247, 21.441850859590168 ], [ -157.857737010787133, 21.440906931075215 ], [ -157.856694816593489, 21.439444563409385 ], [ -157.856200409280405, 21.437484329491646 ], [ -157.855908216695042, 21.436383317202033 ], [ -157.855923610795344, 21.435859057507489 ], [ -157.855916185677245, 21.435324783127424 ], [ -157.85632468727033, 21.434595514114243 ], [ -157.855637298950853, 21.433968129943679 ], [ -157.855074308221134, 21.433411398813131 ], [ -157.85449183761088, 21.433141825059764 ], [ -157.853920478710108, 21.432861341865042 ], [ -157.853614594657245, 21.432865136740851 ], [ -157.852676579449593, 21.431937550680701 ], [ -157.848115280132106, 21.427949717984411 ], [ -157.84403983519374, 21.423710317740596 ], [ -157.840215463639879, 21.421244151945071 ], [ -157.836224907073444, 21.419863255747863 ], [ -157.835238902294321, 21.417098749458894 ], [ -157.835168254254654, 21.411999130657961 ], [ -157.836463270228734, 21.406788573242149 ], [ -157.836479910751819, 21.406221647792503 ], [ -157.835410200975815, 21.402759239008997 ], [ -157.832823108003709, 21.400199752231003 ], [ -157.828596090373452, 21.398392133028292 ], [ -157.826119799212961, 21.397978679696923 ], [ -157.821055996439554, 21.398481406949269 ], [ -157.820424982864154, 21.39731298357415 ], [ -157.821470336594103, 21.39495014956071 ], [ -157.822120945858359, 21.390989677686004 ], [ -157.820893118497963, 21.386895253563981 ], [ -157.816667174534672, 21.381471208370542 ], [ -157.810173635576689, 21.374760159879866 ], [ -157.802421414947247, 21.368912691659983 ], [ -157.800983303171051, 21.366892582258377 ], [ -157.800006401336731, 21.363997346154658 ], [ -157.79761978430767, 21.362164425079222 ], [ -157.794133485296243, 21.360899746100408 ], [ -157.791903045678481, 21.361260259031631 ], [ -157.789165793131872, 21.363297686207307 ], [ -157.788109593992942, 21.362998077793108 ], [ -157.786372576844542, 21.360767273590561 ], [ -157.783902529853833, 21.35962267347254 ], [ -157.783896735684095, 21.359195071790275 ], [ -157.784316729916355, 21.356641884918098 ], [ -157.783815863308689, 21.354650587683967 ], [ -157.78183988041576, 21.350758850603498 ], [ -157.777045104102285, 21.345001975550375 ], [ -157.776063520275812, 21.34410444207882 ], [ -157.775641545845986, 21.343686710104084 ], [ -157.774488444721158, 21.342966299337135 ], [ -157.771995826884961, 21.341084954802593 ], [ -157.766865592977695, 21.336003551945005 ], [ -157.76437926066626, 21.334206905228648 ], [ -157.761791273916515, 21.333355634833318 ], [ -157.758030802312248, 21.332835489166552 ], [ -157.754625198783742, 21.331071144927947 ], [ -157.751691525970443, 21.329458978564144 ], [ -157.74423974576726, 21.32680134846898 ], [ -157.7359090027077, 21.323775665565869 ], [ -157.731887866401905, 21.323194101705599 ], [ -157.728082551721485, 21.323662583971164 ], [ -157.725235712897984, 21.324411309483104 ], [ -157.724331824643372, 21.323139721300731 ], [ -157.72431914431678, 21.322188379541174 ], [ -157.724622469805666, 21.321897439936265 ], [ -157.727650742567789, 21.321229956180971 ], [ -157.729481306476856, 21.319950083203029 ], [ -157.730427688384111, 21.319502283708506 ], [ -157.73443992536113, 21.31919839644555 ], [ -157.739328795950996, 21.316884881755001 ], [ -157.743836465761518, 21.315937585990223 ], [ -157.756390075135158, 21.314609987151339 ], [ -157.773570679988097, 21.31440763313584 ], [ -157.777009971830495, 21.31474874901879 ], [ -157.788711813228247, 21.316338964655024 ], [ -157.791136735029369, 21.317463033208288 ], [ -157.792437577050407, 21.318996968794885 ], [ -157.794650053216031, 21.322349049441826 ], [ -157.794580125814207, 21.324686182070838 ], [ -157.796584508450707, 21.324059395029174 ], [ -157.797753820454631, 21.325109606167572 ], [ -157.797772897229748, 21.326512786949198 ], [ -157.796598088368853, 21.326481885252441 ], [ -157.796609352852357, 21.327317506393126 ], [ -157.795735584488625, 21.327294509503034 ], [ -157.795438358377226, 21.327579936101419 ], [ -157.79432200072381, 21.327550561800209 ], [ -157.793700849023793, 21.327827508256497 ], [ -157.793125491921444, 21.3280999509998 ], [ -157.791709779107208, 21.328062653386695 ], [ -157.791378579166292, 21.328356429732253 ], [ -157.792528670402703, 21.328889586466683 ], [ -157.792541960457328, 21.329854508884328 ], [ -157.792513579772589, 21.330802855122457 ], [ -157.793304898683203, 21.331169603550425 ], [ -157.79251046493934, 21.331873855261183 ], [ -157.792514072193484, 21.33215793006066 ], [ -157.792498123373747, 21.332691573285075 ], [ -157.793080229470377, 21.332977752028981 ], [ -157.793668099135374, 21.333250273924744 ], [ -157.793643587201473, 21.334071610076467 ], [ -157.794354801625246, 21.333734769640024 ], [ -157.79493778570307, 21.334882755682383 ], [ -157.796254266629063, 21.334626601219725 ], [ -157.797298679995635, 21.33413201345007 ], [ -157.797692632602661, 21.334907911773296 ], [ -157.798270194340205, 21.335719660779528 ], [ -157.79855934032679, 21.336289098748747 ], [ -157.799145094170058, 21.336824463409073 ], [ -157.799769277530487, 21.338053318461562 ], [ -157.800542498241413, 21.336588240576006 ], [ -157.801433063195617, 21.335733050688997 ], [ -157.802022796008544, 21.336023025355349 ], [ -157.80231745715858, 21.336019435317873 ], [ -157.803138262173661, 21.336832174242804 ], [ -157.804050500805971, 21.336856070342414 ], [ -157.803746954672931, 21.336004341495233 ], [ -157.803770267246222, 21.335219582947897 ], [ -157.803766815323314, 21.334948543381863 ], [ -157.80377466204186, 21.334677584228071 ], [ -157.803767475619566, 21.334135503043974 ], [ -157.804359720031044, 21.333871415053199 ], [ -157.804645554424553, 21.333597007525281 ], [ -157.804942881957061, 21.3333334000409 ], [ -157.804939166173796, 21.333059778014306 ], [ -157.804955073911458, 21.332525668381017 ], [ -157.804565176287696, 21.331803011761746 ], [ -157.804952357769508, 21.331431067991844 ], [ -157.805249396679187, 21.331167589984247 ], [ -157.805541804941868, 21.330080181497216 ], [ -157.805838840005663, 21.329816702229582 ], [ -157.806132020475133, 21.329261403588362 ], [ -157.812533097133979, 21.32965226191358 ], [ -157.815934862353913, 21.331033587954281 ], [ -157.818044620938736, 21.332522152898715 ], [ -157.823080991458369, 21.339422028894706 ], [ -157.824587393908416, 21.34195555241255 ], [ -157.825983429633766, 21.343916088109083 ], [ -157.825946815712086, 21.345143941075015 ], [ -157.827092168124267, 21.344601240882728 ], [ -157.828479412097352, 21.345862187873816 ], [ -157.827853246420403, 21.34698046050293 ], [ -157.829425147544271, 21.346514628044098 ], [ -157.830461323672154, 21.346023680028342 ], [ -157.833030520468526, 21.347476691460873 ], [ -157.837161448418271, 21.350726707909381 ], [ -157.839571227447522, 21.354110442953033 ], [ -157.841627675115859, 21.360404612575167 ], [ -157.842088237005015, 21.362593657427219 ], [ -157.841733157709371, 21.362584459156331 ], [ -157.840721764947233, 21.362715765899168 ] ], [ [ -157.926061988774109, 21.561669635594427 ], [ -157.926216897521471, 21.562014763793485 ], [ -157.926727447297964, 21.561783758550742 ], [ -157.926061988774109, 21.561669635594427 ] ], [ [ -157.927224799616653, 21.561135092240395 ], [ -157.927359404133057, 21.561740717175336 ], [ -157.92790419536442, 21.56148915244772 ], [ -157.927224799616653, 21.561135092240395 ] ], [ [ -157.918338413333942, 21.548339892967032 ], [ -157.91844983336938, 21.548956489769605 ], [ -157.918713822150835, 21.548493054417914 ], [ -157.918338413333942, 21.548339892967032 ] ], [ [ -157.902781376397826, 21.536855589645675 ], [ -157.902878037973466, 21.537186658123883 ], [ -157.903133837211641, 21.536950672441385 ], [ -157.902781376397826, 21.536855589645675 ] ], [ [ -157.887142636247944, 21.422112049756059 ], [ -157.887046073884903, 21.421780972499533 ], [ -157.886790460166253, 21.422016944276631 ], [ -157.887142636247944, 21.422112049756059 ], [ -157.887297319743311, 21.422457209513965 ], [ -157.887807427764443, 21.422226301344502 ], [ -157.887142636247944, 21.422112049756059 ] ], [ [ -157.888015017852837, 21.42157580650559 ], [ -157.888126238712061, 21.422192423137393 ], [ -157.888390073095849, 21.421729023142529 ], [ -157.888015017852837, 21.42157580650559 ] ], [ [ -157.78875221054605, 21.349611247283899 ], [ -157.788591212036948, 21.351876184330777 ], [ -157.787436364715262, 21.35327545234961 ], [ -157.787103515683498, 21.353521102696579 ], [ -157.787670199920399, 21.354934846852316 ], [ -157.787371088401414, 21.3570541459042 ], [ -157.787470205107809, 21.357849837827505 ], [ -157.786660784825727, 21.359117341996107 ], [ -157.78793651276618, 21.359275361554047 ], [ -157.788411419802031, 21.358728492131991 ], [ -157.790260266198743, 21.357766743745113 ], [ -157.790015661549972, 21.356245163054606 ], [ -157.789696148422394, 21.35600188628829 ], [ -157.789203998423858, 21.355416811226039 ], [ -157.788575389282585, 21.355485456637545 ], [ -157.78914154088443, 21.35418138445754 ], [ -157.790293349531879, 21.353736518376557 ], [ -157.78975753056568, 21.352449115703415 ], [ -157.789089191618814, 21.35157806123112 ], [ -157.789194183455692, 21.350833994385621 ], [ -157.789143565853351, 21.350427109322151 ], [ -157.789239566872283, 21.349745636126933 ], [ -157.78875221054605, 21.349611247283899 ] ] ] } }
]
}
