{
"type": "FeatureCollection",
"name": "psygran",
"crs": { "type": "name", "properties": { "name": "urn:ogc:def:crs:OGC:1.3:CRS84" } },
"features": [
{ "type": "Feature", "properties": { "ID": 1, "GRIDCODE": 2 }, "geometry": { "type": "Polygon", "coordinates": [ [ [ -159.60432183790482, 22.19228205262711 ], [ -159.604714068705647, 22.192472596803533 ], [ -159.604450278994051, 22.193174573344951 ], [ -159.60432183790482, 22.19228205262711 ] ] ] } },
{ "type": "Feature", "properties": { "ID": 2, "GRIDCODE": 2 }, "geometry": { "type": "Polygon", "coordinates": [ [ [ -159.606064449351521, 22.191462518481032 ], [ -159.605966256678272, 22.191793317360897 ], [ -159.605710030649675, 22.191556615289766 ], [ -159.606064449351521, 22.191462518481032 ] ] ] } },
{ "type": "Feature", "properties": { "ID": 3, "GRIDCODE": 2 }, "geometry": { "type": "Polygon", "coordinates": [ [ [ -159.606064449351521, 22.191462518481032 ], [ -159.606162641583438, 22.191131719538966 ], [ -159.606418867562837, 22.191368420910617 ], [ -159.606064449351521, 22.191462518481032 ] ] ] } },
{ "type": "Feature", "properties": { "ID": 4, "GRIDCODE": 2 }, "geometry": { "type": "Polygon", "coordinates": [ [ [ -159.622303964593556, 22.178392352989164 ], [ -159.622152046954028, 22.179871006341873 ], [ -159.621016460891212, 22.179396761190038 ], [ -159.622303964593556, 22.178392352989164 ] ] ] } },
{ "type": "Feature", "properties": { "ID": 5, "GRIDCODE": 2 }, "geometry": { "type": "Polygon", "coordinates": [ [ [ -159.622303964593556, 22.178392352989164 ], [ -159.624990881681811, 22.174552132060263 ], [ -159.625637770312323, 22.173104784111722 ], [ -159.625927184380458, 22.170664499829751 ], [ -159.627087753070896, 22.171994977278249 ], [ -159.627413039330008, 22.172666386472347 ], [ -159.629728205917786, 22.175148384281098 ], [ -159.630908376437077, 22.175633404974906 ], [ -159.632033056740482, 22.176528316453737 ], [ -159.630993429497778, 22.176671667586231 ], [ -159.630231674494695, 22.176279677750401 ], [ -159.629424140906082, 22.176343250281889 ], [ -159.628841982191091, 22.176301943318006 ], [ -159.628260210867353, 22.17634774144603 ], [ -159.627470473684724, 22.176291696995516 ], [ -159.62625213911042, 22.17727748087886 ], [ -159.626217565234526, 22.177699812127244 ], [ -159.62625812122053, 22.178146712707289 ], [ -159.625148531892052, 22.180675052861265 ], [ -159.624775584575957, 22.18042561989148 ], [ -159.624357072115657, 22.179976995727237 ], [ -159.622303964593556, 22.178392352989164 ] ] ] } },
{ "type": "Feature", "properties": { "ID": 6, "GRIDCODE": 2 }, "geometry": { "type": "Polygon", "coordinates": [ [ [ -159.651020518131673, 22.158495784232365 ], [ -159.650922452211574, 22.158826612656803 ], [ -159.650666214022209, 22.158589972410308 ], [ -159.651020518131673, 22.158495784232365 ] ] ] } },
{ "type": "Feature", "properties": { "ID": 7, "GRIDCODE": 2 }, "geometry": { "type": "Polygon", "coordinates": [ [ [ -159.678317261686857, 22.147543794892652 ], [ -159.679003766592018, 22.147890646054105 ], [ -159.6784597959076, 22.148147956744324 ], [ -159.678317261686857, 22.147543794892652 ] ] ] } },
{ "type": "Feature", "properties": { "ID": 8, "GRIDCODE": 2 }, "geometry": { "type": "Polygon", "coordinates": [ [ [ -159.678025043355973, 22.147273991186889 ], [ -159.678315963207979, 22.147272781827709 ], [ -159.678317261686857, 22.147543794892652 ], [ -159.67802634127807, 22.147545004268157 ], [ -159.678025043355973, 22.147273991186889 ] ] ] } },
{ "type": "Feature", "properties": { "ID": 9, "GRIDCODE": 2 }, "geometry": { "type": "Polygon", "coordinates": [ [ [ -159.68870735577903, 22.130426108437419 ], [ -159.689062464564842, 22.130517383729217 ], [ -159.688808527551629, 22.130756117791531 ], [ -159.68870735577903, 22.130426108437419 ] ] ] } },
{ "type": "Feature", "properties": { "ID": 10, "GRIDCODE": 2 }, "geometry": { "type": "Polygon", "coordinates": [ [ [ -159.588817987665379, 22.103172657232648 ], [ -159.589172969298772, 22.103264153157166 ], [ -159.5889189074461, 22.103502735488046 ], [ -159.588817987665379, 22.103172657232648 ] ] ] } },
{ "type": "Feature", "properties": { "ID": 11, "GRIDCODE": 2 }, "geometry": { "type": "Polygon", "coordinates": [ [ [ -159.589435260610287, 22.041647920917189 ], [ -159.589790087976553, 22.041739427834599 ], [ -159.589536134506545, 22.041978002190611 ], [ -159.589435260610287, 22.041647920917189 ] ] ] } },
{ "type": "Feature", "properties": { "ID": 12, "GRIDCODE": 2 }, "geometry": { "type": "Polygon", "coordinates": [ [ [ -159.588817987665379, 22.103172657232648 ], [ -159.588379375546936, 22.103307035990198 ], [ -159.588095509019155, 22.103584506988408 ], [ -159.587212252049909, 22.103855100813476 ], [ -159.587226509887415, 22.104400636178429 ], [ -159.585362699129547, 22.105440699867987 ], [ -159.583879108917188, 22.105895196927115 ], [ -159.583424432541563, 22.106339558311824 ], [ -159.58347654792891, 22.108341262676074 ], [ -159.58258408596862, 22.108748666834487 ], [ -159.582631707331075, 22.109019123314752 ], [ -159.584352298153533, 22.108463454340303 ], [ -159.584324289981424, 22.107387145092289 ], [ -159.584626778894233, 22.106834827257515 ], [ -159.587607011525023, 22.10628156810192 ], [ -159.588408662136203, 22.106293934614612 ], [ -159.588971170162665, 22.105744113078234 ], [ -159.589423421697234, 22.105336087973036 ], [ -159.590716585794382, 22.105743336800064 ], [ -159.591022525346659, 22.10573641588709 ], [ -159.591581945989105, 22.104108541949802 ], [ -159.592272283206938, 22.103840443657344 ], [ -159.593043476240609, 22.104927305176702 ], [ -159.593626667443033, 22.104914095976067 ], [ -159.594511580403548, 22.105192744743661 ], [ -159.595389847381057, 22.105172847561107 ], [ -159.596591168014555, 22.106328906441103 ], [ -159.598083917007528, 22.105378011650174 ], [ -159.598964244690052, 22.104517443690799 ], [ -159.600896804151347, 22.105436198986091 ], [ -159.601766153425956, 22.1051553433044 ], [ -159.603499888089118, 22.105181916634638 ], [ -159.604359038142093, 22.104341968311104 ], [ -159.604983206470706, 22.104064897257654 ], [ -159.606095184225666, 22.105134842337726 ], [ -159.607678092299437, 22.105607007201996 ], [ -159.608186640574644, 22.105109866934047 ], [ -159.609920587124464, 22.10513637132108 ], [ -159.610505420173098, 22.104564599911097 ], [ -159.611971933466862, 22.104586995059925 ], [ -159.612526807385507, 22.105120881472466 ], [ -159.613428855922592, 22.105921995540172 ], [ -159.61426610192521, 22.105103400951574 ], [ -159.616248215655048, 22.106045490744876 ], [ -159.627886386069179, 22.110111994530538 ], [ -159.628840157719992, 22.111037216565578 ], [ -159.628158921423278, 22.111652150597333 ], [ -159.628845494761805, 22.112881537036113 ], [ -159.629080303948399, 22.113725250923387 ], [ -159.626237824033069, 22.11319413069663 ], [ -159.622677711092052, 22.112883421718124 ], [ -159.621878617383402, 22.114029276652385 ], [ -159.621559126094866, 22.11431765110164 ], [ -159.62042259316587, 22.114300360277273 ], [ -159.619927271042741, 22.114311661610362 ], [ -159.618682533663247, 22.114802629255479 ], [ -159.62042906196379, 22.115113450649719 ], [ -159.621006164069655, 22.115387704865842 ], [ -159.622176582870878, 22.115648846400831 ], [ -159.623451832098482, 22.11654286736691 ], [ -159.623933793070591, 22.115607537394819 ], [ -159.626775815050962, 22.117118223491161 ], [ -159.626052708792656, 22.11843943937507 ], [ -159.627459889606854, 22.119688852505348 ], [ -159.627431104354855, 22.12133593374535 ], [ -159.62802135312262, 22.121859967684017 ], [ -159.628452707954608, 22.122679725382586 ], [ -159.628949123018657, 22.122668368620324 ], [ -159.629476136151681, 22.123262612458415 ], [ -159.628809519392576, 22.125728497542962 ], [ -159.63075020595906, 22.124344608705282 ], [ -159.631818314368729, 22.124017119616003 ], [ -159.63092167022225, 22.123474359602927 ], [ -159.630170100152355, 22.121346402813156 ], [ -159.630639100479527, 22.12048935524113 ], [ -159.631214919398815, 22.120498081132542 ], [ -159.631494992670042, 22.11938092164123 ], [ -159.630902710014368, 22.118320473177985 ], [ -159.630913410360137, 22.117708971519789 ], [ -159.633372444547518, 22.117140306532288 ], [ -159.635207645303637, 22.115055600793788 ], [ -159.635564713100962, 22.115061002125859 ], [ -159.636394951963354, 22.114249023148702 ], [ -159.636990334717154, 22.113971041108254 ], [ -159.644344818420649, 22.117221869999646 ], [ -159.652567712269246, 22.119055115920858 ], [ -159.675131813380489, 22.119503824615609 ], [ -159.680162139050623, 22.120211877095901 ], [ -159.683598530897598, 22.121580206546493 ], [ -159.686102301018082, 22.123986478585973 ], [ -159.685326827106223, 22.124341047669695 ], [ -159.685929169369814, 22.125161028516732 ], [ -159.686514094538495, 22.125147445766487 ], [ -159.687109243913426, 22.125719418050899 ], [ -159.688286127831589, 22.128462999900616 ], [ -159.68870735577903, 22.130426108437419 ], [ -159.687615477170255, 22.130643751604246 ], [ -159.686522185157258, 22.130291905216424 ], [ -159.685737700436817, 22.131087937300077 ], [ -159.685069893204258, 22.131385001143272 ], [ -159.685084723887996, 22.1316982629268 ], [ -159.686546995142322, 22.131638110585449 ], [ -159.687664447891791, 22.132751606507014 ], [ -159.688287163366908, 22.132725980621039 ], [ -159.689152091484658, 22.133291967802737 ], [ -159.687379035667135, 22.133823194715973 ], [ -159.686841219748686, 22.134368910231206 ], [ -159.685905708863686, 22.134633524437913 ], [ -159.68429461697113, 22.133847908290459 ], [ -159.683929831445795, 22.134938292455384 ], [ -159.682181023556581, 22.135462191213502 ], [ -159.681902561559014, 22.135744712151045 ], [ -159.681213420043548, 22.136344975915605 ], [ -159.683403883087095, 22.136821406926419 ], [ -159.685118315065324, 22.137909938066816 ], [ -159.685964480065508, 22.137875128041379 ], [ -159.687263028514423, 22.138508312887033 ], [ -159.686747417900165, 22.139426088689738 ], [ -159.687473800464176, 22.140047427696992 ], [ -159.686792383725873, 22.140350536234468 ], [ -159.685555389637727, 22.14031006635053 ], [ -159.684823108525478, 22.140340186801861 ], [ -159.684400937919293, 22.139919542063801 ], [ -159.683922574857235, 22.13951030556618 ], [ -159.683329758484007, 22.139534681937079 ], [ -159.683387207154993, 22.140747176349144 ], [ -159.68336674045517, 22.141289298999801 ], [ -159.683387417956396, 22.141725473701236 ], [ -159.685530636729482, 22.143002108498582 ], [ -159.683820062318659, 22.143762973647043 ], [ -159.683101386494798, 22.14304686068461 ], [ -159.68192540792856, 22.14279109988507 ], [ -159.681329712961286, 22.142500619150521 ], [ -159.681357895351567, 22.143095480021231 ], [ -159.681940353147866, 22.143593754255019 ], [ -159.682254645452787, 22.144207004052593 ], [ -159.682225611934882, 22.144976824984827 ], [ -159.682825197356891, 22.145489721348511 ], [ -159.6825022501489, 22.146360551242172 ], [ -159.681807897573435, 22.146965305835085 ], [ -159.680209201713296, 22.146582183652718 ], [ -159.678742280348075, 22.146327613316 ], [ -159.677531847028376, 22.146037516688899 ], [ -159.676999026983168, 22.145506566037707 ], [ -159.676714052793301, 22.145733078827789 ], [ -159.678025043355973, 22.147273991186889 ], [ -159.677009381127533, 22.147137208154223 ], [ -159.676710878950956, 22.147149471644973 ], [ -159.675786395298246, 22.146851914762532 ], [ -159.673627821717417, 22.146940564592665 ], [ -159.672448161201629, 22.145255153690439 ], [ -159.671895510431398, 22.145277843008937 ], [ -159.672352255656762, 22.14607343540095 ], [ -159.672340612681836, 22.146381175011285 ], [ -159.672984828934716, 22.147503310919699 ], [ -159.673531617839558, 22.147971077506707 ], [ -159.672633337069954, 22.148516697017769 ], [ -159.673237466657838, 22.148779252004537 ], [ -159.673813986161491, 22.14906040405349 ], [ -159.674681002544077, 22.14877328814638 ], [ -159.67555285860908, 22.148578292962856 ], [ -159.674951317975484, 22.15020016168441 ], [ -159.672589503941964, 22.151250445518762 ], [ -159.671497905129456, 22.151214647462204 ], [ -159.670575384592638, 22.151252510146943 ], [ -159.66975535019111, 22.152084294221918 ], [ -159.663127708191837, 22.153834470768249 ], [ -159.661038411285574, 22.153436125779411 ], [ -159.660743763989814, 22.153448195842611 ], [ -159.659445384330184, 22.153405520972942 ], [ -159.658316891330031, 22.152855089405275 ], [ -159.656585017029158, 22.152926028719623 ], [ -159.655468274428927, 22.154058498698721 ], [ -159.655823541565184, 22.156213908866714 ], [ -159.6570137140219, 22.157232254918704 ], [ -159.656521603174042, 22.15766067318987 ], [ -159.656994496399534, 22.158065297185228 ], [ -159.656687314941109, 22.158332756335078 ], [ -159.656723318828682, 22.159095910814319 ], [ -159.658468571063139, 22.160135746106658 ], [ -159.658441903993918, 22.160839147972098 ], [ -159.656138139774413, 22.160763393583665 ], [ -159.655526671514423, 22.161067953664773 ], [ -159.654960160687779, 22.161049321469822 ], [ -159.654306275101845, 22.161076089214021 ], [ -159.653230247310034, 22.162167192242812 ], [ -159.65293280713334, 22.161870707674815 ], [ -159.652629572099869, 22.161611241207378 ], [ -159.652156584109406, 22.161139818018036 ], [ -159.653247203730274, 22.160655032169664 ], [ -159.653202478082306, 22.159706644700485 ], [ -159.653212926625827, 22.159431134071504 ], [ -159.652859394065104, 22.158815197352585 ], [ -159.651020518131673, 22.158495784232365 ], [ -159.650374889122617, 22.157828438105039 ], [ -159.649906527137858, 22.158143274313623 ], [ -159.649417060305893, 22.158657992198403 ], [ -159.649134403712992, 22.157818129146673 ], [ -159.648243069345853, 22.157565625611852 ], [ -159.648290618337228, 22.156765587162866 ], [ -159.647948158488703, 22.15648300144138 ], [ -159.647671459463993, 22.156196969540495 ], [ -159.647365751808508, 22.156215163381788 ], [ -159.645826849011229, 22.154393272688889 ], [ -159.645027634596403, 22.154055403035031 ], [ -159.644508729219353, 22.153519046114187 ], [ -159.64382440530332, 22.153483760742432 ], [ -159.643917378858248, 22.154840898516532 ], [ -159.643012346009584, 22.155147439110699 ], [ -159.640192134197662, 22.155510103336365 ], [ -159.63812754172119, 22.156865551742495 ], [ -159.637781495315437, 22.156507825754197 ], [ -159.636836963778848, 22.156108469151615 ], [ -159.637464970939874, 22.15445637448261 ], [ -159.63648155737377, 22.154047457394693 ], [ -159.6357182532293, 22.154092822539521 ], [ -159.635148427980482, 22.153265862799518 ], [ -159.633966211439514, 22.153014478642742 ], [ -159.633998909589224, 22.152464900805054 ], [ -159.633351383942312, 22.152191086462928 ], [ -159.632787389423072, 22.151058825400614 ], [ -159.631639436749879, 22.151127034856025 ], [ -159.63107959789329, 22.151098119795286 ], [ -159.630331800565102, 22.151480437841492 ], [ -159.629116123782609, 22.150871109100663 ], [ -159.628583354516422, 22.150843586336894 ], [ -159.628147066921002, 22.15086950068709 ], [ -159.627856065077168, 22.150854459727107 ], [ -159.627565206579874, 22.15087174030932 ], [ -159.626485246326467, 22.150815936006548 ], [ -159.624095003904955, 22.15270718026909 ], [ -159.624066833191023, 22.15318075490999 ], [ -159.624095078772882, 22.153594025681581 ], [ -159.623770674932842, 22.153866287022268 ], [ -159.623816532919534, 22.154536814223174 ], [ -159.623776191062433, 22.155214519347084 ], [ -159.623827135758518, 22.155959216792002 ], [ -159.623525421302077, 22.156578205552719 ], [ -159.622411932319693, 22.156903162472524 ], [ -159.6223333454478, 22.158221808061864 ], [ -159.623228630505366, 22.158960783289025 ], [ -159.622114212593317, 22.159078862443714 ], [ -159.621689330537691, 22.154803112214722 ], [ -159.622062708779339, 22.151725125093698 ], [ -159.623293313104938, 22.149906207885049 ], [ -159.626030606032344, 22.148506919780694 ], [ -159.630099855133238, 22.148265251167889 ], [ -159.634465566026449, 22.149182476385793 ], [ -159.636289069004107, 22.149276601179729 ], [ -159.637456445396651, 22.148935791197061 ], [ -159.638624782750668, 22.148085003665582 ], [ -159.640945028785325, 22.148364830426022 ], [ -159.642098605085749, 22.14973064462956 ], [ -159.642407029010798, 22.149985198624179 ], [ -159.642925913282255, 22.150521562963185 ], [ -159.644340001537842, 22.150594482101987 ], [ -159.645061097592702, 22.149989198901686 ], [ -159.644986839353578, 22.148906191158375 ], [ -159.645312597017409, 22.149160671079812 ], [ -159.646037343587295, 22.150385016675013 ], [ -159.645668601871222, 22.150533739371387 ], [ -159.645922282087639, 22.15100873146973 ], [ -159.646037343587295, 22.150385016675013 ], [ -159.646487957552011, 22.1502468283437 ], [ -159.646466420781337, 22.149434748031897 ], [ -159.646471149401691, 22.149163709635399 ], [ -159.646444109703395, 22.148141918430571 ], [ -159.647037183716407, 22.146990595235959 ], [ -159.647616643775052, 22.14646751272565 ], [ -159.646727166634264, 22.145563454171302 ], [ -159.644118202183819, 22.146197357520286 ], [ -159.644132388773443, 22.145381396744412 ], [ -159.643539969795995, 22.145649328793521 ], [ -159.6429613141554, 22.145929925086389 ], [ -159.642529863618819, 22.145515095484711 ], [ -159.642080518840459, 22.145116322691081 ], [ -159.642670088155313, 22.144298633957902 ], [ -159.641458530862195, 22.1439376305918 ], [ -159.640794891832229, 22.142749869027899 ], [ -159.642069401162615, 22.142131862776701 ], [ -159.642946753409973, 22.141862813711651 ], [ -159.643532975530945, 22.141578532096492 ], [ -159.644260534332858, 22.142278040192412 ], [ -159.645493636242236, 22.141072219504355 ], [ -159.646147244305808, 22.140755240238185 ], [ -159.647020755367777, 22.140768386894266 ], [ -159.64699921361867, 22.1399552388316 ], [ -159.647736931202587, 22.13959748353037 ], [ -159.649628969889136, 22.139933782412534 ], [ -159.650190473067312, 22.140473585721864 ], [ -159.651074706668851, 22.1392816108449 ], [ -159.650523237583371, 22.138962288390246 ], [ -159.649074323732606, 22.139664969652078 ], [ -159.648562692450781, 22.139250623443221 ], [ -159.649616930867637, 22.13857873101508 ], [ -159.653002415698978, 22.136601475346062 ], [ -159.654544418171298, 22.134691179036455 ], [ -159.653866274599039, 22.134144413741932 ], [ -159.652964793276254, 22.134556355612879 ], [ -159.649180840262034, 22.13733659345737 ], [ -159.647047885997097, 22.137830018640255 ], [ -159.645841029918444, 22.138599143907403 ], [ -159.64525460817984, 22.13886705803408 ], [ -159.644390209035407, 22.139417939454283 ], [ -159.643238684664169, 22.13994401925121 ], [ -159.642939371150817, 22.140236722422262 ], [ -159.641771120796562, 22.140506915640525 ], [ -159.640282834576112, 22.141076133121398 ], [ -159.638870140914008, 22.141054806437278 ], [ -159.638457605156702, 22.141458195670783 ], [ -159.637719258768925, 22.138686946104279 ], [ -159.636626544307518, 22.136610778579005 ], [ -159.634993098753142, 22.134484559250097 ], [ -159.630378923967015, 22.130536681974498 ], [ -159.628039107673487, 22.129072115272166 ], [ -159.623375041517505, 22.1268560603779 ], [ -159.619019742218995, 22.125417620546795 ], [ -159.609123470030056, 22.122297297891585 ], [ -159.599050814539936, 22.118357171881573 ], [ -159.59089315067564, 22.114105744424197 ], [ -159.584873956527701, 22.11124377711587 ], [ -159.580390826328852, 22.109905825115842 ], [ -159.57766779978337, 22.108255987458985 ], [ -159.576474284473761, 22.106628594756835 ], [ -159.577044525269599, 22.105244624300351 ], [ -159.578258581154302, 22.103027926318006 ], [ -159.579719594970015, 22.099848080321102 ], [ -159.581058611262733, 22.094390559591634 ], [ -159.58219998026604, 22.085808285693016 ], [ -159.581846132396834, 22.074836833454828 ], [ -159.581213594175296, 22.072457891070041 ], [ -159.57658867040638, 22.061420250581463 ], [ -159.573700985514876, 22.055924785326109 ], [ -159.569710966993426, 22.049675225240211 ], [ -159.570284959788609, 22.048626889565977 ], [ -159.569546951775266, 22.04730351006512 ], [ -159.570121360054372, 22.046998591947588 ], [ -159.573380581791696, 22.046082556409768 ], [ -159.574030190833668, 22.044822154620014 ], [ -159.574771041423418, 22.045085155602866 ], [ -159.575190656181434, 22.0454892280626 ], [ -159.577682904105927, 22.045026539177854 ], [ -159.577664233731952, 22.044308777613001 ], [ -159.578015904164829, 22.042941556894679 ], [ -159.580132580533927, 22.041681140795205 ], [ -159.580265752408422, 22.042644245654987 ], [ -159.580600051560879, 22.04344579854995 ], [ -159.579916730066742, 22.044324884370472 ], [ -159.580124825094344, 22.045837830599453 ], [ -159.578441043262359, 22.046799457026815 ], [ -159.578609850289325, 22.048026828937061 ], [ -159.577954880062634, 22.048869397383861 ], [ -159.578419851280671, 22.049600453575099 ], [ -159.578992318112142, 22.050024504230404 ], [ -159.578717612425805, 22.051172039885547 ], [ -159.57834905117997, 22.051320599945722 ], [ -159.578602322832069, 22.051795719674708 ], [ -159.578717612425805, 22.051172039885547 ], [ -159.579445698947126, 22.05076563927144 ], [ -159.580079856663957, 22.050145662776945 ], [ -159.579721651515428, 22.048863134233606 ], [ -159.580331454231469, 22.048312769383603 ], [ -159.581613330784165, 22.048332603569641 ], [ -159.582063661888583, 22.047458805770212 ], [ -159.583213365448074, 22.046421165650905 ], [ -159.582902759470954, 22.045864373701399 ], [ -159.582915739592124, 22.045134524147443 ], [ -159.584373175349128, 22.044236288659345 ], [ -159.584338371740387, 22.042899085140608 ], [ -159.584941702692277, 22.042062482471731 ], [ -159.585522457490669, 22.042071457084969 ], [ -159.5861485095445, 22.039636754282238 ], [ -159.58786255792694, 22.040176879630081 ], [ -159.587824679451444, 22.042313126799169 ], [ -159.588284385266007, 22.043137272688885 ], [ -159.58896328965244, 22.044429149785131 ], [ -159.590462639990591, 22.044731829306755 ], [ -159.589587117024394, 22.043953702448047 ], [ -159.589592076880677, 22.043677547883558 ], [ -159.589093033845188, 22.04278299548643 ], [ -159.589855843698103, 22.042055657321594 ], [ -159.596265295642098, 22.049742428465301 ], [ -159.600405398340712, 22.058549819055173 ], [ -159.605379794305065, 22.069112082892591 ], [ -159.606703810194404, 22.073604709138625 ], [ -159.605669622662532, 22.074538250157016 ], [ -159.606891189358834, 22.074510480769266 ], [ -159.608939113834367, 22.084375669024084 ], [ -159.609276469216297, 22.093223866736036 ], [ -159.60869693478972, 22.093746914579128 ], [ -159.608711198180771, 22.094291520845754 ], [ -159.608699098048135, 22.094979958018016 ], [ -159.606877212761958, 22.095812042603768 ], [ -159.607558329625391, 22.096740392217882 ], [ -159.607540562364818, 22.097748324365256 ], [ -159.602912612174407, 22.098367870424951 ], [ -159.602027395800036, 22.098931855555673 ], [ -159.601306026327705, 22.098920798134532 ], [ -159.600577602283749, 22.098937322310789 ], [ -159.600286476011831, 22.097843167057519 ], [ -159.599847365867959, 22.097853116486739 ], [ -159.599374740693264, 22.097845868249077 ], [ -159.598255308522027, 22.098940232519769 ], [ -159.596500945158198, 22.099477840238361 ], [ -159.595539995566924, 22.101342230524157 ], [ -159.594327500557227, 22.101659370326875 ], [ -159.593890395132917, 22.100827990061603 ], [ -159.592790432210109, 22.099850781911268 ], [ -159.591327600385796, 22.099507493210702 ], [ -159.59099251810909, 22.101140469455071 ], [ -159.590406267246749, 22.101131439380374 ], [ -159.590023797752337, 22.101873403893368 ], [ -159.588665774110012, 22.102493430788563 ], [ -159.588817987665379, 22.103172657232648 ] ], [ [ -159.640232261197895, 22.153389122167336 ], [ -159.640933835218704, 22.153218459916925 ], [ -159.641217708507725, 22.15201933398474 ], [ -159.640372064295633, 22.152199421137457 ], [ -159.640232261197895, 22.153389122167336 ], [ -159.639877961952152, 22.153483286830756 ], [ -159.640134173085329, 22.153719944829806 ], [ -159.640232261197895, 22.153389122167336 ] ], [ [ -159.645165794291017, 22.150659485760773 ], [ -159.645285158090104, 22.151274911718254 ], [ -159.645544632250022, 22.150808723435151 ], [ -159.645165794291017, 22.150659485760773 ] ], [ [ -159.650065539992937, 22.140612306220412 ], [ -159.649670987108692, 22.141460326462589 ], [ -159.650248346110345, 22.141801441356645 ], [ -159.650525470391244, 22.142525385681274 ], [ -159.650761642218299, 22.140766611926519 ], [ -159.650065539992937, 22.140612306220412 ] ] ] } },
{ "type": "Feature", "properties": { "ID": 13, "GRIDCODE": 2 }, "geometry": { "type": "Polygon", "coordinates": [ [ [ -159.580132580533927, 22.041681140795205 ], [ -159.580428024590532, 22.040021683063525 ], [ -159.581217061201272, 22.039574117445223 ], [ -159.581122471057313, 22.040186990231529 ], [ -159.581217403303071, 22.04077032445986 ], [ -159.580548177584603, 22.041255677669625 ], [ -159.580296190810401, 22.041562500211196 ], [ -159.580132580533927, 22.041681140795205 ] ] ] } },
{ "type": "Feature", "properties": { "ID": 14, "GRIDCODE": 2 }, "geometry": { "type": "Polygon", "coordinates": [ [ [ -159.585936716645051, 22.039221247204161 ], [ -159.586291535864916, 22.039312761911862 ], [ -159.586037580619887, 22.03955133094636 ], [ -159.585936716645051, 22.039221247204161 ] ] ] } },
{ "type": "Feature", "properties": { "ID": 15, "GRIDCODE": 2 }, "geometry": { "type": "Polygon", "coordinates": [ [ [ -159.568470655267248, 22.03332022859809 ], [ -159.569474079918791, 22.033844569552056 ], [ -159.569217348771417, 22.0342812146298 ], [ -159.568314006870509, 22.034525403176726 ], [ -159.567476422203754, 22.035100333932402 ], [ -159.566863768690382, 22.035343507248975 ], [ -159.566606490576021, 22.035645398043648 ], [ -159.56599383317436, 22.035888568171469 ], [ -159.565280828869618, 22.036992240142492 ], [ -159.562622807099245, 22.037309770745303 ], [ -159.562478998133344, 22.036263362468887 ], [ -159.564553180231968, 22.0358912903292 ], [ -159.564857715714538, 22.035925541305708 ], [ -159.56541136097556, 22.035619553582368 ], [ -159.566024018278824, 22.03537638562884 ], [ -159.566571993413277, 22.035073490474222 ], [ -159.567532778903342, 22.034692110491502 ], [ -159.567397413881849, 22.03370698268499 ], [ -159.56832229780116, 22.033810985982715 ], [ -159.568470655267248, 22.03332022859809 ] ] ] } },
{ "type": "Feature", "properties": { "ID": 16, "GRIDCODE": 2 }, "geometry": { "type": "Polygon", "coordinates": [ [ [ -159.551222244217143, 22.008173642248579 ], [ -159.551337623516702, 22.007549976641382 ], [ -159.551590724685042, 22.008025144198797 ], [ -159.551222244217143, 22.008173642248579 ] ] ] } },
{ "type": "Feature", "properties": { "ID": 17, "GRIDCODE": 2 }, "geometry": { "type": "Polygon", "coordinates": [ [ [ -159.551222244217143, 22.008173642248579 ], [ -159.551960528575393, 22.009410004904606 ], [ -159.553406761560495, 22.009377603343705 ], [ -159.553758839518565, 22.010048144010767 ], [ -159.553025301304501, 22.012070423567181 ], [ -159.554002567545439, 22.012362484926616 ], [ -159.55428861669057, 22.01263807052112 ], [ -159.554596772013809, 22.012631172347199 ], [ -159.554568693200451, 22.011542376870246 ], [ -159.555159912904998, 22.011008858304443 ], [ -159.555449319964026, 22.010725899623377 ], [ -159.556030657246026, 22.010734979165967 ], [ -159.556903418181207, 22.010178961361152 ], [ -159.557770595284353, 22.010192522482935 ], [ -159.558054183412764, 22.009367441566084 ], [ -159.558645168849665, 22.008834109979919 ], [ -159.558328168932007, 22.008265459830231 ], [ -159.559788370460126, 22.008288271740028 ], [ -159.560374222567418, 22.008004292134267 ], [ -159.560958245278755, 22.008013411385019 ], [ -159.561554029411155, 22.008000023969082 ], [ -159.562113583539173, 22.006914328023761 ], [ -159.562698957704725, 22.00638601363492 ], [ -159.562691511059199, 22.006099313281585 ], [ -159.563288958414802, 22.005826499264177 ], [ -159.563860039617509, 22.004718458977273 ], [ -159.563839511119596, 22.00392329643735 ], [ -159.564723026254001, 22.004201903619027 ], [ -159.565008159503577, 22.00392307867607 ], [ -159.565304547533373, 22.003655562396567 ], [ -159.565000582862609, 22.002297287842332 ], [ -159.566208052258389, 22.001927276044711 ], [ -159.566154409970437, 21.999853797093873 ], [ -159.566917507217084, 21.999314449339348 ], [ -159.56892338862238, 22.003675850324665 ], [ -159.568486500803289, 22.00447397117048 ], [ -159.56851410038928, 22.005541177448027 ], [ -159.567168501734642, 22.005852016673394 ], [ -159.567934604408634, 22.006897560603328 ], [ -159.567636800641765, 22.007166327130054 ], [ -159.567294695671848, 22.00750081963546 ], [ -159.56580801447987, 22.007150977887527 ], [ -159.564977135977301, 22.008342333162702 ], [ -159.563862123668287, 22.007990729536171 ], [ -159.563581188979157, 22.009082934162954 ], [ -159.562704488632875, 22.009351546887441 ], [ -159.562391112408818, 22.010263451723276 ], [ -159.560968090152016, 22.011254688318992 ], [ -159.560544075528583, 22.012077359199264 ], [ -159.559389806438531, 22.014185650546104 ], [ -159.560120705763296, 22.014509912501261 ], [ -159.560099706626431, 22.013698722317422 ], [ -159.561478237068513, 22.013276398865841 ], [ -159.562138837708744, 22.012329228686724 ], [ -159.56271918788724, 22.012338271226504 ], [ -159.563155130174806, 22.01232848658514 ], [ -159.56359390552592, 22.012335315939797 ], [ -159.564466645631228, 22.011779258391403 ], [ -159.5650748116785, 22.011788742741956 ], [ -159.565043953744379, 22.013509649359062 ], [ -159.566240311195088, 22.013123214973429 ], [ -159.567364470847281, 22.013140717071558 ], [ -159.568200689032665, 22.012735349670539 ], [ -159.567376797448219, 22.015007260028671 ], [ -159.567387357751556, 22.015413962347591 ], [ -159.571338273378984, 22.014645088985386 ], [ -159.570175702821444, 22.016257184179452 ], [ -159.569402650586085, 22.016917174344957 ], [ -159.568824993363933, 22.016360749719357 ], [ -159.567409775101481, 22.016392585601388 ], [ -159.565722026627753, 22.016076326855156 ], [ -159.565052152799154, 22.016401027898343 ], [ -159.564476398946823, 22.01639206080139 ], [ -159.564192512487637, 22.016669590279715 ], [ -159.563594597076388, 22.016942624665408 ], [ -159.563619151072345, 22.017893781362538 ], [ -159.562736824423297, 22.01829667055959 ], [ -159.563342429250469, 22.019123154385213 ], [ -159.561870620036075, 22.019100200881709 ], [ -159.56188150308364, 22.019520599440284 ], [ -159.561874103719333, 22.019929663099941 ], [ -159.562175278130809, 22.020469807386167 ], [ -159.561586622456048, 22.020738568110435 ], [ -159.561601194198005, 22.02130277160029 ], [ -159.560408271619423, 22.021284159440842 ], [ -159.560436473868322, 22.02237401009765 ], [ -159.559439614681111, 22.022679377061834 ], [ -159.557376730629244, 22.022647151958058 ], [ -159.556666778152277, 22.024024269599234 ], [ -159.555506691976831, 22.024006139197837 ], [ -159.554920764729729, 22.024290102432104 ], [ -159.554444621769875, 22.024282665632139 ], [ -159.55058950640705, 22.015264668167884 ], [ -159.548149466603405, 22.010335094494685 ], [ -159.548177371683096, 22.008789643519851 ], [ -159.550539111399615, 22.009345621137161 ], [ -159.55107452720685, 22.008306939723116 ], [ -159.551222244217143, 22.008173642248579 ] ] ] } }
]
}
