{
"type": "FeatureCollection",
"name": "schhale",
"crs": { "type": "name", "properties": { "name": "urn:ogc:def:crs:OGC:1.3:CRS84" } },
"features": [
{ "type": "Feature", "properties": { "ID": 1, "GRIDCODE": 2 }, "geometry": { "type": "Polygon", "coordinates": [ [ [ -156.214749197444235, 20.738583519189085 ], [ -156.215098278976171, 20.738681879346139 ], [ -156.214841808601363, 20.738915233926516 ], [ -156.214749197444235, 20.738583519189085 ] ] ] } },
{ "type": "Feature", "properties": { "ID": 2, "GRIDCODE": 2 }, "geometry": { "type": "Polygon", "coordinates": [ [ [ -156.215051888923199, 20.737775915578279 ], [ -156.215400968941083, 20.737874274939571 ], [ -156.215144500495938, 20.738107630198932 ], [ -156.215051888923199, 20.737775915578279 ] ] ] } },
{ "type": "Feature", "properties": { "ID": 3, "GRIDCODE": 2 }, "geometry": { "type": "Polygon", "coordinates": [ [ [ -156.199529840408161, 20.736440362703188 ], [ -156.19987890335878, 20.736538752152008 ], [ -156.199622416568928, 20.736772081794346 ], [ -156.199529840408161, 20.736440362703188 ] ] ] } },
{ "type": "Feature", "properties": { "ID": 4, "GRIDCODE": 2 }, "geometry": { "type": "Polygon", "coordinates": [ [ [ -156.171667981920478, 20.733005021135092 ], [ -156.172327819532541, 20.733125636371081 ], [ -156.171817856774624, 20.733351312730349 ], [ -156.171667981920478, 20.733005021135092 ] ] ] } },
{ "type": "Feature", "properties": { "ID": 5, "GRIDCODE": 2 }, "geometry": { "type": "Polygon", "coordinates": [ [ [ -156.170228997941223, 20.732981338588996 ], [ -156.171423054943375, 20.733128999931914 ], [ -156.171592523513368, 20.733903280258328 ], [ -156.170515250106803, 20.734112078727698 ], [ -156.170228997941223, 20.732981338588996 ] ] ] } },
{ "type": "Feature", "properties": { "ID": 6, "GRIDCODE": 2 }, "geometry": { "type": "Polygon", "coordinates": [ [ [ -156.221745874559787, 20.733821691588446 ], [ -156.221396797758445, 20.73372334567874 ], [ -156.221653249531528, 20.733489979046858 ], [ -156.221745874559787, 20.733821691588446 ] ] ] } },
{ "type": "Feature", "properties": { "ID": 7, "GRIDCODE": 2 }, "geometry": { "type": "Polygon", "coordinates": [ [ [ -156.171688115385365, 20.731922037072554 ], [ -156.172037142964541, 20.732020479920521 ], [ -156.171780627333817, 20.732253764041126 ], [ -156.171688115385365, 20.731922037072554 ] ] ] } },
{ "type": "Feature", "properties": { "ID": 8, "GRIDCODE": 2 }, "geometry": { "type": "Polygon", "coordinates": [ [ [ -156.16564443913029, 20.731822495334814 ], [ -156.165295417825462, 20.731724040018289 ], [ -156.165551941150056, 20.731490766620954 ], [ -156.16564443913029, 20.731822495334814 ] ] ] } },
{ "type": "Feature", "properties": { "ID": 9, "GRIDCODE": 2 }, "geometry": { "type": "Polygon", "coordinates": [ [ [ -156.172566595272428, 20.731124001271677 ], [ -156.172765937901687, 20.731244048361798 ], [ -156.173100187406476, 20.732319372968199 ], [ -156.172657997369214, 20.732105540634901 ], [ -156.172566595272428, 20.731124001271677 ] ] ] } },
{ "type": "Feature", "properties": { "ID": 10, "GRIDCODE": 2 }, "geometry": { "type": "Polygon", "coordinates": [ [ [ -156.171420454685034, 20.730834317845819 ], [ -156.171769479613062, 20.730932760940959 ], [ -156.171512965677238, 20.731166044851729 ], [ -156.171420454685034, 20.730834317845819 ] ] ] } },
{ "type": "Feature", "properties": { "ID": 11, "GRIDCODE": 2 }, "geometry": { "type": "Polygon", "coordinates": [ [ [ -156.1691181146048, 20.730796420478434 ], [ -156.169406871793484, 20.730991072523789 ], [ -156.169212059324792, 20.731745866932943 ], [ -156.169301465002576, 20.732153581801398 ], [ -156.169162106551113, 20.732692943723581 ], [ -156.169278971802584, 20.733226474745614 ], [ -156.168780712302379, 20.733880528647429 ], [ -156.168300735540669, 20.733642788563188 ], [ -156.168674593548104, 20.732845189987536 ], [ -156.168935667875104, 20.731445625769759 ], [ -156.1691181146048, 20.730796420478434 ] ] ] } },
{ "type": "Feature", "properties": { "ID": 12, "GRIDCODE": 2 }, "geometry": { "type": "Polygon", "coordinates": [ [ [ -156.198185536230909, 20.731272618610756 ], [ -156.198290265284214, 20.730944114850409 ], [ -156.198537999301777, 20.731185660386771 ], [ -156.198185536230909, 20.731272618610756 ] ] ] } },
{ "type": "Feature", "properties": { "ID": 13, "GRIDCODE": 2 }, "geometry": { "type": "Polygon", "coordinates": [ [ [ -156.17200107284367, 20.730573041238035 ], [ -156.172384510222315, 20.730771229688884 ], [ -156.172107590866119, 20.731467153640512 ], [ -156.17200107284367, 20.730573041238035 ] ] ] } },
{ "type": "Feature", "properties": { "ID": 14, "GRIDCODE": 2 }, "geometry": { "type": "Polygon", "coordinates": [ [ [ -156.199346705687418, 20.730749872016446 ], [ -156.19969575587254, 20.730848260389784 ], [ -156.199439279569845, 20.731081590958002 ], [ -156.199346705687418, 20.730749872016446 ] ] ] } },
{ "type": "Feature", "properties": { "ID": 15, "GRIDCODE": 2 }, "geometry": { "type": "Polygon", "coordinates": [ [ [ -156.171728378439894, 20.729756068482711 ], [ -156.172077401263152, 20.729854510700246 ], [ -156.171820889776001, 20.730087795360951 ], [ -156.171728378439894, 20.729756068482711 ] ] ] } },
{ "type": "Feature", "properties": { "ID": 16, "GRIDCODE": 2 }, "geometry": { "type": "Polygon", "coordinates": [ [ [ -156.1691181146048, 20.730796420478434 ], [ -156.16830161358871, 20.731103391574951 ], [ -156.167381281699392, 20.731309467382594 ], [ -156.168707619277569, 20.72971084306926 ], [ -156.170419100621729, 20.729501648697976 ], [ -156.170161236634925, 20.729883150073523 ], [ -156.169831961122838, 20.730113646823384 ], [ -156.169575582392952, 20.730415166007973 ], [ -156.169246304880744, 20.730645661386703 ], [ -156.1691181146048, 20.730796420478434 ] ] ] } },
{ "type": "Feature", "properties": { "ID": 17, "GRIDCODE": 2 }, "geometry": { "type": "Polygon", "coordinates": [ [ [ -156.22728337842392, 20.730119362075644 ], [ -156.227632452582782, 20.730217695547523 ], [ -156.227376015016659, 20.730451072851643 ], [ -156.22728337842392, 20.730119362075644 ] ] ] } },
{ "type": "Feature", "properties": { "ID": 18, "GRIDCODE": 2 }, "geometry": { "type": "Polygon", "coordinates": [ [ [ -156.197932638997855, 20.729372662319733 ], [ -156.198281684848155, 20.729471053116093 ], [ -156.198025209243781, 20.729704381622241 ], [ -156.197932638997855, 20.729372662319733 ] ] ] } },
{ "type": "Feature", "properties": { "ID": 19, "GRIDCODE": 2 }, "geometry": { "type": "Polygon", "coordinates": [ [ [ -156.23046402571353, 20.729358111917268 ], [ -156.230813101069629, 20.729456438965443 ], [ -156.230556669215872, 20.729689821734635 ], [ -156.23046402571353, 20.729358111917268 ] ] ] } },
{ "type": "Feature", "properties": { "ID": 20, "GRIDCODE": 2 }, "geometry": { "type": "Polygon", "coordinates": [ [ [ -156.229605541730479, 20.729073441680132 ], [ -156.230265437313562, 20.729193837578173 ], [ -156.229755552414019, 20.729419697431283 ], [ -156.229605541730479, 20.729073441680132 ] ] ] } },
{ "type": "Feature", "properties": { "ID": 21, "GRIDCODE": 2 }, "geometry": { "type": "Polygon", "coordinates": [ [ [ -156.175504846083442, 20.727922347235548 ], [ -156.178018515642634, 20.728205360379548 ], [ -156.177916249415887, 20.72918715974928 ], [ -156.178285664645642, 20.730187280613421 ], [ -156.176797116958653, 20.730275247197469 ], [ -156.176185817314575, 20.729433146622757 ], [ -156.175929808311338, 20.728867181529971 ], [ -156.175324964280577, 20.728359357864019 ], [ -156.175504846083442, 20.727922347235548 ] ] ] } },
{ "type": "Feature", "properties": { "ID": 22, "GRIDCODE": 2 }, "geometry": { "type": "Polygon", "coordinates": [ [ [ -156.174646508251897, 20.727637414863672 ], [ -156.174995529050079, 20.72773585082772 ], [ -156.174739025474963, 20.72796914082635 ], [ -156.174646508251897, 20.727637414863672 ] ] ] } },
{ "type": "Feature", "properties": { "ID": 23, "GRIDCODE": 2 }, "geometry": { "type": "Polygon", "coordinates": [ [ [ -156.184436342483281, 20.727527179455109 ], [ -156.184431333066783, 20.727797928607995 ], [ -156.184143542774024, 20.727793215540569 ], [ -156.184148552700918, 20.727522466454769 ], [ -156.184436342483281, 20.727527179455109 ] ] ] } },
{ "type": "Feature", "properties": { "ID": 24, "GRIDCODE": 2 }, "geometry": { "type": "Polygon", "coordinates": [ [ [ -156.175514896640152, 20.727380853104979 ], [ -156.175863917662753, 20.727479287303353 ], [ -156.175607415736238, 20.72771257880866 ], [ -156.175514896640152, 20.727380853104979 ] ] ] } },
{ "type": "Feature", "properties": { "ID": 25, "GRIDCODE": 2 }, "geometry": { "type": "Polygon", "coordinates": [ [ [ -156.174646508251897, 20.727637414863672 ], [ -156.173686123123446, 20.727503935986032 ], [ -156.174457932701415, 20.727285861065909 ], [ -156.174646508251897, 20.727637414863672 ] ] ] } },
{ "type": "Feature", "properties": { "ID": 26, "GRIDCODE": 2 }, "geometry": { "type": "Polygon", "coordinates": [ [ [ -156.229049655503758, 20.727981127779191 ], [ -156.231183397508318, 20.728357621898724 ], [ -156.230853207835537, 20.729137314820306 ], [ -156.229547352953148, 20.728609776663419 ], [ -156.229049655503758, 20.727981127779191 ] ] ] } },
{ "type": "Feature", "properties": { "ID": 27, "GRIDCODE": 2 }, "geometry": { "type": "Polygon", "coordinates": [ [ [ -156.184436342483281, 20.727527179455109 ], [ -156.184564495959449, 20.726906419102018 ], [ -156.184804422737983, 20.727386021483206 ], [ -156.184436342483281, 20.727527179455109 ] ] ] } },
{ "type": "Feature", "properties": { "ID": 28, "GRIDCODE": 2 }, "geometry": { "type": "Polygon", "coordinates": [ [ [ -156.184143542774024, 20.727793215540569 ], [ -156.183967348322852, 20.728715889773028 ], [ -156.183148662437958, 20.72838337925392 ], [ -156.18360077721303, 20.726587934618287 ], [ -156.184049835620584, 20.726825786993924 ], [ -156.183871555875413, 20.727602961191671 ], [ -156.184143542774024, 20.727793215540569 ] ] ] } },
{ "type": "Feature", "properties": { "ID": 29, "GRIDCODE": 2 }, "geometry": { "type": "Polygon", "coordinates": [ [ [ -156.183310239920246, 20.72615458000427 ], [ -156.183659265336189, 20.726252998626492 ], [ -156.183402776178013, 20.726486303418913 ], [ -156.183310239920246, 20.72615458000427 ] ] ] } },
{ "type": "Feature", "properties": { "ID": 30, "GRIDCODE": 2 }, "geometry": { "type": "Polygon", "coordinates": [ [ [ -156.152810341645363, 20.725381419507507 ], [ -156.152805276578277, 20.72565216129842 ], [ -156.151941941799464, 20.725637863383621 ], [ -156.151947008397315, 20.725367121796232 ], [ -156.152810341645363, 20.725381419507507 ] ] ] } },
{ "type": "Feature", "properties": { "ID": 31, "GRIDCODE": 2 }, "geometry": { "type": "Polygon", "coordinates": [ [ [ -156.183330283340467, 20.725071584176074 ], [ -156.184259605439451, 20.725197358628606 ], [ -156.18342632284228, 20.725563377427154 ], [ -156.183330283340467, 20.725071584176074 ] ] ] } },
{ "type": "Feature", "properties": { "ID": 32, "GRIDCODE": 2 }, "geometry": { "type": "Polygon", "coordinates": [ [ [ -156.232552517842123, 20.725329148844725 ], [ -156.233227642775233, 20.725477152044242 ], [ -156.232901313498019, 20.725952747228181 ], [ -156.232552517842123, 20.725329148844725 ] ] ] } },
{ "type": "Feature", "properties": { "ID": 33, "GRIDCODE": 2 }, "geometry": { "type": "Polygon", "coordinates": [ [ [ -156.172131885117182, 20.723533638045279 ], [ -156.17241966437274, 20.723538370274806 ], [ -156.173663270912186, 20.725283103697702 ], [ -156.174964452231109, 20.726017662022794 ], [ -156.174959426375494, 20.726288409006706 ], [ -156.175247211540523, 20.726293137107341 ], [ -156.175242186114616, 20.726563884148877 ], [ -156.175529971870588, 20.726568611836544 ], [ -156.175328354974113, 20.727222537625618 ], [ -156.172943104602069, 20.72679256324378 ], [ -156.171694772606543, 20.725302045612374 ], [ -156.17154023347149, 20.724359933315384 ], [ -156.172131885117182, 20.723533638045279 ] ] ] } },
{ "type": "Feature", "properties": { "ID": 34, "GRIDCODE": 2 }, "geometry": { "type": "Polygon", "coordinates": [ [ [ -156.159757453586025, 20.72332969792696 ], [ -156.16101336406544, 20.723471965289054 ], [ -156.159975078472542, 20.723689149371044 ], [ -156.159757453586025, 20.72332969792696 ] ] ] } },
{ "type": "Feature", "properties": { "ID": 35, "GRIDCODE": 2 }, "geometry": { "type": "Polygon", "coordinates": [ [ [ -156.172131885117182, 20.723533638045279 ], [ -156.171782876226786, 20.723435197544177 ], [ -156.172039375207021, 20.723201911494733 ], [ -156.172131885117182, 20.723533638045279 ] ] ] } },
{ "type": "Feature", "properties": { "ID": 36, "GRIDCODE": 2 }, "geometry": { "type": "Polygon", "coordinates": [ [ [ -156.231425953961974, 20.723956817083277 ], [ -156.231775018230394, 20.724055140900788 ], [ -156.231518597840704, 20.724288526430605 ], [ -156.231425953961974, 20.723956817083277 ] ] ] } },
{ "type": "Feature", "properties": { "ID": 37, "GRIDCODE": 2 }, "geometry": { "type": "Polygon", "coordinates": [ [ [ -156.230855290719575, 20.723676789279921 ], [ -156.231430878834146, 20.723686056923334 ], [ -156.231425953961974, 20.723956817083277 ], [ -156.230850364826722, 20.723947549307919 ], [ -156.230855290719575, 20.723676789279921 ] ] ] } },
{ "type": "Feature", "properties": { "ID": 38, "GRIDCODE": 2 }, "geometry": { "type": "Polygon", "coordinates": [ [ [ -156.195735039660406, 20.723649334207327 ], [ -156.195863142763415, 20.723028559518738 ], [ -156.196103102697492, 20.72350814968437 ], [ -156.195735039660406, 20.723649334207327 ] ] ] } },
{ "type": "Feature", "properties": { "ID": 39, "GRIDCODE": 2 }, "geometry": { "type": "Polygon", "coordinates": [ [ [ -156.180497577197968, 20.722587684252844 ], [ -156.180846592160208, 20.722686107477372 ], [ -156.180590105959425, 20.722919408349135 ], [ -156.180497577197968, 20.722587684252844 ] ] ] } },
{ "type": "Feature", "properties": { "ID": 40, "GRIDCODE": 2 }, "geometry": { "type": "Polygon", "coordinates": [ [ [ -156.230855290719575, 20.723676789279921 ], [ -156.229859906255115, 20.724026549461627 ], [ -156.230560488778906, 20.723037526735883 ], [ -156.231679351987367, 20.722900284810628 ], [ -156.232378238873792, 20.723426102603089 ], [ -156.231221285405809, 20.723246139023733 ], [ -156.230855290719575, 20.723676789279921 ] ] ] } },
{ "type": "Feature", "properties": { "ID": 41, "GRIDCODE": 2 }, "geometry": { "type": "Polygon", "coordinates": [ [ [ -156.225119170579433, 20.722500972260043 ], [ -156.225519637814642, 20.722770866253377 ], [ -156.225246465861289, 20.724092482562575 ], [ -156.224631583837066, 20.723170067612244 ], [ -156.225119170579433, 20.722500972260043 ] ] ] } },
{ "type": "Feature", "properties": { "ID": 42, "GRIDCODE": 2 }, "geometry": { "type": "Polygon", "coordinates": [ [ [ -156.185985423300309, 20.721594246065496 ], [ -156.186683573141664, 20.72218039231597 ], [ -156.185226030992283, 20.72333217260222 ], [ -156.183816772349843, 20.722693646232976 ], [ -156.184746899834835, 20.722030342582137 ], [ -156.185849524707038, 20.721737488503109 ], [ -156.185985423300309, 20.721594246065496 ] ] ] } },
{ "type": "Feature", "properties": { "ID": 43, "GRIDCODE": 2 }, "geometry": { "type": "Polygon", "coordinates": [ [ [ -156.179078750499826, 20.721481094572404 ], [ -156.179486310095626, 20.721787835108621 ], [ -156.178801983808086, 20.722110916425081 ], [ -156.179078750499826, 20.721481094572404 ] ] ] } },
{ "type": "Feature", "properties": { "ID": 44, "GRIDCODE": 2 }, "geometry": { "type": "Polygon", "coordinates": [ [ [ -156.175529971870588, 20.726568611836544 ], [ -156.175534996786155, 20.726297864727712 ], [ -156.175247211540523, 20.726293137107341 ], [ -156.175252236885797, 20.726022390056123 ], [ -156.174964452231109, 20.726017662022794 ], [ -156.174633874853697, 20.724819945712252 ], [ -156.174093516564398, 20.724413285463839 ], [ -156.173560920790266, 20.723740153715799 ], [ -156.17241966437274, 20.723538370274806 ], [ -156.17258832149227, 20.722404136798371 ], [ -156.173990114083693, 20.721639683605339 ], [ -156.175173771948124, 20.721495019112023 ], [ -156.174884225612971, 20.722721691377103 ], [ -156.174025484387357, 20.723323163260005 ], [ -156.174557349832298, 20.72359651714067 ], [ -156.177159285958624, 20.724042584799889 ], [ -156.178847314487086, 20.723836219722795 ], [ -156.180829561186357, 20.724637713231385 ], [ -156.18094038797804, 20.725438665697439 ], [ -156.180792706858256, 20.72627822606934 ], [ -156.181488386019538, 20.726193094766778 ], [ -156.182563241867712, 20.726627668363225 ], [ -156.182280164783151, 20.728205697191299 ], [ -156.181302396992294, 20.727628701543747 ], [ -156.181059649461076, 20.72790904098823 ], [ -156.181221789781773, 20.729081507658627 ], [ -156.180068022909381, 20.728247186779665 ], [ -156.176895237444256, 20.727562609323098 ], [ -156.175529971870588, 20.726568611836544 ] ] ] } },
{ "type": "Feature", "properties": { "ID": 45, "GRIDCODE": 2 }, "geometry": { "type": "Polygon", "coordinates": [ [ [ -156.229158100341664, 20.722024416828557 ], [ -156.230443323017056, 20.722276813697015 ], [ -156.229399193985472, 20.724038567403412 ], [ -156.227543011941918, 20.724077815799486 ], [ -156.228106828262241, 20.722417833840108 ], [ -156.229017267826379, 20.722162724839563 ], [ -156.229158100341664, 20.722024416828557 ] ] ] } },
{ "type": "Feature", "properties": { "ID": 46, "GRIDCODE": 2 }, "geometry": { "type": "Polygon", "coordinates": [ [ [ -156.222538941109605, 20.721917643693377 ], [ -156.223248911780928, 20.722141890825171 ], [ -156.222476170138748, 20.723401080979833 ], [ -156.221988538890088, 20.72273171464915 ], [ -156.222538941109605, 20.721917643693377 ] ] ] } },
{ "type": "Feature", "properties": { "ID": 47, "GRIDCODE": 2 }, "geometry": { "type": "Polygon", "coordinates": [ [ [ -156.191746014121605, 20.721417576656894 ], [ -156.192095036739943, 20.7215159775612 ], [ -156.191838567832804, 20.721749297465792 ], [ -156.191746014121605, 20.721417576656894 ] ] ] } },
{ "type": "Feature", "properties": { "ID": 48, "GRIDCODE": 2 }, "geometry": { "type": "Polygon", "coordinates": [ [ [ -156.234918843182584, 20.721846295513501 ], [ -156.235326533357323, 20.722152916448195 ], [ -156.234914312278221, 20.722776706474544 ], [ -156.23421096208105, 20.722403306378137 ], [ -156.234790720289936, 20.721997112029612 ], [ -156.234918843182584, 20.721846295513501 ] ] ] } },
{ "type": "Feature", "properties": { "ID": 49, "GRIDCODE": 2 }, "geometry": { "type": "Polygon", "coordinates": [ [ [ -156.179952113448394, 20.720953757021675 ], [ -156.18021530958282, 20.721617693214167 ], [ -156.17954255496619, 20.721240484541031 ], [ -156.179952113448394, 20.720953757021675 ] ] ] } },
{ "type": "Feature", "properties": { "ID": 50, "GRIDCODE": 2 }, "geometry": { "type": "Polygon", "coordinates": [ [ [ -156.187444328676833, 20.72053478424121 ], [ -156.186891155477639, 20.721185360434983 ], [ -156.186478386463733, 20.720672914575633 ], [ -156.187444328676833, 20.72053478424121 ] ] ] } },
{ "type": "Feature", "properties": { "ID": 51, "GRIDCODE": 2 }, "geometry": { "type": "Polygon", "coordinates": [ [ [ -156.179952113448394, 20.720953757021675 ], [ -156.180165593218874, 20.72029512421728 ], [ -156.180644354648166, 20.7207797040586 ], [ -156.179952113448394, 20.720953757021675 ] ] ] } },
{ "type": "Feature", "properties": { "ID": 52, "GRIDCODE": 2 }, "geometry": { "type": "Polygon", "coordinates": [ [ [ -156.187444328676833, 20.72053478424121 ], [ -156.187549069698974, 20.720206288481663 ], [ -156.187796769348466, 20.720447845822211 ], [ -156.187444328676833, 20.72053478424121 ] ] ] } },
{ "type": "Feature", "properties": { "ID": 53, "GRIDCODE": 2 }, "geometry": { "type": "Polygon", "coordinates": [ [ [ -156.18687878037116, 20.719983870940876 ], [ -156.187227795387315, 20.720082281012051 ], [ -156.186971322654898, 20.720315593103923 ], [ -156.18687878037116, 20.719983870940876 ] ] ] } },
{ "type": "Feature", "properties": { "ID": 54, "GRIDCODE": 2 }, "geometry": { "type": "Polygon", "coordinates": [ [ [ -156.166446874593106, 20.719648460915575 ], [ -156.166795870240378, 20.719746910895967 ], [ -156.166539370755572, 20.719980188940397 ], [ -156.166446874593106, 20.719648460915575 ] ] ] } },
{ "type": "Feature", "properties": { "ID": 55, "GRIDCODE": 2 }, "geometry": { "type": "Polygon", "coordinates": [ [ [ -156.186020456734894, 20.719698997888468 ], [ -156.1863694703394, 20.719797409567864 ], [ -156.186112996993074, 20.720030720288875 ], [ -156.186020456734894, 20.719698997888468 ] ] ] } },
{ "type": "Feature", "properties": { "ID": 56, "GRIDCODE": 2 }, "geometry": { "type": "Polygon", "coordinates": [ [ [ -156.166446874593106, 20.719648460915575 ], [ -156.166097879482066, 20.719550010277281 ], [ -156.16635437874632, 20.719316732876376 ], [ -156.166446874593106, 20.719648460915575 ] ] ] } },
{ "type": "Feature", "properties": { "ID": 57, "GRIDCODE": 2 }, "geometry": { "type": "Polygon", "coordinates": [ [ [ -156.225451374863098, 20.720068785923498 ], [ -156.225346712897505, 20.720397314131453 ], [ -156.225098946697102, 20.720155804162683 ], [ -156.225451374863098, 20.720068785923498 ] ] ] } },
{ "type": "Feature", "properties": { "ID": 58, "GRIDCODE": 2 }, "geometry": { "type": "Polygon", "coordinates": [ [ [ -156.186020456734894, 20.719698997888468 ], [ -156.185671443665854, 20.719600585550744 ], [ -156.185927916793133, 20.719367275473331 ], [ -156.186020456734894, 20.719698997888468 ] ] ] } },
{ "type": "Feature", "properties": { "ID": 59, "GRIDCODE": 2 }, "geometry": { "type": "Polygon", "coordinates": [ [ [ -156.225451374863098, 20.720068785923498 ], [ -156.225585141177277, 20.718914457919798 ], [ -156.22610254347245, 20.719956036626357 ], [ -156.225451374863098, 20.720068785923498 ] ] ] } },
{ "type": "Feature", "properties": { "ID": 60, "GRIDCODE": 2 }, "geometry": { "type": "Polygon", "coordinates": [ [ [ -156.181158363650724, 20.717994393497271 ], [ -156.183441299006688, 20.718251313953473 ], [ -156.184370880134111, 20.71953129520606 ], [ -156.182323622625148, 20.720847161810518 ], [ -156.180428661720498, 20.71990350610616 ], [ -156.180352311533994, 20.718759026304944 ], [ -156.180708694001453, 20.718383219216072 ], [ -156.181022464662959, 20.718137632015427 ], [ -156.181158363650724, 20.717994393497271 ] ] ] } },
{ "type": "Feature", "properties": { "ID": 61, "GRIDCODE": 2 }, "geometry": { "type": "Polygon", "coordinates": [ [ [ -156.224042067648043, 20.718421015472352 ], [ -156.225315090189042, 20.718245304168811 ], [ -156.225604622633028, 20.718539591983202 ], [ -156.22435395925686, 20.718814850014898 ], [ -156.224042067648043, 20.718421015472352 ] ] ] } },
{ "type": "Feature", "properties": { "ID": 62, "GRIDCODE": 2 }, "geometry": { "type": "Polygon", "coordinates": [ [ [ -156.224042067648043, 20.718421015472352 ], [ -156.223693022857788, 20.718322677910596 ], [ -156.223949442536764, 20.718089304141433 ], [ -156.224042067648043, 20.718421015472352 ] ] ] } },
{ "type": "Feature", "properties": { "ID": 63, "GRIDCODE": 2 }, "geometry": { "type": "Polygon", "coordinates": [ [ [ -156.228671237108387, 20.717141468605924 ], [ -156.229042556014662, 20.717298078530167 ], [ -156.228775263455816, 20.717758615961053 ], [ -156.228671237108387, 20.717141468605924 ] ] ] } },
{ "type": "Feature", "properties": { "ID": 64, "GRIDCODE": 2 }, "geometry": { "type": "Polygon", "coordinates": [ [ [ -156.226646907971116, 20.717650519454413 ], [ -156.22636904863856, 20.717101187806609 ], [ -156.227046910311486, 20.716803191276721 ], [ -156.226839669582233, 20.717562642431094 ], [ -156.226646907971116, 20.717650519454413 ] ] ] } },
{ "type": "Feature", "properties": { "ID": 65, "GRIDCODE": 2 }, "geometry": { "type": "Polygon", "coordinates": [ [ [ -156.221784273995269, 20.715947020231404 ], [ -156.222509150466323, 20.716092293619432 ], [ -156.222205768838933, 20.716357439330707 ], [ -156.221434612242263, 20.717423443023723 ], [ -156.221784273995269, 20.715947020231404 ] ] ] } },
{ "type": "Feature", "properties": { "ID": 66, "GRIDCODE": 2 }, "geometry": { "type": "Polygon", "coordinates": [ [ [ -156.162791634016543, 20.714984130994399 ], [ -156.16376967298504, 20.715145723807467 ], [ -156.163436356437188, 20.715896376791292 ], [ -156.162791634016543, 20.714984130994399 ] ] ] } },
{ "type": "Feature", "properties": { "ID": 67, "GRIDCODE": 2 }, "geometry": { "type": "Polygon", "coordinates": [ [ [ -156.226646907971116, 20.717650519454413 ], [ -156.226772041787058, 20.717802900144456 ], [ -156.229067437387897, 20.718217057961418 ], [ -156.227941029265423, 20.719141157915303 ], [ -156.227338323498827, 20.71920179771444 ], [ -156.226934718264715, 20.718255554366223 ], [ -156.225898212735899, 20.718611243569736 ], [ -156.225648563891411, 20.718025733896258 ], [ -156.224859715694265, 20.717410234030734 ], [ -156.224594157161107, 20.715075918764303 ], [ -156.225301729008976, 20.714273230379796 ], [ -156.227398458229146, 20.714062117331594 ], [ -156.229040460523464, 20.7153431886662 ], [ -156.229225381022104, 20.716968293399557 ], [ -156.228075038243929, 20.715115512810662 ], [ -156.226411147841759, 20.715407272926274 ], [ -156.225675635077408, 20.71653999655101 ], [ -156.225992786137112, 20.717463027064223 ], [ -156.226646907971116, 20.717650519454413 ] ] ] } },
{ "type": "Feature", "properties": { "ID": 68, "GRIDCODE": 2 }, "geometry": { "type": "Polygon", "coordinates": [ [ [ -156.165709558180538, 20.712865607677152 ], [ -156.165814336992071, 20.712537129714033 ], [ -156.166061987130007, 20.712778713166994 ], [ -156.165709558180538, 20.712865607677152 ] ] ] } },
{ "type": "Feature", "properties": { "ID": 69, "GRIDCODE": 2 }, "geometry": { "type": "Polygon", "coordinates": [ [ [ -156.166295148615404, 20.712333597731117 ], [ -156.166954891687851, 20.7124542230172 ], [ -156.166444996378829, 20.712679890979217 ], [ -156.166295148615404, 20.712333597731117 ] ] ] } },
{ "type": "Feature", "properties": { "ID": 70, "GRIDCODE": 2 }, "geometry": { "type": "Polygon", "coordinates": [ [ [ -156.206631520133868, 20.710284916331606 ], [ -156.207302648986087, 20.710645331771175 ], [ -156.206758701471358, 20.710891335710127 ], [ -156.206631520133868, 20.710284916331606 ] ] ] } },
{ "type": "Feature", "properties": { "ID": 71, "GRIDCODE": 2 }, "geometry": { "type": "Polygon", "coordinates": [ [ [ -156.205798032419665, 20.70864637022866 ], [ -156.206758351993784, 20.708779659409945 ], [ -156.205986667340198, 20.708997895936598 ], [ -156.205798032419665, 20.70864637022866 ] ] ] } },
{ "type": "Feature", "properties": { "ID": 72, "GRIDCODE": 2 }, "geometry": { "type": "Polygon", "coordinates": [ [ [ -156.221059273625087, 20.708351847140438 ], [ -156.222315177475821, 20.708493658939414 ], [ -156.221277036598167, 20.708711235595072 ], [ -156.221059273625087, 20.708351847140438 ] ] ] } },
{ "type": "Feature", "properties": { "ID": 73, "GRIDCODE": 2 }, "geometry": { "type": "Polygon", "coordinates": [ [ [ -156.214743365821363, 20.707437217681832 ], [ -156.214738415529382, 20.707707974506945 ], [ -156.214372198736214, 20.707566627901816 ], [ -156.214743365821363, 20.707437217681832 ] ] ] } },
{ "type": "Feature", "properties": { "ID": 74, "GRIDCODE": 2 }, "geometry": { "type": "Polygon", "coordinates": [ [ [ -156.218816489547663, 20.705065559109151 ], [ -156.22000911533496, 20.705299859604761 ], [ -156.221506357637054, 20.7072040376583 ], [ -156.219659831260543, 20.707080186056309 ], [ -156.218942297515355, 20.705749844143629 ], [ -156.218816489547663, 20.705065559109151 ] ] ] } },
{ "type": "Feature", "properties": { "ID": 75, "GRIDCODE": 2 }, "geometry": { "type": "Polygon", "coordinates": [ [ [ -156.217094901058175, 20.704766890334675 ], [ -156.217382656001433, 20.704771543354926 ], [ -156.217232444928243, 20.705115992725176 ], [ -156.217094901058175, 20.704766890334675 ] ] ] } },
{ "type": "Feature", "properties": { "ID": 76, "GRIDCODE": 2 }, "geometry": { "type": "Polygon", "coordinates": [ [ [ -156.215090516415501, 20.704192791754497 ], [ -156.215439522154156, 20.704291142623632 ], [ -156.215183117018597, 20.704524505180423 ], [ -156.215090516415501, 20.704192791754497 ] ] ] } },
{ "type": "Feature", "properties": { "ID": 77, "GRIDCODE": 2 }, "geometry": { "type": "Polygon", "coordinates": [ [ [ -156.20475131606517, 20.702941828825203 ], [ -156.203791035880073, 20.702808532753046 ], [ -156.204562689878685, 20.702590302725916 ], [ -156.20475131606517, 20.702941828825203 ] ] ] } },
{ "type": "Feature", "properties": { "ID": 78, "GRIDCODE": 2 }, "geometry": { "type": "Polygon", "coordinates": [ [ [ -156.300925892649332, 20.684704793641984 ], [ -156.30162587248671, 20.684905014123071 ], [ -156.301111398790312, 20.685356132483246 ], [ -156.300925892649332, 20.684704793641984 ] ] ] } },
{ "type": "Feature", "properties": { "ID": 79, "GRIDCODE": 2 }, "geometry": { "type": "Polygon", "coordinates": [ [ [ -156.315118487535955, 20.66325822543843 ], [ -156.318104470910697, 20.66361074098339 ], [ -156.32113924873002, 20.664146606953359 ], [ -156.321567534252921, 20.664580045824323 ], [ -156.326774144597408, 20.66492775801596 ], [ -156.328458246486548, 20.665499549415109 ], [ -156.32961047349113, 20.665871449302397 ], [ -156.330740974696198, 20.666618344441432 ], [ -156.331317374204957, 20.666892837265493 ], [ -156.33220923104642, 20.667481952089158 ], [ -156.333312434098161, 20.668007147503822 ], [ -156.333888564847058, 20.668297631285089 ], [ -156.335387203522828, 20.668292107714144 ], [ -156.336487725642144, 20.667779965543396 ], [ -156.337386251031091, 20.667811041730722 ], [ -156.338492001890472, 20.668368779936557 ], [ -156.339347005063985, 20.668365581274585 ], [ -156.3401270027571, 20.668392697634491 ], [ -156.338728719164493, 20.670266860665613 ], [ -156.339362004093402, 20.671471830458799 ], [ -156.338908539951717, 20.674090493494919 ], [ -156.337775656290688, 20.674586409024062 ], [ -156.336930875920643, 20.67538698848136 ], [ -156.335466037691333, 20.676028130183926 ], [ -156.335467798639087, 20.676442380045213 ], [ -156.334183959481123, 20.677565599960062 ], [ -156.333129211555161, 20.678027113288564 ], [ -156.333488820645499, 20.678711411055261 ], [ -156.333108094772655, 20.679380017211006 ], [ -156.332806952572696, 20.68046407613479 ], [ -156.331741279779408, 20.681741684955657 ], [ -156.330149487295017, 20.682597836224957 ], [ -156.329112839078533, 20.684527227700716 ], [ -156.32631740959593, 20.686410800145428 ], [ -156.325460764125978, 20.688762201681072 ], [ -156.324875845777939, 20.689274065056008 ], [ -156.324456402922237, 20.69078370790092 ], [ -156.323041755725143, 20.693726058368718 ], [ -156.321601181178067, 20.69545284159156 ], [ -156.32095553584486, 20.696346881504756 ], [ -156.319841282065397, 20.69732143968929 ], [ -156.319110915986585, 20.698332518553286 ], [ -156.318378636023596, 20.698652936618725 ], [ -156.317794330365274, 20.699461820002757 ], [ -156.317483340931005, 20.69945102260689 ], [ -156.317487781034231, 20.70054032949988 ], [ -156.316901663391974, 20.700796758803651 ], [ -156.316605116086691, 20.70160998959086 ], [ -156.315036171258242, 20.705444400834189 ], [ -156.314508826975128, 20.70590567064648 ], [ -156.31392447209538, 20.706714402750276 ], [ -156.311625131627494, 20.709619797173172 ], [ -156.309695913576348, 20.710919178889167 ], [ -156.308937545199655, 20.71232982637207 ], [ -156.308052379310539, 20.713103938445247 ], [ -156.307747068671773, 20.714201748339701 ], [ -156.307139914909499, 20.714467462688258 ], [ -156.306581524071447, 20.714996061940127 ], [ -156.305410440308947, 20.715784989568178 ], [ -156.304240812396642, 20.717126214983416 ], [ -156.303654891725074, 20.717382593610711 ], [ -156.302722051901839, 20.717956357202443 ], [ -156.302202231677654, 20.718448513701073 ], [ -156.301904104745802, 20.718709399096351 ], [ -156.301617031614683, 20.718981037418271 ], [ -156.300109138754038, 20.719640454704098 ], [ -156.298484254624299, 20.721632172403915 ], [ -156.297793904983479, 20.723525482277172 ], [ -156.29671018486323, 20.724977100607774 ], [ -156.294847721349754, 20.726994926796905 ], [ -156.293940934803715, 20.728106379015266 ], [ -156.293097588359132, 20.728843363576221 ], [ -156.292795188952368, 20.729405561948585 ], [ -156.292347943619319, 20.729796726433449 ], [ -156.289268998650044, 20.733412740562319 ], [ -156.288688641980258, 20.733920026230042 ], [ -156.288386214785902, 20.734482213627089 ], [ -156.287800203566945, 20.734738527381257 ], [ -156.286932587209492, 20.735271823184345 ], [ -156.286053910410061, 20.735794359340652 ], [ -156.284040055276563, 20.737331036678835 ], [ -156.283145771623225, 20.73899370057023 ], [ -156.28253706636778, 20.739259818224927 ], [ -156.281950456621814, 20.73953236644639 ], [ -156.281954621863122, 20.740589373088476 ], [ -156.281543023083628, 20.741310897994978 ], [ -156.279840185904135, 20.742225702770863 ], [ -156.278642051146704, 20.743359816905489 ], [ -156.277547597280829, 20.744873929194824 ], [ -156.275785417748551, 20.746413682781391 ], [ -156.275787744448763, 20.747005667345725 ], [ -156.274893224903309, 20.748076718471502 ], [ -156.274455173309349, 20.748890375532088 ], [ -156.273602521252741, 20.7503851466839 ], [ -156.272504544634245, 20.751854592400218 ], [ -156.271339995441366, 20.752363506170383 ], [ -156.270763889497459, 20.752908476104921 ], [ -156.270769573524035, 20.754439610292319 ], [ -156.267177826318886, 20.758413433291814 ], [ -156.265852791717947, 20.758992221067956 ], [ -156.265463456835278, 20.760391027338482 ], [ -156.264867561373507, 20.761188780002005 ], [ -156.263981059568721, 20.762835825602139 ], [ -156.262771092824067, 20.763892642957916 ], [ -156.261916268633598, 20.765480535032037 ], [ -156.260725033646281, 20.767352147031193 ], [ -156.260110825298995, 20.76978522488449 ], [ -156.259514860905483, 20.770582950933441 ], [ -156.258036931985544, 20.773002224409055 ], [ -156.257440028094976, 20.773523660895915 ], [ -156.256323008728117, 20.774580714205722 ], [ -156.255693993682513, 20.774855385626473 ], [ -156.254347118480837, 20.775480796304166 ], [ -156.25330885022214, 20.777063974723099 ], [ -156.251321616830808, 20.777764671545608 ], [ -156.250991786852325, 20.779220979947436 ], [ -156.250996486762887, 20.780560715355218 ], [ -156.247618032737819, 20.783099114953185 ], [ -156.245778508924303, 20.782009243043717 ], [ -156.236638280322921, 20.77659704710446 ], [ -156.225983592119604, 20.772058689420248 ], [ -156.2209924536036, 20.768942544520765 ], [ -156.219504324172249, 20.767434665533568 ], [ -156.218716091647536, 20.765008571445396 ], [ -156.21816858047049, 20.763964757613728 ], [ -156.21791568603615, 20.762327047040198 ], [ -156.217040302755805, 20.762864583708719 ], [ -156.211065695402084, 20.760395057942482 ], [ -156.209218176395268, 20.759939349467697 ], [ -156.199087476734519, 20.75694203204884 ], [ -156.18954421939938, 20.754346525066055 ], [ -156.179273743495941, 20.750761976627427 ], [ -156.176079431974358, 20.749728531423742 ], [ -156.158881347586146, 20.744908219502481 ], [ -156.153714251517044, 20.742970428124725 ], [ -156.146785568064217, 20.739702159837766 ], [ -156.143582473648308, 20.737801449905096 ], [ -156.139962991590721, 20.734650459021076 ], [ -156.138532026400327, 20.732288414450199 ], [ -156.138238344655548, 20.727380545384715 ], [ -156.139160941065398, 20.723494616497646 ], [ -156.140468161548398, 20.720784056713374 ], [ -156.141609119840012, 20.718197402827215 ], [ -156.142296543290882, 20.715734647596314 ], [ -156.14228184112406, 20.710765945142256 ], [ -156.141445058390332, 20.705042654863874 ], [ -156.142666916575507, 20.705851881878278 ], [ -156.14324303583939, 20.706126982162406 ], [ -156.143613763198402, 20.706502875345198 ], [ -156.145565841600501, 20.70616037160957 ], [ -156.146863577825599, 20.706206754667633 ], [ -156.149751681056756, 20.705908018468364 ], [ -156.150430820118999, 20.706251450782606 ], [ -156.151023818134917, 20.706526805979887 ], [ -156.151586946307248, 20.705994476761649 ], [ -156.152374785074983, 20.705650734471146 ], [ -156.152737811953983, 20.706018812767734 ], [ -156.153230217057256, 20.706292496175429 ], [ -156.154767273099765, 20.705234479656745 ], [ -156.155057719744889, 20.70524483571436 ], [ -156.155348092837357, 20.705244081946159 ], [ -156.155913079669602, 20.705529669112089 ], [ -156.156640123447261, 20.705807221028408 ], [ -156.157074247849351, 20.705001913039801 ], [ -156.157953324690595, 20.704618259538687 ], [ -156.159363915231182, 20.703963687973282 ], [ -156.160557889054729, 20.703710580903991 ], [ -156.161116680056182, 20.703182508265144 ], [ -156.162298957126836, 20.702666566224025 ], [ -156.162772936342691, 20.701786784389736 ], [ -156.164343848032331, 20.701335550691653 ], [ -156.164654278021089, 20.701042066148911 ], [ -156.164650205430519, 20.699704916305596 ], [ -156.163363944561382, 20.699708319792247 ], [ -156.162934382184318, 20.698836917501719 ], [ -156.162966031554447, 20.698057750440203 ], [ -156.162399699229212, 20.6972410887584 ], [ -156.162127772073319, 20.696689660413828 ], [ -156.161739916788378, 20.696326349656331 ], [ -156.162147836312414, 20.695611968750047 ], [ -156.162440414357548, 20.695053976973739 ], [ -156.161585974068373, 20.694253987814403 ], [ -156.161042419029798, 20.693151002337625 ], [ -156.160476391173518, 20.692334474057674 ], [ -156.159916055444512, 20.690925999403714 ], [ -156.159957914832773, 20.689885827896898 ], [ -156.159955653172545, 20.689101871119728 ], [ -156.160011471561319, 20.6888060448684 ], [ -156.161731296144239, 20.689391925968373 ], [ -156.163105446067362, 20.689388122701544 ], [ -156.16435183065218, 20.689710689863649 ], [ -156.165857807979762, 20.689706523159831 ], [ -156.167129124970018, 20.690548394005049 ], [ -156.167851482066283, 20.690546391775932 ], [ -156.168570514269874, 20.690572102409291 ], [ -156.169137718744935, 20.690570584896829 ], [ -156.170238414362984, 20.691127163058876 ], [ -156.171370193492493, 20.691493421701232 ], [ -156.172446421603439, 20.690475518337152 ], [ -156.172878437635404, 20.690913586310234 ], [ -156.173955318378887, 20.691603579385742 ], [ -156.174598600627888, 20.690409021047873 ], [ -156.175222724696965, 20.689868740035703 ], [ -156.175954625843332, 20.690610982840173 ], [ -156.176944029713866, 20.690151666669351 ], [ -156.177790303857023, 20.690181805090063 ], [ -156.180074601725408, 20.688928814042701 ], [ -156.18095614378089, 20.690243582976699 ], [ -156.181715064199807, 20.689525765934061 ], [ -156.182446911594838, 20.688903774037239 ], [ -156.183554059505468, 20.689463549876113 ], [ -156.184130212417529, 20.689738514956286 ], [ -156.184402212226388, 20.690290048857122 ], [ -156.184724604146737, 20.690289237111834 ], [ -156.185667157513535, 20.689397595063326 ], [ -156.186426523786906, 20.689781473308326 ], [ -156.186860784922459, 20.689780237197883 ], [ -156.187294738923896, 20.689795657522772 ], [ -156.18906545815716, 20.689153308978106 ], [ -156.189895008749147, 20.689572569157384 ], [ -156.191029428351953, 20.689569390674063 ], [ -156.191319411333865, 20.689863203676566 ], [ -156.191909344488181, 20.689589296541044 ], [ -156.192763773940271, 20.689619626338917 ], [ -156.193671369884669, 20.689616964191494 ], [ -156.194983044776109, 20.689007933155789 ], [ -156.195469211283978, 20.689500655360469 ], [ -156.196805574989355, 20.688679628936942 ], [ -156.199121420826259, 20.688363296357707 ], [ -156.200006057719293, 20.68781987925761 ], [ -156.201179841782391, 20.687861441803037 ], [ -156.201988032716741, 20.68868073306275 ], [ -156.20250695285867, 20.689166564019988 ], [ -156.202874614258036, 20.687847056765779 ], [ -156.20348878480479, 20.686771176972314 ], [ -156.205498450018666, 20.686842414563923 ], [ -156.206496227486582, 20.687854004175811 ], [ -156.206924026184453, 20.686318050419892 ], [ -156.20730180618591, 20.685655946869286 ], [ -156.209538826056075, 20.685282381625832 ], [ -156.210087671956614, 20.684763088944592 ], [ -156.211252084037596, 20.68407139705295 ], [ -156.215912815785828, 20.683670981582843 ], [ -156.21739036760772, 20.683221553592539 ], [ -156.218781247775752, 20.683270864026177 ], [ -156.219369998629872, 20.682456878396767 ], [ -156.220819022552462, 20.682214715722807 ], [ -156.22197379833591, 20.681863585519302 ], [ -156.223119300047784, 20.682253269696705 ], [ -156.223407850456653, 20.68198033772666 ], [ -156.22400445673486, 20.681458987319797 ], [ -156.224727691494678, 20.680774367410102 ], [ -156.225157086936235, 20.681209761338728 ], [ -156.2257736466957, 20.680626173004935 ], [ -156.228605385492386, 20.680726108104505 ], [ -156.228919376883226, 20.680428977121522 ], [ -156.230582334128201, 20.679702445702585 ], [ -156.2317842889247, 20.680497654152017 ], [ -156.232355352855308, 20.679957214100664 ], [ -156.232941530681614, 20.679977871780629 ], [ -156.23323434962154, 20.679700890032883 ], [ -156.233820205591059, 20.67944474743949 ], [ -156.234704685727223, 20.678901131435012 ], [ -156.235572292008328, 20.678931719152114 ], [ -156.236733806607162, 20.678392008037367 ], [ -156.237580065402199, 20.678421846215215 ], [ -156.2378671561072, 20.678150185692171 ], [ -156.238905198059541, 20.677630431829918 ], [ -156.24016856517278, 20.678466242749582 ], [ -156.240526370981968, 20.6774855430785 ], [ -156.241344784331176, 20.67712782870786 ], [ -156.242311554434082, 20.676678589200211 ], [ -156.242780466652221, 20.67715372070451 ], [ -156.243070406332464, 20.67687931872203 ], [ -156.243417072973017, 20.676576200362106 ], [ -156.245670196377745, 20.676655480283998 ], [ -156.246839936777434, 20.675314538332454 ], [ -156.249283353240997, 20.675033128147472 ], [ -156.25037451337505, 20.674525917058073 ], [ -156.251339777163196, 20.673612010894633 ], [ -156.25205187436805, 20.674333541284888 ], [ -156.253197538902356, 20.673248858511592 ], [ -156.254054735523994, 20.673279051921664 ], [ -156.254651882205934, 20.673001588027969 ], [ -156.25523768426612, 20.67274536538126 ], [ -156.255611649648984, 20.672391473723398 ], [ -156.26044066608992, 20.671473935429201 ], [ -156.261015406142377, 20.671206935766783 ], [ -156.262464299270874, 20.670964402579362 ], [ -156.263375073037196, 20.670404245922398 ], [ -156.265974877973832, 20.66965571802627 ], [ -156.266657370831098, 20.669679636702938 ], [ -156.267664669648639, 20.669676301539035 ], [ -156.268801317181641, 20.669716140051261 ], [ -156.269883304952231, 20.669386657587921 ], [ -156.272041623074756, 20.668383070373316 ], [ -156.273862266421844, 20.667858676646503 ], [ -156.275753859073887, 20.667924955206924 ], [ -156.276073979711981, 20.667923799130257 ], [ -156.277199587322656, 20.66740054922899 ], [ -156.278025034766301, 20.667429457512267 ], [ -156.27921802479537, 20.667161707445196 ], [ -156.281304502064188, 20.666921005069348 ], [ -156.283548256325275, 20.666417328083291 ], [ -156.284394206232577, 20.666446925250121 ], [ -156.28610212140066, 20.665652678706966 ], [ -156.288080359667759, 20.665381355998399 ], [ -156.290167424512219, 20.665454384141864 ], [ -156.291372887813907, 20.664893805104963 ], [ -156.294615131682235, 20.665007013284516 ], [ -156.295650478300871, 20.665529652401332 ], [ -156.297833731657903, 20.666234542540085 ], [ -156.299293720910441, 20.665789516663711 ], [ -156.302984827098669, 20.665918330328005 ], [ -156.304128158051583, 20.665914262312533 ], [ -156.306875703981746, 20.665429259899877 ], [ -156.308612218814545, 20.665190818735404 ], [ -156.310470150084541, 20.664169860909208 ], [ -156.311800785228712, 20.663886302284268 ], [ -156.312950827342888, 20.663628087906343 ], [ -156.31497501990637, 20.663394063518702 ], [ -156.315118487535955, 20.66325822543843 ] ], [ [ -156.160499543400448, 20.72984180117972 ], [ -156.160603289657161, 20.730458958313413 ], [ -156.160870802327537, 20.729998553798367 ], [ -156.160499543400448, 20.72984180117972 ] ], [ [ -156.159080823018172, 20.728735056072185 ], [ -156.159173305523808, 20.729066786537842 ], [ -156.159429832032998, 20.728833522792989 ], [ -156.159080823018172, 20.728735056072185 ] ], [ [ -156.22205840541298, 20.732472554512828 ], [ -156.222151031017574, 20.732804266900292 ], [ -156.222407480044467, 20.732570898813098 ], [ -156.22205840541298, 20.732472554512828 ] ], [ [ -156.148195759568523, 20.725846596506443 ], [ -156.147693155173641, 20.726459516850049 ], [ -156.146337312045091, 20.727373796984324 ], [ -156.147058085186416, 20.728109896951079 ], [ -156.148070634110695, 20.727543126861249 ], [ -156.149274580849806, 20.72775880656814 ], [ -156.149726725571469, 20.727513462261559 ], [ -156.149158709625596, 20.727101113320032 ], [ -156.14887177167202, 20.726031040092721 ], [ -156.148195759568523, 20.725846596506443 ] ], [ [ -156.156819007622431, 20.726531055917086 ], [ -156.156662382314039, 20.726096836441858 ], [ -156.157347109170558, 20.726146639803108 ], [ -156.157814627760672, 20.72673304859072 ], [ -156.157230028574929, 20.727207248189096 ], [ -156.156946812147652, 20.72783083477789 ], [ -156.15752062358834, 20.728867426337036 ], [ -156.158177821159256, 20.728841528192657 ], [ -156.159239754525061, 20.727495158758735 ], [ -156.158373531210799, 20.727529376343195 ], [ -156.158417208973759, 20.726996908327926 ], [ -156.158060130315732, 20.726006086480385 ], [ -156.156639562478091, 20.725587866268061 ], [ -156.15611429319776, 20.726121625331494 ], [ -156.154974486852126, 20.726038765596225 ], [ -156.154809167470546, 20.727708856594834 ], [ -156.155515624832816, 20.726325685662339 ], [ -156.156005624805601, 20.727378482126248 ], [ -156.15637679986358, 20.726651486275227 ], [ -156.156819007622431, 20.726531055917086 ], [ -156.156911484319636, 20.726862786948185 ], [ -156.157168009695283, 20.726629526501533 ], [ -156.156819007622431, 20.726531055917086 ] ], [ [ -156.152810341645363, 20.725381419507507 ], [ -156.152293268755614, 20.724109312564828 ], [ -156.151299777100064, 20.724230649764667 ], [ -156.150863015525999, 20.725186641949922 ], [ -156.151243905465094, 20.725473431617168 ], [ -156.151366385686657, 20.725628329039374 ], [ -156.15101392153781, 20.725715188856014 ], [ -156.151261564088145, 20.725956793087313 ], [ -156.151366385686657, 20.725628329039374 ], [ -156.151941941799464, 20.725637863383621 ], [ -156.151731146850238, 20.72640149009629 ], [ -156.15317617738981, 20.726157637470457 ], [ -156.152867363747248, 20.727502552983577 ], [ -156.153595523754291, 20.727379725559437 ], [ -156.153946264458654, 20.726212702557167 ], [ -156.154103921194576, 20.726335782001236 ], [ -156.154343802000596, 20.728105277889728 ], [ -156.154692888550102, 20.725808638013259 ], [ -156.154128676423994, 20.725011948339418 ], [ -156.153946264458654, 20.726212702557167 ], [ -156.153770019319268, 20.726106506383452 ], [ -156.153436604190063, 20.72512982260907 ], [ -156.152810341645363, 20.725381419507507 ] ], [ [ -156.153153824319531, 20.722408023364878 ], [ -156.153258170280907, 20.723111676218654 ], [ -156.153872292908773, 20.723884597339882 ], [ -156.154096180247137, 20.724479676628864 ], [ -156.154492401562351, 20.725074433990635 ], [ -156.15506232709393, 20.724964055686527 ], [ -156.154916005989918, 20.724294752003189 ], [ -156.154394080595779, 20.723942954813847 ], [ -156.154041636034151, 20.723006686892518 ], [ -156.153153824319531, 20.722408023364878 ] ], [ [ -156.208169576014569, 20.704893164131761 ], [ -156.208262161280743, 20.705224879593924 ], [ -156.208518577021266, 20.704991528721457 ], [ -156.208169576014569, 20.704893164131761 ] ], [ [ -156.198961522496489, 20.70474353610475 ], [ -156.198868958309475, 20.704411817964246 ], [ -156.198612530718663, 20.704645152875823 ], [ -156.198961522496489, 20.70474353610475 ], [ -156.199202672218291, 20.705111923574613 ], [ -156.200510406902339, 20.704892387065598 ], [ -156.198961522496489, 20.70474353610475 ] ], [ [ -156.202141697214614, 20.70398276413605 ], [ -156.202234268623414, 20.704314481313808 ], [ -156.202490690735146, 20.704081140292473 ], [ -156.202141697214614, 20.70398276413605 ] ], [ [ -156.224500473466549, 20.740637138594693 ], [ -156.22462868242431, 20.741053136215982 ], [ -156.225017112268603, 20.741753960132638 ], [ -156.225771868841605, 20.742410444840022 ], [ -156.226406654442457, 20.743386213920203 ], [ -156.225649561908654, 20.744644867213289 ], [ -156.225754671189065, 20.746974210120705 ], [ -156.22537794196694, 20.747279960325621 ], [ -156.225397154564718, 20.747706231870779 ], [ -156.224462870503828, 20.748919564050638 ], [ -156.223774333565387, 20.748869823063064 ], [ -156.223317088013403, 20.748888088809 ], [ -156.223442485967212, 20.751674530659141 ], [ -156.222689325171814, 20.752652471512089 ], [ -156.22240584837192, 20.753301044459725 ], [ -156.224836340665291, 20.752935264374536 ], [ -156.2258622877888, 20.752432114133995 ], [ -156.226401167685168, 20.752471100436551 ], [ -156.228498382464977, 20.75192346923809 ], [ -156.22908452879048, 20.752562413023437 ], [ -156.231540494520118, 20.752464346349186 ], [ -156.23267139638304, 20.751909681601298 ], [ -156.23337014024861, 20.751199008007582 ], [ -156.234189834914645, 20.75125822929019 ], [ -156.234843799307697, 20.750937349521084 ], [ -156.235397001532334, 20.750977331243746 ], [ -156.235741981601365, 20.750963575006661 ], [ -156.236262522674792, 20.750433841973258 ], [ -156.237848945907473, 20.750000860451607 ], [ -156.238310494907893, 20.749096047382988 ], [ -156.238885596827203, 20.749137559545687 ], [ -156.239558104864585, 20.749110676740756 ], [ -156.241785652145609, 20.747543364179357 ], [ -156.243119711867621, 20.746775132332484 ], [ -156.243542736487314, 20.745945724572096 ], [ -156.244125412564358, 20.74598773639012 ], [ -156.24475851446897, 20.745962447850776 ], [ -156.245279008191801, 20.745432681733163 ], [ -156.245980434204768, 20.745143461258898 ], [ -156.24673781477054, 20.744372697695972 ], [ -156.248007792305998, 20.743848846066903 ], [ -156.249074803263824, 20.742514234289064 ], [ -156.249828336419313, 20.742203348121581 ], [ -156.250826284137759, 20.741188052426949 ], [ -156.251721161311281, 20.740818980968502 ], [ -156.252567952242686, 20.740403378058904 ], [ -156.253478686349297, 20.7400276731736 ], [ -156.256021556435059, 20.737440266471385 ], [ -156.256383025353244, 20.736401676352799 ], [ -156.256989347734645, 20.735614163636264 ], [ -156.258116219200645, 20.734008005893727 ], [ -156.259838445037673, 20.73329725892971 ], [ -156.260188142844868, 20.732941398668832 ], [ -156.26188037672847, 20.732599388207781 ], [ -156.263095557395246, 20.731362643916707 ], [ -156.263404269971346, 20.731112054378965 ], [ -156.263680929049912, 20.730830272377862 ], [ -156.266481432972768, 20.728985518122723 ], [ -156.267348673787154, 20.727284434025638 ], [ -156.269818825495747, 20.726609661000246 ], [ -156.272002348498404, 20.725455660873983 ], [ -156.272554876349886, 20.722909237576868 ], [ -156.273067197033555, 20.722056815645434 ], [ -156.273348671369121, 20.721504244202414 ], [ -156.273657347294375, 20.72125363186943 ], [ -156.274555740905043, 20.720129203017759 ], [ -156.274532940386962, 20.719628277466494 ], [ -156.275139963391979, 20.71883950483074 ], [ -156.277035267514663, 20.715699626323037 ], [ -156.278212657835098, 20.715021037991988 ], [ -156.279868935505988, 20.713090861037653 ], [ -156.28124597728052, 20.712297041188201 ], [ -156.283063522419695, 20.709469808035387 ], [ -156.283669593502566, 20.708682171639293 ], [ -156.284336477889383, 20.707731237157979 ], [ -156.286290093495694, 20.706143309606716 ], [ -156.287293285244886, 20.704174439804845 ], [ -156.288970068158562, 20.701994519927947 ], [ -156.289661982907148, 20.701007583465497 ], [ -156.292832664294764, 20.700365806788653 ], [ -156.293357406540537, 20.699831564146962 ], [ -156.293322604986059, 20.699068720619817 ], [ -156.294712414920014, 20.698494775526981 ], [ -156.295999471318964, 20.696883145844481 ], [ -156.295965296635131, 20.696131684936844 ], [ -156.296572109036504, 20.695342812017845 ], [ -156.296863043560307, 20.694248633772776 ], [ -156.297189024561163, 20.693983693551704 ], [ -156.297164501315564, 20.693448482902554 ], [ -156.29719899256196, 20.69302502551724 ], [ -156.298894903404943, 20.691035062981424 ], [ -156.299902189976706, 20.690216086607048 ], [ -156.301003113386628, 20.68801270184872 ], [ -156.300241522548873, 20.686639891467497 ], [ -156.303805440632487, 20.685167678878123 ], [ -156.303592282053302, 20.683806243164053 ], [ -156.3025236451669, 20.684331215858172 ], [ -156.300142371638742, 20.684555897284717 ], [ -156.299020696506091, 20.68510699450351 ], [ -156.299100174490377, 20.684126534857867 ], [ -156.297026462886294, 20.685441782326457 ], [ -156.294487403941304, 20.685259349121747 ], [ -156.293021963627865, 20.685604114342087 ], [ -156.291129507530258, 20.686664506978858 ], [ -156.289236931550931, 20.686528398770868 ], [ -156.288190311537022, 20.686570509281143 ], [ -156.286640422838417, 20.687331932664716 ], [ -156.285991717826136, 20.687599702082625 ], [ -156.285246858781136, 20.688358322592915 ], [ -156.283633806503417, 20.68920825347152 ], [ -156.282427004245335, 20.689121500928543 ], [ -156.281706932587355, 20.689150472400151 ], [ -156.28141947906613, 20.689129800116071 ], [ -156.280987436237751, 20.689147180818161 ], [ -156.280102058704983, 20.689083472917535 ], [ -156.278541443919863, 20.689371588467409 ], [ -156.278249499850517, 20.689350575408831 ], [ -156.277134796062626, 20.689395375513833 ], [ -156.275965392496488, 20.68877316001949 ], [ -156.274340171431476, 20.688272667239097 ], [ -156.272003769121596, 20.687823846755794 ], [ -156.271093889365176, 20.687339680710451 ], [ -156.267919062451568, 20.687849155307394 ], [ -156.267375048206446, 20.687809974347971 ], [ -156.266394671996608, 20.688123583482103 ], [ -156.265083762240579, 20.688029106970561 ], [ -156.263987197826765, 20.688567663481461 ], [ -156.262996057781976, 20.688838364641985 ], [ -156.26214175109979, 20.689111632036425 ], [ -156.261848408332867, 20.689090569108107 ], [ -156.261560382490757, 20.68910212343194 ], [ -156.260230383596991, 20.689006247792179 ], [ -156.259547820842641, 20.689341349204849 ], [ -156.258308212161069, 20.689251922488207 ], [ -156.256899423108024, 20.689583119114143 ], [ -156.256364392192779, 20.689544575035743 ], [ -156.255807789313963, 20.690111250372727 ], [ -156.253693489085236, 20.689958916573591 ], [ -156.252226979893891, 20.689437078988462 ], [ -156.251187668480071, 20.689478813109389 ], [ -156.249766814027765, 20.689169280949091 ], [ -156.247654028154273, 20.688763247873027 ], [ -156.246830221388507, 20.689167584488356 ], [ -156.245981932551558, 20.689106410876281 ], [ -156.245440761918104, 20.689657161674802 ], [ -156.244844382914181, 20.689903122617331 ], [ -156.243940218397853, 20.690476228229311 ], [ -156.242811500413779, 20.690394812287384 ], [ -156.241093210582051, 20.690944019491223 ], [ -156.239951437750364, 20.690636629873886 ], [ -156.23956299800281, 20.690652091651202 ], [ -156.23803244550254, 20.691403440023443 ], [ -156.237041259217335, 20.691673984264511 ], [ -156.235936367386614, 20.692216315309977 ], [ -156.235594185742855, 20.692191646078406 ], [ -156.234688558571605, 20.692765468143786 ], [ -156.233599137002926, 20.69268673753562 ], [ -156.23283171484502, 20.693063341896917 ], [ -156.231858035430548, 20.692399683766197 ], [ -156.230869098478394, 20.692715851724724 ], [ -156.229283396719524, 20.692601207633061 ], [ -156.2289752640784, 20.692914697139827 ], [ -156.228393081198874, 20.692872661624811 ], [ -156.228103069846441, 20.693441543384427 ], [ -156.224912100506458, 20.693916477966546 ], [ -156.223480841804474, 20.694180242764787 ], [ -156.223045186790586, 20.694148750993993 ], [ -156.22232511151222, 20.694177469872095 ], [ -156.221742928567409, 20.694135411507229 ], [ -156.221465418331263, 20.694417905445857 ], [ -156.220349901957263, 20.694722312529311 ], [ -156.219144272833631, 20.69463513324375 ], [ -156.218578177588313, 20.694912960273921 ], [ -156.217406271600169, 20.695149520282914 ], [ -156.216551875130676, 20.695422547782787 ], [ -156.216258536541062, 20.695401406439238 ], [ -156.215410756416304, 20.695435171804107 ], [ -156.212626835221698, 20.696088768102367 ], [ -156.211457175962238, 20.696662677654892 ], [ -156.210205186987139, 20.697004345487645 ], [ -156.207800908683424, 20.69879615260383 ], [ -156.207133834227733, 20.699474851100042 ], [ -156.206670749133394, 20.69985071208637 ], [ -156.206394059811174, 20.700132397615818 ], [ -156.205496692411998, 20.700861041543664 ], [ -156.203094287941326, 20.701441845735449 ], [ -156.201729131116167, 20.702111422267254 ], [ -156.201753060337609, 20.702645149613208 ], [ -156.203462254248223, 20.7030486350064 ], [ -156.20371354764066, 20.704151398920462 ], [ -156.204836199083218, 20.704658277399162 ], [ -156.205004298404901, 20.704841784910101 ], [ -156.204561047670467, 20.705023958439071 ], [ -156.20401350648072, 20.70463962335182 ], [ -156.203566317940783, 20.704775973960317 ], [ -156.202626897410738, 20.704455223389861 ], [ -156.203197090725411, 20.705228462501907 ], [ -156.204836556401517, 20.705481500822266 ], [ -156.205004298404901, 20.704841784910101 ], [ -156.20519953521557, 20.704756484584184 ], [ -156.205404430159405, 20.70385341262692 ], [ -156.2062718313083, 20.703641094010734 ], [ -156.205637251468971, 20.703205363021674 ], [ -156.204870182675563, 20.703571917503432 ], [ -156.20475131606517, 20.702941828825203 ], [ -156.208738561082754, 20.702864776098178 ], [ -156.209749262191053, 20.70290060491946 ], [ -156.212157947469194, 20.702361069366599 ], [ -156.213683831252666, 20.70241513733195 ], [ -156.214117856101467, 20.702413831916925 ], [ -156.216148068493993, 20.702726644665436 ], [ -156.217220530632943, 20.703813717252149 ], [ -156.218117260819895, 20.704103680859845 ], [ -156.218634463436956, 20.704627663575522 ], [ -156.217382656001433, 20.704771543354926 ], [ -156.217245111981299, 20.704422441068569 ], [ -156.217094901058175, 20.704766890334675 ], [ -156.216519391409776, 20.704757582854839 ], [ -156.216396852860584, 20.704602725875436 ], [ -156.215586085195213, 20.70399265725489 ], [ -156.21525819034747, 20.703200628168176 ], [ -156.214725595853167, 20.703827180707403 ], [ -156.213816821713664, 20.70347392450525 ], [ -156.213375644653325, 20.703528010871736 ], [ -156.212387333007854, 20.70337420679876 ], [ -156.212070489685942, 20.704068515222993 ], [ -156.211479913024334, 20.703976558795592 ], [ -156.211047109477562, 20.704939822139156 ], [ -156.210078372815417, 20.704699172392171 ], [ -156.209776962733201, 20.705010481677618 ], [ -156.21076024397496, 20.705316565445386 ], [ -156.211047109477562, 20.704939822139156 ], [ -156.212339217986738, 20.705112970831291 ], [ -156.21290300481877, 20.705056244836126 ], [ -156.213202171352151, 20.705420530285163 ], [ -156.213759946255834, 20.704232352028487 ], [ -156.21405966359842, 20.704597306191104 ], [ -156.214700185337108, 20.704863567437386 ], [ -156.214616998164161, 20.705416193768858 ], [ -156.214944420946807, 20.70566508768071 ], [ -156.216519391409776, 20.704757582854839 ], [ -156.216414492292415, 20.705206576360368 ], [ -156.216216795620596, 20.705565200125804 ], [ -156.215864399265001, 20.705652202764238 ], [ -156.216112128421969, 20.705893722065806 ], [ -156.216216795620596, 20.705565200125804 ], [ -156.216700276702937, 20.705703810597498 ], [ -156.216618078948358, 20.706248784327421 ], [ -156.216649102058, 20.706520123424252 ], [ -156.216569460607047, 20.707048211048644 ], [ -156.216923651178405, 20.707324777209667 ], [ -156.216860319867152, 20.707744820303841 ], [ -156.218053189977667, 20.707335504191995 ], [ -156.220891802034714, 20.708147997546071 ], [ -156.221059273625087, 20.708351847140438 ], [ -156.220250882474886, 20.708764750960988 ], [ -156.220981743757193, 20.709335027671841 ], [ -156.221437585851987, 20.710404185741503 ], [ -156.221811448108525, 20.710651173623663 ], [ -156.222647305660303, 20.708871026055007 ], [ -156.225090893931792, 20.709197027113053 ], [ -156.225467826445282, 20.710386834918651 ], [ -156.224458684575637, 20.710693898762777 ], [ -156.223434111266045, 20.71010474528271 ], [ -156.222846648516224, 20.710163899436246 ], [ -156.222906705138485, 20.710693585354427 ], [ -156.222313788983172, 20.711606556699159 ], [ -156.220599837134728, 20.712548497279048 ], [ -156.219667050108484, 20.712783235863839 ], [ -156.219118056409854, 20.71307508760118 ], [ -156.21738770052329, 20.713728301429551 ], [ -156.215616531334121, 20.713491887487212 ], [ -156.213514587547223, 20.712282994885253 ], [ -156.213043696487944, 20.711178928995352 ], [ -156.211455019426126, 20.710235411948211 ], [ -156.210795233630847, 20.709961154602915 ], [ -156.210544058236849, 20.709708463499016 ], [ -156.212356046714945, 20.7093701909121 ], [ -156.212839849060856, 20.708339380777581 ], [ -156.214381892874684, 20.708112558185068 ], [ -156.214738415529382, 20.707707974506945 ], [ -156.215472685566937, 20.707890321583424 ], [ -156.215721450748276, 20.70759851564528 ], [ -156.214743365821363, 20.707437217681832 ], [ -156.214623926748573, 20.70700522492363 ], [ -156.212501170061017, 20.707353698946473 ], [ -156.211634764448917, 20.70721892250798 ], [ -156.209729280187332, 20.708258551619853 ], [ -156.207496700480505, 20.707911031239227 ], [ -156.206830864877077, 20.708274342316653 ], [ -156.205926168348526, 20.708495577113901 ], [ -156.205798032419665, 20.70864637022866 ], [ -156.204494737139783, 20.708499833831766 ], [ -156.203945915202951, 20.708199980344666 ], [ -156.202490371585242, 20.707925588328944 ], [ -156.201644619007027, 20.707340411919901 ], [ -156.200478738666789, 20.708910219913612 ], [ -156.20217958370074, 20.710337946837118 ], [ -156.202659299620819, 20.710880407623865 ], [ -156.20344315249568, 20.711224949598162 ], [ -156.20416834409545, 20.711181986830805 ], [ -156.20458451841688, 20.711220223272019 ], [ -156.205814106351227, 20.711892159002897 ], [ -156.206434564639096, 20.71259387015046 ], [ -156.207043620728456, 20.713105227746421 ], [ -156.207691632039143, 20.713837930983431 ], [ -156.208121459478008, 20.714787938888943 ], [ -156.208737729948979, 20.715305227604439 ], [ -156.207795939022816, 20.716397353823709 ], [ -156.208201552053879, 20.71693582260006 ], [ -156.20924314206917, 20.716411053386466 ], [ -156.209972361799856, 20.716118985813168 ], [ -156.212701833192142, 20.716725670332075 ], [ -156.212973943770436, 20.717033315720595 ], [ -156.213887811059664, 20.717434935381664 ], [ -156.213806201216158, 20.718223112578524 ], [ -156.210758020021188, 20.718822763363015 ], [ -156.210352912715905, 20.719851532372108 ], [ -156.212201897509004, 20.720278377596543 ], [ -156.210546812624415, 20.721573850534934 ], [ -156.207992738793394, 20.721807472291719 ], [ -156.20496487651215, 20.722199189062845 ], [ -156.20331922443728, 20.72159995293282 ], [ -156.201966526108862, 20.719761190787043 ], [ -156.202016078949271, 20.719282879149141 ], [ -156.201992463965752, 20.718931124296127 ], [ -156.200286938011203, 20.718181454599556 ], [ -156.200025869057896, 20.717886269774407 ], [ -156.19945613072133, 20.717408059886804 ], [ -156.199185925458409, 20.716601076450228 ], [ -156.200182003541357, 20.715326862625567 ], [ -156.198188130777368, 20.71486632757437 ], [ -156.197335160250788, 20.714916835105747 ], [ -156.19661673779413, 20.71485077687948 ], [ -156.196184483303625, 20.714876396069197 ], [ -156.195466064591983, 20.714810200906527 ], [ -156.194787009078084, 20.714850438961069 ], [ -156.194314204638772, 20.715413884743352 ], [ -156.196113082674628, 20.716204538210985 ], [ -156.197017417994999, 20.717227629673772 ], [ -156.19650322576399, 20.719275362828085 ], [ -156.195940755927438, 20.719715554862283 ], [ -156.195663991550703, 20.720272809948298 ], [ -156.19484438695784, 20.720601026888591 ], [ -156.193634255863742, 20.720489640491298 ], [ -156.192203768949668, 20.720574334601643 ], [ -156.191938225328329, 20.719379419720152 ], [ -156.19105816311253, 20.719114317219713 ], [ -156.19079173845833, 20.718226718597919 ], [ -156.190124869631575, 20.717666755144684 ], [ -156.189069824698237, 20.717729258587038 ], [ -156.188388378705923, 20.716665207984228 ], [ -156.189115079591119, 20.716374249950267 ], [ -156.189386860137944, 20.716087757807049 ], [ -156.190133302287904, 20.71550367161586 ], [ -156.190432022710098, 20.714625303561579 ], [ -156.190683095733561, 20.71450099657233 ], [ -156.191129833942938, 20.713537631527604 ], [ -156.190574244632728, 20.713742527469797 ], [ -156.190432022710098, 20.714625303561579 ], [ -156.189403482480145, 20.7152785739538 ], [ -156.189416207114732, 20.715563896385024 ], [ -156.188599044345438, 20.715806431664639 ], [ -156.187552406189241, 20.714196861715383 ], [ -156.185524297214783, 20.71328057993578 ], [ -156.183034477713846, 20.714075464210875 ], [ -156.182486421519627, 20.713477616154147 ], [ -156.181097031450065, 20.713532745486514 ], [ -156.180557194226196, 20.713493615479127 ], [ -156.179661362327664, 20.713779648431096 ], [ -156.178093693667108, 20.714095783988217 ], [ -156.175901198307997, 20.713195343556702 ], [ -156.17536530265744, 20.712610502787445 ], [ -156.1745504764163, 20.712242319400595 ], [ -156.172772056054015, 20.712312812218624 ], [ -156.172340868045126, 20.712281525536998 ], [ -156.171146723123371, 20.71232880795808 ], [ -156.169625225839923, 20.711703674558152 ], [ -156.16759938529583, 20.711414845382624 ], [ -156.167323148201604, 20.710821033656764 ], [ -156.166322554080324, 20.710860626367701 ], [ -156.165625816689328, 20.710810006270108 ], [ -156.165030929934318, 20.711101712753585 ], [ -156.164071022602542, 20.711341380784589 ], [ -156.162637049417413, 20.710577325084525 ], [ -156.161541664993649, 20.712988373566024 ], [ -156.162829766103016, 20.712937418816452 ], [ -156.164614017936657, 20.713067073702323 ], [ -156.165709558180538, 20.712865607677152 ], [ -156.165143517004651, 20.713736472502539 ], [ -156.164299171507167, 20.71409441585222 ], [ -156.162098129847635, 20.713748545285167 ], [ -156.161807078473231, 20.713754587283702 ], [ -156.160939349916646, 20.71370787003567 ], [ -156.159442669731874, 20.715175224534846 ], [ -156.159503739112466, 20.717778315053017 ], [ -156.158049786064225, 20.719001713871144 ], [ -156.156198824992885, 20.718512512419437 ], [ -156.155313859632372, 20.717581723302931 ], [ -156.150737378707078, 20.719763953397006 ], [ -156.150892187227015, 20.720203964613344 ], [ -156.150547447572137, 20.720419488969547 ], [ -156.150095268631787, 20.721013286792775 ], [ -156.150257375301464, 20.721754130716459 ], [ -156.151154621144315, 20.721562439371716 ], [ -156.151247083477472, 20.721894171835764 ], [ -156.151503607052035, 20.721660919768667 ], [ -156.151154621144315, 20.721562439371716 ], [ -156.151040151153495, 20.721400269407319 ], [ -156.150633176560859, 20.721125875238322 ], [ -156.150892187227015, 20.720203964613344 ], [ -156.151046980762459, 20.720329378937254 ], [ -156.152293290372768, 20.721914408723318 ], [ -156.152857780130574, 20.721297470772356 ], [ -156.152709199084853, 20.719637393209542 ], [ -156.15305697721007, 20.719033660052361 ], [ -156.153352435552819, 20.721979418024933 ], [ -156.155589969590579, 20.722392794998331 ], [ -156.15572354189743, 20.723533849778331 ], [ -156.155371084080315, 20.723620719409286 ], [ -156.155618731404331, 20.723862317815936 ], [ -156.15572354189743, 20.723533849778331 ], [ -156.156027991981205, 20.723789611114512 ], [ -156.156419467556987, 20.724232475285131 ], [ -156.157708145307254, 20.725314738736444 ], [ -156.159293704388062, 20.725614015559405 ], [ -156.16026260223282, 20.727127502593095 ], [ -156.161845006647496, 20.727823425578439 ], [ -156.161815227861382, 20.728108704302443 ], [ -156.162166112213157, 20.729403041528883 ], [ -156.162666965847166, 20.730283827045085 ], [ -156.162340551381988, 20.730812556273936 ], [ -156.16239608074244, 20.731648832027954 ], [ -156.162049757073703, 20.731616931504199 ], [ -156.161728069258857, 20.731635820411132 ], [ -156.161766689485688, 20.732217916420819 ], [ -156.162624531910382, 20.732167280432325 ], [ -156.163111305541548, 20.73271815912759 ], [ -156.16347802335676, 20.731641297949285 ], [ -156.163866313438092, 20.731126150001096 ], [ -156.163754690722584, 20.732197568000448 ], [ -156.163779706285339, 20.732574864624695 ], [ -156.165448002506849, 20.732029650396406 ], [ -156.16564443913029, 20.731822495334814 ], [ -156.165932232429213, 20.731827240221463 ], [ -156.165942319096217, 20.7312857508302 ], [ -156.167381281699392, 20.731309467382594 ], [ -156.167245357608749, 20.73145269193564 ], [ -156.166517700522547, 20.731743926562242 ], [ -156.166043756379622, 20.732511041299883 ], [ -156.168036502806046, 20.733731400415625 ], [ -156.165424106724743, 20.733885510599283 ], [ -156.161931781750638, 20.733525452217158 ], [ -156.160883992366422, 20.732952610289633 ], [ -156.159995589215384, 20.732561845223948 ], [ -156.159169612182154, 20.732110351774018 ], [ -156.158585334013708, 20.732144863064928 ], [ -156.157579484814534, 20.732052064214852 ], [ -156.156426692924327, 20.732120012283932 ], [ -156.155564539740425, 20.732040422299548 ], [ -156.154652381792488, 20.73209422315254 ], [ -156.15360303814893, 20.731711871124975 ], [ -156.152690882859673, 20.731765661705591 ], [ -156.15225980928534, 20.731725858089284 ], [ -156.151477963631493, 20.731771882887656 ], [ -156.150300272174206, 20.730782921227551 ], [ -156.150129077782395, 20.730211853167354 ], [ -156.151146871694635, 20.730100979682536 ], [ -156.152329677281898, 20.729269618282796 ], [ -156.15229933795365, 20.728592448733309 ], [ -156.151453837045494, 20.728210288882767 ], [ -156.150950227920873, 20.7276608226048 ], [ -156.149413043668488, 20.728741256063486 ], [ -156.149438451607836, 20.729305807890036 ], [ -156.150001085339227, 20.729795823910681 ], [ -156.150129077782395, 20.730211853167354 ], [ -156.148823496927434, 20.730317947750226 ], [ -156.14825886318738, 20.730594746792161 ], [ -156.145694789548287, 20.730874061914658 ], [ -156.144315766328447, 20.73077380023847 ], [ -156.142220736206127, 20.730208314181564 ], [ -156.141058098313465, 20.72993349939771 ], [ -156.139871777639598, 20.729124174152599 ], [ -156.139954019470025, 20.730970525871189 ], [ -156.142200394983206, 20.73129127065619 ], [ -156.142754294966892, 20.731586641286572 ], [ -156.143453156318913, 20.731902535898005 ], [ -156.147360257073359, 20.732460270140614 ], [ -156.149004056637807, 20.732819327868928 ], [ -156.151922345765598, 20.73437443491364 ], [ -156.15432066497857, 20.735038854951888 ], [ -156.155518354279309, 20.734991634503512 ], [ -156.158602452217764, 20.73593949384658 ], [ -156.159378692695526, 20.735908817849463 ], [ -156.159666190984666, 20.735929702361226 ], [ -156.160701273312839, 20.735888751269762 ], [ -156.161667594338752, 20.736233195122935 ], [ -156.164547050067029, 20.737077864963901 ], [ -156.166430361025959, 20.737851453433453 ], [ -156.168140635072405, 20.738255734072148 ], [ -156.169675660144605, 20.739073537444735 ], [ -156.171414060687027, 20.739357647420444 ], [ -156.171911443358283, 20.739900349653283 ], [ -156.172887833026351, 20.740341436490343 ], [ -156.174567437981977, 20.739947740763427 ], [ -156.175113850904211, 20.740787989543787 ], [ -156.17663398710647, 20.741366532417668 ], [ -156.17795694794188, 20.741314076483082 ], [ -156.179442079783428, 20.740840174587685 ], [ -156.180750060335868, 20.741732050370839 ], [ -156.181837526244834, 20.741688925001032 ], [ -156.181753211546038, 20.739806011462786 ], [ -156.181808757795721, 20.739129846260756 ], [ -156.181734380991003, 20.737469128806254 ], [ -156.182148032044779, 20.73678177575346 ], [ -156.183304214465522, 20.736305350495812 ], [ -156.183853827398337, 20.735228652742091 ], [ -156.184515341204843, 20.734956228013512 ], [ -156.185017914915335, 20.734992626949417 ], [ -156.185311924593464, 20.734981043752992 ], [ -156.186542259898431, 20.735419203189512 ], [ -156.186135256875758, 20.734684549285888 ], [ -156.186227504012379, 20.733558036248791 ], [ -156.184939786848162, 20.732757651831601 ], [ -156.185484163861958, 20.730549134703573 ], [ -156.186459377737663, 20.731068542713711 ], [ -156.187109788739036, 20.730407000240504 ], [ -156.187264197986394, 20.730281780839984 ], [ -156.187368055123983, 20.730898934316354 ], [ -156.187635493065386, 20.730438478874618 ], [ -156.187264197986394, 20.730281780839984 ], [ -156.186980230850139, 20.728975080032708 ], [ -156.18782986639431, 20.726949013233529 ], [ -156.190622719383526, 20.726227266977045 ], [ -156.189779524895499, 20.725866748881675 ], [ -156.188382473347474, 20.725006288687354 ], [ -156.187782231332022, 20.724749709255185 ], [ -156.187818707883906, 20.724464398350918 ], [ -156.187528175940059, 20.722828308174361 ], [ -156.188432022350838, 20.722323905055411 ], [ -156.188772301808569, 20.721951916416984 ], [ -156.190232316791764, 20.720999167047783 ], [ -156.19147624188119, 20.722234793690671 ], [ -156.1918240166967, 20.72427515563961 ], [ -156.192382148564036, 20.725229935486436 ], [ -156.192021954799799, 20.726117483962824 ], [ -156.190658442667768, 20.726469854127664 ], [ -156.191504410586703, 20.726710866579399 ], [ -156.192787957209589, 20.726395799003861 ], [ -156.193665629441597, 20.726594736580783 ], [ -156.193758189167511, 20.726926457019953 ], [ -156.194014665261392, 20.726693135034168 ], [ -156.193665629441597, 20.726594736580783 ], [ -156.193384157317695, 20.725774866891591 ], [ -156.194038472077324, 20.725203678065736 ], [ -156.193288645307149, 20.723773932299977 ], [ -156.193576386590792, 20.723476057379369 ], [ -156.194122406837124, 20.722999107911569 ], [ -156.192160381487696, 20.722515078717649 ], [ -156.192543230012802, 20.721297821165923 ], [ -156.193329168956438, 20.721576192587278 ], [ -156.194419879458366, 20.722127324447552 ], [ -156.196570535879971, 20.720551017212046 ], [ -156.19679386734586, 20.721093944137941 ], [ -156.196489141686698, 20.721627734517071 ], [ -156.196186297698944, 20.722456059639313 ], [ -156.19506713211257, 20.723433332584722 ], [ -156.195735039660406, 20.723649334207327 ], [ -156.1962082145333, 20.724349076575518 ], [ -156.195231482684704, 20.72467486337656 ], [ -156.194204608752756, 20.725280444934025 ], [ -156.194718702627625, 20.726490125406741 ], [ -156.194356649740172, 20.726716568421288 ], [ -156.194114405034327, 20.727108153144471 ], [ -156.195833474142631, 20.727553159575177 ], [ -156.19634034193561, 20.72842364857603 ], [ -156.196954721645938, 20.729196442861319 ], [ -156.197635439187735, 20.731130219180887 ], [ -156.198185536230909, 20.731272618610756 ], [ -156.198333812794885, 20.731434255652303 ], [ -156.199046742231587, 20.731405935580291 ], [ -156.199537240060863, 20.731441433152018 ], [ -156.199449498537064, 20.732511965731909 ], [ -156.199461940103134, 20.732783002116861 ], [ -156.199439115476792, 20.733060737316276 ], [ -156.200616876144011, 20.733592627707807 ], [ -156.200508000645783, 20.734925716299674 ], [ -156.198775324240103, 20.735275305815485 ], [ -156.199111842636427, 20.736894550431401 ], [ -156.199071551465266, 20.737387821172828 ], [ -156.201536627191274, 20.739132854662035 ], [ -156.203905223898289, 20.739889356402951 ], [ -156.20432231037168, 20.736976076338543 ], [ -156.203411997918067, 20.735703897494925 ], [ -156.20346852374044, 20.735014903762529 ], [ -156.203432766721278, 20.734222448947865 ], [ -156.203769460484011, 20.733662982740665 ], [ -156.203399209669357, 20.733340897886031 ], [ -156.203560197893381, 20.731373619729631 ], [ -156.205327448539379, 20.730210314866216 ], [ -156.206422121396457, 20.72909689396668 ], [ -156.207706689968518, 20.728251300516764 ], [ -156.212439699542074, 20.72970449952448 ], [ -156.214831791373939, 20.730555909690459 ], [ -156.214711444487421, 20.732031261318944 ], [ -156.213274235996408, 20.733197902562974 ], [ -156.212963287837681, 20.734364280062795 ], [ -156.212041981412654, 20.73571343706687 ], [ -156.212074572519782, 20.73643562145417 ], [ -156.213541203106047, 20.73596732396755 ], [ -156.214098506749309, 20.734367342295307 ], [ -156.214306112565026, 20.734115210991032 ], [ -156.214941828332286, 20.735479693834417 ], [ -156.215601030202066, 20.736053205611181 ], [ -156.213873816075704, 20.737455569928031 ], [ -156.213082527506003, 20.738260141725323 ], [ -156.212445308823106, 20.73950929988802 ], [ -156.211913462295996, 20.740393187078709 ], [ -156.215142115653862, 20.741155160620792 ], [ -156.21769148623747, 20.741842073053316 ], [ -156.218152329671938, 20.740519286571182 ], [ -156.21861552714924, 20.740143407043124 ], [ -156.219179209247471, 20.739038632794454 ], [ -156.219796513942981, 20.738537494436759 ], [ -156.220526333504552, 20.736202351479516 ], [ -156.221895324161693, 20.735090748593461 ], [ -156.221868705637689, 20.734500770657551 ], [ -156.221891456397714, 20.734224878767062 ], [ -156.221745874559787, 20.733821691588446 ], [ -156.222478370845494, 20.73370816068633 ], [ -156.222753695175442, 20.733226344373186 ], [ -156.221608412011506, 20.73288158909298 ], [ -156.221350178223616, 20.732427518127174 ], [ -156.222350783478618, 20.732026720423274 ], [ -156.223077476699189, 20.731260198585346 ], [ -156.22339121813053, 20.731014529521627 ], [ -156.224201486915376, 20.729842565579599 ], [ -156.224687402250566, 20.730391822027642 ], [ -156.225207683010467, 20.729843071018106 ], [ -156.224843838024128, 20.728859112764589 ], [ -156.225167431381237, 20.728334825687899 ], [ -156.225656291708134, 20.727350081527643 ], [ -156.226453637426772, 20.726329712148761 ], [ -156.227627784730544, 20.7259369671666 ], [ -156.228056930955489, 20.72657787077388 ], [ -156.227172514200589, 20.727270198156916 ], [ -156.227573795344483, 20.727974660493029 ], [ -156.226863378608357, 20.72888376390506 ], [ -156.226420252312892, 20.730583109746505 ], [ -156.226863487535098, 20.731361382589675 ], [ -156.227693481634105, 20.731312084877654 ], [ -156.228824602337426, 20.731416016835787 ], [ -156.229698043981415, 20.731312131074379 ], [ -156.228953974626478, 20.730687974639032 ], [ -156.22946250218817, 20.730289912102432 ], [ -156.229126883612821, 20.730008374506344 ], [ -156.230156278710297, 20.729769463532932 ], [ -156.230667088689103, 20.731470040296397 ], [ -156.230432526904337, 20.733729645689046 ], [ -156.229354997412031, 20.734340712244595 ], [ -156.227917188664151, 20.735420986719824 ], [ -156.227305999004102, 20.735665833241566 ], [ -156.227614935236375, 20.736208526095012 ], [ -156.227871155544079, 20.736774437013878 ], [ -156.228678660241343, 20.738192566716467 ], [ -156.227348631698959, 20.738725355283215 ], [ -156.226460432167329, 20.740514848612417 ], [ -156.224500473466549, 20.740637138594693 ], [ -156.223381623662164, 20.738902921965895 ], [ -156.222643837846988, 20.740136086391029 ], [ -156.224500473466549, 20.740637138594693 ] ], [ [ -156.177703317642795, 20.702500401390054 ], [ -156.179114064926239, 20.702364046652537 ], [ -156.179835217113094, 20.702430480945974 ], [ -156.180903733322879, 20.701892174400431 ], [ -156.182860939350718, 20.702605003279199 ], [ -156.185834004224887, 20.703500654279004 ], [ -156.186158345923275, 20.703867640085715 ], [ -156.18646281915585, 20.704123349358841 ], [ -156.186725214678546, 20.704420158882666 ], [ -156.1872162502994, 20.704391025276717 ], [ -156.188748430088793, 20.703889868641998 ], [ -156.189925394717989, 20.70365835887478 ], [ -156.190880383637619, 20.703345987898366 ], [ -156.191905453256652, 20.703440343091899 ], [ -156.192839461000489, 20.70296972042895 ], [ -156.194247004011231, 20.701190995373942 ], [ -156.19046385553068, 20.700477590838297 ], [ -156.187667702546321, 20.700643117197373 ], [ -156.18598239791811, 20.700487958108909 ], [ -156.183645041089733, 20.700847380053062 ], [ -156.180891430222914, 20.701053030956043 ], [ -156.178281220041754, 20.700102155030145 ], [ -156.176738661606493, 20.700193364441652 ], [ -156.176119940557385, 20.700136401095246 ], [ -156.172558960391882, 20.700440017503453 ], [ -156.172689822359843, 20.702400789907664 ], [ -156.175010164289375, 20.702263540522697 ], [ -156.174578054206478, 20.703314244851473 ], [ -156.17470896210159, 20.705273828622769 ], [ -156.175245937394493, 20.704707526551257 ], [ -156.175204365231679, 20.704084384509294 ], [ -156.175246457333628, 20.703678830208545 ], [ -156.175228434854006, 20.703407704247375 ], [ -156.175350518162276, 20.702235140819919 ], [ -156.176842199307345, 20.702372682609496 ], [ -156.177553274383911, 20.702330523076657 ], [ -156.177703317642795, 20.702500401390054 ], [ -156.177313930256076, 20.702763126888705 ], [ -156.177524490348929, 20.704779692169048 ], [ -156.177703317642795, 20.702500401390054 ] ] ] } }
]
}
