{
"type": "FeatureCollection",
"name": "schhell",
"crs": { "type": "name", "properties": { "name": "urn:ogc:def:crs:OGC:1.3:CRS84" } },
"features": [
{ "type": "Feature", "properties": { "ID": 1, "GRIDCODE": 2 }, "geometry": { "type": "Polygon", "coordinates": [ [ [ -159.625765819159881, 22.171603606234033 ], [ -159.626500570642321, 22.172002148155975 ], [ -159.627652977515481, 22.173810741267868 ], [ -159.628830582004753, 22.17498472090066 ], [ -159.629405150062638, 22.1754764758163 ], [ -159.627670226779969, 22.175791922077593 ], [ -159.627100594146128, 22.176075464758195 ], [ -159.626466728692293, 22.176357060630867 ], [ -159.625420633480417, 22.178443854673947 ], [ -159.624352595033002, 22.179526354475311 ], [ -159.622913840583948, 22.17759606147407 ], [ -159.625253248529447, 22.174121206282571 ], [ -159.62563249168349, 22.173099891480639 ], [ -159.625765819159881, 22.171603606234033 ] ], [ [ -159.626068791921341, 22.174312639340737 ], [ -159.626169852943548, 22.174642684436286 ], [ -159.626423975067979, 22.174404052970761 ], [ -159.626068791921341, 22.174312639340737 ] ] ] } },
{ "type": "Feature", "properties": { "ID": 2, "GRIDCODE": 2 }, "geometry": { "type": "Polygon", "coordinates": [ [ [ -159.683483195467545, 22.132887234885157 ], [ -159.683838307437696, 22.132978521444194 ], [ -159.683584357092798, 22.133217247644733 ], [ -159.683483195467545, 22.132887234885157 ] ] ] } },
{ "type": "Feature", "properties": { "ID": 3, "GRIDCODE": 2 }, "geometry": { "type": "Polygon", "coordinates": [ [ [ -159.683449209380086, 22.125840887190389 ], [ -159.684129293291051, 22.12596584813798 ], [ -159.683826190926936, 22.12647239194111 ], [ -159.683217647420548, 22.126279847114724 ], [ -159.683449209380086, 22.125840887190389 ] ] ] } },
{ "type": "Feature", "properties": { "ID": 4, "GRIDCODE": 2 }, "geometry": { "type": "Polygon", "coordinates": [ [ [ -159.58215659492231, 22.109972111577207 ], [ -159.58346281199681, 22.110681410075706 ], [ -159.581921733918023, 22.110604180890753 ], [ -159.58215659492231, 22.109972111577207 ] ] ] } },
{ "type": "Feature", "properties": { "ID": 5, "GRIDCODE": 2 }, "geometry": { "type": "Polygon", "coordinates": [ [ [ -159.580410393575676, 22.109707301779618 ], [ -159.581361390560232, 22.109822443245474 ], [ -159.581593302154744, 22.110341101165957 ], [ -159.580549178958336, 22.109941150201273 ], [ -159.580410393575676, 22.109707301779618 ] ] ] } },
{ "type": "Feature", "properties": { "ID": 6, "GRIDCODE": 2 }, "geometry": { "type": "Polygon", "coordinates": [ [ [ -159.579535634246554, 22.109168360602592 ], [ -159.580408175658704, 22.109165262905133 ], [ -159.580410393575676, 22.109707301779618 ], [ -159.579765856996403, 22.109588437237779 ], [ -159.579535634246554, 22.109168360602592 ] ] ] } },
{ "type": "Feature", "properties": { "ID": 7, "GRIDCODE": 2 }, "geometry": { "type": "Polygon", "coordinates": [ [ [ -159.579535634246554, 22.109168360602592 ], [ -159.578273949699422, 22.1088192637513 ], [ -159.577765938172831, 22.107978281330698 ], [ -159.578744896958909, 22.107901494023864 ], [ -159.579535634246554, 22.109168360602592 ] ] ] } },
{ "type": "Feature", "properties": { "ID": 8, "GRIDCODE": 2 }, "geometry": { "type": "Polygon", "coordinates": [ [ [ -159.59176589930081, 22.112647813684625 ], [ -159.592303294250684, 22.113291348226465 ], [ -159.592765801675171, 22.112802361976307 ], [ -159.59176589930081, 22.112647813684625 ], [ -159.591565760690543, 22.111754943853231 ], [ -159.59190331361188, 22.111424999911769 ], [ -159.592489729090062, 22.111157276818943 ], [ -159.592865906358497, 22.11006257340679 ], [ -159.593642581367561, 22.110074524750221 ], [ -159.593649696276202, 22.109670677420304 ], [ -159.592586856233055, 22.109165342687291 ], [ -159.592038463438712, 22.109660156454201 ], [ -159.591425811169529, 22.110258952061287 ], [ -159.588546357708196, 22.11064413397861 ], [ -159.588019020893142, 22.112694197374097 ], [ -159.583471451876989, 22.110658493434634 ], [ -159.584050404279481, 22.110092617129258 ], [ -159.58517710570564, 22.110110015049489 ], [ -159.58552269070907, 22.107388073460381 ], [ -159.586076432628857, 22.107651685421644 ], [ -159.58663756839519, 22.108191717873385 ], [ -159.586950107503981, 22.107924997845842 ], [ -159.587233984793187, 22.10764752874481 ], [ -159.587820394072565, 22.107379822440897 ], [ -159.588395111030366, 22.107101304660198 ], [ -159.589002848575007, 22.106823856867297 ], [ -159.589555101906654, 22.106284053389576 ], [ -159.591304861478847, 22.106012132672117 ], [ -159.591969151036579, 22.104723459154155 ], [ -159.592602089124767, 22.10533257955429 ], [ -159.595213603943336, 22.105797806976465 ], [ -159.595666261427709, 22.107080489084858 ], [ -159.59596261825655, 22.107073767500619 ], [ -159.596738719452958, 22.107442747396885 ], [ -159.59712037710409, 22.107069647625814 ], [ -159.597728096621381, 22.106792167754207 ], [ -159.598548680624134, 22.105989990206997 ], [ -159.599156392640168, 22.105712505151399 ], [ -159.599543696476701, 22.105333887222539 ], [ -159.601290568338015, 22.106164339825021 ], [ -159.60177934129149, 22.105686480476439 ], [ -159.603779303899927, 22.105717140013553 ], [ -159.605015605894636, 22.104835737871802 ], [ -159.606137444144082, 22.106234358404595 ], [ -159.606862993277531, 22.106217860794004 ], [ -159.60786155780076, 22.106233138746624 ], [ -159.608462446992831, 22.105941840570615 ], [ -159.608750717378115, 22.106219191727703 ], [ -159.610176325103708, 22.106186761546024 ], [ -159.611367199433232, 22.106932492750289 ], [ -159.611375241099921, 22.106475286102135 ], [ -159.610922414720051, 22.104855865946966 ], [ -159.611661263415527, 22.105389720726041 ], [ -159.612411865725306, 22.106111923570122 ], [ -159.61446135476956, 22.107395272991404 ], [ -159.614861702241143, 22.107003841469488 ], [ -159.615159194289049, 22.106735330307625 ], [ -159.614570951749982, 22.105681708622264 ], [ -159.615151707529094, 22.105647365627174 ], [ -159.621263780890871, 22.10779811350206 ], [ -159.627653330397635, 22.110030569637527 ], [ -159.627021884754384, 22.1117730233847 ], [ -159.627974601182018, 22.112618960905571 ], [ -159.627562173861349, 22.112666705994251 ], [ -159.625796180268054, 22.11263990148003 ], [ -159.623646214890215, 22.112689007478025 ], [ -159.622669272364448, 22.11207734444886 ], [ -159.621485735083894, 22.113774530430785 ], [ -159.619857922820728, 22.11374976627383 ], [ -159.619062867026912, 22.11413522939694 ], [ -159.618123075577103, 22.11323112835284 ], [ -159.617221326812881, 22.113217392711725 ], [ -159.617508860918292, 22.113774941261418 ], [ -159.618090237819757, 22.113761684026993 ], [ -159.618101134784609, 22.114176413462914 ], [ -159.618087532350415, 22.114949408244382 ], [ -159.619603963184232, 22.115401582506401 ], [ -159.620717892537414, 22.115930951676351 ], [ -159.621869940969134, 22.115904659503215 ], [ -159.622173162102456, 22.116196328495992 ], [ -159.622768859375071, 22.116725258173478 ], [ -159.623564078283749, 22.117490187283288 ], [ -159.624010844274352, 22.116189317494186 ], [ -159.625145500830996, 22.116792336846078 ], [ -159.625835031234743, 22.117404539635743 ], [ -159.624806673313515, 22.118332760746274 ], [ -159.624792253914421, 22.119153737723032 ], [ -159.625386957769308, 22.119436311746757 ], [ -159.626541806965378, 22.119780595120265 ], [ -159.62656117604098, 22.12051573904666 ], [ -159.625969983564318, 22.121335520206859 ], [ -159.627411842307197, 22.122615650323521 ], [ -159.627730684209013, 22.123221617308431 ], [ -159.628896511083695, 22.123743070000199 ], [ -159.628424888802328, 22.125134663309243 ], [ -159.625709331954454, 22.125093457654085 ], [ -159.625703998818921, 22.125397533345399 ], [ -159.626874650691121, 22.125658671301352 ], [ -159.628142260276974, 22.12645218175409 ], [ -159.629216391177266, 22.126468474674109 ], [ -159.630886327021244, 22.12483558140212 ], [ -159.63123541124591, 22.125099827468222 ], [ -159.631807983451068, 22.12565049792256 ], [ -159.63240375640882, 22.126179390069286 ], [ -159.632786185716157, 22.127261991940337 ], [ -159.633170292703852, 22.126239062876717 ], [ -159.632679336811862, 22.125360148088106 ], [ -159.632707269125859, 22.123758486750102 ], [ -159.632100790592119, 22.123470353276794 ], [ -159.630938868493871, 22.122950686794503 ], [ -159.630568644514653, 22.121301284845142 ], [ -159.631925036790619, 22.121321830031388 ], [ -159.632379868390927, 22.120490753524226 ], [ -159.632056159900316, 22.11991115737203 ], [ -159.632079182361906, 22.118592263339064 ], [ -159.631777312777615, 22.118051785986655 ], [ -159.633734526894244, 22.117599169784846 ], [ -159.634687130576339, 22.116419198214633 ], [ -159.635260840879965, 22.115596394160111 ], [ -159.6358462271603, 22.115874516587056 ], [ -159.63613193092749, 22.115595087945159 ], [ -159.636427560558559, 22.115328233275363 ], [ -159.636406090185744, 22.114515691791556 ], [ -159.638108894797085, 22.114476667456533 ], [ -159.644445857055018, 22.117266208615927 ], [ -159.652727008833239, 22.119058300438123 ], [ -159.675574158843744, 22.119512590203378 ], [ -159.680720336715751, 22.120352082717602 ], [ -159.684153881383139, 22.121886482444935 ], [ -159.684168437961375, 22.122430618249787 ], [ -159.682996585209281, 22.122457805846512 ], [ -159.682428572490437, 22.122449387340154 ], [ -159.681546456262993, 22.122734834662545 ], [ -159.679803770945881, 22.123269779633798 ], [ -159.680381058533158, 22.123552752458853 ], [ -159.68297232390924, 22.124710728407695 ], [ -159.682426089566604, 22.125709657437962 ], [ -159.683013698723641, 22.126760789781986 ], [ -159.683035707990854, 22.127584729912918 ], [ -159.682592874559901, 22.128018038797766 ], [ -159.682149737261682, 22.128418289232872 ], [ -159.681866009811444, 22.128695919178263 ], [ -159.680988818290928, 22.128965174054375 ], [ -159.680414204764247, 22.129244014732738 ], [ -159.679820733114155, 22.129515331057366 ], [ -159.681093667610412, 22.12989433788454 ], [ -159.682161403067369, 22.130841580108033 ], [ -159.681586860615852, 22.131136255053846 ], [ -159.680541418134567, 22.131614197059271 ], [ -159.682751668758584, 22.13260185932111 ], [ -159.682025296194553, 22.133836522895827 ], [ -159.680288091926741, 22.133876806536954 ], [ -159.677527275766749, 22.133835795252185 ], [ -159.677896446031525, 22.135247467813993 ], [ -159.679858213941088, 22.135831549276109 ], [ -159.67878322998763, 22.136555743787888 ], [ -159.677973817953017, 22.136574500303386 ], [ -159.677534838954813, 22.13656797805416 ], [ -159.676664609137674, 22.136849521825724 ], [ -159.676101595389156, 22.136308427930011 ], [ -159.676079928808434, 22.136575210950248 ], [ -159.676090825322888, 22.136983306975974 ], [ -159.6760702500778, 22.138185550495479 ], [ -159.677031497971484, 22.138786800494188 ], [ -159.680453833529356, 22.138707491180508 ], [ -159.679589657184096, 22.139275146619365 ], [ -159.677256704874623, 22.139550571023165 ], [ -159.677638009003317, 22.141246452879969 ], [ -159.677138981340789, 22.142624758213604 ], [ -159.679022109810603, 22.143466222596544 ], [ -159.678679603881051, 22.144305863194027 ], [ -159.677574053812407, 22.143614401565959 ], [ -159.675641532285795, 22.143271260718528 ], [ -159.675235786917597, 22.142545445961133 ], [ -159.67480850884283, 22.141734157286137 ], [ -159.67465135813049, 22.142000400245085 ], [ -159.674368879771066, 22.142549031205213 ], [ -159.673569851858502, 22.142914246957581 ], [ -159.674647696129739, 22.143870451433369 ], [ -159.674690979998644, 22.145493944750914 ], [ -159.672893090428829, 22.144154125073797 ], [ -159.670882798457711, 22.144200631369241 ], [ -159.669864507823405, 22.144185453253918 ], [ -159.669151065489302, 22.144201945016881 ], [ -159.668265806679216, 22.143923711255567 ], [ -159.667826883299711, 22.143933853692808 ], [ -159.667390473763191, 22.143927343729562 ], [ -159.666954142378898, 22.143937423592565 ], [ -159.665590895175569, 22.143917069708838 ], [ -159.66623100645478, 22.144203151028538 ], [ -159.666517397972086, 22.144478426042959 ], [ -159.667106302803234, 22.144741612532624 ], [ -159.66768382652927, 22.145015802285247 ], [ -159.668265392911337, 22.145002363129862 ], [ -159.667981631329837, 22.145285494707412 ], [ -159.667112562638152, 22.14607022340078 ], [ -159.668477401017981, 22.146114824254081 ], [ -159.670277258558059, 22.146073214811963 ], [ -159.671183493919472, 22.146877210721538 ], [ -159.670901067779965, 22.147441666003427 ], [ -159.670314659858605, 22.147709669650354 ], [ -159.669757792202887, 22.148254407945096 ], [ -159.668288694924428, 22.148705172359342 ], [ -159.669798621429948, 22.149347859896679 ], [ -159.671442239611679, 22.14930985571052 ], [ -159.672374352670829, 22.149873684975521 ], [ -159.669162340408235, 22.150374351084178 ], [ -159.669178404172641, 22.150977741853467 ], [ -159.668587403573525, 22.150968933530542 ], [ -159.667723078172315, 22.150988908099666 ], [ -159.666870031516311, 22.150169044180927 ], [ -159.666401602186937, 22.15016205083138 ], [ -159.665402945513819, 22.150185117427949 ], [ -159.664800240124663, 22.149898996940998 ], [ -159.664222391160934, 22.150179292539331 ], [ -159.663640947641284, 22.150170600986808 ], [ -159.663631452785353, 22.150720915275144 ], [ -159.664422702605691, 22.151074539660804 ], [ -159.664806341358428, 22.151803027005936 ], [ -159.665679053122574, 22.151782876414334 ], [ -159.66597253979549, 22.152340199791912 ], [ -159.666284285254761, 22.152897902866346 ], [ -159.664278833456649, 22.15286795418513 ], [ -159.663070388832153, 22.153258772161458 ], [ -159.661907837671578, 22.152893357462482 ], [ -159.659573316079474, 22.152637221203889 ], [ -159.657610475248561, 22.152177058100989 ], [ -159.655558082791316, 22.152806609469373 ], [ -159.654741641278207, 22.154705079546385 ], [ -159.655793774099266, 22.156703257342926 ], [ -159.65611402388825, 22.156987371276511 ], [ -159.656086686844304, 22.158567534967613 ], [ -159.656736119012237, 22.159481578224973 ], [ -159.657596896043998, 22.160245262759862 ], [ -159.656411122454472, 22.160227502349667 ], [ -159.654381343083912, 22.160274252321368 ], [ -159.653918905698305, 22.15896588989634 ], [ -159.651254767686083, 22.157550814170822 ], [ -159.650579702007036, 22.157540680546553 ], [ -159.649995097647519, 22.157554127708107 ], [ -159.649427461145365, 22.157008494855098 ], [ -159.649119712170034, 22.157015575845833 ], [ -159.648760071476318, 22.156332568992752 ], [ -159.647658730677421, 22.155666180040591 ], [ -159.647229162602571, 22.155253225968227 ], [ -159.646782198066006, 22.154856600188861 ], [ -159.646202410770258, 22.154040414225548 ], [ -159.645322568367561, 22.153778303923463 ], [ -159.644897035769617, 22.152969963671971 ], [ -159.643257835789683, 22.152945280236068 ], [ -159.643301324601765, 22.154590199871709 ], [ -159.642423961014629, 22.154873825296598 ], [ -159.640090319252181, 22.155237134336549 ], [ -159.638600958180461, 22.156186107975572 ], [ -159.638051745990253, 22.155698729807117 ], [ -159.638065579621724, 22.154907128867734 ], [ -159.637453960160883, 22.154046124513656 ], [ -159.636884221281548, 22.153540452663648 ], [ -159.636597867117246, 22.153265124975935 ], [ -159.635718045940507, 22.153002962296615 ], [ -159.635431695105041, 22.152727632463968 ], [ -159.634842670031418, 22.152464273914951 ], [ -159.634852159779513, 22.151919542018621 ], [ -159.633668070879253, 22.151390079315167 ], [ -159.633682252252896, 22.150575425573393 ], [ -159.632582031040471, 22.150229382886025 ], [ -159.630440739296546, 22.150646585026731 ], [ -159.627906629674698, 22.150051997627127 ], [ -159.626369157707018, 22.150328250700955 ], [ -159.625240652908701, 22.15087529916886 ], [ -159.624458635177376, 22.151232429374272 ], [ -159.62408171104812, 22.151963819053378 ], [ -159.623787318934887, 22.152501560289711 ], [ -159.623505815090795, 22.153321123535484 ], [ -159.623211418076153, 22.153858863759648 ], [ -159.622483653420915, 22.156300826281964 ], [ -159.62177353414927, 22.15586120823022 ], [ -159.621734392089735, 22.154372887415956 ], [ -159.622113269404082, 22.151382914447893 ], [ -159.623190057556087, 22.150330262164839 ], [ -159.623781223978284, 22.149796804763682 ], [ -159.624286827493023, 22.149302512836247 ], [ -159.626717401316142, 22.148962117667306 ], [ -159.627993223430934, 22.148981461424111 ], [ -159.633184349982827, 22.148862698390332 ], [ -159.633982669969583, 22.149219670477418 ], [ -159.635107352245569, 22.150301096273282 ], [ -159.635711602484321, 22.1502872542906 ], [ -159.636236001935742, 22.151771469253411 ], [ -159.638047652980333, 22.152175380549771 ], [ -159.638334007632693, 22.152450705713967 ], [ -159.638929919793355, 22.152979569061579 ], [ -159.639644580443417, 22.15433728427897 ], [ -159.641801494294214, 22.1534121675985 ], [ -159.642167156859017, 22.15162719892421 ], [ -159.64553693156617, 22.151549831485791 ], [ -159.646050564762334, 22.152005664564083 ], [ -159.647036025612437, 22.152953031321104 ], [ -159.64735874049066, 22.152415137464885 ], [ -159.647776062123597, 22.150790349231677 ], [ -159.648512056523884, 22.150773430503172 ], [ -159.649382006546404, 22.150786502969588 ], [ -159.64886836117077, 22.150282825297101 ], [ -159.647927031461251, 22.149447496410396 ], [ -159.648646561611685, 22.149078692657021 ], [ -159.649674737635252, 22.148608943394201 ], [ -159.649653262480257, 22.147798683049622 ], [ -159.650829964067896, 22.148059586707692 ], [ -159.651391005597901, 22.1485989480963 ], [ -159.651705040819706, 22.148603665398078 ], [ -159.652567378172847, 22.14818545115914 ], [ -159.654519824100163, 22.147733749046132 ], [ -159.655070356330867, 22.146214027532142 ], [ -159.653434512146703, 22.145067960753885 ], [ -159.652559943819085, 22.14467700721854 ], [ -159.653455993605348, 22.144520765611645 ], [ -159.654301896583831, 22.144533454028142 ], [ -159.655174566645343, 22.14451336068058 ], [ -159.656326398073105, 22.144530624219872 ], [ -159.656912292208574, 22.14345976260233 ], [ -159.656605329904068, 22.14284880584394 ], [ -159.655665503906931, 22.142014804990932 ], [ -159.656445176358631, 22.139862511979469 ], [ -159.656017337368354, 22.139096961182773 ], [ -159.656586193600077, 22.138583360404304 ], [ -159.656600741684912, 22.137738218201815 ], [ -159.656253309089777, 22.136191649003699 ], [ -159.656590784784981, 22.135574823494053 ], [ -159.656569286186226, 22.134767160692935 ], [ -159.657379575799041, 22.134035583171322 ], [ -159.656777306817105, 22.132331512791904 ], [ -159.655747310550765, 22.132316076814355 ], [ -159.654534741303877, 22.132596644908752 ], [ -159.653378275060504, 22.132877723890978 ], [ -159.652210107001707, 22.133147990135619 ], [ -159.651345770214959, 22.133698907284462 ], [ -159.649593682392947, 22.134779126834854 ], [ -159.64846898946243, 22.135879051907242 ], [ -159.647625268668577, 22.135866364873145 ], [ -159.645836043503579, 22.136415147828401 ], [ -159.645541479938231, 22.136703188610653 ], [ -159.644225505821936, 22.137106788590639 ], [ -159.643282190394842, 22.138029263649518 ], [ -159.642639855797739, 22.138340761328454 ], [ -159.640685180693339, 22.138704243796049 ], [ -159.63972322324264, 22.139170707295893 ], [ -159.639004278423727, 22.139159852344751 ], [ -159.637980515071206, 22.139183327629262 ], [ -159.636626544307518, 22.136610778579005 ], [ -159.634993098753142, 22.134484559250097 ], [ -159.630378923967015, 22.130536681974498 ], [ -159.628039107673487, 22.129072115272166 ], [ -159.623375041517505, 22.1268560603779 ], [ -159.619019742218995, 22.125417620546795 ], [ -159.609123470030056, 22.122297297891585 ], [ -159.599050814539936, 22.118357171881573 ], [ -159.592505558048572, 22.114946113359405 ], [ -159.589007926757574, 22.113193922586614 ], [ -159.589583689363053, 22.113059427222677 ], [ -159.58987989310728, 22.113063990319443 ], [ -159.590576678856849, 22.11206527633486 ], [ -159.59132870970538, 22.11278901081441 ], [ -159.59176589930081, 22.112647813684625 ] ], [ [ -159.640957887689865, 22.120863840180359 ], [ -159.640540834942925, 22.121558015538351 ], [ -159.640182436737518, 22.121827728992955 ], [ -159.640270976382595, 22.122468963668002 ], [ -159.639061444163019, 22.123159963291748 ], [ -159.638687609414262, 22.123598741504662 ], [ -159.63924118725339, 22.124467814930576 ], [ -159.641364658686939, 22.123893824322881 ], [ -159.641731223676146, 22.121066574516703 ], [ -159.640957887689865, 22.120863840180359 ] ], [ [ -159.63747234740049, 22.121961568043098 ], [ -159.63758735653397, 22.122695996822653 ], [ -159.63791149238105, 22.122590873120771 ], [ -159.638722569628044, 22.122846854496157 ], [ -159.638141578257603, 22.122101387176023 ], [ -159.63747234740049, 22.121961568043098 ] ], [ [ -159.59845324163561, 22.112081404242684 ], [ -159.598612004066354, 22.112716982978299 ], [ -159.599434562523498, 22.112207254708895 ], [ -159.59845324163561, 22.112081404242684 ] ], [ [ -159.6007789102012, 22.111801844505461 ], [ -159.600938433507594, 22.112145378962857 ], [ -159.601448277523104, 22.111909236037331 ], [ -159.6007789102012, 22.111801844505461 ] ], [ [ -159.599322362314155, 22.1112651497962 ], [ -159.59998284928983, 22.111154168901255 ], [ -159.59948263067551, 22.110912318272668 ], [ -159.599322362314155, 22.1112651497962 ], [ -159.59896813811838, 22.111359224343719 ], [ -159.599224204581049, 22.111595951091964 ], [ -159.599322362314155, 22.1112651497962 ] ] ] } },
{ "type": "Feature", "properties": { "ID": 9, "GRIDCODE": 2 }, "geometry": { "type": "Polygon", "coordinates": [ [ [ -159.586045010184961, 22.065510289767797 ], [ -159.585946850230016, 22.065841084916013 ], [ -159.585690889852685, 22.065604342012733 ], [ -159.586045010184961, 22.065510289767797 ] ] ] } },
{ "type": "Feature", "properties": { "ID": 10, "GRIDCODE": 2 }, "geometry": { "type": "Polygon", "coordinates": [ [ [ -159.582555919861164, 22.065522749684479 ], [ -159.582457751726366, 22.0658535429164 ], [ -159.582201796999755, 22.06561679442849 ], [ -159.582555919861164, 22.065522749684479 ] ] ] } },
{ "type": "Feature", "properties": { "ID": 11, "GRIDCODE": 2 }, "geometry": { "type": "Polygon", "coordinates": [ [ [ -159.577896083760777, 22.06364209987828 ], [ -159.577797905902372, 22.063972890596915 ], [ -159.577541962218646, 22.063736134523442 ], [ -159.577896083760777, 22.06364209987828 ] ] ] } },
{ "type": "Feature", "properties": { "ID": 12, "GRIDCODE": 2 }, "geometry": { "type": "Polygon", "coordinates": [ [ [ -159.570283219796863, 22.050388562609594 ], [ -159.569928382214385, 22.050297013707919 ], [ -159.570182383818263, 22.050058468972917 ], [ -159.570283219796863, 22.050388562609594 ] ] ] } },
{ "type": "Feature", "properties": { "ID": 13, "GRIDCODE": 2 }, "geometry": { "type": "Polygon", "coordinates": [ [ [ -159.58074496718379, 22.049267683155087 ], [ -159.581035691669598, 22.049266651608662 ], [ -159.581036798494239, 22.049537673003979 ], [ -159.580746073454691, 22.049538704564387 ], [ -159.58074496718379, 22.049267683155087 ] ] ] } },
{ "type": "Feature", "properties": { "ID": 14, "GRIDCODE": 2 }, "geometry": { "type": "Polygon", "coordinates": [ [ [ -159.58074496718379, 22.049267683155087 ], [ -159.580390126245675, 22.049176157002449 ], [ -159.580644107950263, 22.048937596424246 ], [ -159.58074496718379, 22.049267683155087 ] ] ] } },
{ "type": "Feature", "properties": { "ID": 15, "GRIDCODE": 2 }, "geometry": { "type": "Polygon", "coordinates": [ [ [ -159.592941827764832, 22.045971663255024 ], [ -159.591746478188611, 22.045640878712621 ], [ -159.591163439038581, 22.043684454426362 ], [ -159.59227945361269, 22.044910191322803 ], [ -159.592941827764832, 22.045971663255024 ] ] ] } },
{ "type": "Feature", "properties": { "ID": 16, "GRIDCODE": 2 }, "geometry": { "type": "Polygon", "coordinates": [ [ [ -159.581036798494239, 22.049537673003979 ], [ -159.581738758078046, 22.049966531196887 ], [ -159.582902084335473, 22.050065615728052 ], [ -159.582319100492583, 22.04969344267705 ], [ -159.582079330664328, 22.049137505797912 ], [ -159.583069651906271, 22.048988395023589 ], [ -159.583170516768945, 22.049318480134566 ], [ -159.583424493951213, 22.049079915342954 ], [ -159.583069651906271, 22.048988395023589 ], [ -159.582808322270893, 22.047934636163838 ], [ -159.58407275957083, 22.047476364695378 ], [ -159.584924673152813, 22.047572062966509 ], [ -159.585073739980203, 22.046418779705199 ], [ -159.584270033714262, 22.045823471792303 ], [ -159.586156081622477, 22.044577465011283 ], [ -159.585687556697991, 22.043453949682714 ], [ -159.586397461084147, 22.043369046009641 ], [ -159.586669210528157, 22.044518606813618 ], [ -159.586998389078303, 22.045307856770012 ], [ -159.586803116305646, 22.046818615867377 ], [ -159.587574525465271, 22.047237605781323 ], [ -159.588263216099847, 22.046429451621897 ], [ -159.588714302599868, 22.046950493299814 ], [ -159.589328962884679, 22.047189332917785 ], [ -159.589881674088645, 22.048030391944089 ], [ -159.590496340933043, 22.048269227001565 ], [ -159.590867165563083, 22.049080964123021 ], [ -159.591080161123813, 22.048839144471728 ], [ -159.59151275527114, 22.046939414501569 ], [ -159.592750555514328, 22.046604642748509 ], [ -159.592941827764832, 22.045971663255024 ], [ -159.593605224429922, 22.04656124992562 ], [ -159.596163560957535, 22.049618584791062 ], [ -159.597175994885333, 22.051544721845506 ], [ -159.596512168272369, 22.052757588938068 ], [ -159.597859644742044, 22.053159788977002 ], [ -159.605112028601269, 22.06852904229892 ], [ -159.606010807620805, 22.071076124621872 ], [ -159.605985931651361, 22.072484269627537 ], [ -159.606010772744554, 22.073431867170157 ], [ -159.605113275349879, 22.073707007503074 ], [ -159.604553070182135, 22.075338033120243 ], [ -159.6032375350932, 22.075741287182481 ], [ -159.602006951881918, 22.076944584967425 ], [ -159.601350193635255, 22.077244525014649 ], [ -159.602056912732507, 22.077510004170598 ], [ -159.603970493459428, 22.076418754966227 ], [ -159.605427202910363, 22.076441076965782 ], [ -159.606001108350938, 22.075327248708714 ], [ -159.607004841951635, 22.075057928950823 ], [ -159.608406010364121, 22.081807911811538 ], [ -159.607763486353804, 22.08210140637393 ], [ -159.60705078800396, 22.083484545618749 ], [ -159.608658750954703, 22.083447982005161 ], [ -159.609245612202727, 22.086032691361261 ], [ -159.608374907389816, 22.086430392671705 ], [ -159.608092274279471, 22.086978916158813 ], [ -159.607796789164922, 22.087245612299682 ], [ -159.607369945976586, 22.088073981261552 ], [ -159.608968093015932, 22.088037648610072 ], [ -159.609271816689159, 22.09213979246417 ], [ -159.608570142038161, 22.09277310036774 ], [ -159.6066600778328, 22.093483414535399 ], [ -159.606667789453752, 22.093776045723676 ], [ -159.607681629242308, 22.09467661016647 ], [ -159.605526100929552, 22.095174796984832 ], [ -159.606131117158213, 22.096258697282249 ], [ -159.607180180625789, 22.097190513678701 ], [ -159.605223484669438, 22.097554034860096 ], [ -159.604067195208756, 22.097834761472981 ], [ -159.601316867066174, 22.098345644935431 ], [ -159.600575005667054, 22.097300160150287 ], [ -159.599946585611491, 22.097036870902169 ], [ -159.598059922509776, 22.097646408633985 ], [ -159.597613061138276, 22.09851343487156 ], [ -159.596197164117626, 22.09894734044018 ], [ -159.595498233662937, 22.099630573159722 ], [ -159.59505493061576, 22.100030584090764 ], [ -159.594766514984087, 22.100590205804657 ], [ -159.593901751227065, 22.099758015872705 ], [ -159.593309067615508, 22.099771433824763 ], [ -159.592709456684247, 22.099486309142698 ], [ -159.591856499106399, 22.099505628178413 ], [ -159.591275793711191, 22.09949669680779 ], [ -159.590699487245814, 22.100322834801528 ], [ -159.589531454397417, 22.100592650341678 ], [ -159.589154475844879, 22.101323973182609 ], [ -159.587981709826721, 22.101859400758606 ], [ -159.587510471908331, 22.102773541607608 ], [ -159.58663324660867, 22.103042290954587 ], [ -159.586060781131067, 22.103862841105812 ], [ -159.584865424827456, 22.104403745262584 ], [ -159.583729090494842, 22.103863371689044 ], [ -159.583441267406386, 22.104700728007064 ], [ -159.582565382289346, 22.105490952790475 ], [ -159.58258670689159, 22.106309157723867 ], [ -159.582279247954148, 22.106586487911777 ], [ -159.582312123241479, 22.107849034677628 ], [ -159.582252030286668, 22.108207406957082 ], [ -159.580482356687895, 22.107649979471574 ], [ -159.579354436458715, 22.106564339440329 ], [ -159.577477600654959, 22.10660667338195 ], [ -159.577057215880927, 22.107421940757835 ], [ -159.576738136349974, 22.107114799667059 ], [ -159.576762309172608, 22.105759894080034 ], [ -159.577446982814365, 22.104509814191417 ], [ -159.57820930870642, 22.104161837715637 ], [ -159.578786938037013, 22.103881953691332 ], [ -159.580142806723757, 22.104526756448958 ], [ -159.580672100834335, 22.104009461735952 ], [ -159.581617458334222, 22.10315654547718 ], [ -159.580416328749834, 22.102618769310137 ], [ -159.58081907490353, 22.102255416520361 ], [ -159.581114198139517, 22.101966958824125 ], [ -159.581981082342168, 22.101980365984097 ], [ -159.582556002243592, 22.101701760507609 ], [ -159.583479393518786, 22.10141889022211 ], [ -159.584588474255156, 22.100881431469201 ], [ -159.58546569044816, 22.100612693236741 ], [ -159.585750096372436, 22.100466038616354 ], [ -159.58400349073375, 22.100075878267958 ], [ -159.583414025734527, 22.09950849348418 ], [ -159.581328553732646, 22.099555593041103 ], [ -159.582705258767504, 22.098313466325379 ], [ -159.581012889086679, 22.09780832819791 ], [ -159.5801465233084, 22.098228181067977 ], [ -159.580700621423745, 22.095657144621011 ], [ -159.581078562617222, 22.096020949046959 ], [ -159.581393261944186, 22.09628542790291 ], [ -159.581949889556711, 22.095741399356626 ], [ -159.582536260643423, 22.095473712484516 ], [ -159.583549212624632, 22.094982822044738 ], [ -159.584577482200586, 22.095471850282809 ], [ -159.585153536631054, 22.095458838142275 ], [ -159.585442007960552, 22.096007610601411 ], [ -159.586032840454124, 22.095721285595058 ], [ -159.586609610657888, 22.096276432712479 ], [ -159.586892698319417, 22.095452701657013 ], [ -159.587212220369537, 22.095164401980504 ], [ -159.588351442065857, 22.095181958535928 ], [ -159.588998394352075, 22.094254585178103 ], [ -159.589996369953923, 22.094729147894729 ], [ -159.590389255823823, 22.094345063997149 ], [ -159.591286128450804, 22.094358876744327 ], [ -159.59244951855635, 22.094912094892667 ], [ -159.593733243874425, 22.094883020761383 ], [ -159.594164316800772, 22.095702878049053 ], [ -159.594462069959349, 22.095967392918055 ], [ -159.594852522177092, 22.096343178387464 ], [ -159.597064625551781, 22.095270952274351 ], [ -159.595421902742061, 22.094535600836256 ], [ -159.595034596758808, 22.093791597775965 ], [ -159.595758780571828, 22.093802722752827 ], [ -159.596194967981745, 22.093792844820197 ], [ -159.596743200458405, 22.093801265648178 ], [ -159.599075902660417, 22.093474879141493 ], [ -159.598193470116996, 22.092691011948077 ], [ -159.597047848717324, 22.092716986188442 ], [ -159.597062486789611, 22.091892614128554 ], [ -159.595600217077475, 22.091361277902326 ], [ -159.595312145170595, 22.091084008796557 ], [ -159.594428575258377, 22.091512302910342 ], [ -159.593278943028196, 22.091222131704903 ], [ -159.594149721238409, 22.090824509425229 ], [ -159.594433550777069, 22.090547028305515 ], [ -159.594982358006547, 22.090051767008049 ], [ -159.597053249764741, 22.089729836769781 ], [ -159.597639142953426, 22.089445820958421 ], [ -159.598212422738726, 22.089454625321558 ], [ -159.59909932331513, 22.089434504704073 ], [ -159.599077910048322, 22.088616649669824 ], [ -159.598476504491657, 22.08808234708135 ], [ -159.597342704932544, 22.088108064385288 ], [ -159.596165694377504, 22.087548412064308 ], [ -159.595005631584172, 22.087574705114179 ], [ -159.593280276579321, 22.087548156029399 ], [ -159.592974035650144, 22.087847518783224 ], [ -159.591806922111346, 22.088380445753941 ], [ -159.591819936323049, 22.08887961880049 ], [ -159.591793659443169, 22.089201488338098 ], [ -159.591215188193075, 22.088644743922629 ], [ -159.591234220443198, 22.087571613794999 ], [ -159.590173543173677, 22.087595627344601 ], [ -159.591515505837066, 22.086768707543214 ], [ -159.591799474313547, 22.086491131161512 ], [ -159.592095764512123, 22.086495682693176 ], [ -159.592670601751763, 22.086217051196943 ], [ -159.59325691276959, 22.085949326866071 ], [ -159.593540734590817, 22.085671847309431 ], [ -159.594469033188062, 22.085387360483416 ], [ -159.59557814262169, 22.085404431718654 ], [ -159.596580093109083, 22.085381706017927 ], [ -159.597173505844665, 22.084441725963366 ], [ -159.597527664576063, 22.084347648200392 ], [ -159.597271651237293, 22.084110925119461 ], [ -159.597173505844665, 22.084441725963366 ], [ -159.596397287796691, 22.084082488431381 ], [ -159.596298843274241, 22.083902870830126 ], [ -159.596653001299046, 22.083808794972651 ], [ -159.596396990377485, 22.083572070452473 ], [ -159.596298843274241, 22.083902870830126 ], [ -159.595560539730798, 22.083780123863587 ], [ -159.595288752161139, 22.083488419886297 ], [ -159.594843259010759, 22.083523406313336 ], [ -159.593815716659748, 22.083450220982421 ], [ -159.593218028439793, 22.084101911229972 ], [ -159.591820128677256, 22.08400233230963 ], [ -159.591308369962491, 22.084560259046949 ], [ -159.590808231430117, 22.083526340358269 ], [ -159.590616950173114, 22.083777907117373 ], [ -159.590337185675764, 22.084656254589895 ], [ -159.589467934139861, 22.084594314530353 ], [ -159.589031875102989, 22.084628539890414 ], [ -159.588363247836668, 22.084580907739838 ], [ -159.588004286603876, 22.084871419141521 ], [ -159.587716134054432, 22.085185512267699 ], [ -159.586645474540006, 22.085109194788192 ], [ -159.585950325377212, 22.085671700027479 ], [ -159.585189462539233, 22.086501177181383 ], [ -159.584813653601088, 22.086530676326081 ], [ -159.584540527056788, 22.086237437192967 ], [ -159.581925478714993, 22.086442656013993 ], [ -159.582173902880953, 22.081368968335937 ], [ -159.582570717782062, 22.080700068637388 ], [ -159.58189738459896, 22.079585350986768 ], [ -159.582237564731571, 22.078748470891775 ], [ -159.583905017623579, 22.078047860822043 ], [ -159.583634959971988, 22.077840445079879 ], [ -159.582470490546029, 22.077518189472368 ], [ -159.582788974257511, 22.077261050698844 ], [ -159.58481103230082, 22.076685747155256 ], [ -159.584764991998298, 22.076176467460176 ], [ -159.585370806373533, 22.075686195251031 ], [ -159.586237904940845, 22.074740873280071 ], [ -159.588250109517617, 22.074884296944319 ], [ -159.58831465022368, 22.074097856290155 ], [ -159.587388654495783, 22.0740318566802 ], [ -159.586235353315658, 22.074122393143366 ], [ -159.585641726686305, 22.073485187333791 ], [ -159.585138107599619, 22.07403424918143 ], [ -159.584206651107962, 22.074107369417337 ], [ -159.584176529667928, 22.073774105723825 ], [ -159.585212260158755, 22.073164320504524 ], [ -159.585625894965688, 22.071865697871868 ], [ -159.587189864593398, 22.072258621561147 ], [ -159.5889800073777, 22.072118079724671 ], [ -159.590513845868315, 22.072227384465876 ], [ -159.590992066916442, 22.071705891020869 ], [ -159.591727386137876, 22.071110813933075 ], [ -159.591151659915624, 22.070376594103575 ], [ -159.589335947374821, 22.071586444357632 ], [ -159.587969612861315, 22.07127888245661 ], [ -159.588237851268701, 22.071048348041327 ], [ -159.58937943143988, 22.070568606581755 ], [ -159.58978597362767, 22.069162641736256 ], [ -159.588489813532277, 22.068893075826544 ], [ -159.586210123747861, 22.067678854365322 ], [ -159.587573055890658, 22.067498884455318 ], [ -159.58941459562098, 22.067630138175279 ], [ -159.591128368690903, 22.066909918984642 ], [ -159.590702077337681, 22.06658245443975 ], [ -159.588622897984948, 22.066745724066998 ], [ -159.587786822875728, 22.066079522261461 ], [ -159.589950283110824, 22.065170344454256 ], [ -159.589998457153115, 22.064582565012735 ], [ -159.588803050702495, 22.064497362155688 ], [ -159.587921617056764, 22.06456656739357 ], [ -159.587618794727774, 22.064241479462531 ], [ -159.58707069447118, 22.06483912539171 ], [ -159.586045010184961, 22.065510289767797 ], [ -159.586192810175788, 22.064719729476163 ], [ -159.587040249046652, 22.063328153191591 ], [ -159.586675740832248, 22.063139673736625 ], [ -159.585877786758061, 22.063465664821045 ], [ -159.584689949891128, 22.064268993146612 ], [ -159.584799866429989, 22.063223573740309 ], [ -159.583553985035309, 22.064016018189651 ], [ -159.583030863123895, 22.065152120936965 ], [ -159.582555919861164, 22.065522749684479 ], [ -159.58266916370826, 22.064817506750146 ], [ -159.583243644001215, 22.063101324263091 ], [ -159.58266249926146, 22.06319138174959 ], [ -159.582085813019006, 22.064006508663297 ], [ -159.581767050018698, 22.063772265591211 ], [ -159.582370642096123, 22.062922818519635 ], [ -159.582118744763932, 22.061768534208849 ], [ -159.580379108995288, 22.061366521730669 ], [ -159.579578329791502, 22.062498354804443 ], [ -159.578881607193836, 22.062933776114175 ], [ -159.578650670963782, 22.063260173565215 ], [ -159.577896083760777, 22.06364209987828 ], [ -159.578031613691593, 22.063227457830301 ], [ -159.579183150404219, 22.061678292261135 ], [ -159.579235587982652, 22.060802056067523 ], [ -159.578142054032895, 22.060745180601959 ], [ -159.57744240244341, 22.061332362977002 ], [ -159.577045353933102, 22.062146838716391 ], [ -159.576562111352729, 22.061470119212402 ], [ -159.576619018552407, 22.060519296190662 ], [ -159.576100318206329, 22.060549955834677 ], [ -159.574105648363627, 22.056538781211888 ], [ -159.570422081525322, 22.05080224319931 ], [ -159.570283219796863, 22.050388562609594 ], [ -159.570438869212097, 22.050262581630992 ], [ -159.570711966586742, 22.049405559907914 ], [ -159.571762683904296, 22.049480567891031 ], [ -159.570699321818779, 22.048093468393411 ], [ -159.570526071280682, 22.047280994994189 ], [ -159.571584981653814, 22.047826945897409 ], [ -159.572099588171397, 22.047265942973418 ], [ -159.573383029325726, 22.046989402017548 ], [ -159.574170751136904, 22.04613052199765 ], [ -159.574472149060853, 22.046454119910504 ], [ -159.574942184242673, 22.046828769549062 ], [ -159.575554255879268, 22.047486052921361 ], [ -159.575926759578664, 22.046699887084532 ], [ -159.576354459151361, 22.045978817744473 ], [ -159.577979050993093, 22.045628701308839 ], [ -159.578287922339399, 22.045291905611485 ], [ -159.578243254636817, 22.044797074475738 ], [ -159.578554976076106, 22.04427153953473 ], [ -159.578821827443818, 22.043708397034795 ], [ -159.579202116241362, 22.043185149429114 ], [ -159.579091616720859, 22.044530593970862 ], [ -159.579141340805108, 22.045081236494017 ], [ -159.578672733953113, 22.045460499476938 ], [ -159.578270869541797, 22.045898696483231 ], [ -159.577803884816149, 22.046276644478755 ], [ -159.577312412485099, 22.046812555185465 ], [ -159.577714550732651, 22.047821510699954 ], [ -159.576579219278898, 22.048740356352017 ], [ -159.577601066573806, 22.049554809949193 ], [ -159.578267285640919, 22.05032601526371 ], [ -159.576099681808302, 22.051788583116242 ], [ -159.576650696828295, 22.053171231339995 ], [ -159.57484925009652, 22.054147876181943 ], [ -159.576810758508799, 22.053993999481936 ], [ -159.57742581899987, 22.054311059820922 ], [ -159.577700789618262, 22.054011323249497 ], [ -159.578012082453625, 22.053759347264826 ], [ -159.57827674932301, 22.052654163043869 ], [ -159.579015502754714, 22.051675006952291 ], [ -159.5797250707449, 22.052436937799147 ], [ -159.580307447337276, 22.0515628756472 ], [ -159.58090724550533, 22.050767820739221 ], [ -159.581036798494239, 22.049537673003979 ] ], [ [ -159.591126598616057, 22.098827949175046 ], [ -159.591227520384535, 22.099158026128826 ], [ -159.591481570705383, 22.098919448610104 ], [ -159.591126598616057, 22.098827949175046 ] ], [ [ -159.583777954597508, 22.079882690780902 ], [ -159.58360750698813, 22.080265022482752 ], [ -159.583591230752461, 22.081349177391417 ], [ -159.584818192905715, 22.080598236922761 ], [ -159.585060432953526, 22.080013983636047 ], [ -159.583777954597508, 22.079882690780902 ] ], [ [ -159.588989645726201, 22.074443520545696 ], [ -159.589090543793816, 22.074773600288637 ], [ -159.589344555206736, 22.07453502626587 ], [ -159.588989645726201, 22.074443520545696 ] ], [ [ -159.592757290880911, 22.07144864459254 ], [ -159.59256636979012, 22.071850082882193 ], [ -159.592695025553269, 22.072229867800321 ], [ -159.593795650479166, 22.071905953927537 ], [ -159.594031774672459, 22.071569128601439 ], [ -159.592757290880911, 22.07144864459254 ] ], [ [ -159.583996348391594, 22.062265317824099 ], [ -159.584350461675712, 22.062171269365965 ], [ -159.58409451065512, 22.061934523657051 ], [ -159.583996348391594, 22.062265317824099 ], [ -159.58341484656907, 22.062267392073249 ], [ -159.583415958649852, 22.062538412923427 ], [ -159.583061843788386, 22.062632459388439 ], [ -159.583317794415677, 22.062869206702718 ], [ -159.583415958649852, 22.062538412923427 ], [ -159.583997461580651, 22.062536338646183 ], [ -159.583996348391594, 22.062265317824099 ] ], [ [ -159.578461052639227, 22.059574728394864 ], [ -159.578659448764085, 22.059922683953321 ], [ -159.579434068301936, 22.059689082201263 ], [ -159.578461052639227, 22.059574728394864 ] ], [ [ -159.580495165622551, 22.059296500838492 ], [ -159.580596032459965, 22.059626587093625 ], [ -159.580850032034618, 22.059388026100606 ], [ -159.580495165622551, 22.059296500838492 ] ], [ [ -159.583686685331031, 22.05765899961203 ], [ -159.583565954259257, 22.057817307470884 ], [ -159.582242161713026, 22.058069607186656 ], [ -159.581535008606295, 22.058863261674059 ], [ -159.583268449388441, 22.059180787777716 ], [ -159.584114487508316, 22.058675851518394 ], [ -159.584800816254642, 22.05777599443924 ], [ -159.583686685331031, 22.05765899961203 ] ], [ [ -159.583680011640325, 22.056032873485339 ], [ -159.583839427950295, 22.056376429250555 ], [ -159.584349103940241, 22.056140341838578 ], [ -159.583680011640325, 22.056032873485339 ] ], [ [ -159.584549998318579, 22.055487718727033 ], [ -159.584751624634265, 22.056135794357555 ], [ -159.58526150767554, 22.055674615709776 ], [ -159.584549998318579, 22.055487718727033 ] ] ] } },
{ "type": "Feature", "properties": { "ID": 17, "GRIDCODE": 2 }, "geometry": { "type": "Polygon", "coordinates": [ [ [ -159.550069087186444, 22.010616764207203 ], [ -159.549714361249926, 22.010525168732133 ], [ -159.549968328143592, 22.010286654963643 ], [ -159.550069087186444, 22.010616764207203 ] ] ] } },
{ "type": "Feature", "properties": { "ID": 18, "GRIDCODE": 2 }, "geometry": { "type": "Polygon", "coordinates": [ [ [ -159.550069087186444, 22.010616764207203 ], [ -159.550512724279372, 22.01048738724149 ], [ -159.551078219725213, 22.010198397263309 ], [ -159.551817695926474, 22.010237000808882 ], [ -159.551353957898215, 22.011039667262686 ], [ -159.551389325321111, 22.011560925698095 ], [ -159.551373059603947, 22.01183200796703 ], [ -159.551391871506439, 22.012109092864051 ], [ -159.551085104056426, 22.012639938251414 ], [ -159.551124911346392, 22.013226788120708 ], [ -159.552113526808256, 22.013168491662583 ], [ -159.552772390687579, 22.013202895705273 ], [ -159.551534747576369, 22.014703273762805 ], [ -159.55198374146579, 22.015074656741803 ], [ -159.552261286345384, 22.015902056015744 ], [ -159.552506513314825, 22.016428032446964 ], [ -159.552901841754505, 22.014817358510037 ], [ -159.553421812608036, 22.015356087060443 ], [ -159.55376114891601, 22.015610716468888 ], [ -159.554296052110857, 22.014513533836595 ], [ -159.554736441575443, 22.01496978318939 ], [ -159.555162525646637, 22.014521866795647 ], [ -159.555469424081338, 22.014264274190214 ], [ -159.555440437018149, 22.01383654158251 ], [ -159.556596786306642, 22.013336899358286 ], [ -159.555842148028603, 22.012053105477797 ], [ -159.556883064742237, 22.012107404323018 ], [ -159.557507403223497, 22.011788267602313 ], [ -159.558354344469791, 22.011832447711289 ], [ -159.558927785707169, 22.010984840061312 ], [ -159.559336030066476, 22.0110061436039 ], [ -159.558899093154139, 22.012154901134103 ], [ -159.557836474658046, 22.013046770160667 ], [ -159.557211971292475, 22.014141737612096 ], [ -159.558094066085403, 22.014515617507342 ], [ -159.557469767143601, 22.015355504564369 ], [ -159.558672015711892, 22.015865079329956 ], [ -159.55894733487554, 22.01611473827921 ], [ -159.556208504227385, 22.017614059662566 ], [ -159.556938662873364, 22.018581250034064 ], [ -159.557228521806678, 22.019445288638664 ], [ -159.558395119056996, 22.018218900497722 ], [ -159.560677875719648, 22.017715437490548 ], [ -159.560980953507453, 22.015857193351749 ], [ -159.561938743396212, 22.015284580337088 ], [ -159.562430738725595, 22.014767256619027 ], [ -159.562736220553035, 22.014783180451953 ], [ -159.563127650874492, 22.014371573587336 ], [ -159.564175024486815, 22.015048401511248 ], [ -159.56509082459965, 22.01530864795852 ], [ -159.564038822576748, 22.015615539039445 ], [ -159.563167938589999, 22.015570131098603 ], [ -159.562562205761537, 22.015605891011486 ], [ -159.562151691032994, 22.017279151194156 ], [ -159.560992689593974, 22.018838450807646 ], [ -159.560648988183402, 22.020239061828288 ], [ -159.559352841964738, 22.020171482688397 ], [ -159.558983996029383, 22.021299809247292 ], [ -159.558413186560188, 22.02177886468079 ], [ -159.556897044912574, 22.022113229828637 ], [ -159.556112265860207, 22.022938239638496 ], [ -159.555494028107177, 22.022905978429339 ], [ -159.553945271309118, 22.022997306663704 ], [ -159.550237711617257, 22.014538472148658 ], [ -159.549336091393712, 22.012646867262056 ], [ -159.549973391662604, 22.012371552348089 ], [ -159.549918313839441, 22.011559018245421 ], [ -159.550308395375509, 22.011231662271083 ], [ -159.550069087186444, 22.010616764207203 ] ] ] } },
{ "type": "Feature", "properties": { "ID": 19, "GRIDCODE": 2 }, "geometry": { "type": "Polygon", "coordinates": [ [ [ -159.5605270457269, 22.009226205030373 ], [ -159.5609454601869, 22.009525097537573 ], [ -159.560261957876179, 22.00986188479769 ], [ -159.5605270457269, 22.009226205030373 ] ] ] } }
]
}
