{
"type": "FeatureCollection",
"name": "schobov",
"crs": { "type": "name", "properties": { "name": "urn:ogc:def:crs:OGC:1.3:CRS84" } },
"features": [
{ "type": "Feature", "properties": { "ID": 1, "GRIDCODE": 1 }, "geometry": { "type": "Polygon", "coordinates": [ [ [ -157.861587389425551, 21.544709906306664 ], [ -157.861489067233862, 21.545310478040754 ], [ -157.860960717096589, 21.544790979825425 ], [ -157.861587389425551, 21.544709906306664 ] ] ] } },
{ "type": "Feature", "properties": { "ID": 2, "GRIDCODE": 1 }, "geometry": { "type": "Polygon", "coordinates": [ [ [ -157.861587389425551, 21.544709906306664 ], [ -157.861793412824966, 21.543502805434048 ], [ -157.86112158112968, 21.543208811885407 ], [ -157.861773585223744, 21.542671701313477 ], [ -157.861743304910107, 21.542129006094356 ], [ -157.862934607315225, 21.541793735585895 ], [ -157.862908277574462, 21.541324378386733 ], [ -157.863492220999916, 21.54084330147354 ], [ -157.862933981935299, 21.540239774535031 ], [ -157.862067919530034, 21.539860695630228 ], [ -157.862342485284074, 21.539693715087274 ], [ -157.864372832221733, 21.539353435867639 ], [ -157.864105262058843, 21.538621678450394 ], [ -157.862758025870193, 21.537807067994645 ], [ -157.864392303673895, 21.536850138723317 ], [ -157.864121569853268, 21.536452825312473 ], [ -157.862107574216935, 21.536551314431794 ], [ -157.864299407038231, 21.535628160997035 ], [ -157.864697664864309, 21.534831528953141 ], [ -157.865005705296682, 21.534577830053955 ], [ -157.865527545319793, 21.534039353465026 ], [ -157.865933962330701, 21.534339662469677 ], [ -157.866566204845753, 21.539729685046044 ], [ -157.867649252362241, 21.54120260381514 ], [ -157.866798390039662, 21.542434181604335 ], [ -157.866652394667284, 21.542145965927915 ], [ -157.866760299691776, 21.540635880771116 ], [ -157.86569891308568, 21.539507891303089 ], [ -157.864961464041329, 21.540268803456303 ], [ -157.86438236725553, 21.540745948900661 ], [ -157.864358911805965, 21.541070131302025 ], [ -157.864374570823571, 21.54134813202948 ], [ -157.863771552577646, 21.541844895571273 ], [ -157.863803579532515, 21.54241856795165 ], [ -157.862674232306688, 21.543079799965088 ], [ -157.862049206527331, 21.544329432748022 ], [ -157.861587389425551, 21.544709906306664 ] ] ] } },
{ "type": "Feature", "properties": { "ID": 3, "GRIDCODE": 2 }, "geometry": { "type": "Polygon", "coordinates": [ [ [ -158.180342974752051, 21.527880240988953 ], [ -158.180443974949469, 21.527550284375863 ], [ -158.180696659754858, 21.527789207698952 ], [ -158.180342974752051, 21.527880240988953 ] ] ] } },
{ "type": "Feature", "properties": { "ID": 4, "GRIDCODE": 2 }, "geometry": { "type": "Polygon", "coordinates": [ [ [ -158.160376732819884, 21.524257564544705 ], [ -158.160118119036866, 21.525180058670824 ], [ -158.159676885373358, 21.524704525470341 ], [ -158.160376732819884, 21.524257564544705 ] ] ] } },
{ "type": "Feature", "properties": { "ID": 5, "GRIDCODE": 1 }, "geometry": { "type": "Polygon", "coordinates": [ [ [ -157.874293698134181, 21.512274491680078 ], [ -157.874629002414849, 21.512548825383341 ], [ -157.875282250831248, 21.513663354946473 ], [ -157.874091838430417, 21.514063374121424 ], [ -157.874293698134181, 21.512274491680078 ] ] ] } },
{ "type": "Feature", "properties": { "ID": 6, "GRIDCODE": 1 }, "geometry": { "type": "Polygon", "coordinates": [ [ [ -157.873729106680628, 21.510373582428663 ], [ -157.874433023657616, 21.510562137549378 ], [ -157.874158230862889, 21.51139198709598 ], [ -157.873729106680628, 21.510373582428663 ] ] ] } },
{ "type": "Feature", "properties": { "ID": 7, "GRIDCODE": 2 }, "geometry": { "type": "Polygon", "coordinates": [ [ [ -158.119909002287613, 21.510226564600387 ], [ -158.119556444413377, 21.510131936550685 ], [ -158.119811858646614, 21.509895602961429 ], [ -158.119909002287613, 21.510226564600387 ] ] ] } },
{ "type": "Feature", "properties": { "ID": 8, "GRIDCODE": 2 }, "geometry": { "type": "Polygon", "coordinates": [ [ [ -158.180342974752051, 21.527880240988953 ], [ -158.180471809756625, 21.528841198153447 ], [ -158.181061990517975, 21.528799695778364 ], [ -158.181337625920804, 21.529385858354146 ], [ -158.181649072052409, 21.529639559827768 ], [ -158.181598604206926, 21.530190177068384 ], [ -158.181666297894253, 21.531033447939333 ], [ -158.182498166105546, 21.530974995406027 ], [ -158.18315261048329, 21.531027431209544 ], [ -158.183743188197724, 21.531675677159345 ], [ -158.184524223428951, 21.531272948240133 ], [ -158.185091152640524, 21.531572490589017 ], [ -158.185690588124487, 21.531826333928443 ], [ -158.185977097338991, 21.53214078225432 ], [ -158.18682779016703, 21.532081010534334 ], [ -158.187114302380422, 21.532395456990461 ], [ -158.187798694537804, 21.532685240124085 ], [ -158.188292669733812, 21.532650522855356 ], [ -158.188610419405393, 21.533657058517605 ], [ -158.190092785479351, 21.532684415967342 ], [ -158.190605795881083, 21.533247431933344 ], [ -158.191176041274275, 21.533207319381781 ], [ -158.19176277782023, 21.533254298369215 ], [ -158.194057404740249, 21.534055337517337 ], [ -158.194946540909314, 21.534310547521766 ], [ -158.196115520742978, 21.535094543310606 ], [ -158.196709581555297, 21.536357415627862 ], [ -158.1966472714183, 21.537039130480906 ], [ -158.196732925689901, 21.538104881028232 ], [ -158.1960596542595, 21.538382066048481 ], [ -158.196085733607902, 21.538706491160113 ], [ -158.195469270814101, 21.539198206052031 ], [ -158.196175443347983, 21.540396641740166 ], [ -158.195669804757756, 21.541234364889586 ], [ -158.194973055613673, 21.541790073683085 ], [ -158.192503985924958, 21.542429713101974 ], [ -158.19200780876028, 21.541885245512322 ], [ -158.191443409889303, 21.541425540365982 ], [ -158.18927288002493, 21.540802600511793 ], [ -158.18970222258946, 21.539725918112975 ], [ -158.189838626494662, 21.539309974616227 ], [ -158.190207205690882, 21.539164470145327 ], [ -158.18995948573837, 21.538687240473422 ], [ -158.189838626494662, 21.539309974616227 ], [ -158.189099342925431, 21.539728546394493 ], [ -158.188532821321928, 21.539704815238867 ], [ -158.18823770146912, 21.539714297201762 ], [ -158.187458420145816, 21.537812880956359 ], [ -158.187087511634843, 21.538072048008257 ], [ -158.187125587507495, 21.539109050396579 ], [ -158.186786771776639, 21.539700612263783 ], [ -158.187170111957585, 21.540740885578824 ], [ -158.186196366858724, 21.541322468723475 ], [ -158.186650287141788, 21.542135132097449 ], [ -158.181992163444136, 21.540808406478344 ], [ -158.178902622331321, 21.539088557610089 ], [ -158.179332878942319, 21.537584914030688 ], [ -158.178904079580292, 21.536817218589679 ], [ -158.179293202714518, 21.536137848639786 ], [ -158.178409665475954, 21.535871334366927 ], [ -158.178134131112358, 21.535317591113916 ], [ -158.177834891682949, 21.535055407334198 ], [ -158.177697889131764, 21.534643023210169 ], [ -158.178051592111217, 21.534551996174077 ], [ -158.177798900479075, 21.534313068801712 ], [ -158.177697889131764, 21.534643023210169 ], [ -158.177114774135077, 21.535108101054622 ], [ -158.177279448976662, 21.537161170937182 ], [ -158.176854937309059, 21.53761723649842 ], [ -158.175147305319257, 21.536225984174948 ], [ -158.175756700620639, 21.535216598066405 ], [ -158.174529004069257, 21.535631566045129 ], [ -158.173726095270098, 21.535291580717129 ], [ -158.173827708678999, 21.534181820740635 ], [ -158.172518200513991, 21.534856945519028 ], [ -158.171173284033927, 21.533943213506429 ], [ -158.170628158016626, 21.533344843945827 ], [ -158.170259852023378, 21.53374042822395 ], [ -158.169428743026259, 21.53338850420489 ], [ -158.169958060682092, 21.532511808450316 ], [ -158.170346786761229, 21.531210197137163 ], [ -158.169349265961927, 21.530923813713915 ], [ -158.169751232474709, 21.529308492295016 ], [ -158.170353480313622, 21.529060572005982 ], [ -158.170624835504356, 21.528499742257416 ], [ -158.171665625161211, 21.528212110750882 ], [ -158.171094059587887, 21.527241406269809 ], [ -158.171786846791321, 21.526688887180224 ], [ -158.171823184110394, 21.526291849915545 ], [ -158.170647651158788, 21.526374348435013 ], [ -158.170351241612678, 21.52574393073747 ], [ -158.168570834147516, 21.527656971788279 ], [ -158.168022822172503, 21.527695397941244 ], [ -158.167714953510682, 21.526719446251445 ], [ -158.166667934340495, 21.52755431238181 ], [ -158.166285045707582, 21.529093228987907 ], [ -158.164989261055183, 21.529943250544083 ], [ -158.164276185898615, 21.529362283309315 ], [ -158.163982594451227, 21.528737625982384 ], [ -158.163596960905835, 21.528082598099765 ], [ -158.163973504589109, 21.526569330258912 ], [ -158.165656949215361, 21.525594406791011 ], [ -158.166154274714273, 21.524770762716802 ], [ -158.16671182193295, 21.522438481222476 ], [ -158.164767111067732, 21.523848036080327 ], [ -158.163713137327136, 21.52392196309108 ], [ -158.163435863685123, 21.523043228440461 ], [ -158.162862901223747, 21.522576240684508 ], [ -158.163423676089792, 21.521416978848002 ], [ -158.163973686560951, 21.520506062240386 ], [ -158.161998436219108, 21.521272791374159 ], [ -158.16166913086451, 21.519531071161847 ], [ -158.161111175846969, 21.520592277758272 ], [ -158.16072186065395, 21.523982314078925 ], [ -158.160376732819884, 21.524257564544705 ], [ -158.160187114021056, 21.523855820413562 ], [ -158.160282930795148, 21.523573757812688 ], [ -158.159903696366314, 21.522770269146029 ], [ -158.159997787588395, 21.522493094543066 ], [ -158.159634418014519, 21.521440159048652 ], [ -158.159545188693698, 21.517748628661504 ], [ -158.159898860275689, 21.5176576389693 ], [ -158.159646227550724, 21.517418685527446 ], [ -158.159545188693698, 21.517748628661504 ], [ -158.159395603553406, 21.517617521011942 ], [ -158.158535737937086, 21.516508087569964 ], [ -158.157978211291265, 21.518646992532211 ], [ -158.157267675051031, 21.519356914925417 ], [ -158.156314603921231, 21.517440721742911 ], [ -158.155494175885678, 21.518615585070883 ], [ -158.153500183482294, 21.517316697857733 ], [ -158.153955538978693, 21.518521574393507 ], [ -158.155048442996758, 21.520025059861894 ], [ -158.155033981884429, 21.520324669184777 ], [ -158.155623031711599, 21.520840862314806 ], [ -158.155609529930643, 21.521121485841395 ], [ -158.15601578895911, 21.521477482354157 ], [ -158.154447749342353, 21.522475457120148 ], [ -158.153485891432723, 21.521493387754333 ], [ -158.15276808819101, 21.522108894988008 ], [ -158.152698944382792, 21.523545020711854 ], [ -158.153064315188914, 21.524879200902095 ], [ -158.152151459867099, 21.524908444435997 ], [ -158.150695548713657, 21.522299781548533 ], [ -158.150676144690749, 21.521769200947933 ], [ -158.150695931254262, 21.521357925074824 ], [ -158.150396348208233, 21.521095361177778 ], [ -158.150119371381038, 21.52081259780168 ], [ -158.149544694628133, 21.520308965077469 ], [ -158.149528602712849, 21.519866142141073 ], [ -158.149548387806504, 21.519455594253561 ], [ -158.149251552085985, 21.51864919423571 ], [ -158.149275674928276, 21.518149537950531 ], [ -158.148898654822318, 21.517391429481943 ], [ -158.148395662146953, 21.518374857737324 ], [ -158.148093046289233, 21.518634352707295 ], [ -158.148103292275067, 21.518914699485919 ], [ -158.147798663559342, 21.519446339178021 ], [ -158.147813662588931, 21.519857395166621 ], [ -158.147787590564349, 21.520399323414146 ], [ -158.147812830738076, 21.521091453914288 ], [ -158.147100407868351, 21.521702331785189 ], [ -158.146616507297182, 21.522971835852662 ], [ -158.147702710914047, 21.523458240768331 ], [ -158.146807645168735, 21.525020231550307 ], [ -158.147482954917166, 21.525949262504867 ], [ -158.147457361174673, 21.52648139960024 ], [ -158.147776781120939, 21.527053942070658 ], [ -158.147726890752779, 21.528090034622899 ], [ -158.148321790834473, 21.529156019625805 ], [ -158.146256881555729, 21.530007920256939 ], [ -158.14599550796089, 21.529740316565949 ], [ -158.146583308540187, 21.529236333310479 ], [ -158.146269120710372, 21.528881844016567 ], [ -158.144544932535666, 21.52893699907926 ], [ -158.144578417244219, 21.528242788081783 ], [ -158.144563429683814, 21.527831335478119 ], [ -158.145146109524035, 21.527331764203506 ], [ -158.144789776126601, 21.526929745142908 ], [ -158.144158247003304, 21.52637617556146 ], [ -158.144650183370857, 21.524657827184743 ], [ -158.144305444849294, 21.524305890772347 ], [ -158.143142630574204, 21.524343066952536 ], [ -158.142865564732062, 21.522943747069672 ], [ -158.142463415483689, 21.522591313648025 ], [ -158.142878655870248, 21.520784239539797 ], [ -158.142863665310273, 21.520374109955174 ], [ -158.142896035670987, 21.51970186133374 ], [ -158.14211181973215, 21.520349536208737 ], [ -158.140829760006028, 21.522391880317745 ], [ -158.140839993975078, 21.522671896126617 ], [ -158.140269534947294, 21.52366732360321 ], [ -158.140239419490968, 21.524290551077005 ], [ -158.140267812800801, 21.52506567417559 ], [ -158.13976929069571, 21.525563544751343 ], [ -158.139383410784774, 21.524009947536541 ], [ -158.139072868953434, 21.523737646551098 ], [ -158.139149402037447, 21.522150304952063 ], [ -158.138597272866207, 21.521666271802985 ], [ -158.139124008222467, 21.520746983984914 ], [ -158.139104655617189, 21.520214815322277 ], [ -158.139409317069521, 21.519683192651215 ], [ -158.13938934122956, 21.519136595765541 ], [ -158.139493561141933, 21.516977029409777 ], [ -158.138804272206784, 21.51694786717572 ], [ -158.137459427938609, 21.518291178257023 ], [ -158.135450867067078, 21.515873806756588 ], [ -158.135066012230482, 21.517217766288766 ], [ -158.135365550363304, 21.518031680541238 ], [ -158.135057690342222, 21.518839073301976 ], [ -158.135067800408137, 21.519114258250344 ], [ -158.135048140484599, 21.51952070143868 ], [ -158.135072475942621, 21.520188212516764 ], [ -158.134443761297717, 21.521033179206622 ], [ -158.134472585311187, 21.521825905999023 ], [ -158.134168330074374, 21.52235679313231 ], [ -158.133753367163649, 21.523167729451043 ], [ -158.132718645980844, 21.521665206920808 ], [ -158.132747673314128, 21.521063745583962 ], [ -158.132187587724729, 21.51937549975824 ], [ -158.131686497790696, 21.519780761947576 ], [ -158.130991899086354, 21.520714105538442 ], [ -158.130494499317081, 21.521686322228607 ], [ -158.12953997502072, 21.521258723010352 ], [ -158.129553357401818, 21.520982800406198 ], [ -158.129543374730673, 21.520711718640225 ], [ -158.129586911811373, 21.519813365695516 ], [ -158.127819617231154, 21.520236821601593 ], [ -158.128230112112703, 21.518945950779607 ], [ -158.128977709760278, 21.518304966937993 ], [ -158.12828719442237, 21.516915908021431 ], [ -158.127547597312542, 21.517330896265701 ], [ -158.126246125991202, 21.518971970237125 ], [ -158.12554580416267, 21.518256717884924 ], [ -158.125196503224601, 21.519362562062859 ], [ -158.125224791329174, 21.520141920158814 ], [ -158.123176384925245, 21.519870464902539 ], [ -158.12275004098521, 21.519435014385678 ], [ -158.12205882836767, 21.520125297313786 ], [ -158.119114880834161, 21.519738709216888 ], [ -158.119136208680175, 21.519297539136584 ], [ -158.118837905146506, 21.518762772921001 ], [ -158.118874248093562, 21.518012804078467 ], [ -158.118484534171955, 21.51722862601844 ], [ -158.117156300075948, 21.518367128174923 ], [ -158.116410504956463, 21.519824462699066 ], [ -158.115615357758941, 21.519548626968433 ], [ -158.115068437597131, 21.518989973248917 ], [ -158.113392487277792, 21.519808458762753 ], [ -158.111081630028565, 21.51930267849227 ], [ -158.109640245645579, 21.518038709176057 ], [ -158.109016146180437, 21.516341383404843 ], [ -158.109373063469349, 21.513284420813346 ], [ -158.110998036465162, 21.512490846378476 ], [ -158.1114960819896, 21.512475036390441 ], [ -158.111935227919304, 21.51249365045798 ], [ -158.113033944256728, 21.511957035839092 ], [ -158.113385766152589, 21.512219611218207 ], [ -158.113917616603061, 21.512762838734695 ], [ -158.114533356061003, 21.512788933894598 ], [ -158.115262057233224, 21.511745933480309 ], [ -158.118306081170857, 21.511432248413804 ], [ -158.118887883439356, 21.511456957108834 ], [ -158.119186404452307, 21.510873529420554 ], [ -158.119761142276474, 21.511460570703065 ], [ -158.119909002287613, 21.510226564600387 ], [ -158.120638930287299, 21.510476030927595 ], [ -158.121683292189033, 21.510034156963023 ], [ -158.121224615188908, 21.509548310392411 ], [ -158.120071966962371, 21.508573587337182 ], [ -158.120367696163328, 21.506759723326322 ], [ -158.122776998666637, 21.507377185023216 ], [ -158.123537974235518, 21.507423595398542 ], [ -158.123266575824118, 21.507119776622098 ], [ -158.12275497504956, 21.506687253540147 ], [ -158.122097905982741, 21.505540195184192 ], [ -158.122140159362175, 21.504932651489042 ], [ -158.121001047361347, 21.503969321310066 ], [ -158.120641242211491, 21.502683278037992 ], [ -158.120691843202593, 21.501958195596867 ], [ -158.120117795302349, 21.500956147050307 ], [ -158.120685504811263, 21.50087185924399 ], [ -158.121123579319175, 21.500898581386412 ], [ -158.121558128076003, 21.500876649323672 ], [ -158.123890570201723, 21.501019055088417 ], [ -158.123860081200377, 21.500490267482629 ], [ -158.123921350925116, 21.499610138159142 ], [ -158.123028960336029, 21.498445571160694 ], [ -158.122127513838137, 21.498179863949552 ], [ -158.122184925083957, 21.497355098848871 ], [ -158.120434606471662, 21.49744349210043 ], [ -158.120399384389657, 21.496833820061909 ], [ -158.120888558696635, 21.496002660094867 ], [ -158.12042480144359, 21.495193216580756 ], [ -158.120444607897554, 21.494909321610027 ], [ -158.119635498967256, 21.494225036655745 ], [ -158.12043387744464, 21.493824417020992 ], [ -158.121304882801752, 21.493455804407908 ], [ -158.121032711965682, 21.493285508301781 ], [ -158.120325845409212, 21.492977342424773 ], [ -158.121129944639449, 21.490916226244465 ], [ -158.120535822526648, 21.490413785347844 ], [ -158.120106228088162, 21.48966380864146 ], [ -158.120193654965163, 21.488410158715663 ], [ -158.120177646152342, 21.488132956599472 ], [ -158.120504219222198, 21.487578057845376 ], [ -158.120473738623133, 21.487050063302949 ], [ -158.121312961803483, 21.485938926058346 ], [ -158.118718522532845, 21.486069911583083 ], [ -158.118782596120496, 21.485150361145077 ], [ -158.117908375496938, 21.484769244962887 ], [ -158.117614298488434, 21.482934797672868 ], [ -158.116720439958556, 21.482178721803265 ], [ -158.116778023571101, 21.481352238223462 ], [ -158.116184658678407, 21.480850250036269 ], [ -158.11657805328656, 21.477444798104234 ], [ -158.1188290676061, 21.475735938651408 ], [ -158.120252461625739, 21.476222502511632 ], [ -158.120692735729335, 21.476200269804842 ], [ -158.121126920411484, 21.476226770915915 ], [ -158.12142236937288, 21.476211847577623 ], [ -158.12227771137691, 21.476504178152684 ], [ -158.122573160861009, 21.476489252796028 ], [ -158.122862618216914, 21.476506917098618 ], [ -158.123157643535677, 21.476491988481715 ], [ -158.125167616607399, 21.477060593154185 ], [ -158.127498937037899, 21.477328588457414 ], [ -158.130137061419191, 21.478742751600119 ], [ -158.131391855408339, 21.478679334844323 ], [ -158.132404977449795, 21.47874110489499 ], [ -158.13352130846792, 21.478684629140236 ], [ -158.134385070515066, 21.479855676615628 ], [ -158.134445094562153, 21.480895712512741 ], [ -158.134407391628173, 21.481437579711944 ], [ -158.134463705698181, 21.482411625007746 ], [ -158.134022798573881, 21.483541968218852 ], [ -158.134674062909113, 21.48409269715042 ], [ -158.134967686258733, 21.484700464010796 ], [ -158.135562822130339, 21.485203720121525 ], [ -158.135510897096623, 21.485951500123566 ], [ -158.136049687770168, 21.487066532954337 ], [ -158.13726668789991, 21.487693690585239 ], [ -158.138017148742563, 21.488020736157591 ], [ -158.139753195684563, 21.489859539911876 ], [ -158.140748473816728, 21.489337817235828 ], [ -158.141583856913741, 21.4884723753777 ], [ -158.14425153615656, 21.489944373779153 ], [ -158.144179283902986, 21.490983531048727 ], [ -158.144502767738828, 21.49096718938824 ], [ -158.144775120605061, 21.491255694290324 ], [ -158.145079613577195, 21.491513064909448 ], [ -158.145351125217957, 21.491800704402937 ], [ -158.145655620340619, 21.492058074026911 ], [ -158.145950603889361, 21.492370513936571 ], [ -158.146751831853322, 21.49154047093678 ], [ -158.148126395963885, 21.491470859908361 ], [ -158.149130661217811, 21.492075806514734 ], [ -158.149799801907534, 21.493460309559111 ], [ -158.150555270511774, 21.493422001994961 ], [ -158.15108160068354, 21.493979312754526 ], [ -158.15143329470547, 21.494000685651525 ], [ -158.153174068776394, 21.49357378936422 ], [ -158.155538776906866, 21.494998154607824 ], [ -158.156059711184099, 21.495906917458992 ], [ -158.156039973469206, 21.496190818918667 ], [ -158.156345341200989, 21.496448901977995 ], [ -158.15661688447139, 21.496736524024044 ], [ -158.157315246807286, 21.497040790429146 ], [ -158.158059473307304, 21.497828788629246 ], [ -158.158643242029513, 21.4977991742388 ], [ -158.15930994065053, 21.498792035660816 ], [ -158.15980951417373, 21.498378803547535 ], [ -158.160494477824386, 21.497669067777359 ], [ -158.16357444353045, 21.497856360993172 ], [ -158.165698848475927, 21.497335242354342 ], [ -158.167826121364101, 21.497227276195172 ], [ -158.169881610411551, 21.497832503995884 ], [ -158.172074293472065, 21.500210487423555 ], [ -158.17193448065936, 21.50222619422804 ], [ -158.171968359688265, 21.502811437664317 ], [ -158.170649044910391, 21.505464595199804 ], [ -158.170181833984401, 21.504935428832422 ], [ -158.16989193793691, 21.50433587755462 ], [ -158.169310154089004, 21.505505516993043 ], [ -158.168449360150447, 21.505453193683504 ], [ -158.168159653525635, 21.505467896378466 ], [ -158.16731299725771, 21.505416431685497 ], [ -158.167007002027191, 21.505733580187158 ], [ -158.166703624756167, 21.505715127172738 ], [ -158.165723195959458, 21.506207433067221 ], [ -158.164235230034109, 21.506572397226428 ], [ -158.162669990121657, 21.506477212059728 ], [ -158.163220975986263, 21.50817901816038 ], [ -158.164645913790764, 21.508799679890512 ], [ -158.164679128504332, 21.509372414167711 ], [ -158.164650463082182, 21.509785700254369 ], [ -158.164956718439214, 21.510044500663078 ], [ -158.164920346664189, 21.510569112163871 ], [ -158.165513989650918, 21.510874873565221 ], [ -158.1663697344772, 21.511247582278767 ], [ -158.166395102209549, 21.511684761120687 ], [ -158.166374606614795, 21.511980504398441 ], [ -158.16697201214825, 21.51195013648849 ], [ -158.167242898815829, 21.512510623500958 ], [ -158.167819935534595, 21.512481275903905 ], [ -158.16783706691146, 21.512776082064384 ], [ -158.167817807431533, 21.513053899673984 ], [ -158.168123230858669, 21.513311962498278 ], [ -158.168401394327361, 21.513887239877931 ], [ -158.169197709126507, 21.51384680450489 ], [ -158.169856396317215, 21.514133685347723 ], [ -158.170127998528898, 21.514421286746302 ], [ -158.170722217792587, 21.514680052425071 ], [ -158.170992704722323, 21.515239605337019 ], [ -158.171297567784421, 21.515224113289655 ], [ -158.171683751719542, 21.515632842622441 ], [ -158.172415340855167, 21.51416160904753 ], [ -158.173330450678719, 21.51442195593075 ], [ -158.173703136167802, 21.515192762087587 ], [ -158.174197061579406, 21.514681065432029 ], [ -158.174776146359477, 21.514716219846726 ], [ -158.175067491643375, 21.514414336537261 ], [ -158.175675840805695, 21.514451286659458 ], [ -158.176213430744696, 21.513894142026697 ], [ -158.176520908748046, 21.513639845694346 ], [ -158.176896321986533, 21.513250698363422 ], [ -158.177693208008208, 21.51366104148137 ], [ -158.17839544579013, 21.513625326158646 ], [ -158.178829757367595, 21.513651681161292 ], [ -158.179352757534105, 21.51362507178434 ], [ -158.181075875251395, 21.514662477235287 ], [ -158.181180101865294, 21.516455932123446 ], [ -158.180691666485188, 21.517908879270998 ], [ -158.179645460810889, 21.518774339783448 ], [ -158.179095630447023, 21.519344205632287 ], [ -158.17849765001705, 21.519597473846961 ], [ -158.178543678023942, 21.520391475489149 ], [ -158.17777788664614, 21.520430384478708 ], [ -158.176772647273822, 21.520369383536245 ], [ -158.177618808476524, 21.52150519352357 ], [ -158.177949604452721, 21.521784670800745 ], [ -158.177318701434416, 21.522306554575529 ], [ -158.177643920507478, 21.522873513410783 ], [ -158.1775875809507, 21.52368626591532 ], [ -158.178199351897547, 21.524203155349156 ], [ -158.178469465109316, 21.524761768547851 ], [ -158.178774931774456, 21.52501981290699 ], [ -158.17873737525403, 21.525561692267843 ], [ -158.179170521289791, 21.525927691897817 ], [ -158.178656003145846, 21.526802573619477 ], [ -158.17905053291301, 21.527220128410182 ], [ -158.179912424210812, 21.527176327112869 ], [ -158.180190659212116, 21.527751586225293 ], [ -158.180342974752051, 21.527880240988953 ] ], [ [ -158.171124600170174, 21.518890655939789 ], [ -158.17071156902972, 21.519797447891943 ], [ -158.17384573342494, 21.519589666667894 ], [ -158.17360354324606, 21.519275086984859 ], [ -158.173140669489271, 21.519369799783444 ], [ -158.171124600170174, 21.518890655939789 ] ], [ [ -158.1666061945634, 21.498540757008918 ], [ -158.166379608843215, 21.499789643789292 ], [ -158.166938327114309, 21.499715210809935 ], [ -158.167308631563742, 21.499053769071693 ], [ -158.1666061945634, 21.498540757008918 ] ], [ [ -158.131069135749613, 21.484266084641238 ], [ -158.130929029973942, 21.484406032871455 ], [ -158.130022586001814, 21.485183442235805 ], [ -158.128792900698699, 21.486411761802561 ], [ -158.127942136473791, 21.489207886545262 ], [ -158.129540457171288, 21.492073224635092 ], [ -158.128966192868688, 21.493075215382731 ], [ -158.130008541209804, 21.493042003182595 ], [ -158.13057412100386, 21.493619630103428 ], [ -158.130873956412415, 21.493610073624737 ], [ -158.131686635601085, 21.494440029595616 ], [ -158.132292533009405, 21.494420679858518 ], [ -158.134506892278949, 21.495338755862896 ], [ -158.135989931465758, 21.496853445741227 ], [ -158.136366733527126, 21.498371340332003 ], [ -158.136310818183404, 21.499531004637802 ], [ -158.1353180045231, 21.50086533937143 ], [ -158.133128810536874, 21.501341396995951 ], [ -158.131751275913246, 21.502014398597375 ], [ -158.13052179675924, 21.502281679906197 ], [ -158.130543438817426, 21.502875465462076 ], [ -158.131384714127904, 21.503613067298769 ], [ -158.131667711312502, 21.504466140599703 ], [ -158.132522669354415, 21.505998834884739 ], [ -158.132807395996196, 21.507635229963171 ], [ -158.131004189259727, 21.509939802406695 ], [ -158.130183940713039, 21.512318293204782 ], [ -158.129879691317825, 21.512849173259369 ], [ -158.12989306256469, 21.513216350922509 ], [ -158.130792408829848, 21.514828489574789 ], [ -158.131495872377457, 21.515445210526373 ], [ -158.13267073582378, 21.515844298949819 ], [ -158.134945726044378, 21.514983658778757 ], [ -158.136703129260383, 21.514472994534664 ], [ -158.137990627779857, 21.514527421782716 ], [ -158.138290517841881, 21.514227964809926 ], [ -158.140305168524236, 21.513642494593643 ], [ -158.142095375127184, 21.514091334130434 ], [ -158.142607895122808, 21.515635321136756 ], [ -158.143190681829338, 21.515616742016224 ], [ -158.143761525629799, 21.516453936957557 ], [ -158.145229547159374, 21.518097701922031 ], [ -158.145997367649301, 21.518073179040169 ], [ -158.148975566234441, 21.515744065168256 ], [ -158.15130936295364, 21.515408356867795 ], [ -158.153997226200005, 21.514984485628929 ], [ -158.155881817761724, 21.514063480256063 ], [ -158.156240244143106, 21.514078592250687 ], [ -158.157313860074851, 21.513553862677984 ], [ -158.159217604440869, 21.51300909037878 ], [ -158.16109905031945, 21.513636845481038 ], [ -158.161448176673275, 21.513251505947906 ], [ -158.160590085999388, 21.51249947491937 ], [ -158.160311415587415, 21.511378083245251 ], [ -158.158804437184699, 21.509407239304299 ], [ -158.154382417915684, 21.506337520679274 ], [ -158.153828521342518, 21.504668956730935 ], [ -158.154274672620318, 21.503498025980765 ], [ -158.154558011733116, 21.502676043303424 ], [ -158.155323999938275, 21.502342518957747 ], [ -158.154273044795389, 21.501871828321594 ], [ -158.153587421128321, 21.501171785602953 ], [ -158.152573284917139, 21.499132252467234 ], [ -158.151930042497099, 21.497979485865827 ], [ -158.146540910498658, 21.49613819396836 ], [ -158.145040489101945, 21.495862137524757 ], [ -158.144011636775502, 21.495518741700771 ], [ -158.140153935037574, 21.492433685955731 ], [ -158.137365502587471, 21.490264960036566 ], [ -158.135009402694266, 21.487858562638046 ], [ -158.133869715411663, 21.485565438388697 ], [ -158.133050630840188, 21.484438093429947 ], [ -158.131069135749613, 21.484266084641238 ] ], [ [ -158.131374784259719, 21.48155736340858 ], [ -158.131753179507399, 21.481958266443804 ], [ -158.132006258460478, 21.480935273941657 ], [ -158.131528525775479, 21.481430256266435 ], [ -158.131374784259719, 21.48155736340858 ], [ -158.13127763094738, 21.48122640708214 ], [ -158.131022286394625, 21.481462761329027 ], [ -158.131374784259719, 21.48155736340858 ] ], [ [ -158.121537727452932, 21.480150801424418 ], [ -158.122008773801497, 21.48072862068495 ], [ -158.122821382840243, 21.480275588958307 ], [ -158.124314791562426, 21.479774508611218 ], [ -158.124268946061363, 21.479472932029431 ], [ -158.125392472686798, 21.478851989243193 ], [ -158.123993201631606, 21.478650917877918 ], [ -158.12306737712936, 21.479760756827808 ], [ -158.121537727452932, 21.480150801424418 ], [ -158.121539353245964, 21.479879779397002 ], [ -158.1212497926075, 21.479878257453805 ], [ -158.12115266337625, 21.479547295991598 ], [ -158.120897306112823, 21.479783634360963 ], [ -158.1212497926075, 21.479878257453805 ], [ -158.121248166278747, 21.480149279460164 ], [ -158.121537727452932, 21.480150801424418 ] ] ] } },
{ "type": "Feature", "properties": { "ID": 9, "GRIDCODE": 1 }, "geometry": { "type": "Polygon", "coordinates": [ [ [ -157.846874443148749, 21.426717971402528 ], [ -157.847319146131298, 21.427032541347387 ], [ -157.848131613030972, 21.428281850525444 ], [ -157.847586505513419, 21.428190099908655 ], [ -157.846989924231565, 21.42828206649445 ], [ -157.846874443148749, 21.426717971402528 ] ] ] } },
{ "type": "Feature", "properties": { "ID": 10, "GRIDCODE": 1 }, "geometry": { "type": "Polygon", "coordinates": [ [ [ -157.84371417766144, 21.423715017435015 ], [ -157.844373099323576, 21.423852491828917 ], [ -157.844862312270209, 21.424831150408917 ], [ -157.844401054243065, 21.425005491566637 ], [ -157.844167938506502, 21.424600536347306 ], [ -157.843605186244616, 21.424813278891907 ], [ -157.843916763398454, 21.424120027175292 ], [ -157.84371417766144, 21.423715017435015 ] ] ] } },
{ "type": "Feature", "properties": { "ID": 11, "GRIDCODE": 1 }, "geometry": { "type": "Polygon", "coordinates": [ [ [ -157.84371417766144, 21.423715017435015 ], [ -157.843270836642915, 21.423839854919844 ], [ -157.841817503925739, 21.424939610643555 ], [ -157.841550680824781, 21.423827967147226 ], [ -157.840709577085505, 21.423459427314221 ], [ -157.841559111524219, 21.422759183641034 ], [ -157.842054398660991, 21.422247639870811 ], [ -157.843443400211925, 21.423426914781718 ], [ -157.84371417766144, 21.423715017435015 ] ] ] } },
{ "type": "Feature", "properties": { "ID": 12, "GRIDCODE": 1 }, "geometry": { "type": "Polygon", "coordinates": [ [ [ -157.83507873725236, 21.417692862565445 ], [ -157.83548976563722, 21.418005772451611 ], [ -157.836333836391219, 21.419920782593159 ], [ -157.840673721893012, 21.421377273547744 ], [ -157.840710938372951, 21.421675607882353 ], [ -157.839804870565956, 21.421911369335934 ], [ -157.83923003911525, 21.422222534511455 ], [ -157.838955141883503, 21.42159893617049 ], [ -157.838361341007698, 21.421663896546544 ], [ -157.838091169524574, 21.421050916214512 ], [ -157.837498784879386, 21.421115751097201 ], [ -157.837138960414876, 21.420688536021412 ], [ -157.835930252561099, 21.421342459912413 ], [ -157.835180351921736, 21.421096271853123 ], [ -157.834925541603781, 21.420793446075901 ], [ -157.834165662904212, 21.420487370476646 ], [ -157.834647636611066, 21.419732200682304 ], [ -157.834588381666208, 21.419256321937315 ], [ -157.83507873725236, 21.417692862565445 ] ] ] } },
{ "type": "Feature", "properties": { "ID": 13, "GRIDCODE": 1 }, "geometry": { "type": "Polygon", "coordinates": [ [ [ -157.834795773780144, 21.416877850790815 ], [ -157.83547610054319, 21.417019808444195 ], [ -157.83515291632861, 21.417498718830025 ], [ -157.834795773780144, 21.416877850790815 ] ] ] } },
{ "type": "Feature", "properties": { "ID": 14, "GRIDCODE": 1 }, "geometry": { "type": "Polygon", "coordinates": [ [ [ -157.834810819081895, 21.414980852276802 ], [ -157.835223895048188, 21.41528405047681 ], [ -157.834539270215373, 21.41561369134828 ], [ -157.834810819081895, 21.414980852276802 ] ] ] } },
{ "type": "Feature", "properties": { "ID": 15, "GRIDCODE": 1 }, "geometry": { "type": "Polygon", "coordinates": [ [ [ -157.835134600211035, 21.410646865844281 ], [ -157.835336502340937, 21.410812095529419 ], [ -157.834950022341019, 21.414784381730264 ], [ -157.834112074870546, 21.414097972885074 ], [ -157.834066417701649, 21.41351169167401 ], [ -157.834494275360441, 21.412805834778979 ], [ -157.834118550594326, 21.412391339486241 ], [ -157.831648597521024, 21.41210868013254 ], [ -157.834931929724547, 21.410863803952914 ], [ -157.835134600211035, 21.410646865844281 ] ] ] } },
{ "type": "Feature", "properties": { "ID": 16, "GRIDCODE": 1 }, "geometry": { "type": "Polygon", "coordinates": [ [ [ -157.821371720889204, 21.39456079950785 ], [ -157.821232617487311, 21.395520877467714 ], [ -157.820394078849944, 21.397325469951436 ], [ -157.821077900721662, 21.398463497763416 ], [ -157.82550664607885, 21.398072112387172 ], [ -157.824883358258404, 21.398549563466336 ], [ -157.824369435087448, 21.398496865738508 ], [ -157.822881166272055, 21.399281271186364 ], [ -157.822145779483293, 21.400097750942216 ], [ -157.821668962987047, 21.399046535707708 ], [ -157.819471169286032, 21.398724132736128 ], [ -157.818607651910725, 21.398074921097415 ], [ -157.819481188919582, 21.3974056557241 ], [ -157.819748546774946, 21.396840498852772 ], [ -157.820096309916266, 21.396573850940914 ], [ -157.820041880602389, 21.396031439344458 ], [ -157.82036490190589, 21.395783870836013 ], [ -157.820331131104098, 21.395449166105248 ], [ -157.820947595766341, 21.394976844795405 ], [ -157.821212771193672, 21.394682684118855 ], [ -157.821371720889204, 21.39456079950785 ] ] ] } },
{ "type": "Feature", "properties": { "ID": 17, "GRIDCODE": 1 }, "geometry": { "type": "Polygon", "coordinates": [ [ [ -157.821371720889204, 21.39456079950785 ], [ -157.821504733709332, 21.393655198943701 ], [ -157.821745353615853, 21.394379815616347 ], [ -157.821371720889204, 21.39456079950785 ] ] ] } },
{ "type": "Feature", "properties": { "ID": 18, "GRIDCODE": 1 }, "geometry": { "type": "Polygon", "coordinates": [ [ [ -157.821680625213276, 21.392123839976431 ], [ -157.822073418232236, 21.392337204699203 ], [ -157.821545211674561, 21.393576349297089 ], [ -157.821322014152713, 21.392829027668686 ], [ -157.821680625213276, 21.392123839976431 ] ] ] } },
{ "type": "Feature", "properties": { "ID": 19, "GRIDCODE": 2 }, "geometry": { "type": "Polygon", "coordinates": [ [ [ -158.102424503256543, 21.385730467004315 ], [ -158.104018075266453, 21.385871789338267 ], [ -158.104962368843559, 21.386478647134744 ], [ -158.105417707847522, 21.392718861172899 ], [ -158.104586236281449, 21.396412996509234 ], [ -158.10365333304614, 21.397242878952948 ], [ -158.103661976658003, 21.39779544443283 ], [ -158.103357209970312, 21.398066501407257 ], [ -158.103651226811849, 21.398608549699826 ], [ -158.103643433214557, 21.398890259739822 ], [ -158.103066820903223, 21.398876191974441 ], [ -158.102491707404624, 21.398894421185709 ], [ -158.103340667510537, 21.399667064238372 ], [ -158.103636014435182, 21.400153669243302 ], [ -158.102473569565632, 21.400500070039314 ], [ -158.102768146780789, 21.401043115324292 ], [ -158.102753283895311, 21.401579806268977 ], [ -158.103053313149701, 21.402133070427521 ], [ -158.101590413212051, 21.402664389707038 ], [ -158.102046872116546, 21.403079801655871 ], [ -158.101296354753572, 21.403747470554524 ], [ -158.101878413650212, 21.404561700553547 ], [ -158.101863576969492, 21.40509342849133 ], [ -158.102159546505789, 21.405918564461132 ], [ -158.10215192639015, 21.406194385905351 ], [ -158.102814689922326, 21.407750081677261 ], [ -158.103650145044128, 21.406945095193642 ], [ -158.104305752431145, 21.410188344123025 ], [ -158.105070615919999, 21.412320321239552 ], [ -158.104975692114152, 21.415723261236018 ], [ -158.103095871112913, 21.415677279565823 ], [ -158.102363900518981, 21.417069675343566 ], [ -158.102376107696784, 21.417847500598114 ], [ -158.102361081325967, 21.418386902451942 ], [ -158.102662562238208, 21.418661203120806 ], [ -158.102359907496776, 21.419203497565189 ], [ -158.102661390021979, 21.419477798268371 ], [ -158.102633527077813, 21.420475952601091 ], [ -158.100512344619688, 21.422814595871877 ], [ -158.099570902929514, 21.422354091944538 ], [ -158.099156235366877, 21.423527566120054 ], [ -158.098290431793714, 21.422971184839291 ], [ -158.096828735380825, 21.423430865447749 ], [ -158.096842756495278, 21.424322511296758 ], [ -158.095945336400064, 21.424724216671361 ], [ -158.095964500044317, 21.425950509991399 ], [ -158.095087420675128, 21.425664089694312 ], [ -158.09478329151122, 21.425957099763764 ], [ -158.094795626235111, 21.426753385609278 ], [ -158.094209285492752, 21.427015886776374 ], [ -158.093923778936471, 21.427290799169469 ], [ -158.093335167076759, 21.427554277405978 ], [ -158.093631995747046, 21.428101518531772 ], [ -158.09274755346857, 21.428364981429187 ], [ -158.09276012923965, 21.429166164732319 ], [ -158.092452698828254, 21.42999128792966 ], [ -158.093119446610842, 21.430923788292457 ], [ -158.092733402417451, 21.431615617556325 ], [ -158.092746767754704, 21.432471924082932 ], [ -158.093597547476634, 21.43324628185335 ], [ -158.093879653746086, 21.433524265073007 ], [ -158.094752070394492, 21.433794588354388 ], [ -158.09503417912515, 21.434072702059872 ], [ -158.095902685864758, 21.434060785069143 ], [ -158.096357985661939, 21.434952562042824 ], [ -158.097060983986694, 21.434618293999467 ], [ -158.097344925645444, 21.434898134255281 ], [ -158.097785303626125, 21.435298914878469 ], [ -158.098208339280973, 21.435716011055973 ], [ -158.098798518156968, 21.43570787362896 ], [ -158.099365709995141, 21.436267014962137 ], [ -158.099786589413071, 21.435861541138898 ], [ -158.101700884175671, 21.437383666383909 ], [ -158.102429858199031, 21.438811282045549 ], [ -158.101474842858892, 21.445166513671584 ], [ -158.100173183907401, 21.445749157912886 ], [ -158.0992905141579, 21.447664981009698 ], [ -158.098710597479425, 21.448180694205682 ], [ -158.098714839411002, 21.44845657776127 ], [ -158.09840558073995, 21.449830178991373 ], [ -158.098415830217277, 21.450485444575577 ], [ -158.098397153059864, 21.451155111549994 ], [ -158.098694882765955, 21.451704069440421 ], [ -158.098672200272659, 21.452519552351113 ], [ -158.098684963868038, 21.453340916685182 ], [ -158.099263761908048, 21.453332983113793 ], [ -158.099542587055907, 21.45415313269541 ], [ -158.099842023854734, 21.454425641748429 ], [ -158.099826435546987, 21.454984491494432 ], [ -158.100996910404746, 21.454968419352333 ], [ -158.100966827220134, 21.456047482100615 ], [ -158.101272034359937, 21.456325247123008 ], [ -158.101552536721329, 21.45687437236155 ], [ -158.101844912092247, 21.456870317794799 ], [ -158.102143155469093, 21.456877609191579 ], [ -158.102128104337652, 21.457419324229118 ], [ -158.103000819240748, 21.457689676193411 ], [ -158.105507264251827, 21.462167354874698 ], [ -158.105944049577943, 21.464772930326841 ], [ -158.106423787568758, 21.466109934097275 ], [ -158.106702675525042, 21.466929940417014 ], [ -158.106996245845835, 21.467197112523355 ], [ -158.107555296347186, 21.467747913900936 ], [ -158.107861550016167, 21.467743658835406 ], [ -158.108206848132397, 21.468083957450592 ], [ -158.108116966627449, 21.471306460974127 ], [ -158.107167384046846, 21.472150744452541 ], [ -158.104588498195113, 21.472875868062168 ], [ -158.102291775055306, 21.472311766458859 ], [ -158.099973986774955, 21.470645866786768 ], [ -158.097726150646395, 21.467960445504119 ], [ -158.096962601069123, 21.467265714781036 ], [ -158.09473577243989, 21.464789860951552 ], [ -158.095178448474115, 21.464396166659796 ], [ -158.096508363531711, 21.463801082344641 ], [ -158.096009562944886, 21.463347310693532 ], [ -158.096312338310497, 21.462805034574252 ], [ -158.095992787432095, 21.462514346210124 ], [ -158.094861416919571, 21.462529865254488 ], [ -158.093984324225374, 21.462508375914705 ], [ -158.094010599660663, 21.461573876210043 ], [ -158.093997704042891, 21.460755423801505 ], [ -158.093135483660916, 21.461165302655022 ], [ -158.092538680674238, 21.461427669828737 ], [ -158.091339269264125, 21.45853187513347 ], [ -158.090176093634511, 21.4539500757576 ], [ -158.089728995211289, 21.45023124161462 ], [ -158.090358103086629, 21.446895754448875 ], [ -158.091211448756866, 21.446513894604038 ], [ -158.09061812272779, 21.445973839355446 ], [ -158.090697830950575, 21.443125876664165 ], [ -158.090651399949735, 21.440148726657089 ], [ -158.089520841333979, 21.436210924190782 ], [ -158.089180040100103, 21.434868675346198 ], [ -158.089343786396114, 21.429024945009964 ], [ -158.089261375058697, 21.423739402003019 ], [ -158.08933145682542, 21.421235396438231 ], [ -158.090583140342062, 21.417874823464484 ], [ -158.092295310595063, 21.408846452046092 ], [ -158.094769486338606, 21.401770401487717 ], [ -158.099142623865959, 21.391183478143432 ], [ -158.100598216696994, 21.387877232265154 ], [ -158.101164541325204, 21.386861911329074 ], [ -158.102281799157396, 21.385867932613579 ], [ -158.102424503256543, 21.385730467004315 ] ], [ [ -158.103952462930891, 21.467319060028466 ], [ -158.103551377799363, 21.465861976942936 ], [ -158.103253576794145, 21.467142479464151 ], [ -158.103952462930891, 21.467319060028466 ], [ -158.104087736234845, 21.467924573422447 ], [ -158.104631891481347, 21.467672404475049 ], [ -158.103952462930891, 21.467319060028466 ] ], [ [ -158.096891050630774, 21.438551887047115 ], [ -158.097297073370612, 21.439254018465604 ], [ -158.098214476577084, 21.440307022497421 ], [ -158.098064647440594, 21.440996165405057 ], [ -158.09692086291372, 21.441402036805766 ], [ -158.097909085534923, 21.441651861562594 ], [ -158.098257097591102, 21.442112093119238 ], [ -158.097547128907564, 21.4435740548168 ], [ -158.097722457993825, 21.443819099418825 ], [ -158.098140797523712, 21.443279292999939 ], [ -158.09925693596719, 21.442681439351031 ], [ -158.099685575553735, 21.440737962649841 ], [ -158.099601723241079, 21.440328186598393 ], [ -158.099698308021203, 21.439883781709945 ], [ -158.098742801733209, 21.439532838228718 ], [ -158.097348457867128, 21.438667503780952 ], [ -158.096891050630774, 21.438551887047115 ] ], [ [ -158.096131079034791, 21.420930785068194 ], [ -158.097092608639088, 21.420672217569688 ], [ -158.097980037095482, 21.419683525776453 ], [ -158.099444158374411, 21.419098256548899 ], [ -158.099794440994742, 21.417658299904954 ], [ -158.099756030306565, 21.417284168175208 ], [ -158.100079297136915, 21.416492529124945 ], [ -158.100347011094811, 21.415655860240435 ], [ -158.101600110713065, 21.413817305913472 ], [ -158.104505018939392, 21.413528009935384 ], [ -158.103480879605598, 21.413240584298752 ], [ -158.102994848496792, 21.412686325404181 ], [ -158.101563839820727, 21.412815167987912 ], [ -158.102133489116369, 21.411896011983625 ], [ -158.102183900598703, 21.411625250381388 ], [ -158.100972473279228, 21.41243185089068 ], [ -158.100423488761606, 21.412674924250624 ], [ -158.100110987332442, 21.411318088665144 ], [ -158.099664933611564, 21.411069673586653 ], [ -158.099240211624391, 21.411722075437968 ], [ -158.099934700904242, 21.412872926588026 ], [ -158.099493663597769, 21.413211993383094 ], [ -158.099229272709721, 21.41350661608374 ], [ -158.098406286635878, 21.413835553633916 ], [ -158.097431591596887, 21.41373727200855 ], [ -158.097503335057525, 21.414435815577271 ], [ -158.098684502875983, 21.415365439738476 ], [ -158.098008445901513, 21.415885270889451 ], [ -158.098350090958093, 21.416751816017726 ], [ -158.097420582851811, 21.417001763605057 ], [ -158.098028052669946, 21.417479868902149 ], [ -158.098390938442463, 21.418662687269268 ], [ -158.096763743992256, 21.419313039455368 ], [ -158.097192561778996, 21.4200234328632 ], [ -158.096395631637165, 21.420636102798497 ], [ -158.096131079034791, 21.420930785068194 ], [ -158.095552194501778, 21.420927660831751 ], [ -158.095550525665914, 21.421198682844366 ], [ -158.094903848420074, 21.421325279900696 ], [ -158.095173061701587, 21.421834652574109 ], [ -158.095550525665914, 21.421198682844366 ], [ -158.096129411266702, 21.421201807124152 ], [ -158.096131079034791, 21.420930785068194 ] ] ] } },
{ "type": "Feature", "properties": { "ID": 20, "GRIDCODE": 1 }, "geometry": { "type": "Polygon", "coordinates": [ [ [ -157.805930778816418, 21.371686409185035 ], [ -157.80628263370329, 21.371781676261229 ], [ -157.806027270313365, 21.372017526346369 ], [ -157.805930778816418, 21.371686409185035 ] ] ] } },
{ "type": "Feature", "properties": { "ID": 21, "GRIDCODE": 1 }, "geometry": { "type": "Polygon", "coordinates": [ [ [ -157.805067221959007, 21.371138235032792 ], [ -157.805731704506002, 21.371252799451355 ], [ -157.805221520162632, 21.37148346041467 ], [ -157.805067221959007, 21.371138235032792 ] ] ] } },
{ "type": "Feature", "properties": { "ID": 22, "GRIDCODE": 1 }, "geometry": { "type": "Polygon", "coordinates": [ [ [ -157.802480998050243, 21.368951691252235 ], [ -157.802832843877667, 21.369046965182346 ], [ -157.80257748021819, 21.369282810055882 ], [ -157.802480998050243, 21.368951691252235 ] ] ] } },
{ "type": "Feature", "properties": { "ID": 23, "GRIDCODE": 1 }, "geometry": { "type": "Polygon", "coordinates": [ [ [ -157.802480998050243, 21.368951691252235 ], [ -157.800909315075955, 21.368518930420922 ], [ -157.797150379045007, 21.368233328435135 ], [ -157.799772575930746, 21.367727803967263 ], [ -157.801781659933113, 21.367983132376192 ], [ -157.802480998050243, 21.368951691252235 ] ] ] } },
{ "type": "Feature", "properties": { "ID": 24, "GRIDCODE": 1 }, "geometry": { "type": "Polygon", "coordinates": [ [ [ -157.789502052484778, 21.363980356549092 ], [ -157.789853876747173, 21.364075656789186 ], [ -157.789598502410001, 21.364311481476349 ], [ -157.789502052484778, 21.363980356549092 ] ] ] } },
{ "type": "Feature", "properties": { "ID": 25, "GRIDCODE": 1 }, "geometry": { "type": "Polygon", "coordinates": [ [ [ -157.783756299078391, 21.359060599328398 ], [ -157.784197516378271, 21.359790685965475 ], [ -157.786370441873487, 21.360717766540169 ], [ -157.788099881122037, 21.363011042239467 ], [ -157.789373787992531, 21.363291841870051 ], [ -157.789502052484778, 21.363980356549092 ], [ -157.788218209417209, 21.363773260226996 ], [ -157.787383541697324, 21.363882625596485 ], [ -157.786927880913453, 21.361780902468507 ], [ -157.785351669763799, 21.360816263810708 ], [ -157.784397416766723, 21.360559848534447 ], [ -157.782933467776218, 21.359484380226522 ], [ -157.783756299078391, 21.359060599328398 ] ] ] } },
{ "type": "Feature", "properties": { "ID": 26, "GRIDCODE": 1 }, "geometry": { "type": "Polygon", "coordinates": [ [ [ -157.783756299078391, 21.359060599328398 ], [ -157.783858187550663, 21.358730908148342 ], [ -157.784109638286736, 21.358970394694108 ], [ -157.783756299078391, 21.359060599328398 ] ] ] } },
{ "type": "Feature", "properties": { "ID": 27, "GRIDCODE": 1 }, "geometry": { "type": "Polygon", "coordinates": [ [ [ -157.761984176821358, 21.33342639681565 ], [ -157.762648448163162, 21.333541122509612 ], [ -157.762138337263906, 21.333771656594575 ], [ -157.761984176821358, 21.33342639681565 ] ] ] } },
{ "type": "Feature", "properties": { "ID": 28, "GRIDCODE": 1 }, "geometry": { "type": "Polygon", "coordinates": [ [ [ -157.757363210730176, 21.332579260281648 ], [ -157.759221040882153, 21.333016970691723 ], [ -157.761532718474768, 21.333298945180179 ], [ -157.760906650422811, 21.33361351069286 ], [ -157.759232824392996, 21.333832673305871 ], [ -157.758943922561258, 21.333790444263698 ], [ -157.757670522664029, 21.333957167430686 ], [ -157.757487898607422, 21.332733155447194 ], [ -157.757363210730176, 21.332579260281648 ] ] ] } },
{ "type": "Feature", "properties": { "ID": 29, "GRIDCODE": 1 }, "geometry": { "type": "Polygon", "coordinates": [ [ [ -157.757363210730176, 21.332579260281648 ], [ -157.757011485267213, 21.332483896256669 ], [ -157.757266851092169, 21.332248120106058 ], [ -157.757363210730176, 21.332579260281648 ] ] ] } },
{ "type": "Feature", "properties": { "ID": 30, "GRIDCODE": 1 }, "geometry": { "type": "Polygon", "coordinates": [ [ [ -157.756210834099733, 21.332028713391338 ], [ -157.756875093451839, 21.33214346140247 ], [ -157.756364979455668, 21.33237397779412 ], [ -157.756210834099733, 21.332028713391338 ] ] ] } },
{ "type": "Feature", "properties": { "ID": 31, "GRIDCODE": 1 }, "geometry": { "type": "Polygon", "coordinates": [ [ [ -157.754482285892067, 21.331202878959129 ], [ -157.754962820300989, 21.331297481979252 ], [ -157.756112962285982, 21.331843785955336 ], [ -157.756210834099733, 21.332028713391338 ], [ -157.754773407938217, 21.332186195292671 ], [ -157.754482285892067, 21.331202878959129 ] ] ] } },
{ "type": "Feature", "properties": { "ID": 32, "GRIDCODE": 1 }, "geometry": { "type": "Polygon", "coordinates": [ [ [ -157.754482285892067, 21.331202878959129 ], [ -157.754130565859214, 21.331107509139837 ], [ -157.754385933540362, 21.330871737438109 ], [ -157.754482285892067, 21.331202878959129 ] ] ] } },
{ "type": "Feature", "properties": { "ID": 33, "GRIDCODE": 1 }, "geometry": { "type": "Polygon", "coordinates": [ [ [ -157.747565994115575, 21.328170365984455 ], [ -157.74835141982706, 21.328283469018618 ], [ -157.75085005075104, 21.329092062919976 ], [ -157.750058794561483, 21.329633165839713 ], [ -157.749146763016881, 21.329359472682455 ], [ -157.74882906945345, 21.329449606733878 ], [ -157.748607274341992, 21.328823492263751 ], [ -157.747821657641424, 21.328566083460363 ], [ -157.747565994115575, 21.328170365984455 ] ] ] } },
{ "type": "Feature", "properties": { "ID": 34, "GRIDCODE": 1 }, "geometry": { "type": "Polygon", "coordinates": [ [ [ -157.746989841600367, 21.327895061485034 ], [ -157.747568293924843, 21.327899372112189 ], [ -157.747565994115575, 21.328170365984455 ], [ -157.746987540729577, 21.328166055297309 ], [ -157.746989841600367, 21.327895061485034 ] ] ] } },
{ "type": "Feature", "properties": { "ID": 35, "GRIDCODE": 1 }, "geometry": { "type": "Polygon", "coordinates": [ [ [ -157.746989841600367, 21.327895061485034 ], [ -157.746325611062446, 21.327780275657364 ], [ -157.746835722760352, 21.327549789607694 ], [ -157.746989841600367, 21.327895061485034 ] ] ] } },
{ "type": "Feature", "properties": { "ID": 36, "GRIDCODE": 1 }, "geometry": { "type": "Polygon", "coordinates": [ [ [ -157.745837543265935, 21.327344446851455 ], [ -157.746189248132822, 21.32743983336589 ], [ -157.745933874295162, 21.327675592354989 ], [ -157.745837543265935, 21.327344446851455 ] ] ] } },
{ "type": "Feature", "properties": { "ID": 37, "GRIDCODE": 1 }, "geometry": { "type": "Polygon", "coordinates": [ [ [ -157.744972173149279, 21.327066977764073 ], [ -157.74532387670385, 21.327162366032422 ], [ -157.745068502062196, 21.327398123669756 ], [ -157.744972173149279, 21.327066977764073 ] ] ] } },
{ "type": "Feature", "properties": { "ID": 38, "GRIDCODE": 1 }, "geometry": { "type": "Polygon", "coordinates": [ [ [ -157.74006924589483, 21.325404240577523 ], [ -157.741871055685721, 21.325901596546693 ], [ -157.744234763914307, 21.326855698674475 ], [ -157.743798955660708, 21.327449248587651 ], [ -157.742814750616702, 21.326897289391916 ], [ -157.742064114267777, 21.326979077815743 ], [ -157.741473934250166, 21.326528776737568 ], [ -157.741091966525687, 21.326074409001116 ], [ -157.740194159178316, 21.325826711809274 ], [ -157.74006924589483, 21.325404240577523 ] ] ] } },
{ "type": "Feature", "properties": { "ID": 39, "GRIDCODE": 1 }, "geometry": { "type": "Polygon", "coordinates": [ [ [ -157.74006924589483, 21.325404240577523 ], [ -157.739049496339248, 21.32554460561623 ], [ -157.738479825934519, 21.325241135421194 ], [ -157.737895111934648, 21.325541104260097 ], [ -157.73762285083501, 21.325240326825625 ], [ -157.737314311663198, 21.324987113550741 ], [ -157.737047649481582, 21.324692464453356 ], [ -157.736519428482438, 21.324728260574457 ], [ -157.735316058729325, 21.324409959487287 ], [ -157.734139873179373, 21.324150211816828 ], [ -157.733546600373927, 21.323834175019627 ], [ -157.732996055419676, 21.323871446116122 ], [ -157.732417996538516, 21.323823486525811 ], [ -157.731608005750275, 21.323878315364002 ], [ -157.730986466948622, 21.32336832683966 ], [ -157.731848558909945, 21.323133727834353 ], [ -157.736238839620853, 21.323883082196925 ], [ -157.739899116903104, 21.32521605030961 ], [ -157.74006924589483, 21.325404240577523 ] ] ] } },
{ "type": "Feature", "properties": { "ID": 40, "GRIDCODE": 1 }, "geometry": { "type": "Polygon", "coordinates": [ [ [ -157.720750265251297, 21.318483122379039 ], [ -157.720898842200256, 21.318351460681615 ], [ -157.721187071135319, 21.318074968438022 ], [ -157.722047666480933, 21.318631204307991 ], [ -157.722664029711495, 21.318917284392899 ], [ -157.723497046566735, 21.31890766421597 ], [ -157.723798089047989, 21.319501062015785 ], [ -157.723762246334104, 21.320674083414545 ], [ -157.723771288216085, 21.321359813717599 ], [ -157.7243430256853, 21.321353235111498 ], [ -157.725493510424513, 21.321509638458142 ], [ -157.724622469805666, 21.321897439936265 ], [ -157.72431914431678, 21.322188379541174 ], [ -157.724331824643372, 21.323139721300731 ], [ -157.725235712897984, 21.324411309483104 ], [ -157.728422551056354, 21.323573187117507 ], [ -157.730971856592248, 21.323490753253676 ], [ -157.729811967052456, 21.323833791280784 ], [ -157.728947303425713, 21.324103824225052 ], [ -157.728655593256008, 21.324095994662695 ], [ -157.728366328764054, 21.324099364887427 ], [ -157.727793639041238, 21.32408404909869 ], [ -157.726918396592481, 21.324630360165816 ], [ -157.725440390265135, 21.325437350866302 ], [ -157.72432521779993, 21.325407587837631 ], [ -157.723715721336703, 21.325695871592998 ], [ -157.723740550506335, 21.324882370693224 ], [ -157.723444203619181, 21.324332809159344 ], [ -157.723492705712999, 21.322741659523963 ], [ -157.72288715230917, 21.321889693902865 ], [ -157.722605369113467, 21.320767853679477 ], [ -157.722004091655805, 21.319651789543791 ], [ -157.721031427103128, 21.318761695705167 ], [ -157.720750265251297, 21.318483122379039 ] ] ] } },
{ "type": "Feature", "properties": { "ID": 41, "GRIDCODE": 1 }, "geometry": { "type": "Polygon", "coordinates": [ [ [ -157.720750265251297, 21.318483122379039 ], [ -157.720070524514597, 21.318340725252607 ], [ -157.720393835608036, 21.317862038507386 ], [ -157.720750265251297, 21.318483122379039 ] ] ] } },
{ "type": "Feature", "properties": { "ID": 42, "GRIDCODE": 1 }, "geometry": { "type": "Polygon", "coordinates": [ [ [ -157.72886201020458, 21.316918574768472 ], [ -157.729302903920086, 21.317049802712248 ], [ -157.729573263744811, 21.317338073093332 ], [ -157.729876647806208, 21.317596156808513 ], [ -157.730279527470458, 21.318436842272938 ], [ -157.730736714699162, 21.318414754106847 ], [ -157.731115740593907, 21.319205435832835 ], [ -157.730422364322578, 21.319497347336615 ], [ -157.728394041102433, 21.320587167010192 ], [ -157.728118080209157, 21.320292963678298 ], [ -157.727545518069803, 21.319805763564542 ], [ -157.729103495749712, 21.319478452616867 ], [ -157.72886201020458, 21.316918574768472 ] ] ] } },
{ "type": "Feature", "properties": { "ID": 43, "GRIDCODE": 1 }, "geometry": { "type": "Polygon", "coordinates": [ [ [ -157.737258170456187, 21.31589778490212 ], [ -157.737420402015317, 21.316017040712982 ], [ -157.737665075480749, 21.316866844132193 ], [ -157.73811931793341, 21.317585361176654 ], [ -157.737078129828689, 21.317959910980779 ], [ -157.735969861725863, 21.316535594492048 ], [ -157.736228553310099, 21.316274600235349 ], [ -157.737103595531124, 21.316402453295758 ], [ -157.737258170456187, 21.31589778490212 ] ] ] } }
]
}
