{
"type": "FeatureCollection",
"name": "schvisc",
"crs": { "type": "name", "properties": { "name": "urn:ogc:def:crs:OGC:1.3:CRS84" } },
"features": [
{ "type": "Feature", "properties": { "ID": 1, "GRIDCODE": 2 }, "geometry": { "type": "Polygon", "coordinates": [ [ [ -159.567137957990752, 22.208948040572384 ], [ -159.567493193924264, 22.209039581254363 ], [ -159.567238909076906, 22.209278123319326 ], [ -159.567137957990752, 22.208948040572384 ] ] ] } },
{ "type": "Feature", "properties": { "ID": 2, "GRIDCODE": 2 }, "geometry": { "type": "Polygon", "coordinates": [ [ [ -159.568588855555561, 22.207858897054173 ], [ -159.568490564076058, 22.208189674821295 ], [ -159.56823436895624, 22.207952913534978 ], [ -159.568588855555561, 22.207858897054173 ] ] ] } },
{ "type": "Feature", "properties": { "ID": 3, "GRIDCODE": 2 }, "geometry": { "type": "Polygon", "coordinates": [ [ [ -159.568588855555561, 22.207858897054173 ], [ -159.568704299541764, 22.207235230473245 ], [ -159.568957830913803, 22.207710348815326 ], [ -159.568588855555561, 22.207858897054173 ] ] ] } },
{ "type": "Feature", "properties": { "ID": 4, "GRIDCODE": 2 }, "geometry": { "type": "Polygon", "coordinates": [ [ [ -159.570038636174786, 22.20649872422706 ], [ -159.570393867632475, 22.206590258696657 ], [ -159.570139592109769, 22.206828805167763 ], [ -159.570038636174786, 22.20649872422706 ] ] ] } },
{ "type": "Feature", "properties": { "ID": 5, "GRIDCODE": 2 }, "geometry": { "type": "Polygon", "coordinates": [ [ [ -159.56887335278708, 22.206231779743852 ], [ -159.569252265244018, 22.206381192253637 ], [ -159.5689924390133, 22.206847265851863 ], [ -159.56887335278708, 22.206231779743852 ] ] ] } },
{ "type": "Feature", "properties": { "ID": 6, "GRIDCODE": 2 }, "geometry": { "type": "Polygon", "coordinates": [ [ [ -159.569745400682194, 22.205957709616065 ], [ -159.56964711314555, 22.206288488073227 ], [ -159.56939091965836, 22.206051728520261 ], [ -159.569745400682194, 22.205957709616065 ] ] ] } },
{ "type": "Feature", "properties": { "ID": 7, "GRIDCODE": 2 }, "geometry": { "type": "Polygon", "coordinates": [ [ [ -159.575560805720045, 22.204582151848943 ], [ -159.575408539387439, 22.205072219038094 ], [ -159.574562803644653, 22.206359844200176 ], [ -159.573377157682103, 22.207694057377736 ], [ -159.573115269844607, 22.20826208941471 ], [ -159.572134545242619, 22.209425022347901 ], [ -159.57153791662725, 22.210719353126564 ], [ -159.571064108480556, 22.211496473586873 ], [ -159.570647161101533, 22.212400936578231 ], [ -159.570088757231758, 22.213031693560794 ], [ -159.570221250008444, 22.211774236962043 ], [ -159.569888368807881, 22.211237656702153 ], [ -159.571045979958484, 22.210335373163876 ], [ -159.570465042448774, 22.209889438281319 ], [ -159.570843621876975, 22.209268474869056 ], [ -159.57075836933609, 22.208517382303526 ], [ -159.571368962073024, 22.208268228182678 ], [ -159.571630857018135, 22.207700198806357 ], [ -159.572218852830844, 22.207241848846994 ], [ -159.57255322222008, 22.206165991260068 ], [ -159.573638458695399, 22.205723156373789 ], [ -159.57368772029767, 22.205255735528862 ], [ -159.573243722750732, 22.204914926042125 ], [ -159.574260567541216, 22.205007818307298 ], [ -159.575111311875702, 22.204706715968477 ], [ -159.575560805720045, 22.204582151848943 ] ] ] } },
{ "type": "Feature", "properties": { "ID": 8, "GRIDCODE": 2 }, "geometry": { "type": "Polygon", "coordinates": [ [ [ -159.575560805720045, 22.204582151848943 ], [ -159.57565907822169, 22.204251370072139 ], [ -159.575915278638888, 22.204488119658926 ], [ -159.575560805720045, 22.204582151848943 ] ] ] } },
{ "type": "Feature", "properties": { "ID": 9, "GRIDCODE": 2 }, "geometry": { "type": "Polygon", "coordinates": [ [ [ -159.569745400682194, 22.205957709616065 ], [ -159.569910302743835, 22.205283439367598 ], [ -159.569846254471202, 22.204889745781543 ], [ -159.570207420321339, 22.204059001721557 ], [ -159.572778903919925, 22.205028512635124 ], [ -159.572526424937649, 22.205287849453814 ], [ -159.57161672799981, 22.205527171644022 ], [ -159.571096661458427, 22.206159544666804 ], [ -159.569745400682194, 22.205957709616065 ] ] ] } },
{ "type": "Feature", "properties": { "ID": 10, "GRIDCODE": 2 }, "geometry": { "type": "Polygon", "coordinates": [ [ [ -159.585147261294367, 22.200211656958682 ], [ -159.585809673001791, 22.200701731681171 ], [ -159.585557761649568, 22.202649362868996 ], [ -159.585648972769349, 22.203311594150897 ], [ -159.585288150950305, 22.203071576363943 ], [ -159.584634046777438, 22.200969310070029 ], [ -159.585147261294367, 22.200211656958682 ] ] ] } },
{ "type": "Feature", "properties": { "ID": 11, "GRIDCODE": 2 }, "geometry": { "type": "Polygon", "coordinates": [ [ [ -159.608965251449263, 22.189283541544718 ], [ -159.60884794459426, 22.190254909387995 ], [ -159.608511046043276, 22.19075348716197 ], [ -159.608270587722728, 22.191341145273118 ], [ -159.607575246188873, 22.192370225124755 ], [ -159.607712613684583, 22.19300420372776 ], [ -159.607117012705629, 22.193784626397726 ], [ -159.606440857416771, 22.194239747810844 ], [ -159.605921268459383, 22.194920587305869 ], [ -159.604258857025172, 22.19591214631112 ], [ -159.603921398543861, 22.195106885276179 ], [ -159.603581378873969, 22.194881846595887 ], [ -159.603337038095816, 22.194567011606523 ], [ -159.602590152895061, 22.194301924675372 ], [ -159.60275522484568, 22.193507446946739 ], [ -159.602658901666047, 22.193062888527791 ], [ -159.604371965859571, 22.192440303382799 ], [ -159.606523336680453, 22.191076641023631 ], [ -159.607925520702992, 22.189942614259287 ], [ -159.608965251449263, 22.189283541544718 ] ] ] } },
{ "type": "Feature", "properties": { "ID": 12, "GRIDCODE": 2 }, "geometry": { "type": "Polygon", "coordinates": [ [ [ -159.609835942457408, 22.188738244812349 ], [ -159.609838282101862, 22.189280275496763 ], [ -159.608965251449263, 22.189283541544718 ], [ -159.609192067273057, 22.188861809763488 ], [ -159.609835942457408, 22.188738244812349 ] ] ] } },
{ "type": "Feature", "properties": { "ID": 13, "GRIDCODE": 2 }, "geometry": { "type": "Polygon", "coordinates": [ [ [ -159.610125781169302, 22.188466139778331 ], [ -159.610126951522545, 22.188737155119448 ], [ -159.609835942457408, 22.188738244812349 ], [ -159.609834772662282, 22.188467229456531 ], [ -159.610125781169302, 22.188466139778331 ] ] ] } },
{ "type": "Feature", "properties": { "ID": 14, "GRIDCODE": 2 }, "geometry": { "type": "Polygon", "coordinates": [ [ [ -159.612446800045205, 22.186831312109689 ], [ -159.612562294093863, 22.187267132896551 ], [ -159.612970631097539, 22.188124927262294 ], [ -159.612490065636592, 22.188830316474583 ], [ -159.611144402780894, 22.188483585859121 ], [ -159.610556089347966, 22.188639948456608 ], [ -159.610125781169302, 22.188466139778331 ], [ -159.610404953958778, 22.188126492962798 ], [ -159.611702215683437, 22.187223191796022 ], [ -159.612446800045205, 22.186831312109689 ] ] ] } },
{ "type": "Feature", "properties": { "ID": 15, "GRIDCODE": 2 }, "geometry": { "type": "Polygon", "coordinates": [ [ [ -159.612446800045205, 22.186831312109689 ], [ -159.612544974296327, 22.186500509544363 ], [ -159.612801202105203, 22.186737200958309 ], [ -159.612446800045205, 22.186831312109689 ] ] ] } },
{ "type": "Feature", "properties": { "ID": 16, "GRIDCODE": 2 }, "geometry": { "type": "Polygon", "coordinates": [ [ [ -159.647634224108145, 22.117856271287238 ], [ -159.647989277268323, 22.117947637492868 ], [ -159.647735291161723, 22.11818630919015 ], [ -159.647634224108145, 22.117856271287238 ] ] ] } },
{ "type": "Feature", "properties": { "ID": 17, "GRIDCODE": 2 }, "geometry": { "type": "Polygon", "coordinates": [ [ [ -159.392235137184969, 22.112706758942508 ], [ -159.392335609232646, 22.11303696623516 ], [ -159.392590024714423, 22.112798683755564 ], [ -159.392235137184969, 22.112706758942508 ], [ -159.392372006134792, 22.112563289875521 ], [ -159.392678492783972, 22.112306776642811 ], [ -159.392967735279598, 22.112003605467155 ], [ -159.393960622134301, 22.112056349293017 ], [ -159.393428422684536, 22.110685358747009 ], [ -159.393829214196472, 22.110662127080396 ], [ -159.39440285312466, 22.110692603553332 ], [ -159.393882613367481, 22.109613325105236 ], [ -159.393099041665778, 22.109571697998405 ], [ -159.391507743238805, 22.109663913071387 ], [ -159.39348184421101, 22.10905476463946 ], [ -159.394983015313016, 22.110132990800718 ], [ -159.395724960334519, 22.110448137014025 ], [ -159.395294736739174, 22.111758409051738 ], [ -159.393776894054241, 22.113429776567504 ], [ -159.392097855963328, 22.116861929379485 ], [ -159.39150993664461, 22.116375011870318 ], [ -159.390930980521034, 22.115531626017045 ], [ -159.390345001585331, 22.11556557444792 ], [ -159.389805893477842, 22.115006202812427 ], [ -159.389471759478909, 22.115025560347569 ], [ -159.388604488794243, 22.114589106752636 ], [ -159.387236838484057, 22.115285832246446 ], [ -159.387433269925424, 22.114743308899317 ], [ -159.387744966241399, 22.114205499210399 ], [ -159.387418919710228, 22.11393543433423 ], [ -159.388600877134735, 22.113426556787324 ], [ -159.388961589511581, 22.112328249978233 ], [ -159.389914769208445, 22.112273033916281 ], [ -159.390337932632349, 22.113126357750414 ], [ -159.390643022699777, 22.113108672558493 ], [ -159.391223926462573, 22.11340100700254 ], [ -159.391500591186428, 22.112835524492024 ], [ -159.391805063902325, 22.112851708937729 ], [ -159.392235137184969, 22.112706758942508 ] ] ] } },
{ "type": "Feature", "properties": { "ID": 18, "GRIDCODE": 2 }, "geometry": { "type": "Polygon", "coordinates": [ [ [ -159.580650221502765, 22.097239365533838 ], [ -159.580552028825593, 22.097570156918767 ], [ -159.580296018718371, 22.097333407533188 ], [ -159.580650221502765, 22.097239365533838 ] ] ] } },
{ "type": "Feature", "properties": { "ID": 19, "GRIDCODE": 2 }, "geometry": { "type": "Polygon", "coordinates": [ [ [ -159.594582444654037, 22.090684711444812 ], [ -159.594937398281616, 22.090776203866472 ], [ -159.594683368131825, 22.09101478654177 ], [ -159.594582444654037, 22.090684711444812 ] ] ] } },
{ "type": "Feature", "properties": { "ID": 20, "GRIDCODE": 2 }, "geometry": { "type": "Polygon", "coordinates": [ [ [ -159.589825979705125, 22.06576772800468 ], [ -159.589727828443728, 22.066098525221349 ], [ -159.589471861444679, 22.065861788389423 ], [ -159.589825979705125, 22.06576772800468 ] ] ] } },
{ "type": "Feature", "properties": { "ID": 21, "GRIDCODE": 2 }, "geometry": { "type": "Polygon", "coordinates": [ [ [ -159.593605829007572, 22.065754058316049 ], [ -159.593250939090524, 22.06566256131908 ], [ -159.5935049274606, 22.06542398108672 ], [ -159.593605829007572, 22.065754058316049 ] ] ] } },
{ "type": "Feature", "properties": { "ID": 22, "GRIDCODE": 2 }, "geometry": { "type": "Polygon", "coordinates": [ [ [ -159.579631768518851, 22.0614677611795 ], [ -159.579533596100219, 22.061798552906989 ], [ -159.57927765359824, 22.06156179946376 ], [ -159.579631768518851, 22.0614677611795 ] ] ] } },
{ "type": "Feature", "properties": { "ID": 23, "GRIDCODE": 2 }, "geometry": { "type": "Polygon", "coordinates": [ [ [ -159.579631768518851, 22.0614677611795 ], [ -159.579729940498424, 22.061136969389725 ], [ -159.579985882953451, 22.061373722137994 ], [ -159.579631768518851, 22.0614677611795 ] ] ] } },
{ "type": "Feature", "properties": { "ID": 24, "GRIDCODE": 2 }, "geometry": { "type": "Polygon", "coordinates": [ [ [ -159.648218424687002, 22.118395994728637 ], [ -159.648319493510229, 22.118726032206176 ], [ -159.648573479549697, 22.11848735961631 ], [ -159.648218424687002, 22.118395994728637 ], [ -159.648467205211574, 22.118152686452696 ], [ -159.652727008833239, 22.119058300438123 ], [ -159.675574158843744, 22.119512590203378 ], [ -159.680720336715751, 22.120352082717602 ], [ -159.684117621543407, 22.121870274633569 ], [ -159.686362111172741, 22.124338807899576 ], [ -159.68813505885467, 22.127984532159402 ], [ -159.689146457282249, 22.131593411513496 ], [ -159.688869660709429, 22.136201356396928 ], [ -159.687110274843434, 22.141651579603408 ], [ -159.683619551024691, 22.145791472370252 ], [ -159.678637707146123, 22.148967798419744 ], [ -159.671442463566365, 22.151633156452959 ], [ -159.665691257036968, 22.153154404402567 ], [ -159.661326480259874, 22.154250810349851 ], [ -159.659478791527022, 22.154957690845688 ], [ -159.657299082546587, 22.154272516467053 ], [ -159.657251335807189, 22.154865951820266 ], [ -159.657264328178883, 22.155354019919894 ], [ -159.65725956097063, 22.155627564233416 ], [ -159.658398042720478, 22.157664431013366 ], [ -159.658978328271616, 22.159736165571779 ], [ -159.657608313209181, 22.162395915895981 ], [ -159.657294089876643, 22.162403154445045 ], [ -159.657000270414756, 22.16239875581406 ], [ -159.656535173287466, 22.163753730023625 ], [ -159.656133866917344, 22.163762979474921 ], [ -159.655267818109138, 22.163351803901424 ], [ -159.655258348709197, 22.163899189530852 ], [ -159.655276152125964, 22.164568203977868 ], [ -159.654685553271207, 22.164581800140283 ], [ -159.654391800265415, 22.164577396632549 ], [ -159.653107701148116, 22.165395709775325 ], [ -159.652357342873785, 22.16513307936842 ], [ -159.652371481598806, 22.164317294542357 ], [ -159.651186031040481, 22.164053123647847 ], [ -159.651485482361608, 22.163505844948784 ], [ -159.650595826408193, 22.163240851305499 ], [ -159.651587236660134, 22.162787926102375 ], [ -159.651181176906221, 22.162427632697543 ], [ -159.650891851813611, 22.162149522832095 ], [ -159.650486009581414, 22.162546406132314 ], [ -159.649133542933299, 22.161346402804263 ], [ -159.649152362926685, 22.160261804548593 ], [ -159.648119217076498, 22.160285557471632 ], [ -159.646533140471746, 22.160261706584041 ], [ -159.64536136607677, 22.16100836797569 ], [ -159.645644391529316, 22.160547090384224 ], [ -159.646800015699426, 22.158754865011154 ], [ -159.64622090264038, 22.15810552510753 ], [ -159.645634519469894, 22.158118996821088 ], [ -159.645132580554957, 22.155776865118387 ], [ -159.643920888624962, 22.156330367341159 ], [ -159.643409770880993, 22.15832013671551 ], [ -159.642741985173984, 22.157051787099579 ], [ -159.641586932117377, 22.156503237971485 ], [ -159.639886555422464, 22.156813475713495 ], [ -159.637816449437935, 22.158132459251789 ], [ -159.636759592767675, 22.158156679287551 ], [ -159.636325139424542, 22.157331379395 ], [ -159.635458777193179, 22.157351233117581 ], [ -159.635443982696216, 22.156793189092841 ], [ -159.635739085925735, 22.155979095271054 ], [ -159.634566460778927, 22.155717646061369 ], [ -159.633722881693132, 22.154906542974068 ], [ -159.631925249868686, 22.15464110840869 ], [ -159.631948504319837, 22.153310970509544 ], [ -159.630339844130788, 22.153286609621968 ], [ -159.629620948827494, 22.153303058066996 ], [ -159.62847771986074, 22.152760001052002 ], [ -159.627571859440422, 22.15302908350268 ], [ -159.627289175538067, 22.153577637122886 ], [ -159.626630222562198, 22.154491298707431 ], [ -159.62739080312636, 22.15621756753395 ], [ -159.626715857447266, 22.156826657919186 ], [ -159.62643436276673, 22.157646225593858 ], [ -159.626134049426582, 22.158194753910699 ], [ -159.628182170946531, 22.159434332003936 ], [ -159.627901110007457, 22.160350785235114 ], [ -159.627303831865731, 22.160889739734543 ], [ -159.628863288708175, 22.161587030011002 ], [ -159.628193437293959, 22.162515676783197 ], [ -159.62858054151954, 22.162859262185876 ], [ -159.627645529462882, 22.164673597610332 ], [ -159.627049789161447, 22.165211164115696 ], [ -159.627346995174491, 22.165513263924847 ], [ -159.628499799438231, 22.165486906104583 ], [ -159.628518510165378, 22.166196648116188 ], [ -159.626300366108097, 22.168678554702883 ], [ -159.627066680937361, 22.169021206894204 ], [ -159.627357189269787, 22.169573137103235 ], [ -159.62823172620017, 22.169553144595621 ], [ -159.628639132181036, 22.17145488563024 ], [ -159.630569407946297, 22.172807390527328 ], [ -159.63173530220206, 22.173328654195519 ], [ -159.631742825092402, 22.173613196259129 ], [ -159.631733371712585, 22.174152666402385 ], [ -159.632037353148434, 22.174422403869112 ], [ -159.632542780437689, 22.174908274587612 ], [ -159.634365458696038, 22.1757738727039 ], [ -159.635823320272976, 22.176425616535759 ], [ -159.635540081331584, 22.176853373079027 ], [ -159.635244466280426, 22.177120127419041 ], [ -159.634774312661932, 22.177579755038821 ], [ -159.633196317952951, 22.177944538749028 ], [ -159.632495563618164, 22.178629555628206 ], [ -159.632052126325561, 22.179029674770838 ], [ -159.631406463331331, 22.179660812114456 ], [ -159.63012476761881, 22.177668780063524 ], [ -159.629139152877059, 22.177691325755692 ], [ -159.62884537213975, 22.177686872706076 ], [ -159.628561299815971, 22.177964517110812 ], [ -159.627974682552804, 22.178232380709936 ], [ -159.627678357333167, 22.179095076726359 ], [ -159.627108800423429, 22.180135237144228 ], [ -159.627829126792733, 22.181769608505885 ], [ -159.626828325101201, 22.181754438705784 ], [ -159.6265333179241, 22.182613083033058 ], [ -159.623689454575725, 22.183772000951471 ], [ -159.623338039800473, 22.181495597312495 ], [ -159.622613202372776, 22.182534483826252 ], [ -159.620255132819608, 22.181414492580558 ], [ -159.619842504990629, 22.181786771069248 ], [ -159.619558548134961, 22.182064288044565 ], [ -159.618754435895113, 22.182431410457063 ], [ -159.618004365670544, 22.184223819456236 ], [ -159.617237145922161, 22.184241313515859 ], [ -159.616943351367212, 22.184236839315435 ], [ -159.616659242285948, 22.184514463591054 ], [ -159.616363575044176, 22.184781184623652 ], [ -159.61602808985154, 22.185431956045598 ], [ -159.614971347148128, 22.184959434980829 ], [ -159.622376214175546, 22.178279150850781 ], [ -159.625048041585245, 22.174449358290474 ], [ -159.625195856395266, 22.174315990230419 ], [ -159.625398312019513, 22.175261073446187 ], [ -159.626794422397552, 22.174557293832081 ], [ -159.625949138409283, 22.173601920536122 ], [ -159.625491485196278, 22.174049257856378 ], [ -159.625195856395266, 22.174315990230419 ], [ -159.625336623058786, 22.173906212022263 ], [ -159.625911568314137, 22.172320399388802 ], [ -159.625582178926436, 22.169852566490444 ], [ -159.62358005944742, 22.165590598875269 ], [ -159.622232252877495, 22.160383333791483 ], [ -159.621685587255428, 22.154678616555788 ], [ -159.622040525054274, 22.152237210806625 ], [ -159.622336256533544, 22.151970380441607 ], [ -159.622328933600983, 22.15169417723607 ], [ -159.622624663415223, 22.151427346369335 ], [ -159.62292792648546, 22.150838905776062 ], [ -159.623782418217814, 22.150067820690616 ], [ -159.62423703112745, 22.149623415391584 ], [ -159.626563838385522, 22.149058385176605 ], [ -159.631338788115187, 22.148949193993108 ], [ -159.631920689491608, 22.148957999072305 ], [ -159.633348207678011, 22.148925317984997 ], [ -159.633819291087207, 22.149343450458758 ], [ -159.634678316608614, 22.150169431340416 ], [ -159.635423178579316, 22.150830525663014 ], [ -159.636134631946874, 22.1518322502675 ], [ -159.636878123802205, 22.152185376940839 ], [ -159.638469978019913, 22.152659707744061 ], [ -159.639491418122134, 22.154600071353016 ], [ -159.641834134038987, 22.153529940338011 ], [ -159.64221960041391, 22.151648124512857 ], [ -159.644662185462806, 22.151592048274242 ], [ -159.645966706947974, 22.151980671307332 ], [ -159.646563131531337, 22.153113616113966 ], [ -159.64827776104184, 22.153927841623521 ], [ -159.648216022960554, 22.151598674273263 ], [ -159.648810891977973, 22.151861902982056 ], [ -159.6493839985107, 22.152412826897976 ], [ -159.649976962385722, 22.152399191888534 ], [ -159.650538660175954, 22.152939098905371 ], [ -159.651424968657096, 22.152182326528532 ], [ -159.650353200570692, 22.150573744940814 ], [ -159.649382904977244, 22.149712726828803 ], [ -159.649666665998836, 22.149419321326921 ], [ -159.650109961634513, 22.149019156237152 ], [ -159.650537121684295, 22.148601404306142 ], [ -159.65166176847498, 22.148954977538633 ], [ -159.653154024730526, 22.148592337117389 ], [ -159.654839412704746, 22.148202424764296 ], [ -159.655471575171646, 22.146457398793878 ], [ -159.654890349339183, 22.14533314300305 ], [ -159.65430610828011, 22.144814704237554 ], [ -159.655081776030784, 22.144782966239607 ], [ -159.655903174910037, 22.144795281534357 ], [ -159.656339510560514, 22.144785231144027 ], [ -159.656912515078915, 22.144793817754817 ], [ -159.657212680192998, 22.144245152706066 ], [ -159.657495229069355, 22.143696549835401 ], [ -159.658006705453403, 22.14276170077175 ], [ -159.656230461578957, 22.14154611526094 ], [ -159.656607408546193, 22.140447891111467 ], [ -159.656904392803568, 22.140179753808471 ], [ -159.656600897549282, 22.139365187172487 ], [ -159.657169257579596, 22.138852033022026 ], [ -159.657192480583888, 22.137504698790778 ], [ -159.656817452463201, 22.136165352708765 ], [ -159.657173695146582, 22.135843703836109 ], [ -159.657456228332052, 22.135295100878682 ], [ -159.658040093419345, 22.134485114491252 ], [ -159.658327252404916, 22.133366694967606 ], [ -159.659342584447558, 22.132449914953199 ], [ -159.659768254091773, 22.132033535114608 ], [ -159.661360491529308, 22.131665067556472 ], [ -159.662379925318248, 22.130667859701543 ], [ -159.662742647896948, 22.130340350019718 ], [ -159.662311835163791, 22.129121624996746 ], [ -159.659480548748121, 22.131498191525168 ], [ -159.658459578749131, 22.131482901495541 ], [ -159.657441558352019, 22.131506358754375 ], [ -159.656349351099067, 22.131489994273164 ], [ -159.655403653538912, 22.131780098624056 ], [ -159.654538085829898, 22.13206001738682 ], [ -159.652189078397015, 22.132375127963325 ], [ -159.649276485594129, 22.133705969201394 ], [ -159.648440555058698, 22.134523535331851 ], [ -159.648145051149925, 22.134790303465856 ], [ -159.647859596123851, 22.135344485486431 ], [ -159.647132290045192, 22.135333542010365 ], [ -159.646693070607284, 22.135343636534195 ], [ -159.646344898038166, 22.133718787352592 ], [ -159.64550814681354, 22.134547085925167 ], [ -159.644817677075764, 22.135887563871055 ], [ -159.643785328764636, 22.135626044855147 ], [ -159.642943176408608, 22.134816303863687 ], [ -159.642620307626771, 22.135628700837092 ], [ -159.643326936777271, 22.136591087384275 ], [ -159.642278191982712, 22.137616647024647 ], [ -159.64088247898755, 22.136992571064805 ], [ -159.639731368033694, 22.136272194040739 ], [ -159.639714109337717, 22.137262857195061 ], [ -159.640242574387457, 22.137731877759556 ], [ -159.637596600058799, 22.13810269037457 ], [ -159.635079721094883, 22.134558635430125 ], [ -159.630378923967015, 22.130536681974498 ], [ -159.628039107673487, 22.129072115272166 ], [ -159.623375041517505, 22.1268560603779 ], [ -159.619019742218995, 22.125417620546795 ], [ -159.609693001135525, 22.122476901240052 ], [ -159.609319391552873, 22.121766590318096 ], [ -159.608527738201587, 22.121390344950537 ], [ -159.607682929704964, 22.121799817311487 ], [ -159.606190754013539, 22.121132117640503 ], [ -159.606200401736572, 22.120581683995592 ], [ -159.605021681785587, 22.120608469728101 ], [ -159.605334545036072, 22.120037144775694 ], [ -159.603454493115237, 22.120079858411824 ], [ -159.599050814539936, 22.118357171881573 ], [ -159.592505558048572, 22.114946113359405 ], [ -159.589872552678372, 22.113603978384489 ], [ -159.590171946095268, 22.113333850741039 ], [ -159.590742749029005, 22.112775970380053 ], [ -159.591043263020993, 22.113065210581134 ], [ -159.591624996938748, 22.11305203800492 ], [ -159.592021829140464, 22.113806656969885 ], [ -159.593086450184444, 22.113320581230116 ], [ -159.593072324877141, 22.11277858688668 ], [ -159.593077216146867, 22.112504874777557 ], [ -159.591966440698513, 22.112173466944366 ], [ -159.593065010706056, 22.111182284878403 ], [ -159.593070356611378, 22.110881434040035 ], [ -159.593063081759823, 22.110602083887994 ], [ -159.594226784920238, 22.110619979706353 ], [ -159.593937149805072, 22.109520457482134 ], [ -159.59334852189815, 22.109256999344737 ], [ -159.592921847807673, 22.108445479633804 ], [ -159.592473695316301, 22.108712702767335 ], [ -159.592189826428523, 22.108990180759022 ], [ -159.591603419212788, 22.109257902660456 ], [ -159.591187969694289, 22.110063849012899 ], [ -159.59044365267809, 22.110080700878576 ], [ -159.589862502069792, 22.109804374823952 ], [ -159.589571058746998, 22.110089278227434 ], [ -159.588282730893667, 22.110069424223227 ], [ -159.587829008240391, 22.110897873139681 ], [ -159.587836177574985, 22.111171376510061 ], [ -159.587828915365662, 22.111577937226915 ], [ -159.587846553203292, 22.112252718469961 ], [ -159.586670254708224, 22.111991350187139 ], [ -159.584565395178316, 22.111151684320703 ], [ -159.580390826328852, 22.109905825115842 ], [ -159.57766779978337, 22.108255987458985 ], [ -159.576474284473761, 22.106628594756835 ], [ -159.577257993995062, 22.104726619383939 ], [ -159.57867700250651, 22.104382365427849 ], [ -159.580247292205769, 22.104969420571845 ], [ -159.580935496090603, 22.103983042565851 ], [ -159.582271150963606, 22.103160205535467 ], [ -159.581985718985948, 22.103058910381563 ], [ -159.580820940816267, 22.102711265150024 ], [ -159.581412102710345, 22.102513570547345 ], [ -159.582268693811699, 22.102526814239994 ], [ -159.582563885148602, 22.10223824621238 ], [ -159.584273229424099, 22.102264648096885 ], [ -159.584598784930364, 22.101970914325456 ], [ -159.585141631270318, 22.101440323388623 ], [ -159.586079206015199, 22.100862692736811 ], [ -159.586622042560379, 22.100332097023912 ], [ -159.587244554702664, 22.099770395581963 ], [ -159.585750275753071, 22.09980419409462 ], [ -159.585023149576273, 22.099792969686877 ], [ -159.584008598160864, 22.099815886484603 ], [ -159.58400117799556, 22.09953112651321 ], [ -159.584010697001787, 22.098997332848786 ], [ -159.583418150439343, 22.098715556041373 ], [ -159.582859607807308, 22.099261465575694 ], [ -159.582835353235083, 22.098991818722787 ], [ -159.583129318424312, 22.097905699501656 ], [ -159.581942765923799, 22.097640625580194 ], [ -159.581378625159971, 22.097097624903956 ], [ -159.580650221502765, 22.097239365533838 ], [ -159.581191934392706, 22.096311221593496 ], [ -159.58168923080774, 22.096535746687383 ], [ -159.582108087756893, 22.097075955479383 ], [ -159.583256359618503, 22.095490796224027 ], [ -159.584983594254709, 22.096001593063477 ], [ -159.585428088134364, 22.096574868066146 ], [ -159.58600928791725, 22.09646565939676 ], [ -159.586470633934425, 22.097060706398466 ], [ -159.586924193852468, 22.096561760546884 ], [ -159.58716459068475, 22.095974120446211 ], [ -159.587624350150293, 22.095859321050437 ], [ -159.587793467114693, 22.096765725401262 ], [ -159.58833476644142, 22.096366290898221 ], [ -159.587624350150293, 22.095859321050437 ], [ -159.587761002087689, 22.095715692053119 ], [ -159.588648729001079, 22.095456725388271 ], [ -159.588937511645383, 22.095153215250107 ], [ -159.589560329439308, 22.09518555912312 ], [ -159.591014187194929, 22.094442470834611 ], [ -159.591554591542177, 22.094888935348948 ], [ -159.591856257777295, 22.095786981390237 ], [ -159.593558709950997, 22.095355447769673 ], [ -159.593869398397885, 22.09597988622108 ], [ -159.594177618624428, 22.096234537646477 ], [ -159.594631593422434, 22.097146829298257 ], [ -159.595901098285481, 22.096313520078048 ], [ -159.597327765732473, 22.095897261385947 ], [ -159.597381557082514, 22.094996438544392 ], [ -159.596206098316003, 22.094498864315788 ], [ -159.596481220445497, 22.094328156666851 ], [ -159.59677892176677, 22.094343595393454 ], [ -159.59721504360968, 22.094317768510351 ], [ -159.597920095996187, 22.094354345646064 ], [ -159.598544694973583, 22.094035049735812 ], [ -159.59911169013904, 22.094064451785496 ], [ -159.59962296894858, 22.093526882627984 ], [ -159.600535150207662, 22.093132647677841 ], [ -159.600562732282413, 22.092670728347358 ], [ -159.598561665429884, 22.092789246620722 ], [ -159.598213694454415, 22.091896527311448 ], [ -159.598244864646347, 22.091374498123518 ], [ -159.597202434515566, 22.091320412973513 ], [ -159.59593647217585, 22.091395369472664 ], [ -159.595275348197987, 22.090520591315034 ], [ -159.595896371099883, 22.090552818694146 ], [ -159.598289746679313, 22.089742602470732 ], [ -159.599299593305631, 22.089682793218167 ], [ -159.601008151443324, 22.090247052598379 ], [ -159.601200786632717, 22.089412199956669 ], [ -159.600291664830735, 22.089466059895734 ], [ -159.599907356993185, 22.089148558318932 ], [ -159.599167241096126, 22.08766120626488 ], [ -159.59877240388235, 22.087252594205367 ], [ -159.597425850337203, 22.087940934896299 ], [ -159.596547337524783, 22.08703180394334 ], [ -159.595584758195542, 22.08698186625395 ], [ -159.594521409746051, 22.087044807821478 ], [ -159.593348987704786, 22.086712057408818 ], [ -159.594052882940645, 22.085972043715547 ], [ -159.595434778398385, 22.085890229101544 ], [ -159.596700147009244, 22.085955902770863 ], [ -159.597200824616891, 22.085535662266572 ], [ -159.598089612636187, 22.083997004771476 ], [ -159.596685379515748, 22.084080163638664 ], [ -159.597825223684936, 22.082698153339976 ], [ -159.597027986343761, 22.082656783258152 ], [ -159.596241634895961, 22.083483475793308 ], [ -159.595853598114871, 22.08350644447825 ], [ -159.595300699268762, 22.082934170608549 ], [ -159.594693851666278, 22.083244357298756 ], [ -159.594166556892304, 22.082698652017907 ], [ -159.593524134361616, 22.082956757180828 ], [ -159.592663259166613, 22.083521827299105 ], [ -159.591841256273511, 22.083109369296416 ], [ -159.591383483369555, 22.084048608585167 ], [ -159.59085675504727, 22.082868819646883 ], [ -159.591336230497518, 22.081173981066016 ], [ -159.590074721533085, 22.08171914675917 ], [ -159.590007608213796, 22.082841597396463 ], [ -159.590112852837223, 22.084386569873608 ], [ -159.589171834462576, 22.083779018193553 ], [ -159.588891557820745, 22.084073714298814 ], [ -159.58858677741398, 22.084057889248292 ], [ -159.587548101309011, 22.084588768444156 ], [ -159.586023658483469, 22.085033495338237 ], [ -159.585119034059801, 22.085984425871196 ], [ -159.584529917031944, 22.085953813044089 ], [ -159.583512351555271, 22.086013988344089 ], [ -159.582639754087438, 22.085968632191275 ], [ -159.581921083529863, 22.086011124028055 ], [ -159.582192646760234, 22.081386601551184 ], [ -159.583066350858928, 22.081639261084309 ], [ -159.584112346462234, 22.082164193933991 ], [ -159.584502859759596, 22.081363108569132 ], [ -159.585531634667262, 22.080499773428627 ], [ -159.586496155606767, 22.078830140567739 ], [ -159.584701386736725, 22.079437604429323 ], [ -159.583915180400766, 22.079484100937091 ], [ -159.583347124756358, 22.079199041664516 ], [ -159.582732459230584, 22.078938744425145 ], [ -159.58421997367995, 22.078124450390181 ], [ -159.58389178973357, 22.077282161845545 ], [ -159.584759292438036, 22.077327249332019 ], [ -159.585081855449374, 22.076768878136765 ], [ -159.585354011976733, 22.076210604012438 ], [ -159.585660064999928, 22.075953735831149 ], [ -159.585933335364018, 22.075666481066659 ], [ -159.586239386165232, 22.075409611832892 ], [ -159.586571675984999, 22.075060277358851 ], [ -159.5881736674161, 22.075454030412633 ], [ -159.588840499687024, 22.075113181667909 ], [ -159.589385192967711, 22.075141475137269 ], [ -159.58975285504377, 22.074832865627034 ], [ -159.588972257869671, 22.074187810656401 ], [ -159.588558023857018, 22.073759027533104 ], [ -159.587969227934423, 22.073793865170586 ], [ -159.587387545822082, 22.073763648503562 ], [ -159.587096838279194, 22.073780837190476 ], [ -159.586660576779963, 22.073758168418362 ], [ -159.585961274422601, 22.073799548769312 ], [ -159.585886616313502, 22.072703461074912 ], [ -159.586219976587842, 22.072683739672772 ], [ -159.586510815300556, 22.072698842123991 ], [ -159.586946873345681, 22.07267304398815 ], [ -159.587626254675598, 22.072708353690491 ], [ -159.588837000700437, 22.072401429864858 ], [ -159.590466971504156, 22.072939935183726 ], [ -159.590880556815108, 22.072682669233266 ], [ -159.591541848015595, 22.071987450361298 ], [ -159.592901987623094, 22.072865687081208 ], [ -159.594936729272007, 22.072971314142709 ], [ -159.595562382552743, 22.07168749587251 ], [ -159.597130813745764, 22.069368892720334 ], [ -159.598084540479618, 22.069418392819816 ], [ -159.598989000922813, 22.068659164177106 ], [ -159.597285792630572, 22.068881578657628 ], [ -159.595805589871418, 22.069959427087696 ], [ -159.595031818137016, 22.069571124240099 ], [ -159.593475264032293, 22.069965763641736 ], [ -159.592903458234218, 22.069678831619129 ], [ -159.591709933281294, 22.069340021964059 ], [ -159.591737539389982, 22.068877605997788 ], [ -159.591702380361141, 22.068361275014627 ], [ -159.592308114523149, 22.06832542013068 ], [ -159.593846263078063, 22.068405267088544 ], [ -159.595313982994014, 22.06777089010588 ], [ -159.596239755341458, 22.066168022746449 ], [ -159.595018939871181, 22.066104661351577 ], [ -159.593382811599525, 22.066745948892478 ], [ -159.593605829007572, 22.065754058316049 ], [ -159.594245992733988, 22.06558538806577 ], [ -159.595472607638101, 22.064695699363995 ], [ -159.594757549284225, 22.064454851294837 ], [ -159.593686535296428, 22.064851795630492 ], [ -159.592985591982227, 22.064012100610526 ], [ -159.592181236003483, 22.06428134013408 ], [ -159.591134379155818, 22.065555684983885 ], [ -159.589825979705125, 22.06576772800468 ], [ -159.59001983862413, 22.065407074658363 ], [ -159.590879347894145, 22.064997866365946 ], [ -159.590978870922697, 22.063324347550878 ], [ -159.591332981825076, 22.063230284037125 ], [ -159.59107701750267, 22.062993549578845 ], [ -159.590978870922697, 22.063324347550878 ], [ -159.590825862791036, 22.06345278647855 ], [ -159.590308505997427, 22.063996702754267 ], [ -159.589040116249237, 22.0637366509171 ], [ -159.590241340927321, 22.062728419827451 ], [ -159.588471374807852, 22.063290044402489 ], [ -159.587065482142378, 22.064212929008903 ], [ -159.587336825955589, 22.063465347231912 ], [ -159.587793192049816, 22.062675265677907 ], [ -159.587086381591973, 22.062638548831959 ], [ -159.585424305635883, 22.063201176145036 ], [ -159.5852839936301, 22.062914475235921 ], [ -159.586168464348617, 22.062172144956655 ], [ -159.585006339422847, 22.062389596720074 ], [ -159.584230345290962, 22.063205443396257 ], [ -159.584424837197076, 22.06239167456928 ], [ -159.585200432380503, 22.061049030602867 ], [ -159.584420381318182, 22.061307591290518 ], [ -159.584131655792532, 22.06161109340491 ], [ -159.583396522140163, 22.061572873562859 ], [ -159.582740882687744, 22.062918010050755 ], [ -159.58240257483655, 22.061585809925543 ], [ -159.582094451894562, 22.06133113312158 ], [ -159.581818073330396, 22.061044979126532 ], [ -159.580408731053666, 22.061128310393467 ], [ -159.580211055646743, 22.060923658354561 ], [ -159.580501803984959, 22.060922627240046 ], [ -159.580500697548416, 22.06065160619568 ], [ -159.580854809342128, 22.060557565321076 ], [ -159.580598866977311, 22.060320813907921 ], [ -159.580500697548416, 22.06065160619568 ], [ -159.580209949764281, 22.060652637296233 ], [ -159.580211055646743, 22.060923658354561 ], [ -159.579588262687679, 22.06075568065609 ], [ -159.58004945052727, 22.060234129895036 ], [ -159.580366025297934, 22.059987060260958 ], [ -159.580637351305427, 22.059680268342433 ], [ -159.581229644322804, 22.059993722008567 ], [ -159.581952395117071, 22.059176391302476 ], [ -159.583015125082511, 22.059738776999669 ], [ -159.584586837278039, 22.059096731553279 ], [ -159.585373717826286, 22.058206785551477 ], [ -159.587334979614695, 22.057793999141438 ], [ -159.58821731307836, 22.057197268835289 ], [ -159.588773032958329, 22.057248056301297 ], [ -159.589331508659683, 22.057192962895869 ], [ -159.590640145858004, 22.058150743908861 ], [ -159.592496915861517, 22.056701583787955 ], [ -159.591955081482354, 22.05609830436347 ], [ -159.591239876327421, 22.056168877237397 ], [ -159.590803597102479, 22.056129014824869 ], [ -159.589759665683573, 22.056232015413997 ], [ -159.58710173609353, 22.055783687223474 ], [ -159.585416033601149, 22.056691696934518 ], [ -159.584957788102741, 22.056436850851757 ], [ -159.585480667008056, 22.056028807775778 ], [ -159.585601982364125, 22.054875442432607 ], [ -159.585204653588391, 22.054433040173066 ], [ -159.584386945415901, 22.055071193069814 ], [ -159.584436878353017, 22.055511066506792 ], [ -159.58352061974071, 22.055885390426635 ], [ -159.5830057728692, 22.057544143415903 ], [ -159.582029465025414, 22.057454883523992 ], [ -159.5814954272536, 22.0583318234229 ], [ -159.58122053587033, 22.05892882664617 ], [ -159.580493393362957, 22.058862344355177 ], [ -159.580049712066881, 22.058906083188031 ], [ -159.579620721203554, 22.058757550091478 ], [ -159.579384886032216, 22.057914326625692 ], [ -159.578627140579783, 22.058123253777662 ], [ -159.579620721203554, 22.058757550091478 ], [ -159.579476139310572, 22.059178412299385 ], [ -159.578031602057365, 22.059156044401153 ], [ -159.577736559157984, 22.059444487975078 ], [ -159.577441071615652, 22.05971113016253 ], [ -159.576766135283435, 22.060370957907825 ], [ -159.575696617212969, 22.059722701875117 ], [ -159.573699769495306, 22.055922473697841 ], [ -159.566487115455175, 22.044633542790454 ], [ -159.567215145089961, 22.044301139664324 ], [ -159.56718762232623, 22.043236634222414 ], [ -159.568596030649786, 22.041859829689916 ], [ -159.568944794535611, 22.042124218520442 ], [ -159.569235127215336, 22.043483880883244 ], [ -159.569674073630296, 22.043474000632678 ], [ -159.570255544322691, 22.04348302681932 ], [ -159.570836926394804, 22.043469950994595 ], [ -159.57137729946038, 22.043478338980801 ], [ -159.571851761105279, 22.042097501225598 ], [ -159.573023279765181, 22.042115688213826 ], [ -159.573863089496797, 22.040486327677201 ], [ -159.574173207588672, 22.041021866556882 ], [ -159.574723945307284, 22.042070192731799 ], [ -159.575629709153162, 22.042942435719585 ], [ -159.575913828609288, 22.041557806011546 ], [ -159.576211262189446, 22.041289356689834 ], [ -159.575630523093565, 22.040248055615866 ], [ -159.5756089960868, 22.039417750767058 ], [ -159.575902863099941, 22.038847586554116 ], [ -159.576825863378417, 22.038564760220616 ], [ -159.577938806784971, 22.038025253015704 ], [ -159.578640209162387, 22.039014392621393 ], [ -159.579985830629283, 22.037698638525253 ], [ -159.582883341444841, 22.038280840351813 ], [ -159.583172468999521, 22.038831026629666 ], [ -159.583732687381968, 22.03828324116586 ], [ -159.585148464536786, 22.038595069210121 ], [ -159.589124271176445, 22.041156003551283 ], [ -159.596293584819222, 22.049802687330885 ], [ -159.600405398340712, 22.058549819055173 ], [ -159.605602153714017, 22.069584178583579 ], [ -159.607056968006702, 22.075211790817097 ], [ -159.609138576386385, 22.085525947399031 ], [ -159.608963026217594, 22.095496852806988 ], [ -159.60958120119588, 22.097819713292779 ], [ -159.610257319966053, 22.100237800837341 ], [ -159.608712086707555, 22.100524892345156 ], [ -159.607608121980547, 22.101604225164778 ], [ -159.606697931577656, 22.101624926444181 ], [ -159.605246573415286, 22.101602700156928 ], [ -159.607160282437661, 22.102696282934495 ], [ -159.607867622645131, 22.102428056197024 ], [ -159.608749083567972, 22.101866460527905 ], [ -159.60975280104185, 22.101881807560378 ], [ -159.610453690884981, 22.101865857883805 ], [ -159.611359895816548, 22.102271385759494 ], [ -159.613266325313788, 22.104493708849937 ], [ -159.615716874122398, 22.105865946843764 ], [ -159.624750558311035, 22.10901254530296 ], [ -159.630593464756032, 22.111010078041044 ], [ -159.630294318524136, 22.111556741127611 ], [ -159.631130982760709, 22.111930970562803 ], [ -159.631829148562304, 22.114768082432803 ], [ -159.630791006436681, 22.115271501301685 ], [ -159.629926300931771, 22.114439798564749 ], [ -159.629086983291927, 22.114846761776224 ], [ -159.624790528405413, 22.114781553559201 ], [ -159.625658689163487, 22.115098926970031 ], [ -159.627577530056925, 22.115527004289508 ], [ -159.628285101381266, 22.116155230894091 ], [ -159.628580472242533, 22.118068943854755 ], [ -159.6290290718932, 22.118872150258774 ], [ -159.62959972016921, 22.119956740904037 ], [ -159.62946246899773, 22.118873184888727 ], [ -159.628873716281475, 22.117291837596714 ], [ -159.629415453397314, 22.11616857836184 ], [ -159.62974249990441, 22.116432913299139 ], [ -159.63003069027593, 22.116710118116224 ], [ -159.630609255027167, 22.116429568886989 ], [ -159.632949921844755, 22.1161538683976 ], [ -159.633511793105697, 22.115063229571625 ], [ -159.633806919084293, 22.114523921093255 ], [ -159.633382276442774, 22.112632331231605 ], [ -159.634340456339601, 22.112610392110167 ], [ -159.643403554879825, 22.116924809709705 ], [ -159.643424910951012, 22.117734463136692 ], [ -159.642831309735925, 22.117748090539514 ], [ -159.642840594103376, 22.117211529006049 ], [ -159.642405453551788, 22.116793054665155 ], [ -159.641695749335668, 22.117433804163792 ], [ -159.640935453958065, 22.118823298830609 ], [ -159.641498602866818, 22.119831435883981 ], [ -159.640807692435089, 22.120455185582458 ], [ -159.640051252811702, 22.121540118230392 ], [ -159.639649282715169, 22.121549343932134 ], [ -159.639087753170372, 22.121009393392562 ], [ -159.639057070096072, 22.121386352235998 ], [ -159.639082830738801, 22.122359091170846 ], [ -159.638658416453666, 22.121989777071615 ], [ -159.637849826157634, 22.121212164595182 ], [ -159.636897696667205, 22.122577676793359 ], [ -159.635590010095257, 22.123175109504114 ], [ -159.636170068188676, 22.12346139746133 ], [ -159.637454418834693, 22.122838593394565 ], [ -159.638213890529158, 22.123178265198007 ], [ -159.638195565446807, 22.124234323829835 ], [ -159.63851207658837, 22.125084368486746 ], [ -159.637776011880788, 22.126429512801185 ], [ -159.638512240032611, 22.126161040073704 ], [ -159.639785091349722, 22.125253255783328 ], [ -159.641704604821371, 22.124786886570313 ], [ -159.642828503576538, 22.125867656056993 ], [ -159.643737432225549, 22.125083633521054 ], [ -159.643269678446813, 22.12415108136226 ], [ -159.642074195762518, 22.123616491580805 ], [ -159.642556579172236, 22.121261375433349 ], [ -159.643427394391864, 22.120863490880588 ], [ -159.642845825661624, 22.119634005010763 ], [ -159.641973376169773, 22.119654028568348 ], [ -159.642434046551159, 22.119185465317567 ], [ -159.644005689173014, 22.118821906016521 ], [ -159.644571913267924, 22.118268077731255 ], [ -159.645518872558455, 22.118565894230631 ], [ -159.647055568372821, 22.118530583414973 ], [ -159.647494314864673, 22.118537189753948 ], [ -159.648218424687002, 22.118395994728637 ] ], [ [ -159.640151390101437, 22.135502115758985 ], [ -159.640270931163002, 22.135661969664756 ], [ -159.641181851223052, 22.136242640443072 ], [ -159.641434413214085, 22.135632952381769 ], [ -159.640151390101437, 22.135502115758985 ] ], [ [ -159.648282882116717, 22.132488798049565 ], [ -159.64788565536071, 22.133324435411243 ], [ -159.648419700426416, 22.133675663116971 ], [ -159.648977416678122, 22.132883685323712 ], [ -159.648282882116717, 22.132488798049565 ] ], [ [ -159.644503759936725, 22.133045804391958 ], [ -159.644662753664761, 22.133681331367509 ], [ -159.645485259925096, 22.133171373423099 ], [ -159.644503759936725, 22.133045804391958 ] ], [ [ -159.638095573921703, 22.131173838337666 ], [ -159.637903850098979, 22.132252665269139 ], [ -159.636978711411501, 22.132923763902507 ], [ -159.638066666211301, 22.133333679326039 ], [ -159.639394240549166, 22.133033370589061 ], [ -159.638808403235373, 22.132137065417641 ], [ -159.638512303387387, 22.131470911991091 ], [ -159.638095573921703, 22.131173838337666 ] ], [ [ -159.640426361328764, 22.131977771826577 ], [ -159.64031618869555, 22.132145896304866 ], [ -159.639957201287132, 22.132353960573564 ], [ -159.639737235255353, 22.132774628310045 ], [ -159.640881616669617, 22.132437616298514 ], [ -159.641119760804742, 22.13212704389807 ], [ -159.640426361328764, 22.131977771826577 ] ], [ [ -159.641587469365561, 22.131431171256768 ], [ -159.641304976923692, 22.132079337671239 ], [ -159.642291472457856, 22.131601255885315 ], [ -159.641587469365561, 22.131431171256768 ] ], [ [ -159.640415337048495, 22.12953863061016 ], [ -159.641168681609344, 22.129424975852835 ], [ -159.642793973465388, 22.128948582652217 ], [ -159.641912948704856, 22.127699605062375 ], [ -159.641292571151894, 22.12783174732256 ], [ -159.640875344842954, 22.128884086659546 ], [ -159.640415337048495, 22.12953863061016 ], [ -159.639464134791098, 22.130156018256052 ], [ -159.640165056354107, 22.130463371477841 ], [ -159.640415337048495, 22.12953863061016 ] ], [ [ -159.660181628707676, 22.126478671070757 ], [ -159.660076797500238, 22.126651699735806 ], [ -159.658677129255835, 22.127346589286031 ], [ -159.659019049117887, 22.128180740982355 ], [ -159.660123988184068, 22.127787579014694 ], [ -159.660579123800972, 22.126687705726557 ], [ -159.660181628707676, 22.126478671070757 ] ], [ [ -159.6575662388463, 22.127031265998152 ], [ -159.657768306456973, 22.127679227465936 ], [ -159.658278232448168, 22.127217832727954 ], [ -159.6575662388463, 22.127031265998152 ] ], [ [ -159.641855035016675, 22.126280729786355 ], [ -159.641989378609964, 22.127452145500527 ], [ -159.642255140349505, 22.126499625185311 ], [ -159.641855035016675, 22.126280729786355 ] ], [ [ -159.65521414545438, 22.121620320076275 ], [ -159.655355833785308, 22.122575947940177 ], [ -159.655735447692024, 22.123874242083126 ], [ -159.655096517566648, 22.124410791315377 ], [ -159.656245396883151, 22.124469970910049 ], [ -159.656783475274381, 22.12443791635944 ], [ -159.65712737008792, 22.124721737242115 ], [ -159.657679038651821, 22.125292050719302 ], [ -159.660041165435075, 22.125794063543509 ], [ -159.661051210124072, 22.126300165618545 ], [ -159.661617460683942, 22.125319171661847 ], [ -159.660378715607436, 22.124592165065383 ], [ -159.659944659960047, 22.123720970840928 ], [ -159.659197402434671, 22.125255432625988 ], [ -159.657600102906514, 22.124059553399782 ], [ -159.656908800760363, 22.12267207619977 ], [ -159.656534322811638, 22.122284942039602 ], [ -159.65521414545438, 22.121620320076275 ] ], [ [ -159.609247361917994, 22.119630121018176 ], [ -159.609406181792593, 22.120265687394767 ], [ -159.610228743119364, 22.11975590511366 ], [ -159.609247361917994, 22.119630121018176 ] ], [ [ -159.608083893585956, 22.119634457559375 ], [ -159.60819230358149, 22.120124586547075 ], [ -159.609025567968615, 22.119741539023689 ], [ -159.608083893585956, 22.119634457559375 ] ], [ [ -159.599318926799242, 22.110452094402572 ], [ -159.599052069728344, 22.111358825582947 ], [ -159.597625201875303, 22.11156064446201 ], [ -159.595721848348973, 22.111051042488295 ], [ -159.595591402509285, 22.111896181552972 ], [ -159.596554840407407, 22.11224505824897 ], [ -159.597098879260699, 22.112168110769279 ], [ -159.598476729424078, 22.112935707803793 ], [ -159.599744975110951, 22.112465757048955 ], [ -159.602070233899838, 22.112088880901897 ], [ -159.601186525870276, 22.111337411327462 ], [ -159.599825306413038, 22.111529967589789 ], [ -159.60061117108728, 22.110960089554645 ], [ -159.600329268356774, 22.110524915672382 ], [ -159.599747341573192, 22.110607231858353 ], [ -159.599318926799242, 22.110452094402572 ] ], [ [ -159.601937715048592, 22.110713488161739 ], [ -159.602056853653608, 22.111328953836452 ], [ -159.602316402231679, 22.110862830411431 ], [ -159.601937715048592, 22.110713488161739 ] ], [ [ -159.617922584980761, 22.107943583397585 ], [ -159.618041790000035, 22.108559036092654 ], [ -159.618301280549275, 22.108092888425745 ], [ -159.617922584980761, 22.107943583397585 ] ], [ [ -159.604805766418963, 22.101217102527364 ], [ -159.604906721630641, 22.101547170187256 ], [ -159.605160752579252, 22.101308571889319 ], [ -159.604805766418963, 22.101217102527364 ] ], [ [ -159.600655028394101, 22.082531808830232 ], [ -159.600530968160712, 22.08376685740371 ], [ -159.599790588126126, 22.084060829286948 ], [ -159.602414779637286, 22.084355256360773 ], [ -159.6045445005538, 22.083917569825797 ], [ -159.604683058961484, 22.082844361386673 ], [ -159.604012523479042, 22.083215063588803 ], [ -159.603700704885881, 22.083180087496615 ], [ -159.602707961882231, 22.083728873405008 ], [ -159.602523004037607, 22.083474527688722 ], [ -159.603036082474802, 22.082653627366142 ], [ -159.600655028394101, 22.082531808830232 ] ], [ [ -159.585226306739827, 22.07852239309922 ], [ -159.585327199258728, 22.078852475128553 ], [ -159.58558122425859, 22.078613906770475 ], [ -159.585226306739827, 22.07852239309922 ] ], [ [ -159.591318105198127, 22.07497716764103 ], [ -159.591438667490678, 22.075408080907565 ], [ -159.592317457734566, 22.075710960843363 ], [ -159.592897077884828, 22.076486896917753 ], [ -159.594351114215868, 22.076514835774887 ], [ -159.593477504839143, 22.076213767789532 ], [ -159.592118111183908, 22.0751654328092 ], [ -159.591318105198127, 22.07497716764103 ] ], [ [ -159.592715478083051, 22.061420894901847 ], [ -159.592243127203375, 22.062063922821526 ], [ -159.591223552805303, 22.062725552207173 ], [ -159.592431193384243, 22.06297331796755 ], [ -159.59315743941977, 22.062818798172959 ], [ -159.593936461221091, 22.062978613573492 ], [ -159.594581374190767, 22.062047536433447 ], [ -159.594237788035485, 22.061686299211175 ], [ -159.593424669802857, 22.061859318431051 ], [ -159.593178681772258, 22.061529915735349 ], [ -159.592715478083051, 22.061420894901847 ] ], [ [ -159.587476399790802, 22.060084663391482 ], [ -159.587074522857989, 22.060522881543676 ], [ -159.586198164944022, 22.061232153082059 ], [ -159.587189779899205, 22.061566253995469 ], [ -159.587903141871834, 22.060424690881103 ], [ -159.587476399790802, 22.060084663391482 ] ] ] } },
{ "type": "Feature", "properties": { "ID": 25, "GRIDCODE": 2 }, "geometry": { "type": "Polygon", "coordinates": [ [ [ -159.573382964001752, 22.025985399263398 ], [ -159.574772044067061, 22.0261536623889 ], [ -159.575483254184149, 22.031592565901864 ], [ -159.574999023886022, 22.03210164618104 ], [ -159.573522889400408, 22.032024804969502 ], [ -159.573565362627079, 22.032649700374215 ], [ -159.571818769002448, 22.032558770395148 ], [ -159.572953560067589, 22.03373401047179 ], [ -159.573747959114172, 22.034390780757182 ], [ -159.573240377400424, 22.035432114213148 ], [ -159.571831347513637, 22.03496631677697 ], [ -159.571543629554725, 22.036433961891724 ], [ -159.570946934338252, 22.036691817221222 ], [ -159.570658228127201, 22.036995296022134 ], [ -159.569803468142027, 22.036950779474015 ], [ -159.569777723919231, 22.037381079976022 ], [ -159.569825840799439, 22.038089643159495 ], [ -159.568573124814975, 22.037280289819257 ], [ -159.568681485372196, 22.038875533569147 ], [ -159.566695825675168, 22.039313520651532 ], [ -159.566048341081824, 22.039994218491884 ], [ -159.564834502266251, 22.039930967230628 ], [ -159.564930157783607, 22.041339232244702 ], [ -159.564577978684753, 22.041320893993497 ], [ -159.564152087158504, 22.041346033506944 ], [ -159.562467400394183, 22.038896546308404 ], [ -159.559041946117389, 22.036064134591101 ], [ -159.559914540187293, 22.036187850284854 ], [ -159.560877825154591, 22.036506365320474 ], [ -159.560728420582706, 22.034305961258656 ], [ -159.561853977793959, 22.034239542010805 ], [ -159.562509776702228, 22.034568861958487 ], [ -159.562806936128709, 22.034551332158159 ], [ -159.563650748504472, 22.034595311143356 ], [ -159.563701810315393, 22.033743248324278 ], [ -159.563657345230439, 22.03308843179704 ], [ -159.56599372161628, 22.033860933091621 ], [ -159.565716668130847, 22.0331866235917 ], [ -159.565400415440024, 22.032648706423053 ], [ -159.566004189276128, 22.032387803087239 ], [ -159.566705650894363, 22.031351014576419 ], [ -159.567686387486674, 22.032366730336157 ], [ -159.568546695003675, 22.031656884820048 ], [ -159.567739973844681, 22.030284931742571 ], [ -159.568231519545861, 22.030127880336401 ], [ -159.569975474511381, 22.031003650257215 ], [ -159.570107144400794, 22.030636651510495 ], [ -159.569697800423029, 22.028882293196776 ], [ -159.570058669868757, 22.028579375542421 ], [ -159.570373250317971, 22.027616735827031 ], [ -159.57155369753076, 22.028209512046907 ], [ -159.572090183131991, 22.027759215446327 ], [ -159.572361213138663, 22.026929937975485 ], [ -159.572957865197878, 22.02667207812102 ], [ -159.573382964001752, 22.025985399263398 ] ] ] } },
{ "type": "Feature", "properties": { "ID": 26, "GRIDCODE": 2 }, "geometry": { "type": "Polygon", "coordinates": [ [ [ -159.563206032366821, 22.02520761624724 ], [ -159.563560803052667, 22.025299181411366 ], [ -159.56330683326442, 22.025537715891993 ], [ -159.563206032366821, 22.02520761624724 ] ] ] } },
{ "type": "Feature", "properties": { "ID": 27, "GRIDCODE": 2 }, "geometry": { "type": "Polygon", "coordinates": [ [ [ -159.548273099941611, 21.997071384342565 ], [ -159.54897633243047, 21.997241898612238 ], [ -159.54799042938123, 21.997719411964407 ], [ -159.548273099941611, 21.997071384342565 ] ] ] } },
{ "type": "Feature", "properties": { "ID": 28, "GRIDCODE": 2 }, "geometry": { "type": "Polygon", "coordinates": [ [ [ -159.545071105205068, 21.995726914923399 ], [ -159.545543535954351, 21.995864679764363 ], [ -159.545222428539859, 21.99884092079429 ], [ -159.545252815276427, 21.999495396484814 ], [ -159.547284906297051, 21.998709058398706 ], [ -159.547255728365172, 21.999463134651688 ], [ -159.546681881808581, 22.001007645563757 ], [ -159.546990332245315, 22.001546588846089 ], [ -159.546688972299791, 22.002357600963858 ], [ -159.546701963244971, 22.002636823706236 ], [ -159.546392312524262, 22.003470244525086 ], [ -159.546416525810173, 22.003993245871047 ], [ -159.546027423715429, 22.004684882513416 ], [ -159.54543783069596, 22.005071005052848 ], [ -159.543067551324782, 21.999453880358189 ], [ -159.544070353045981, 21.998581195430894 ], [ -159.544674642570016, 21.997701673021687 ], [ -159.545071105205068, 21.995726914923399 ] ] ] } },
{ "type": "Feature", "properties": { "ID": 29, "GRIDCODE": 2 }, "geometry": { "type": "Polygon", "coordinates": [ [ [ -159.563206032366821, 22.02520761624724 ], [ -159.562180250889867, 22.025344733330321 ], [ -159.562201604549756, 22.0261699814859 ], [ -159.559610164422338, 22.024545082247734 ], [ -159.55986088795612, 22.025357306331269 ], [ -159.560162066293088, 22.026168017502364 ], [ -159.559863147600481, 22.02643778313475 ], [ -159.560614462142382, 22.027785451485446 ], [ -159.560001351355567, 22.02779921043636 ], [ -159.557250098047348, 22.026721340542966 ], [ -159.556689400582428, 22.026181192725002 ], [ -159.556374530181813, 22.027001827460957 ], [ -159.557510990061218, 22.028012445812884 ], [ -159.55810569763841, 22.029079259807791 ], [ -159.556969995556301, 22.029427135506385 ], [ -159.556550132342153, 22.030241642742947 ], [ -159.555976165620848, 22.029286842459349 ], [ -159.553679557255123, 22.022371834910683 ], [ -159.550232479490489, 22.014543402746749 ], [ -159.546258528906719, 22.006555320447998 ], [ -159.548032481138023, 22.005210158676089 ], [ -159.548448482822494, 22.005610992072292 ], [ -159.54888717354217, 22.00560118688875 ], [ -159.549480482561933, 22.005610481551145 ], [ -159.548810918445298, 22.004409045246305 ], [ -159.550188569409983, 22.003165812859852 ], [ -159.550756010674604, 22.002065057428158 ], [ -159.551054425121833, 22.002352634148373 ], [ -159.552170023098228, 22.00126195804388 ], [ -159.552507303478649, 22.001526424108746 ], [ -159.552793327555207, 22.001802013185991 ], [ -159.553659545271273, 22.001782615000636 ], [ -159.553965371995275, 22.002077340641723 ], [ -159.554808026509761, 22.001253501499914 ], [ -159.555616913691097, 22.001235362220342 ], [ -159.554850800341086, 22.003347734344963 ], [ -159.556286151386843, 22.002324350646983 ], [ -159.556574534660029, 22.00260220776973 ], [ -159.557485210037811, 22.003154568942634 ], [ -159.558306643230225, 22.003946032121078 ], [ -159.558349101408595, 22.003427206519689 ], [ -159.557449169644229, 22.001812621503593 ], [ -159.558174519989251, 22.001769940171457 ], [ -159.559297100337375, 22.001787488047995 ], [ -159.558792321680386, 22.000428429591636 ], [ -159.559184594879554, 22.00041963202646 ], [ -159.560487329099203, 22.000439965286706 ], [ -159.55860125661934, 21.99914608253842 ], [ -159.559596420859805, 21.998739208855479 ], [ -159.561462620266667, 21.999327788227518 ], [ -159.560962505668698, 21.998778676848602 ], [ -159.559174837580343, 21.9971886389826 ], [ -159.56097121694026, 21.996880179431358 ], [ -159.562698526284379, 21.996907148765271 ], [ -159.561792692173157, 21.996101438568772 ], [ -159.561777964266156, 21.995532535891446 ], [ -159.562075031129552, 21.994989859752561 ], [ -159.560903082377905, 21.994727657303031 ], [ -159.560617199778846, 21.99445218093053 ], [ -159.560028969758548, 21.994188538591796 ], [ -159.560033926234468, 21.993914830520911 ], [ -159.560019960547748, 21.993375535394886 ], [ -159.561113450205056, 21.993860720795762 ], [ -159.564614608542286, 21.99626258075704 ], [ -159.566517574726959, 21.998304920611602 ], [ -159.569335033950154, 22.004713932730983 ], [ -159.573053079442275, 22.014720970209176 ], [ -159.574368880323391, 22.01890174446438 ], [ -159.574042800254546, 22.020046131250421 ], [ -159.572920653231449, 22.019342566742523 ], [ -159.572331664774197, 22.019628090936685 ], [ -159.571755827084303, 22.019619149952181 ], [ -159.571473632821409, 22.020440409870329 ], [ -159.570596114536272, 22.020163756206689 ], [ -159.570205156359805, 22.020922251283629 ], [ -159.567605404381879, 22.019097048400511 ], [ -159.566589082216581, 22.019441399790825 ], [ -159.567666797452148, 22.020399712848317 ], [ -159.568398981352061, 22.022065070998902 ], [ -159.566696110502107, 22.020997382448254 ], [ -159.56471617757785, 22.02127956134224 ], [ -159.566827157054348, 22.022828245343572 ], [ -159.566546249383663, 22.023981692173351 ], [ -159.565411840406426, 22.023441737343056 ], [ -159.56481263788541, 22.02343240620856 ], [ -159.564505248028354, 22.023709785649704 ], [ -159.564220075128247, 22.023988609908162 ], [ -159.563041205212755, 22.023616909583705 ], [ -159.563206032366821, 22.02520761624724 ] ] ] } },
{ "type": "Feature", "properties": { "ID": 30, "GRIDCODE": 2 }, "geometry": { "type": "Polygon", "coordinates": [ [ [ -159.540114196889164, 21.991406855359312 ], [ -159.540519182965369, 21.991707120240218 ], [ -159.540754569838754, 21.993422472595679 ], [ -159.540325759975502, 21.992940454301159 ], [ -159.540114196889164, 21.991406855359312 ] ] ] } },
{ "type": "Feature", "properties": { "ID": 31, "GRIDCODE": 2 }, "geometry": { "type": "Polygon", "coordinates": [ [ [ -159.540114196889164, 21.991406855359312 ], [ -159.539759524907652, 21.991315237030534 ], [ -159.540013475361008, 21.991076738481652 ], [ -159.540114196889164, 21.991406855359312 ] ] ] } },
{ "type": "Feature", "properties": { "ID": 32, "GRIDCODE": 2 }, "geometry": { "type": "Polygon", "coordinates": [ [ [ -159.533655959001777, 21.9740821289808 ], [ -159.534010584299978, 21.97417376163548 ], [ -159.533756653015956, 21.974412250979203 ], [ -159.533655959001777, 21.9740821289808 ] ] ] } },
{ "type": "Feature", "properties": { "ID": 33, "GRIDCODE": 2 }, "geometry": { "type": "Polygon", "coordinates": [ [ [ -159.533655959001777, 21.9740821289808 ], [ -159.532304608957617, 21.973763345622555 ], [ -159.531967820888383, 21.972384311154986 ], [ -159.534163290058558, 21.971851169597066 ], [ -159.535368925583072, 21.97111327616615 ], [ -159.535212918424065, 21.971773310655244 ], [ -159.535284172049671, 21.972065083398014 ], [ -159.5338409426883, 21.972574158158018 ], [ -159.533473285078344, 21.973398648130136 ], [ -159.533655959001777, 21.9740821289808 ] ] ] } },
{ "type": "Feature", "properties": { "ID": 34, "GRIDCODE": 2 }, "geometry": { "type": "Polygon", "coordinates": [ [ [ -159.529265219349298, 21.9654233951047 ], [ -159.529800981696894, 21.965549804425081 ], [ -159.529638947849946, 21.966235279416878 ], [ -159.529798210020459, 21.966887526473538 ], [ -159.529203842853946, 21.966568273531013 ], [ -159.529089602614732, 21.966100410619543 ], [ -159.529265219349298, 21.9654233951047 ] ] ] } },
{ "type": "Feature", "properties": { "ID": 35, "GRIDCODE": 2 }, "geometry": { "type": "Polygon", "coordinates": [ [ [ -159.400427545840643, 21.922964724939142 ], [ -159.402160452777196, 21.92343460891485 ], [ -159.402595408882746, 21.923920593291417 ], [ -159.403239037492398, 21.92441681764835 ], [ -159.40315219232383, 21.925233178335901 ], [ -159.404253309318023, 21.926854068988714 ], [ -159.403617410039629, 21.926916110888737 ], [ -159.401405046057306, 21.926042350983177 ], [ -159.400862665338821, 21.926095253964341 ], [ -159.400303633030347, 21.925798351869464 ], [ -159.399692550398896, 21.925552823464539 ], [ -159.399751427020277, 21.924999130342027 ], [ -159.399613967989183, 21.923772562403109 ], [ -159.399979530373827, 21.923359827950961 ], [ -159.400296125417697, 21.923113101571207 ], [ -159.400427545840643, 21.922964724939142 ] ] ] } }
]
}
