{
"type": "FeatureCollection",
"name": "stekane",
"crs": { "type": "name", "properties": { "name": "urn:ogc:def:crs:OGC:1.3:CRS84" } },
"features": [
{ "type": "Feature", "properties": { "ID": 1, "GRIDCODE": 1 }, "geometry": { "type": "Polygon", "coordinates": [ [ [ -157.99012569005265, 21.640123710785431 ], [ -157.991606380613376, 21.640305993350204 ], [ -157.990755196115913, 21.642416168547111 ], [ -157.990507234603569, 21.641536831328832 ], [ -157.990605083642208, 21.640838376737932 ], [ -157.99012569005265, 21.640123710785431 ] ] ] } },
{ "type": "Feature", "properties": { "ID": 2, "GRIDCODE": 1 }, "geometry": { "type": "Polygon", "coordinates": [ [ [ -157.982907464749019, 21.636014420455787 ], [ -157.983057001651076, 21.636145683428911 ], [ -157.98332816261231, 21.637241735163943 ], [ -157.983904373123465, 21.637747462520675 ], [ -157.9833877353567, 21.63831584822081 ], [ -157.982250045009948, 21.636596299237446 ], [ -157.982767070020657, 21.63615423097384 ], [ -157.982907464749019, 21.636014420455787 ] ] ] } },
{ "type": "Feature", "properties": { "ID": 3, "GRIDCODE": 1 }, "geometry": { "type": "Polygon", "coordinates": [ [ [ -157.991064933361599, 21.630101743174752 ], [ -157.991256977238294, 21.631123594523384 ], [ -157.99250774850853, 21.631037290046677 ], [ -157.992976104927777, 21.631075328836857 ], [ -157.992901168802945, 21.631881048771465 ], [ -157.994942554067819, 21.632184538267328 ], [ -157.99560815268967, 21.631842642482571 ], [ -157.995386121921598, 21.634232165753705 ], [ -157.995937695892025, 21.634682388308232 ], [ -157.99617666449663, 21.635678514753526 ], [ -157.994640751048507, 21.634646228579154 ], [ -157.994717375221057, 21.63382046957658 ], [ -157.99419567316545, 21.633247486364169 ], [ -157.993801247251241, 21.634059742233532 ], [ -157.99295023833966, 21.633990604856805 ], [ -157.992609576391686, 21.634355434060481 ], [ -157.991775771616147, 21.633438668786159 ], [ -157.990887062235572, 21.633499971245946 ], [ -157.990604871005473, 21.633189656843761 ], [ -157.990325195678679, 21.633820973513377 ], [ -157.990901663072123, 21.634291478107478 ], [ -157.991166880256486, 21.634743351621943 ], [ -157.99028513541154, 21.635104758124772 ], [ -157.990743116082854, 21.635884269024665 ], [ -157.991468206595187, 21.636192044503172 ], [ -157.992015696797381, 21.63773995810898 ], [ -157.991562419557823, 21.638360761496195 ], [ -157.988658931519865, 21.636822940881395 ], [ -157.988271412374246, 21.637369234687533 ], [ -157.990011543000548, 21.638789364973629 ], [ -157.989922809674567, 21.639744071434425 ], [ -157.989274061752667, 21.639691361898151 ], [ -157.988193971816912, 21.639119329896804 ], [ -157.988266335675519, 21.638341983503683 ], [ -157.987713365249448, 21.63789066882163 ], [ -157.986530516219915, 21.638498211734348 ], [ -157.987112292717114, 21.63753824275167 ], [ -157.987066512760833, 21.63695854387986 ], [ -157.986524012230547, 21.636995994836266 ], [ -157.986158904952021, 21.636966308718804 ], [ -157.985669115846775, 21.636427768587914 ], [ -157.98481287487769, 21.635728851163407 ], [ -157.986841646527466, 21.634557910222963 ], [ -157.989680241959462, 21.632188298441605 ], [ -157.990908382156732, 21.630226244733748 ], [ -157.991064933361599, 21.630101743174752 ] ] ] } },
{ "type": "Feature", "properties": { "ID": 4, "GRIDCODE": 1 }, "geometry": { "type": "Polygon", "coordinates": [ [ [ -157.991358543470483, 21.629561488274994 ], [ -157.991354781411417, 21.630103502211146 ], [ -157.991064933361599, 21.630101743174752 ], [ -157.991068696501316, 21.62955972928701 ], [ -157.991358543470483, 21.629561488274994 ] ] ] } },
{ "type": "Feature", "properties": { "ID": 5, "GRIDCODE": 1 }, "geometry": { "type": "Polygon", "coordinates": [ [ [ -157.991358543470483, 21.629561488274994 ], [ -157.991456406794896, 21.628960826140062 ], [ -157.991985674929168, 21.629479937478791 ], [ -157.991358543470483, 21.629561488274994 ] ] ] } },
{ "type": "Feature", "properties": { "ID": 6, "GRIDCODE": 1 }, "geometry": { "type": "Polygon", "coordinates": [ [ [ -157.992248755945127, 21.626585684118155 ], [ -157.99260149841831, 21.626680587621721 ], [ -157.99234567345033, 21.626916707761065 ], [ -157.992248755945127, 21.626585684118155 ] ] ] } },
{ "type": "Feature", "properties": { "ID": 7, "GRIDCODE": 1 }, "geometry": { "type": "Polygon", "coordinates": [ [ [ -157.99254423250261, 21.625774419261024 ], [ -157.992896973250822, 21.625869322077804 ], [ -157.992641150229389, 21.626105442768555 ], [ -157.99254423250261, 21.625774419261024 ] ] ] } },
{ "type": "Feature", "properties": { "ID": 8, "GRIDCODE": 1 }, "geometry": { "type": "Polygon", "coordinates": [ [ [ -157.997976056414331, 21.594640014974402 ], [ -157.998328726611618, 21.594734903837189 ], [ -157.998072969033473, 21.594971036211216 ], [ -157.997976056414331, 21.594640014974402 ] ] ] } },
{ "type": "Feature", "properties": { "ID": 9, "GRIDCODE": 1 }, "geometry": { "type": "Polygon", "coordinates": [ [ [ -157.997116056968849, 21.59327973606667 ], [ -157.998102038527691, 21.593522750022874 ], [ -157.99735496885296, 21.594174495540404 ], [ -157.997116056968849, 21.59327973606667 ] ] ] } },
{ "type": "Feature", "properties": { "ID": 10, "GRIDCODE": 1 }, "geometry": { "type": "Polygon", "coordinates": [ [ [ -157.993648122525883, 21.591903706957059 ], [ -157.996681112073929, 21.592127133124642 ], [ -157.996396375758536, 21.592893218057995 ], [ -157.995090771305172, 21.59281255743338 ], [ -157.994649994342723, 21.593695606323756 ], [ -157.994109012595459, 21.592574249304029 ], [ -157.9929268242837, 21.592633003420961 ], [ -157.993202499512876, 21.592299932640703 ], [ -157.993510453587078, 21.592045993660545 ], [ -157.993648122525883, 21.591903706957059 ] ] ] } },
{ "type": "Feature", "properties": { "ID": 11, "GRIDCODE": 1 }, "geometry": { "type": "Polygon", "coordinates": [ [ [ -157.993377085641299, 21.589191870712881 ], [ -157.993729739368263, 21.589286768754562 ], [ -157.99347398460614, 21.589522894295133 ], [ -157.993377085641299, 21.589191870712881 ] ] ] } },
{ "type": "Feature", "properties": { "ID": 12, "GRIDCODE": 1 }, "geometry": { "type": "Polygon", "coordinates": [ [ [ -157.992218018883364, 21.589184858258275 ], [ -157.992899181710754, 21.589326210548588 ], [ -157.992576232149162, 21.589805422431695 ], [ -157.992218018883364, 21.589184858258275 ] ] ] } },
{ "type": "Feature", "properties": { "ID": 13, "GRIDCODE": 1 }, "geometry": { "type": "Polygon", "coordinates": [ [ [ -157.994837143330699, 21.587574573293001 ], [ -157.994673558885466, 21.587925858528191 ], [ -157.994177916922155, 21.587679171915795 ], [ -157.994837143330699, 21.587574573293001 ] ] ] } },
{ "type": "Feature", "properties": { "ID": 14, "GRIDCODE": 1 }, "geometry": { "type": "Polygon", "coordinates": [ [ [ -157.993098561893959, 21.587564067580072 ], [ -157.994100744512707, 21.5881179219515 ], [ -157.991848301677834, 21.588652688880416 ], [ -157.992823089809463, 21.58784863951821 ], [ -157.993098561893959, 21.587564067580072 ] ] ] } },
{ "type": "Feature", "properties": { "ID": 15, "GRIDCODE": 1 }, "geometry": { "type": "Polygon", "coordinates": [ [ [ -157.994837143330699, 21.587574573293001 ], [ -157.99493860548165, 21.587244747952543 ], [ -157.995191074321014, 21.587483943658892 ], [ -157.994837143330699, 21.587574573293001 ] ] ] } },
{ "type": "Feature", "properties": { "ID": 16, "GRIDCODE": 1 }, "geometry": { "type": "Polygon", "coordinates": [ [ [ -157.996869223087515, 21.587044789396238 ], [ -157.997117856282614, 21.588519429499932 ], [ -157.995866440491369, 21.588095960629776 ], [ -157.996535503953794, 21.587282567574221 ], [ -157.996869223087515, 21.587044789396238 ] ] ] } },
{ "type": "Feature", "properties": { "ID": 17, "GRIDCODE": 1 }, "geometry": { "type": "Polygon", "coordinates": [ [ [ -157.996869223087515, 21.587044789396238 ], [ -157.996970680268191, 21.586714962603978 ], [ -157.997223151702002, 21.586954155337004 ], [ -157.996869223087515, 21.587044789396238 ] ] ] } },
{ "type": "Feature", "properties": { "ID": 18, "GRIDCODE": 1 }, "geometry": { "type": "Polygon", "coordinates": [ [ [ -157.987115285466814, 21.572892710624529 ], [ -157.987817407456305, 21.573406464179996 ], [ -157.987273655877374, 21.573800690365491 ], [ -157.987115285466814, 21.572892710624529 ] ] ] } },
{ "type": "Feature", "properties": { "ID": 19, "GRIDCODE": 1 }, "geometry": { "type": "Polygon", "coordinates": [ [ [ -157.987115285466814, 21.572892710624529 ], [ -157.986739736054943, 21.572739698305128 ], [ -157.987003559300661, 21.572276149048538 ], [ -157.987115285466814, 21.572892710624529 ] ] ] } },
{ "type": "Feature", "properties": { "ID": 20, "GRIDCODE": 1 }, "geometry": { "type": "Polygon", "coordinates": [ [ [ -157.990091478103892, 21.561527929199332 ], [ -157.990516779362963, 21.561683815224001 ], [ -157.990825978489397, 21.561649759197763 ], [ -157.991087529120875, 21.561816429831001 ], [ -157.990196515062905, 21.563213577048238 ], [ -157.990279918752719, 21.563876348859516 ], [ -157.991365388274914, 21.563756742069579 ], [ -157.991655393302807, 21.564412228233316 ], [ -157.992777910674477, 21.563804059974252 ], [ -157.993688576223491, 21.562754262221553 ], [ -157.994411724278109, 21.562246626106759 ], [ -157.994224239874313, 21.563585578047 ], [ -157.994309678634664, 21.564263645315229 ], [ -157.994223077162189, 21.564882116233463 ], [ -157.992601551562103, 21.564287866549265 ], [ -157.992143206410077, 21.566209366695194 ], [ -157.990724313719852, 21.565689306456637 ], [ -157.990198915153798, 21.565747195365134 ], [ -157.989102333255858, 21.565345264003579 ], [ -157.988782252893401, 21.5646217038637 ], [ -157.98790644982364, 21.564270200602689 ], [ -157.987608126050134, 21.565222781777756 ], [ -157.986839466195306, 21.565128585752326 ], [ -157.985880182946374, 21.565308083923018 ], [ -157.986485947301844, 21.5662864759821 ], [ -157.986392761047142, 21.56695174773612 ], [ -157.985582163150923, 21.566499393229346 ], [ -157.984925590488473, 21.566235887589617 ], [ -157.983798676033189, 21.562454191743075 ], [ -157.984310025417329, 21.562076187227632 ], [ -157.985159066265737, 21.56255002094705 ], [ -157.985886119021927, 21.562156121526947 ], [ -157.98645290082618, 21.562472473660041 ], [ -157.987043271669876, 21.562407448115458 ], [ -157.987442728998815, 21.563310541721634 ], [ -157.988051507754307, 21.563243507214306 ], [ -157.988775210431584, 21.563332131185696 ], [ -157.98905473294775, 21.562722708088629 ], [ -157.989358630465574, 21.562759950827761 ], [ -157.989864198192407, 21.562704193678805 ], [ -157.990091478103892, 21.561527929199332 ] ] ] } },
{ "type": "Feature", "properties": { "ID": 21, "GRIDCODE": 1 }, "geometry": { "type": "Polygon", "coordinates": [ [ [ -157.886958197129871, 21.560600003644435 ], [ -157.887310702608602, 21.560695121644844 ], [ -157.887054835448538, 21.560931079510386 ], [ -157.886958197129871, 21.560600003644435 ] ] ] } },
{ "type": "Feature", "properties": { "ID": 22, "GRIDCODE": 1 }, "geometry": { "type": "Polygon", "coordinates": [ [ [ -157.888135591823414, 21.558168737527339 ], [ -157.888295505232918, 21.558290291699386 ], [ -157.888832375347221, 21.559678981181605 ], [ -157.889207902823756, 21.559964474541832 ], [ -157.888536709847926, 21.560460012350607 ], [ -157.888178352684491, 21.560872612013945 ], [ -157.88766330256172, 21.560481180491031 ], [ -157.888005580784835, 21.558318396711744 ], [ -157.888135591823414, 21.558168737527339 ] ] ] } },
{ "type": "Feature", "properties": { "ID": 23, "GRIDCODE": 1 }, "geometry": { "type": "Polygon", "coordinates": [ [ [ -157.986637540253298, 21.55825471857543 ], [ -157.987013052912118, 21.55840772992218 ], [ -157.986749256766842, 21.558871280936177 ], [ -157.986637540253298, 21.55825471857543 ] ] ] } },
{ "type": "Feature", "properties": { "ID": 24, "GRIDCODE": 1 }, "geometry": { "type": "Polygon", "coordinates": [ [ [ -157.994756753152416, 21.557219803025255 ], [ -157.995422257818774, 21.557333653031836 ], [ -157.994911823167286, 21.557564873850687 ], [ -157.994756753152416, 21.557219803025255 ] ] ] } },
{ "type": "Feature", "properties": { "ID": 25, "GRIDCODE": 1 }, "geometry": { "type": "Polygon", "coordinates": [ [ [ -157.988093584641803, 21.557179483294806 ], [ -157.988446157891815, 21.557274389729077 ], [ -157.988190453421339, 21.557510509904819 ], [ -157.988093584641803, 21.557179483294806 ] ] ] } },
{ "type": "Feature", "properties": { "ID": 26, "GRIDCODE": 1 }, "geometry": { "type": "Polygon", "coordinates": [ [ [ -157.991577512943508, 21.556116515431185 ], [ -157.991476068078214, 21.55644634048355 ], [ -157.991223657089392, 21.556207140597333 ], [ -157.991577512943508, 21.556116515431185 ] ] ] } },
{ "type": "Feature", "properties": { "ID": 27, "GRIDCODE": 1 }, "geometry": { "type": "Polygon", "coordinates": [ [ [ -157.994210980960048, 21.552338133892999 ], [ -157.994624780154169, 21.552640963072449 ], [ -157.993939825706605, 21.552971239939126 ], [ -157.994210980960048, 21.552338133892999 ] ] ] } },
{ "type": "Feature", "properties": { "ID": 28, "GRIDCODE": 1 }, "geometry": { "type": "Polygon", "coordinates": [ [ [ -157.991577512943508, 21.556116515431185 ], [ -157.991446293366295, 21.555699133017654 ], [ -157.990557428549806, 21.555442846561274 ], [ -157.990271310436043, 21.555128076790911 ], [ -157.989556027470883, 21.555177470085592 ], [ -157.988553355392639, 21.55509595844849 ], [ -157.988842694246131, 21.555761833380611 ], [ -157.989969426381407, 21.556681837416118 ], [ -157.989527509508918, 21.556864162224318 ], [ -157.988794317077634, 21.556475681695726 ], [ -157.98801165945099, 21.556529688058117 ], [ -157.987654793437542, 21.556238304550604 ], [ -157.987387210935339, 21.555944022055129 ], [ -157.986798167253227, 21.555984708313545 ], [ -157.985583278829239, 21.555885942296637 ], [ -157.986619007119401, 21.557460865596994 ], [ -157.985119200671164, 21.556935239880907 ], [ -157.985035394517723, 21.557838439276935 ], [ -157.985073873922119, 21.558326126293668 ], [ -157.984305797049586, 21.559149064636745 ], [ -157.983606429093442, 21.55808910606267 ], [ -157.982840462191746, 21.558141998548621 ], [ -157.981658843128173, 21.552910896594312 ], [ -157.982328691299017, 21.552965340322721 ], [ -157.982771526779459, 21.552934761107885 ], [ -157.983515113820573, 21.553328822429375 ], [ -157.985032589376118, 21.552548893738795 ], [ -157.985357923594933, 21.553243114393641 ], [ -157.986804258733173, 21.553559787048329 ], [ -157.98624285853532, 21.554061559741061 ], [ -157.985080708267844, 21.55453823560034 ], [ -157.985350260052115, 21.5548737556893 ], [ -157.986512246219064, 21.554583866766048 ], [ -157.986972579466794, 21.554621270366976 ], [ -157.987519648483811, 21.553493930360087 ], [ -157.987974040422245, 21.553530898004823 ], [ -157.988263887243647, 21.553510822261931 ], [ -157.988742031213377, 21.553549718489212 ], [ -157.989699179662836, 21.552788446284932 ], [ -157.990000684572294, 21.55216711085405 ], [ -157.990313614415442, 21.551918100513436 ], [ -157.99081654543059, 21.55137910418723 ], [ -157.991204962815971, 21.551934811274656 ], [ -157.991090490192619, 21.553167011743962 ], [ -157.992023671966024, 21.554193616758578 ], [ -157.992907751720281, 21.553830938338873 ], [ -157.994032902068795, 21.553094806515006 ], [ -157.994101460362572, 21.553963598886344 ], [ -157.994025975793306, 21.554776206141501 ], [ -157.994068918047986, 21.55531850710258 ], [ -157.994006734112702, 21.555986883788222 ], [ -157.994347717279737, 21.556265255664393 ], [ -157.994023043909664, 21.556801301980556 ], [ -157.994049062272836, 21.557131037825375 ], [ -157.992861921794855, 21.55790775129876 ], [ -157.992547840934833, 21.556908912328542 ], [ -157.991577512943508, 21.556116515431185 ] ] ] } },
{ "type": "Feature", "properties": { "ID": 29, "GRIDCODE": 1 }, "geometry": { "type": "Polygon", "coordinates": [ [ [ -157.980625709197739, 21.547919292218587 ], [ -157.981067545511621, 21.548049893896327 ], [ -157.981338823480598, 21.548337790278229 ], [ -157.981678145827942, 21.548625109345412 ], [ -157.983931011437647, 21.548513268723774 ], [ -157.98307325965439, 21.548875200483721 ], [ -157.982507399404341, 21.549287211267163 ], [ -157.985115306933722, 21.549157737375324 ], [ -157.985385458105668, 21.549995667911137 ], [ -157.985966171507783, 21.549705021906274 ], [ -157.986535990102084, 21.549740313076732 ], [ -157.987416667876147, 21.54917265662624 ], [ -157.988834562672622, 21.548873055273713 ], [ -157.989155229888183, 21.549119487501713 ], [ -157.987994161731052, 21.549447183676865 ], [ -157.987379811194955, 21.54975470375151 ], [ -157.987451519590678, 21.551019858180172 ], [ -157.9870319258807, 21.551880525666217 ], [ -157.985967884190757, 21.551331155631605 ], [ -157.985665769872156, 21.551346190345402 ], [ -157.984804513381761, 21.551051136000517 ], [ -157.983850469386198, 21.551364844522961 ], [ -157.983257740676379, 21.551977510786667 ], [ -157.98235340849476, 21.551510609915983 ], [ -157.981897916059978, 21.552423117703313 ], [ -157.981392591269952, 21.551375054628657 ], [ -157.980625709197739, 21.547919292218587 ] ] ] } },
{ "type": "Feature", "properties": { "ID": 30, "GRIDCODE": 1 }, "geometry": { "type": "Polygon", "coordinates": [ [ [ -157.865361474945502, 21.54365157828067 ], [ -157.86525961697518, 21.543981314473136 ], [ -157.865007725529779, 21.543741934595687 ], [ -157.865361474945502, 21.54365157828067 ] ] ] } },
{ "type": "Feature", "properties": { "ID": 31, "GRIDCODE": 1 }, "geometry": { "type": "Polygon", "coordinates": [ [ [ -157.987026971173918, 21.543892994152564 ], [ -157.987379511906255, 21.543987901707556 ], [ -157.987123830032004, 21.544224021461169 ], [ -157.987026971173918, 21.543892994152564 ] ] ] } },
{ "type": "Feature", "properties": { "ID": 32, "GRIDCODE": 1 }, "geometry": { "type": "Polygon", "coordinates": [ [ [ -157.980659780521904, 21.543041133639935 ], [ -157.98139654405432, 21.543168640157354 ], [ -157.982309633337735, 21.543791951207556 ], [ -157.983128708810966, 21.5437188706215 ], [ -157.983814520393594, 21.544501706141059 ], [ -157.983265695644093, 21.544806170235304 ], [ -157.982079468691438, 21.544160883764413 ], [ -157.980715328781002, 21.544282569471036 ], [ -157.979653282449618, 21.543904281540307 ], [ -157.980394770977568, 21.543335611323052 ], [ -157.980659780521904, 21.543041133639935 ] ] ] } },
{ "type": "Feature", "properties": { "ID": 33, "GRIDCODE": 1 }, "geometry": { "type": "Polygon", "coordinates": [ [ [ -157.980409855635855, 21.53734817458847 ], [ -157.981089282327162, 21.537702019752441 ], [ -157.980544665519687, 21.537953766283916 ], [ -157.980409855635855, 21.53734817458847 ] ] ] } },
{ "type": "Feature", "properties": { "ID": 34, "GRIDCODE": 1 }, "geometry": { "type": "Polygon", "coordinates": [ [ [ -157.9824526034038, 21.53519248256044 ], [ -157.983117996586344, 21.535306377671443 ], [ -157.982607622731706, 21.535537563671596 ], [ -157.9824526034038, 21.53519248256044 ] ] ] } },
{ "type": "Feature", "properties": { "ID": 35, "GRIDCODE": 1 }, "geometry": { "type": "Polygon", "coordinates": [ [ [ -157.865361474945502, 21.54365157828067 ], [ -157.865230131777366, 21.542679709339819 ], [ -157.864676888854035, 21.543250522783126 ], [ -157.864343524783067, 21.543229660393457 ], [ -157.864067185527716, 21.543514869203442 ], [ -157.86375912390929, 21.543768565201951 ], [ -157.862493682544823, 21.545375096630387 ], [ -157.861543081592828, 21.545421607350068 ], [ -157.86029667136188, 21.544876030091256 ], [ -157.85997503593444, 21.542158015885423 ], [ -157.860615291805402, 21.541313822942143 ], [ -157.860032729700464, 21.540819690076315 ], [ -157.860420069778456, 21.536860364359729 ], [ -157.862258366427767, 21.535677572101932 ], [ -157.863024356610651, 21.535354946055666 ], [ -157.863726715109408, 21.534630127220371 ], [ -157.864917423936134, 21.534035203033678 ], [ -157.86671749090641, 21.534416048992185 ], [ -157.866742333332212, 21.534859922607485 ], [ -157.866429169268429, 21.535118023056548 ], [ -157.866993415268382, 21.536623876046562 ], [ -157.867279138885806, 21.538116455553578 ], [ -157.867584057354833, 21.538375049091371 ], [ -157.867564081429123, 21.538652807870292 ], [ -157.867579517044959, 21.538923925879359 ], [ -157.867539246538826, 21.539484006624619 ], [ -157.868415317460233, 21.54101870304326 ], [ -157.867386936139496, 21.542634955524807 ], [ -157.865361474945502, 21.54365157828067 ] ] ] } },
{ "type": "Feature", "properties": { "ID": 36, "GRIDCODE": 1 }, "geometry": { "type": "Polygon", "coordinates": [ [ [ -157.981316655301185, 21.531933299860327 ], [ -157.981418103328451, 21.531603480268068 ], [ -157.981670456835531, 21.531842693392804 ], [ -157.981316655301185, 21.531933299860327 ] ] ] } },
{ "type": "Feature", "properties": { "ID": 37, "GRIDCODE": 1 }, "geometry": { "type": "Polygon", "coordinates": [ [ [ -157.981316655301185, 21.531933299860327 ], [ -157.981129887983343, 21.53238930849491 ], [ -157.981184029100575, 21.532920697022774 ], [ -157.982068428822856, 21.532841798750582 ], [ -157.982604741918237, 21.533454007165126 ], [ -157.983190897952085, 21.533144676138086 ], [ -157.983466250085854, 21.533291128087701 ], [ -157.98228201592687, 21.534199463338634 ], [ -157.979402577271458, 21.534483792393722 ], [ -157.979138104633449, 21.534723684195598 ], [ -157.980667760218239, 21.53505090535543 ], [ -157.981132587498905, 21.535631119833603 ], [ -157.980557753624254, 21.535572755186205 ], [ -157.979995006638688, 21.535869713912795 ], [ -157.979551477982483, 21.535824720399404 ], [ -157.978849208332917, 21.535887317744365 ], [ -157.978545682934055, 21.533196890065007 ], [ -157.978465265870625, 21.531792860027764 ], [ -157.978836354251683, 21.532608193890944 ], [ -157.979222441790739, 21.532856566220918 ], [ -157.979707381570421, 21.532317491315204 ], [ -157.980025624240142, 21.532073427747605 ], [ -157.980297818069658, 21.531496525802559 ], [ -157.980869599738497, 21.53180756470644 ], [ -157.981316655301185, 21.531933299860327 ] ] ] } },
{ "type": "Feature", "properties": { "ID": 38, "GRIDCODE": 1 }, "geometry": { "type": "Polygon", "coordinates": [ [ [ -157.979614715692776, 21.526773503383627 ], [ -157.980072245328103, 21.526895732416328 ], [ -157.980005343435238, 21.527301457850609 ], [ -157.980311516714863, 21.528014825247297 ], [ -157.980967540620043, 21.52827066549057 ], [ -157.980045897061814, 21.529372937850631 ], [ -157.979315132924512, 21.52926729939589 ], [ -157.97885217365976, 21.529597089048799 ], [ -157.978538391021203, 21.529972453538434 ], [ -157.978203178988224, 21.52774976435639 ], [ -157.979487494607611, 21.526925703959929 ], [ -157.979614715692776, 21.526773503383627 ] ] ] } },
{ "type": "Feature", "properties": { "ID": 39, "GRIDCODE": 1 }, "geometry": { "type": "Polygon", "coordinates": [ [ [ -157.874602075667752, 21.509837439742181 ], [ -157.874703885170902, 21.509507694560124 ], [ -157.874955737006161, 21.509747058872293 ], [ -157.874602075667752, 21.509837439742181 ] ] ] } },
{ "type": "Feature", "properties": { "ID": 40, "GRIDCODE": 1 }, "geometry": { "type": "Polygon", "coordinates": [ [ [ -157.873156174704434, 21.509556673174394 ], [ -157.873541672137833, 21.509739244993135 ], [ -157.874602075667752, 21.509837439742181 ], [ -157.874156786119897, 21.511799954755325 ], [ -157.875726362421204, 21.514261771183737 ], [ -157.873158302225107, 21.515151520719527 ], [ -157.873862678717671, 21.51293363823569 ], [ -157.873853354866554, 21.512271521968501 ], [ -157.873865555118044, 21.511862634429374 ], [ -157.873290815031282, 21.510508845315591 ], [ -157.873156174704434, 21.509556673174394 ] ] ] } },
{ "type": "Feature", "properties": { "ID": 41, "GRIDCODE": 1 }, "geometry": { "type": "Polygon", "coordinates": [ [ [ -157.873156174704434, 21.509556673174394 ], [ -157.872803943139473, 21.509461531396269 ], [ -157.873059455126509, 21.509225589144631 ], [ -157.873156174704434, 21.509556673174394 ] ] ] } },
{ "type": "Feature", "properties": { "ID": 42, "GRIDCODE": 2 }, "geometry": { "type": "Polygon", "coordinates": [ [ [ -158.180990653441313, 21.515686967075535 ], [ -158.180636998166307, 21.515778002054915 ], [ -158.180889663637856, 21.516016924782821 ], [ -158.180990653441313, 21.515686967075535 ], [ -158.181347076035507, 21.516010831114194 ], [ -158.180583542252947, 21.518173955008702 ], [ -158.178791938943618, 21.522245456448491 ], [ -158.1787684737333, 21.523098801193413 ], [ -158.179883509590752, 21.525952636496609 ], [ -158.182260222274692, 21.529743730036973 ], [ -158.184310824258688, 21.531215462091598 ], [ -158.186127330964695, 21.531807158281453 ], [ -158.188286630049447, 21.532388394086041 ], [ -158.189148446604037, 21.532669043217318 ], [ -158.191284468357196, 21.533167282789194 ], [ -158.195303715195905, 21.53440907759822 ], [ -158.196358160082383, 21.535366745033958 ], [ -158.196945939552108, 21.537000734235246 ], [ -158.196537053436458, 21.540051851614603 ], [ -158.195296328628643, 21.541600997978168 ], [ -158.192638605823106, 21.542437709728596 ], [ -158.186300130522653, 21.542069636251821 ], [ -158.181666648345953, 21.540637811810015 ], [ -158.178778421171643, 21.539014497622297 ], [ -158.174918671334638, 21.536160602575102 ], [ -158.170897263427634, 21.533929071176839 ], [ -158.168279996940754, 21.53300429012441 ], [ -158.168299623383206, 21.532290019250656 ], [ -158.167375028495542, 21.531864567821792 ], [ -158.168028021488283, 21.530110223987876 ], [ -158.168019437926432, 21.529580955308059 ], [ -158.168041732918738, 21.528770685147208 ], [ -158.167733020638309, 21.529034751110604 ], [ -158.167425160873535, 21.529620538154067 ], [ -158.166285870590514, 21.530633797362679 ], [ -158.165724756345895, 21.531701155763919 ], [ -158.165115886137642, 21.532287814599197 ], [ -158.164822767980269, 21.531999303264378 ], [ -158.163532700699506, 21.532808183347015 ], [ -158.161645663901851, 21.532420022345224 ], [ -158.161626298472669, 21.531210475568713 ], [ -158.161930465927668, 21.530631894015212 ], [ -158.162626306734126, 21.530320287648948 ], [ -158.162159396528295, 21.528127726284019 ], [ -158.16253576380322, 21.527116623322129 ], [ -158.16251701564596, 21.525945986618982 ], [ -158.163710219205683, 21.525222515196891 ], [ -158.162547143484431, 21.524687258424255 ], [ -158.162082850139228, 21.523323683777797 ], [ -158.161233175589672, 21.525308080869731 ], [ -158.159931822758097, 21.526561803178542 ], [ -158.159634981630404, 21.526825913712543 ], [ -158.159346272523038, 21.527642978569556 ], [ -158.159047867901506, 21.52817811106809 ], [ -158.158760713398408, 21.528724151484813 ], [ -158.158315299999146, 21.529120312813074 ], [ -158.157612824520953, 21.529797057944741 ], [ -158.157556268942585, 21.5282484025022 ], [ -158.158184097704037, 21.527122848834313 ], [ -158.158196233533516, 21.526685859332517 ], [ -158.158189665726439, 21.526279279677652 ], [ -158.158197167556807, 21.526008286495369 ], [ -158.158184872419753, 21.525245618818133 ], [ -158.158490405341865, 21.524380866100209 ], [ -158.15893214090957, 21.523588990262954 ], [ -158.158365150303354, 21.522480303655207 ], [ -158.157926689979234, 21.521673137435602 ], [ -158.157511316511773, 21.520860991589402 ], [ -158.157050453493213, 21.520849864096245 ], [ -158.157067517212369, 21.521912768106702 ], [ -158.156769070831615, 21.522480386090244 ], [ -158.156472090569849, 21.522744622830242 ], [ -158.156476436264569, 21.523020837071584 ], [ -158.156179454357954, 21.523285073220681 ], [ -158.155818473640977, 21.524638402539814 ], [ -158.1553042082015, 21.524370195303259 ], [ -158.15410825104081, 21.52351154166859 ], [ -158.154148035715849, 21.525996281115194 ], [ -158.152983323980038, 21.525968140371777 ], [ -158.152409117796196, 21.527060398038454 ], [ -158.151817380542155, 21.526249725167361 ], [ -158.151536562563848, 21.525700810299529 ], [ -158.150405908688811, 21.524121478620572 ], [ -158.15010090685962, 21.523525259417799 ], [ -158.14980714582174, 21.523258158381712 ], [ -158.149524763399825, 21.522980263020642 ], [ -158.149231004511762, 21.522713161023873 ], [ -158.148814139464008, 21.521897943478251 ], [ -158.14861547491833, 21.522884842195314 ], [ -158.14894198547276, 21.523793626429239 ], [ -158.148642123635909, 21.524331114391362 ], [ -158.148650704369771, 21.524873153164066 ], [ -158.148345744261803, 21.525144281916745 ], [ -158.148920178945872, 21.526201756961061 ], [ -158.148927250410424, 21.526638843007241 ], [ -158.1489159717608, 21.527045331273385 ], [ -158.148920333051848, 21.527316384033586 ], [ -158.148905451107794, 21.527855788521666 ], [ -158.149205269458918, 21.528128348002166 ], [ -158.149190216875184, 21.5286729128463 ], [ -158.14920319185353, 21.52948071068375 ], [ -158.14845553317943, 21.530500671624626 ], [ -158.149472598842692, 21.530968715320167 ], [ -158.14651097249677, 21.530795843276124 ], [ -158.14444076761626, 21.530155571586253 ], [ -158.143110819906582, 21.528946712068215 ], [ -158.143138463173415, 21.527947430254173 ], [ -158.141961235181952, 21.528507195934196 ], [ -158.142250862048712, 21.52755055113229 ], [ -158.142966312737684, 21.525925597702162 ], [ -158.142332058647611, 21.52593451428028 ], [ -158.14191677172937, 21.524301897028835 ], [ -158.141689063737459, 21.52456633037912 ], [ -158.141213115119115, 21.526350126788294 ], [ -158.140538741102603, 21.526999681208093 ], [ -158.138207742558961, 21.525387483634503 ], [ -158.138230591439736, 21.524559027890191 ], [ -158.13743251248178, 21.523833591736054 ], [ -158.137940398227528, 21.522923540784966 ], [ -158.137478964618623, 21.522074055378617 ], [ -158.137945992199462, 21.520752615815066 ], [ -158.138285937366476, 21.520450322509198 ], [ -158.1379624304505, 21.51885297501596 ], [ -158.137183796102164, 21.519223206541231 ], [ -158.135979882113133, 21.518037574492464 ], [ -158.136216113210907, 21.519393947707218 ], [ -158.136806526481251, 21.52048118867911 ], [ -158.135918905806875, 21.521270298309414 ], [ -158.13562485667893, 21.522372217164936 ], [ -158.1353117733982, 21.522650690543252 ], [ -158.134733017285299, 21.523751264396648 ], [ -158.131859494893348, 21.522347247563001 ], [ -158.13098430059037, 21.52194428701732 ], [ -158.129625412842103, 21.521280276603203 ], [ -158.125461084039614, 21.520077319934636 ], [ -158.111294818033144, 21.519503115139539 ], [ -158.109611795934313, 21.517972785315518 ], [ -158.10904565707375, 21.516395534921376 ], [ -158.109014155912035, 21.51439408129529 ], [ -158.109680341007106, 21.513127716938715 ], [ -158.11100392935478, 21.512498553381768 ], [ -158.113668674727876, 21.511952532456235 ], [ -158.117688248627104, 21.511449100116085 ], [ -158.118852036418588, 21.510928406093889 ], [ -158.119727027401808, 21.510150503154907 ], [ -158.120347766432332, 21.509038424316604 ], [ -158.119919758203025, 21.500261052945657 ], [ -158.118911479829109, 21.494534333677532 ], [ -158.118157567281685, 21.488938773782831 ], [ -158.11646365932512, 21.481946036117971 ], [ -158.116405386848811, 21.478246654228819 ], [ -158.117043871797335, 21.477032309858945 ], [ -158.118951908895866, 21.475692980302377 ], [ -158.122961282175254, 21.475637436528555 ], [ -158.124894008846127, 21.476235746128928 ], [ -158.12547694728292, 21.476520679160149 ], [ -158.126278261366451, 21.476509583690003 ], [ -158.128074260922858, 21.477065455643064 ], [ -158.130380191232717, 21.477895985665246 ], [ -158.132633795723109, 21.478422626336645 ], [ -158.133827837341073, 21.478972534147822 ], [ -158.134787594350399, 21.480169949381054 ], [ -158.136657564474348, 21.48382907822629 ], [ -158.142522201181066, 21.489097997757593 ], [ -158.149409158937175, 21.492087547003354 ], [ -158.153703974594208, 21.493930350860889 ], [ -158.159693362114496, 21.497255646568451 ], [ -158.161962340834407, 21.497812020221055 ], [ -158.16357164680818, 21.497850854882316 ], [ -158.165830298345355, 21.497321142882008 ], [ -158.168066587687974, 21.497289548835198 ], [ -158.169919338331539, 21.497862467993915 ], [ -158.172240184613173, 21.500407900837939 ], [ -158.171942850999272, 21.50277101364636 ], [ -158.170836197124004, 21.505130307278382 ], [ -158.170464057299142, 21.50818445391371 ], [ -158.170168812591186, 21.508177296346307 ], [ -158.169876020844157, 21.50873451409247 ], [ -158.168436696664514, 21.508699892006472 ], [ -158.169287507649585, 21.510363404507569 ], [ -158.170886272986166, 21.510340846609068 ], [ -158.17131148521932, 21.511172133333964 ], [ -158.17212814121612, 21.510783531923618 ], [ -158.172751006121786, 21.512001367530655 ], [ -158.173628329285151, 21.511988904935055 ], [ -158.174682566574631, 21.512503826985046 ], [ -158.176460121669862, 21.513082923741099 ], [ -158.179376203462823, 21.513630546803789 ], [ -158.180824598750803, 21.51452936753671 ], [ -158.180990653441313, 21.515686967075535 ] ], [ [ -158.174310659483524, 21.518906446653194 ], [ -158.173022415818508, 21.51909791726667 ], [ -158.172427333909866, 21.519012586387593 ], [ -158.172128972849862, 21.519052330716786 ], [ -158.171278795036926, 21.518734731228786 ], [ -158.170503453143624, 21.518838009083865 ], [ -158.169831293893424, 21.518453992115035 ], [ -158.168973352832808, 21.518458589788708 ], [ -158.170765593915576, 21.519473748516162 ], [ -158.170651312899025, 21.520172397930622 ], [ -158.171972434566726, 21.519996394341433 ], [ -158.172811381662427, 21.520475654089516 ], [ -158.173827488404783, 21.520340274165275 ], [ -158.174144971684171, 21.519294706195517 ], [ -158.174310659483524, 21.518906446653194 ], [ -158.174664325852518, 21.518815425479072 ], [ -158.174411666229872, 21.518576493576884 ], [ -158.174310659483524, 21.518906446653194 ] ], [ [ -158.167366981123109, 21.517516795587657 ], [ -158.167460168837351, 21.518239305928507 ], [ -158.168908356659898, 21.518248772358035 ], [ -158.167366981123109, 21.517516795587657 ] ], [ [ -158.164481440677321, 21.515605156039246 ], [ -158.164882139696715, 21.516811849210892 ], [ -158.165776364434521, 21.516122727994922 ], [ -158.164481440677321, 21.515605156039246 ] ], [ [ -158.122777564313793, 21.514849163207444 ], [ -158.122932900947859, 21.515194126008293 ], [ -158.123442998079554, 21.514962499573564 ], [ -158.122777564313793, 21.514849163207444 ] ], [ [ -158.124516967682126, 21.51458726443407 ], [ -158.124614124787541, 21.514918223619805 ], [ -158.124869539808088, 21.514681882432367 ], [ -158.124516967682126, 21.51458726443407 ] ], [ [ -158.125097848943966, 21.514319279985344 ], [ -158.125195007223169, 21.514650238882044 ], [ -158.125450420853753, 21.51441389675055 ], [ -158.125097848943966, 21.514319279985344 ] ], [ [ -158.167468828461892, 21.499629187901881 ], [ -158.167303670369222, 21.499229756557831 ], [ -158.167350700702258, 21.498942085293191 ], [ -158.16683775984464, 21.497881800131786 ], [ -158.16589225951023, 21.500045340014495 ], [ -158.165560433831274, 21.500553919374806 ], [ -158.165575591858783, 21.500821917319595 ], [ -158.167015085722056, 21.49974497308558 ], [ -158.167468828461892, 21.499629187901881 ], [ -158.167566075065679, 21.49996012555917 ], [ -158.167821396096087, 21.499723715097758 ], [ -158.167468828461892, 21.499629187901881 ] ], [ [ -158.142176466493254, 21.516034092317987 ], [ -158.143195729984711, 21.515624112748721 ], [ -158.143881275988434, 21.516629569675086 ], [ -158.144334448781848, 21.517540997029872 ], [ -158.144923228644274, 21.517804722230842 ], [ -158.145388433550778, 21.518740228076318 ], [ -158.146058193487022, 21.518071240456074 ], [ -158.147894355306164, 21.51649652295729 ], [ -158.149363802280561, 21.515619262827318 ], [ -158.150727388184976, 21.515676825206029 ], [ -158.151588025170696, 21.515399450827861 ], [ -158.153373523826559, 21.51501103397813 ], [ -158.154203408649607, 21.515427411738209 ], [ -158.154557872527079, 21.514734358966621 ], [ -158.15585001227592, 21.51396287376097 ], [ -158.156244386079976, 21.514365591398803 ], [ -158.156958457706367, 21.513652183269382 ], [ -158.15926780870214, 21.51300934319849 ], [ -158.161154357759074, 21.514103355905938 ], [ -158.161487476574194, 21.514092655598059 ], [ -158.162025713517124, 21.513554949087769 ], [ -158.162333837817016, 21.51329062496313 ], [ -158.161957557960278, 21.512960865091856 ], [ -158.16064116812035, 21.512371428452237 ], [ -158.160311415587415, 21.511378083245251 ], [ -158.158804437184699, 21.509407239304299 ], [ -158.154382417915684, 21.506337520679274 ], [ -158.153828521342518, 21.504668956730935 ], [ -158.154418984139056, 21.503119338968865 ], [ -158.156028511564529, 21.502418404022499 ], [ -158.155092403278957, 21.50184600018812 ], [ -158.15427346672854, 21.501872227476984 ], [ -158.153587421128321, 21.501171785602953 ], [ -158.152573284917139, 21.499132252467234 ], [ -158.151930042497099, 21.497979485865827 ], [ -158.146540910498658, 21.49613819396836 ], [ -158.145040489101945, 21.495862137524757 ], [ -158.144011636775502, 21.495518741700771 ], [ -158.140153935037574, 21.492433685955731 ], [ -158.137365502587471, 21.490264960036566 ], [ -158.135009402694266, 21.487858562638046 ], [ -158.133869715411663, 21.485565438388697 ], [ -158.133127630488787, 21.484543967307555 ], [ -158.131725228724349, 21.484120414115203 ], [ -158.131069876382128, 21.484141292504756 ], [ -158.130635617159669, 21.484122955007241 ], [ -158.130341175266437, 21.484132341178672 ], [ -158.129349698168568, 21.483634612409091 ], [ -158.130017883473897, 21.484832652470992 ], [ -158.128806686698908, 21.486661293125636 ], [ -158.128303533019533, 21.48764472888589 ], [ -158.12770839556029, 21.487903787387079 ], [ -158.128010482828984, 21.488724808199446 ], [ -158.127423784220241, 21.489227810618527 ], [ -158.12727241255206, 21.489666915451224 ], [ -158.126918791646574, 21.489757837925261 ], [ -158.127171322955974, 21.489996838286249 ], [ -158.12727241255206, 21.489666915451224 ], [ -158.128214700309485, 21.489810922628752 ], [ -158.12854314670048, 21.490646968167233 ], [ -158.128884577023683, 21.490870151937308 ], [ -158.129537764898203, 21.491955296410104 ], [ -158.128941037415814, 21.492336300975548 ], [ -158.128583402547406, 21.492815422714756 ], [ -158.128189366247511, 21.49306692888543 ], [ -158.12917498749843, 21.493417937253788 ], [ -158.129712271403434, 21.49330818233409 ], [ -158.130227174004148, 21.493419050880089 ], [ -158.129848021124843, 21.49482992934399 ], [ -158.129185233347243, 21.495165462620626 ], [ -158.129697592962714, 21.495467152707402 ], [ -158.129848021124843, 21.49482992934399 ], [ -158.130906234031272, 21.494103800483945 ], [ -158.131728958293564, 21.495076337834735 ], [ -158.132304323869079, 21.494411543521245 ], [ -158.134004420098819, 21.4951089255437 ], [ -158.13480568609765, 21.496055994170863 ], [ -158.135502308295798, 21.496334932303164 ], [ -158.136034669656567, 21.496964180403179 ], [ -158.136405472941135, 21.498612067189516 ], [ -158.136003524429043, 21.500226710779028 ], [ -158.135159480389945, 21.500124014755613 ], [ -158.134884454885963, 21.501005425186253 ], [ -158.134292505070903, 21.500933409482755 ], [ -158.132944991114385, 21.501410119414839 ], [ -158.132262597781676, 21.501780764420204 ], [ -158.131986517114825, 21.501454305090565 ], [ -158.131415631496282, 21.501764385369754 ], [ -158.129917089566703, 21.502000354209159 ], [ -158.130252557003956, 21.502541382982049 ], [ -158.130505192855139, 21.503385830302808 ], [ -158.131460672250029, 21.504110064558986 ], [ -158.131060263081253, 21.504739503525396 ], [ -158.131975718665814, 21.504989620737884 ], [ -158.132803917596959, 21.506457063772086 ], [ -158.132212597055229, 21.506895144128791 ], [ -158.132618725600366, 21.50790051614106 ], [ -158.13168869185904, 21.509078131344936 ], [ -158.130453213098832, 21.509321624196257 ], [ -158.1309046831567, 21.510049655172509 ], [ -158.130073375367147, 21.512717711368573 ], [ -158.127639869978282, 21.513197115652467 ], [ -158.127128489719638, 21.5137878498794 ], [ -158.126838861539426, 21.513786335349106 ], [ -158.126837242748621, 21.51405735666259 ], [ -158.125968897120686, 21.514459158900756 ], [ -158.126729280970295, 21.514824092037195 ], [ -158.126837242748621, 21.51405735666259 ], [ -158.127126871465578, 21.514058871213809 ], [ -158.127128489719638, 21.5137878498794 ], [ -158.128156642438739, 21.513574929414787 ], [ -158.129024923347316, 21.513680634482519 ], [ -158.129287232206678, 21.513377557258288 ], [ -158.12983796178662, 21.51296958263724 ], [ -158.130281314476207, 21.513969793928869 ], [ -158.130886329171432, 21.514945105895155 ], [ -158.131655615470692, 21.515528157778121 ], [ -158.132167240949059, 21.516132893930223 ], [ -158.1328604786097, 21.516377485471807 ], [ -158.133457145326133, 21.515688054349035 ], [ -158.134183019371903, 21.515150355929293 ], [ -158.137282353199026, 21.514338422358584 ], [ -158.137866610163712, 21.515028875662384 ], [ -158.138550535446996, 21.514238702779824 ], [ -158.138947551290272, 21.513944576079989 ], [ -158.139445010670386, 21.514005105544072 ], [ -158.140428829648215, 21.513657026934013 ], [ -158.141887269987876, 21.514054863879288 ], [ -158.14249135087897, 21.514768893692036 ], [ -158.142176466493254, 21.516034092317987 ], [ -158.141822789258185, 21.516125044241253 ], [ -158.142075389669543, 21.516364023662462 ], [ -158.142176466493254, 21.516034092317987 ] ], [ [ -158.131673991635296, 21.479932731498188 ], [ -158.131511290003147, 21.480331220406164 ], [ -158.131553939006011, 21.480745201115528 ], [ -158.131502655232964, 21.481191116919859 ], [ -158.130681934975769, 21.481108505686045 ], [ -158.131529054119994, 21.482223236560742 ], [ -158.131788393792277, 21.482791658068273 ], [ -158.132079047766211, 21.483039186492171 ], [ -158.13238330767885, 21.480131549056061 ], [ -158.131673991635296, 21.479932731498188 ] ], [ [ -158.123577632016747, 21.477993263487217 ], [ -158.123480498556063, 21.477662303167286 ], [ -158.123225148316862, 21.477898645385807 ], [ -158.123577632016747, 21.477993263487217 ], [ -158.123413946534356, 21.479190670708231 ], [ -158.122449833520449, 21.479728136749817 ], [ -158.120673926130934, 21.479333168107981 ], [ -158.120518629687353, 21.478988203223487 ], [ -158.120008655909459, 21.479219825830565 ], [ -158.120673926130934, 21.479333168107981 ], [ -158.120798571211168, 21.480026420572802 ], [ -158.121696136611405, 21.48054315918835 ], [ -158.122370464938399, 21.481340405071396 ], [ -158.123202379110126, 21.480379224327894 ], [ -158.124888343208454, 21.480047087228105 ], [ -158.124819203776127, 21.479502744830246 ], [ -158.125488968340733, 21.479006470808791 ], [ -158.127321357645798, 21.479676750670873 ], [ -158.126758518557267, 21.478768941473735 ], [ -158.124283027600853, 21.478418526780839 ], [ -158.123577632016747, 21.477993263487217 ] ], [ [ -158.127911307725668, 21.479642112783875 ], [ -158.128269860173049, 21.480262404621694 ], [ -158.12859211816388, 21.479782899079094 ], [ -158.127911307725668, 21.479642112783875 ] ] ] } },
{ "type": "Feature", "properties": { "ID": 43, "GRIDCODE": 1 }, "geometry": { "type": "Polygon", "coordinates": [ [ [ -157.85661379309866, 21.439793498327646 ], [ -157.857324579226344, 21.440396888414629 ], [ -157.85640389948972, 21.440681797363531 ], [ -157.85661379309866, 21.439793498327646 ] ] ] } },
{ "type": "Feature", "properties": { "ID": 44, "GRIDCODE": 1 }, "geometry": { "type": "Polygon", "coordinates": [ [ [ -157.850320030600471, 21.430264859403017 ], [ -157.850961536330317, 21.430356865920476 ], [ -157.850406741301128, 21.430851221075052 ], [ -157.850320030600471, 21.430264859403017 ] ] ] } },
{ "type": "Feature", "properties": { "ID": 45, "GRIDCODE": 1 }, "geometry": { "type": "Polygon", "coordinates": [ [ [ -157.845725240751023, 21.425625994490932 ], [ -157.846699891219885, 21.426341079936257 ], [ -157.848073357638896, 21.428032997103031 ], [ -157.849874326233703, 21.429354400296656 ], [ -157.849615704354193, 21.429604451214129 ], [ -157.849167902269812, 21.429539377111862 ], [ -157.848718562003029, 21.42959841837407 ], [ -157.848431879304314, 21.429245305164113 ], [ -157.847526975303026, 21.429364133727663 ], [ -157.846476418677099, 21.428953157008571 ], [ -157.846404975769531, 21.428476337233914 ], [ -157.846489244332929, 21.427968301051113 ], [ -157.845834971050465, 21.427128979397455 ], [ -157.845883938830326, 21.426832761661146 ], [ -157.845369634396661, 21.426455247701835 ], [ -157.845725240751023, 21.425625994490932 ] ] ] } },
{ "type": "Feature", "properties": { "ID": 46, "GRIDCODE": 1 }, "geometry": { "type": "Polygon", "coordinates": [ [ [ -157.845725240751023, 21.425625994490932 ], [ -157.843315087148682, 21.426080798653246 ], [ -157.84295954600455, 21.425716151453308 ], [ -157.841382490544248, 21.425763740122211 ], [ -157.840960712765479, 21.424910393656553 ], [ -157.84066203825077, 21.424647633599946 ], [ -157.840109958561243, 21.424081138049459 ], [ -157.839509252003211, 21.42355221688295 ], [ -157.839836542422148, 21.42298294442454 ], [ -157.838346595475116, 21.423027866766475 ], [ -157.838381159708348, 21.422338725852331 ], [ -157.836637850951718, 21.421898072544955 ], [ -157.835183688583697, 21.422172413513159 ], [ -157.834621287384152, 21.421343217589044 ], [ -157.833732234433, 21.421072830890445 ], [ -157.833766455803612, 21.4203938787136 ], [ -157.83374461668302, 21.419762572475459 ], [ -157.834048353480142, 21.419171114483873 ], [ -157.834635309465995, 21.418150821321973 ], [ -157.834364126393922, 21.417276209409529 ], [ -157.833959663233969, 21.416920136404215 ], [ -157.834391847985671, 21.416169053224618 ], [ -157.833499288749806, 21.415383078932315 ], [ -157.833513385722171, 21.415102700715256 ], [ -157.832638755214191, 21.414018108925184 ], [ -157.832952289238563, 21.413473102650279 ], [ -157.830114868365513, 21.412945297179157 ], [ -157.828905463159344, 21.412201881610674 ], [ -157.829605585328324, 21.411735673525879 ], [ -157.833024729732813, 21.411149073672007 ], [ -157.835053986095375, 21.409941904872586 ], [ -157.835826855768033, 21.409172408078263 ], [ -157.834978196859879, 21.412835136848738 ], [ -157.835309744732228, 21.41768189712943 ], [ -157.836424163220016, 21.419936032612164 ], [ -157.840485825997462, 21.421332899176914 ], [ -157.844283389269293, 21.423938020766041 ], [ -157.845725240751023, 21.425625994490932 ] ] ] } },
{ "type": "Feature", "properties": { "ID": 47, "GRIDCODE": 1 }, "geometry": { "type": "Polygon", "coordinates": [ [ [ -157.828862851289557, 21.398678509249965 ], [ -157.830433766967758, 21.398939713903204 ], [ -157.830142335289338, 21.39944490731914 ], [ -157.829178816038393, 21.399067719419243 ], [ -157.828862851289557, 21.398678509249965 ] ] ] } },
{ "type": "Feature", "properties": { "ID": 48, "GRIDCODE": 1 }, "geometry": { "type": "Polygon", "coordinates": [ [ [ -157.821697991138251, 21.389955845445126 ], [ -157.821854965115904, 21.390079950201898 ], [ -157.822108310494968, 21.391261860686022 ], [ -157.821428445235568, 21.395099521789131 ], [ -157.820350658089438, 21.397418656451535 ], [ -157.821382998783008, 21.398478081933483 ], [ -157.826122149720902, 21.397967447986115 ], [ -157.828638248199269, 21.398421408156935 ], [ -157.828862851289557, 21.398678509249965 ], [ -157.826691967014256, 21.398806976932686 ], [ -157.826402157289067, 21.398788737955648 ], [ -157.82611265456174, 21.398802855649539 ], [ -157.825816913186856, 21.398784243303808 ], [ -157.824709754999986, 21.399337769093517 ], [ -157.824155838682714, 21.399302919636945 ], [ -157.82337433565948, 21.399632168743324 ], [ -157.822333638263444, 21.400954128782725 ], [ -157.821030542496374, 21.399365001814282 ], [ -157.819163728019646, 21.399247653082792 ], [ -157.818013912037571, 21.399303665182526 ], [ -157.818298036979854, 21.397919235120767 ], [ -157.819191979552244, 21.396855635907244 ], [ -157.819176177820083, 21.396571078800498 ], [ -157.819502197539094, 21.396302360201243 ], [ -157.819472072796998, 21.395760119600702 ], [ -157.819781589782536, 21.39550504660037 ], [ -157.819764313875396, 21.395192755703736 ], [ -157.820636816291852, 21.394473454720075 ], [ -157.82066989196403, 21.394013836256196 ], [ -157.820586668707335, 21.392515790407462 ], [ -157.821581188086412, 21.391696041954152 ], [ -157.82152512353079, 21.390686952475669 ], [ -157.821697991138251, 21.389955845445126 ] ] ] } },
{ "type": "Feature", "properties": { "ID": 49, "GRIDCODE": 1 }, "geometry": { "type": "Polygon", "coordinates": [ [ [ -157.821697991138251, 21.389955845445126 ], [ -157.821310424832063, 21.389761109339638 ], [ -157.821581376168183, 21.389062054154969 ], [ -157.821697991138251, 21.389955845445126 ] ] ] } },
{ "type": "Feature", "properties": { "ID": 50, "GRIDCODE": 1 }, "geometry": { "type": "Polygon", "coordinates": [ [ [ -157.821134480051285, 21.388054783354367 ], [ -157.821486385046768, 21.38815002062675 ], [ -157.821231015009687, 21.38838589322118 ], [ -157.821134480051285, 21.388054783354367 ] ] ] } },
{ "type": "Feature", "properties": { "ID": 51, "GRIDCODE": 1 }, "geometry": { "type": "Polygon", "coordinates": [ [ [ -157.82056663776001, 21.386695718331172 ], [ -157.820941527825397, 21.38684907937898 ], [ -157.820677554453709, 21.387312368341501 ], [ -157.82056663776001, 21.386695718331172 ] ] ] } },
{ "type": "Feature", "properties": { "ID": 52, "GRIDCODE": 1 }, "geometry": { "type": "Polygon", "coordinates": [ [ [ -157.81942228625644, 21.385061580543507 ], [ -157.819731095490994, 21.385314587699106 ], [ -157.82056663776001, 21.386695718331172 ], [ -157.820106939841622, 21.386581790171139 ], [ -157.819873284923233, 21.386259507600617 ], [ -157.819214946860058, 21.38582698123966 ], [ -157.81942228625644, 21.385061580543507 ] ] ] } },
{ "type": "Feature", "properties": { "ID": 53, "GRIDCODE": 1 }, "geometry": { "type": "Polygon", "coordinates": [ [ [ -157.818847944606063, 21.384515508297916 ], [ -157.819230769946131, 21.384700291323995 ], [ -157.81942228625644, 21.385061580543507 ], [ -157.818843594046768, 21.385057506777674 ], [ -157.818847944606063, 21.384515508297916 ] ] ] } },
{ "type": "Feature", "properties": { "ID": 54, "GRIDCODE": 2 }, "geometry": { "type": "Polygon", "coordinates": [ [ [ -158.102267336003536, 21.411477675399063 ], [ -158.102620779513728, 21.411386798195075 ], [ -158.102368419965472, 21.411147764618995 ], [ -158.102267336003536, 21.411477675399063 ], [ -158.101813824030671, 21.411593292439917 ], [ -158.100671836037606, 21.412230074104748 ], [ -158.100343939289274, 21.411102368503531 ], [ -158.099213775489858, 21.410801180470298 ], [ -158.098586917818039, 21.410031563700727 ], [ -158.099048434623484, 21.409324373992714 ], [ -158.098649889748913, 21.408358864746251 ], [ -158.098375854101391, 21.407416323628215 ], [ -158.098098553548141, 21.409954363002413 ], [ -158.098962890841477, 21.411313838876634 ], [ -158.098894477979343, 21.411730605475288 ], [ -158.099069022798346, 21.412881839661299 ], [ -158.098123220183652, 21.413557308430192 ], [ -158.097205124523725, 21.413425186546835 ], [ -158.096917382965728, 21.413770167167502 ], [ -158.096299765442069, 21.414002931275636 ], [ -158.096046168319873, 21.414241759639062 ], [ -158.097202030294, 21.414549857284729 ], [ -158.098028923887597, 21.415220044196463 ], [ -158.09723498922412, 21.415787144518269 ], [ -158.098004180977938, 21.416349759605627 ], [ -158.096534169054081, 21.416724499407668 ], [ -158.0977625825453, 21.41753422069257 ], [ -158.098008704921796, 21.418513336083059 ], [ -158.096496260919196, 21.419349380101277 ], [ -158.096603014406838, 21.420054067624434 ], [ -158.095679299011607, 21.420713692521598 ], [ -158.09453607955578, 21.421144634457946 ], [ -158.094384399528167, 21.42254753778175 ], [ -158.094094954202859, 21.422545972783727 ], [ -158.09409328253966, 21.42281699463458 ], [ -158.093166155385006, 21.422948684806645 ], [ -158.093406365034326, 21.423737072808684 ], [ -158.09409328253966, 21.42281699463458 ], [ -158.094382728398926, 21.422818559654296 ], [ -158.094384399528167, 21.42254753778175 ], [ -158.095981045933684, 21.42133380914089 ], [ -158.097438877526116, 21.420534002138446 ], [ -158.098141504156018, 21.419857098023286 ], [ -158.099471615552716, 21.41946081585046 ], [ -158.099780128839825, 21.419163585057269 ], [ -158.099763594771417, 21.418102397970557 ], [ -158.100108047992251, 21.416274918790393 ], [ -158.101714945356463, 21.414082137617307 ], [ -158.105029388152246, 21.41379893153356 ], [ -158.104990155683566, 21.415204963865683 ], [ -158.102133304883665, 21.421292123425435 ], [ -158.096529471765649, 21.425806066177746 ], [ -158.095463000231575, 21.428295699677619 ], [ -158.095061094998215, 21.430623625321545 ], [ -158.096755801902049, 21.433747642696019 ], [ -158.099949195224269, 21.435990850550361 ], [ -158.101700884175671, 21.437383666383909 ], [ -158.102422455453933, 21.438796751206475 ], [ -158.101792437001563, 21.443209863144041 ], [ -158.100593754161679, 21.448533848005983 ], [ -158.100148519224291, 21.450691360273005 ], [ -158.100722560617697, 21.45339389756229 ], [ -158.103473909064718, 21.458464674854092 ], [ -158.106615416760064, 21.464615461198104 ], [ -158.106997164129695, 21.466118422484914 ], [ -158.107606965098114, 21.466971095158005 ], [ -158.108205221379563, 21.468142177926644 ], [ -158.108109378822064, 21.471577450621414 ], [ -158.105694036932647, 21.472658396819075 ], [ -158.10314597093199, 21.47259611447668 ], [ -158.101242715073965, 21.471665412972413 ], [ -158.098003492660354, 21.468472901346548 ], [ -158.093588226287238, 21.463417646379469 ], [ -158.092395908780162, 21.461082814715887 ], [ -158.091339269264125, 21.45853187513347 ], [ -158.09015981088217, 21.453885869111144 ], [ -158.089729699502641, 21.450117764958062 ], [ -158.090729996395339, 21.445188817524375 ], [ -158.090651399949735, 21.440148726657089 ], [ -158.089520841333979, 21.436210924190782 ], [ -158.089180040100103, 21.434868675346198 ], [ -158.089343786396114, 21.429024945009964 ], [ -158.089261375058697, 21.423739402003019 ], [ -158.08933145682542, 21.421235396438231 ], [ -158.090583140342062, 21.417874823464484 ], [ -158.092295310595063, 21.408846452046092 ], [ -158.094769486338606, 21.401770401487717 ], [ -158.099142623865959, 21.391183478143432 ], [ -158.100677600094969, 21.387696947602709 ], [ -158.101744612565881, 21.38607011794981 ], [ -158.103601457496836, 21.385603956977445 ], [ -158.104962368843559, 21.386478647134744 ], [ -158.105417707847522, 21.392718861172899 ], [ -158.104713754046344, 21.395846732847602 ], [ -158.103552492901912, 21.399714052714565 ], [ -158.103046066795741, 21.402903911300211 ], [ -158.104181798563928, 21.409842671855614 ], [ -158.105015583174861, 21.412167241098558 ], [ -158.10527249629618, 21.41379480379846 ], [ -158.104719552623806, 21.413249787050262 ], [ -158.103557808851605, 21.412977970679947 ], [ -158.103275721518713, 21.412700003831048 ], [ -158.102113138408669, 21.41242797463206 ], [ -158.102267336003536, 21.411477675399063 ] ], [ [ -158.105674782569167, 21.469767549853614 ], [ -158.105771870855307, 21.470098519260635 ], [ -158.106027234115373, 21.469862203984817 ], [ -158.105674782569167, 21.469767549853614 ] ], [ [ -158.105105635436246, 21.468138324836897 ], [ -158.103892054189345, 21.466701375471452 ], [ -158.103481139432745, 21.465326157291805 ], [ -158.102961303458756, 21.466295068198185 ], [ -158.103648449803785, 21.467997255635527 ], [ -158.105105635436246, 21.468138324836897 ], [ -158.105103980226488, 21.468409346035429 ], [ -158.105393516927563, 21.468410895158293 ], [ -158.105548766961562, 21.468755872907263 ], [ -158.106058724784617, 21.46852429365568 ], [ -158.105393516927563, 21.468410895158293 ], [ -158.10539517160197, 21.468139873938323 ], [ -158.105105635436246, 21.468138324836897 ] ], [ [ -158.103388318017295, 21.46487676617409 ], [ -158.10348539828388, 21.465207736807006 ], [ -158.103740756255604, 21.464971424718208 ], [ -158.103388318017295, 21.46487676617409 ] ], [ [ -158.103105422773439, 21.463791129113766 ], [ -158.103217578316759, 21.464407635761944 ], [ -158.103480829863969, 21.463943875745013 ], [ -158.103105422773439, 21.463791129113766 ] ], [ [ -158.095348402495944, 21.453992280761298 ], [ -158.095445458195769, 21.454323255596414 ], [ -158.09570080897501, 21.454086955268192 ], [ -158.095348402495944, 21.453992280761298 ] ], [ [ -158.095365121484605, 21.45128207099274 ], [ -158.09548594877765, 21.452388415572035 ], [ -158.09604843733544, 21.452686504721555 ], [ -158.095694959381035, 21.451482295954207 ], [ -158.095365121484605, 21.45128207099274 ] ], [ [ -158.096603241932769, 21.438279303741293 ], [ -158.096448042679953, 21.437934318317851 ], [ -158.095938179160413, 21.438165872304481 ], [ -158.096603241932769, 21.438279303741293 ], [ -158.097026075831678, 21.439235352937711 ], [ -158.098014532113552, 21.440456679603074 ], [ -158.097606057899185, 21.440864663359982 ], [ -158.096532855568455, 21.441331788548592 ], [ -158.098151557298792, 21.442057728706502 ], [ -158.097194489340893, 21.443727850134351 ], [ -158.097580508272671, 21.44412244937223 ], [ -158.098393917699923, 21.443310035846064 ], [ -158.099619550178659, 21.443043683492078 ], [ -158.099604690136488, 21.442631962666226 ], [ -158.099630915135378, 21.442090042576268 ], [ -158.099616052208575, 21.441678784879173 ], [ -158.100214672966473, 21.440874205223174 ], [ -158.099910996854078, 21.440329188032859 ], [ -158.100525573350495, 21.439503121419257 ], [ -158.099150516688326, 21.439546744655278 ], [ -158.098473468412095, 21.439243153378122 ], [ -158.097334784688542, 21.438500484229465 ], [ -158.096603241932769, 21.438279303741293 ] ], [ [ -158.095159201632868, 21.437729444596243 ], [ -158.095256247615566, 21.438060419781571 ], [ -158.095511569324572, 21.437824118302711 ], [ -158.095159201632868, 21.437729444596243 ] ], [ [ -158.096778275790513, 21.409821993586448 ], [ -158.09725531684694, 21.410476997884533 ], [ -158.097763224247331, 21.410064385117767 ], [ -158.096778275790513, 21.409821993586448 ] ], [ [ -158.097681475743343, 21.404135195384228 ], [ -158.097951887032991, 21.403501883332144 ], [ -158.097267859300615, 21.403832623644071 ], [ -158.097681475743343, 21.404135195384228 ], [ -158.097793572800839, 21.404751707603435 ], [ -158.098056726625629, 21.404287949704361 ], [ -158.097681475743343, 21.404135195384228 ] ] ] } },
{ "type": "Feature", "properties": { "ID": 55, "GRIDCODE": 1 }, "geometry": { "type": "Polygon", "coordinates": [ [ [ -157.818847944606063, 21.384515508297916 ], [ -157.817907099653269, 21.38442716644083 ], [ -157.818082011523472, 21.383372262701229 ], [ -157.818778275405919, 21.384041933220342 ], [ -157.818847944606063, 21.384515508297916 ] ] ] } },
{ "type": "Feature", "properties": { "ID": 56, "GRIDCODE": 1 }, "geometry": { "type": "Polygon", "coordinates": [ [ [ -157.815121372732591, 21.380152997686299 ], [ -157.815799798954799, 21.380507472936312 ], [ -157.815255521984625, 21.380758698906753 ], [ -157.815121372732591, 21.380152997686299 ] ] ] } },
{ "type": "Feature", "properties": { "ID": 57, "GRIDCODE": 1 }, "geometry": { "type": "Polygon", "coordinates": [ [ [ -157.814836400943562, 21.379608956072477 ], [ -157.815188281252887, 21.379704205531471 ], [ -157.814932916996497, 21.37994006897916 ], [ -157.814836400943562, 21.379608956072477 ] ] ] } },
{ "type": "Feature", "properties": { "ID": 58, "GRIDCODE": 1 }, "geometry": { "type": "Polygon", "coordinates": [ [ [ -157.814549248618164, 21.379335913036044 ], [ -157.814838583008424, 21.379337957054684 ], [ -157.814836400943562, 21.379608956072477 ], [ -157.814547066020907, 21.379606912025434 ], [ -157.814549248618164, 21.379335913036044 ] ] ] } },
{ "type": "Feature", "properties": { "ID": 59, "GRIDCODE": 1 }, "geometry": { "type": "Polygon", "coordinates": [ [ [ -157.859708916893112, 21.376667713342421 ], [ -157.860060824173786, 21.376762869705171 ], [ -157.859805533654082, 21.376998805033953 ], [ -157.859708916893112, 21.376667713342421 ] ] ] } },
{ "type": "Feature", "properties": { "ID": 60, "GRIDCODE": 1 }, "geometry": { "type": "Polygon", "coordinates": [ [ [ -157.861166068284007, 21.375322519970272 ], [ -157.861064337032587, 21.375652264860431 ], [ -157.860812728037331, 21.375412887040813 ], [ -157.861166068284007, 21.375322519970272 ] ] ] } },
{ "type": "Feature", "properties": { "ID": 61, "GRIDCODE": 1 }, "geometry": { "type": "Polygon", "coordinates": [ [ [ -157.814549248618164, 21.379335913036044 ], [ -157.813216956880467, 21.379087901374604 ], [ -157.811726196193291, 21.377153916524382 ], [ -157.81069567278621, 21.376245771162004 ], [ -157.810181762427618, 21.374838425223391 ], [ -157.811829234522691, 21.376465862284562 ], [ -157.814549248618164, 21.379335913036044 ] ] ] } },
{ "type": "Feature", "properties": { "ID": 62, "GRIDCODE": 1 }, "geometry": { "type": "Polygon", "coordinates": [ [ [ -157.861166068284007, 21.375322519970272 ], [ -157.861836389037535, 21.374654683974789 ], [ -157.862436471471767, 21.375104251829924 ], [ -157.861166068284007, 21.375322519970272 ] ] ] } },
{ "type": "Feature", "properties": { "ID": 63, "GRIDCODE": 1 }, "geometry": { "type": "Polygon", "coordinates": [ [ [ -157.80938288034892, 21.374150062656248 ], [ -157.810061264614831, 21.374504559434111 ], [ -157.809517001577063, 21.374755767537778 ], [ -157.80938288034892, 21.374150062656248 ] ] ] } },
{ "type": "Feature", "properties": { "ID": 64, "GRIDCODE": 1 }, "geometry": { "type": "Polygon", "coordinates": [ [ [ -157.804205872279084, 21.370319058443528 ], [ -157.809233740088501, 21.374004035691996 ], [ -157.80856140096401, 21.374683812526701 ], [ -157.808089628422636, 21.373728803192591 ], [ -157.807505439088175, 21.373746355312434 ], [ -157.807226330683022, 21.373181038325864 ], [ -157.806638498901521, 21.372916167114074 ], [ -157.806073439853634, 21.372630812283077 ], [ -157.804827622535669, 21.372251550212031 ], [ -157.804321514660842, 21.371805628832121 ], [ -157.804360246816003, 21.371037326235061 ], [ -157.804205872279084, 21.370319058443528 ] ] ] } },
{ "type": "Feature", "properties": { "ID": 65, "GRIDCODE": 1 }, "geometry": { "type": "Polygon", "coordinates": [ [ [ -157.804205872279084, 21.370319058443528 ], [ -157.802785214889695, 21.370178915543701 ], [ -157.801723988944872, 21.36958438846505 ], [ -157.798286978955417, 21.369040152413852 ], [ -157.797995411801907, 21.369072007514838 ], [ -157.797706374835627, 21.369036193017191 ], [ -157.797403778079513, 21.369069291387081 ], [ -157.796745053042855, 21.368286796236362 ], [ -157.795706727335755, 21.367868131882499 ], [ -157.796016920255596, 21.367631367748359 ], [ -157.797495206474196, 21.367111185640368 ], [ -157.798021337973466, 21.367176289261618 ], [ -157.798683152380022, 21.36681824188889 ], [ -157.799604164438136, 21.366932217242631 ], [ -157.800788230554843, 21.366802857838724 ], [ -157.80280112991619, 21.36919442036876 ], [ -157.804078541363481, 21.370167624667264 ], [ -157.804205872279084, 21.370319058443528 ] ] ] } },
{ "type": "Feature", "properties": { "ID": 66, "GRIDCODE": 1 }, "geometry": { "type": "Polygon", "coordinates": [ [ [ -157.790964129703212, 21.362093800239169 ], [ -157.791066004744209, 21.361764104134419 ], [ -157.791317472694402, 21.362003580600145 ], [ -157.790964129703212, 21.362093800239169 ] ] ] } },
{ "type": "Feature", "properties": { "ID": 67, "GRIDCODE": 1 }, "geometry": { "type": "Polygon", "coordinates": [ [ [ -157.784059008143828, 21.357436714737744 ], [ -157.783888245055749, 21.359196862921777 ], [ -157.783925270460031, 21.359674380888613 ], [ -157.786370441873487, 21.360717766540169 ], [ -157.78808842139577, 21.362995939996878 ], [ -157.78896017917387, 21.363288858766058 ], [ -157.790964129703212, 21.362093800239169 ], [ -157.790763428753365, 21.363586235586208 ], [ -157.79107494752202, 21.36521885885573 ], [ -157.791461177000798, 21.366252297033171 ], [ -157.790210711275677, 21.366313027847916 ], [ -157.78916443964485, 21.364940362097986 ], [ -157.788243273736924, 21.364882238766715 ], [ -157.787225616829716, 21.365390912675291 ], [ -157.786506022204833, 21.363465994146889 ], [ -157.786465676062249, 21.362738877250791 ], [ -157.786502365367824, 21.362229273000928 ], [ -157.785009461489551, 21.361063693884006 ], [ -157.783927213285608, 21.361116267503025 ], [ -157.78358885516937, 21.360828578200088 ], [ -157.782848358158418, 21.360039881865784 ], [ -157.781610002645152, 21.35949661641104 ], [ -157.783639044076239, 21.358308377594117 ], [ -157.783597986970477, 21.357566434046515 ], [ -157.784059008143828, 21.357436714737744 ] ] ] } },
{ "type": "Feature", "properties": { "ID": 68, "GRIDCODE": 1 }, "geometry": { "type": "Polygon", "coordinates": [ [ [ -157.784059008143828, 21.357436714737744 ], [ -157.784198454687413, 21.356252837059866 ], [ -157.784440722344243, 21.357228411213889 ], [ -157.784059008143828, 21.357436714737744 ] ] ] } },
{ "type": "Feature", "properties": { "ID": 69, "GRIDCODE": 1 }, "geometry": { "type": "Polygon", "coordinates": [ [ [ -157.783787612692095, 21.355266646339071 ], [ -157.784162381774649, 21.355420084563061 ], [ -157.78389835739813, 21.355883314571948 ], [ -157.783787612692095, 21.355266646339071 ] ] ] } },
{ "type": "Feature", "properties": { "ID": 70, "GRIDCODE": 1 }, "geometry": { "type": "Polygon", "coordinates": [ [ [ -157.83820349394307, 21.351857686556787 ], [ -157.838909106434954, 21.352051999960612 ], [ -157.838396415996613, 21.352507781018691 ], [ -157.83820349394307, 21.351857686556787 ] ] ] } },
{ "type": "Feature", "properties": { "ID": 71, "GRIDCODE": 1 }, "geometry": { "type": "Polygon", "coordinates": [ [ [ -157.83820349394307, 21.351857686556787 ], [ -157.83750294989008, 21.351343359230587 ], [ -157.838046226701977, 21.350949591669014 ], [ -157.83820349394307, 21.351857686556787 ] ] ] } },
{ "type": "Feature", "properties": { "ID": 72, "GRIDCODE": 1 }, "geometry": { "type": "Polygon", "coordinates": [ [ [ -157.753042989416343, 21.330379173497164 ], [ -157.753560272901183, 21.330536909650526 ], [ -157.758154898413665, 21.332858439047488 ], [ -157.762342924393835, 21.333426193884257 ], [ -157.764075587032323, 21.334207980599004 ], [ -157.761544676887411, 21.334095329239855 ], [ -157.761110682096927, 21.334108208737568 ], [ -157.759903821436382, 21.334054514429191 ], [ -157.759222828957633, 21.33434941407905 ], [ -157.758898083313483, 21.334672746348581 ], [ -157.757487301921287, 21.33434691392204 ], [ -157.757055725971611, 21.333033193916339 ], [ -157.756066197341966, 21.332700010957698 ], [ -157.754610917060148, 21.332428544364703 ], [ -157.753763750680719, 21.33132789786097 ], [ -157.753465421072008, 21.331064996030292 ], [ -157.753042989416343, 21.330379173497164 ] ] ] } },
{ "type": "Feature", "properties": { "ID": 73, "GRIDCODE": 1 }, "geometry": { "type": "Polygon", "coordinates": [ [ [ -157.816700891810257, 21.327587166028181 ], [ -157.817411067321274, 21.327792977349556 ], [ -157.816593184203271, 21.328443390556181 ], [ -157.8159743292629, 21.329353712117129 ], [ -157.815238713539088, 21.330310516782841 ], [ -157.818277531870962, 21.330704885775294 ], [ -157.818561074108374, 21.331312629228684 ], [ -157.820329499316074, 21.331192055899251 ], [ -157.820256944407589, 21.331964101936578 ], [ -157.818617454279149, 21.333267438432379 ], [ -157.817712202206479, 21.332267920845684 ], [ -157.815885261836371, 21.331019211350352 ], [ -157.813250603555929, 21.329895261837411 ], [ -157.814345689066215, 21.329024702052642 ], [ -157.816354431096727, 21.327958366672263 ], [ -157.816700891810257, 21.327587166028181 ] ] ] } },
{ "type": "Feature", "properties": { "ID": 74, "GRIDCODE": 1 }, "geometry": { "type": "Polygon", "coordinates": [ [ [ -157.812943044859281, 21.327289657285576 ], [ -157.813576835164241, 21.327755242220086 ], [ -157.812447797021719, 21.329159980011347 ], [ -157.812549914533207, 21.329844063519797 ], [ -157.810919739497194, 21.329425553155517 ], [ -157.81134365715431, 21.327611171018301 ], [ -157.811716275985333, 21.328483093732071 ], [ -157.812407170594838, 21.328170974872375 ], [ -157.812943044859281, 21.327289657285576 ] ] ] } },
{ "type": "Feature", "properties": { "ID": 75, "GRIDCODE": 1 }, "geometry": { "type": "Polygon", "coordinates": [ [ [ -157.810924971317064, 21.326462348021682 ], [ -157.811630422094026, 21.326656769306869 ], [ -157.811117744128893, 21.327112468647499 ], [ -157.810924971317064, 21.326462348021682 ] ] ] } },
{ "type": "Feature", "properties": { "ID": 76, "GRIDCODE": 1 }, "geometry": { "type": "Polygon", "coordinates": [ [ [ -157.733183778400416, 21.318848256593807 ], [ -157.733861715323371, 21.319203042272321 ], [ -157.733317545370767, 21.319454008646115 ], [ -157.733183778400416, 21.318848256593807 ] ] ] } },
{ "type": "Feature", "properties": { "ID": 77, "GRIDCODE": 1 }, "geometry": { "type": "Polygon", "coordinates": [ [ [ -157.753042989416343, 21.330379173497164 ], [ -157.751229615277737, 21.330168738631578 ], [ -157.74919023464102, 21.330229267978638 ], [ -157.748411079723212, 21.329542037000301 ], [ -157.747782419804622, 21.32889601966826 ], [ -157.746128613209606, 21.328060337501036 ], [ -157.74428702564461, 21.327684934760928 ], [ -157.743955142928343, 21.328015263947464 ], [ -157.742801221898389, 21.327722791504868 ], [ -157.742204223404116, 21.327740490907498 ], [ -157.739345257235669, 21.326070781587433 ], [ -157.738906484130496, 21.326083767293298 ], [ -157.738328224091418, 21.326057991249336 ], [ -157.737590813879962, 21.326079847713306 ], [ -157.736458525867022, 21.325507486634287 ], [ -157.735581800627898, 21.325240206645454 ], [ -157.735016226073213, 21.324954223298942 ], [ -157.734722111996717, 21.324962927243149 ], [ -157.73428842138199, 21.324943584786617 ], [ -157.733849369494493, 21.324956555310024 ], [ -157.733384867165796, 21.324479185923902 ], [ -157.730749985903401, 21.324361457550758 ], [ -157.728409560902236, 21.324917153794953 ], [ -157.728065377014588, 21.324901780491292 ], [ -157.726425609124306, 21.325698954692971 ], [ -157.723475980631349, 21.325786086033375 ], [ -157.723053634085431, 21.322235277745317 ], [ -157.722165933272464, 21.320435082398987 ], [ -157.720825274000873, 21.318692772349095 ], [ -157.718015584666261, 21.317642851998283 ], [ -157.718341249700444, 21.316568112903227 ], [ -157.71918796701587, 21.316996228912647 ], [ -157.720089188314404, 21.316969611051469 ], [ -157.724230950769737, 21.317620182194769 ], [ -157.724654373904457, 21.319185139189354 ], [ -157.724922832718676, 21.320281534698637 ], [ -157.725829367152329, 21.320558026477396 ], [ -157.726488970047427, 21.321235981995564 ], [ -157.727164766769278, 21.320658851699228 ], [ -157.726570985127665, 21.319586593894588 ], [ -157.727097180385925, 21.319062982336668 ], [ -157.727856050549775, 21.318414821241724 ], [ -157.727203764890618, 21.317511173281098 ], [ -157.729371995446002, 21.315979054676387 ], [ -157.731782239312651, 21.316452128707628 ], [ -157.73216935215865, 21.318439257233983 ], [ -157.732466551490347, 21.319254064843644 ], [ -157.730294824751496, 21.319515439762139 ], [ -157.728971847555812, 21.320301867361522 ], [ -157.72763591808544, 21.321245855807213 ], [ -157.724350553877002, 21.321952940238365 ], [ -157.724301572082936, 21.322914400494327 ], [ -157.724858139252063, 21.324043417254032 ], [ -157.725470092290522, 21.324352810649973 ], [ -157.728305115093804, 21.323598367711579 ], [ -157.732273949514223, 21.323197939499927 ], [ -157.736257684836602, 21.323892354563885 ], [ -157.74422921198763, 21.326811062165671 ], [ -157.752266394958781, 21.329654066156372 ], [ -157.752767151188749, 21.330095793935872 ], [ -157.753042989416343, 21.330379173497164 ] ] ] } },
{ "type": "Feature", "properties": { "ID": 78, "GRIDCODE": 1 }, "geometry": { "type": "Polygon", "coordinates": [ [ [ -157.745371944100725, 21.314061430541855 ], [ -157.745736480534617, 21.314371551352153 ], [ -157.745814295417489, 21.315784619074844 ], [ -157.744307130180374, 21.315857534598806 ], [ -157.745371944100725, 21.314061430541855 ] ] ] } },
{ "type": "Feature", "properties": { "ID": 79, "GRIDCODE": 1 }, "geometry": { "type": "Polygon", "coordinates": [ [ [ -157.737563588421807, 21.314003003301554 ], [ -157.738001919904008, 21.314136637289952 ], [ -157.738649860029057, 21.314464183128184 ], [ -157.739172866599745, 21.31500172323954 ], [ -157.739090376697561, 21.316624588782137 ], [ -157.740005072808174, 21.316044827652302 ], [ -157.740573385603085, 21.316503834799747 ], [ -157.738711788341192, 21.317167079448897 ], [ -157.734454561799765, 21.319237279062683 ], [ -157.734504496409414, 21.318255507228152 ], [ -157.735664542217449, 21.317920904533 ], [ -157.735357582927776, 21.317650232652429 ], [ -157.735027767200961, 21.317311238747649 ], [ -157.73509565228855, 21.315980847475299 ], [ -157.736013520659384, 21.315196683532573 ], [ -157.736629004654503, 21.315224201012793 ], [ -157.737563588421807, 21.314003003301554 ] ] ] } },
{ "type": "Feature", "properties": { "ID": 80, "GRIDCODE": 1 }, "geometry": { "type": "Polygon", "coordinates": [ [ [ -157.766777283801588, 21.313677714634274 ], [ -157.767182337095136, 21.313944220268276 ], [ -157.766821536766486, 21.314601772257603 ], [ -157.766590189006621, 21.314368431307241 ], [ -157.766777283801588, 21.313677714634274 ] ] ] } },
{ "type": "Feature", "properties": { "ID": 81, "GRIDCODE": 1 }, "geometry": { "type": "Polygon", "coordinates": [ [ [ -157.750584407034637, 21.313287196820301 ], [ -157.751107899222603, 21.313671996365361 ], [ -157.75132092001445, 21.315101020993616 ], [ -157.749283956936694, 21.315367615770093 ], [ -157.749538808274963, 21.315023534374259 ], [ -157.7502372398246, 21.314761816328485 ], [ -157.750457153630293, 21.313439224893486 ], [ -157.750584407034637, 21.313287196820301 ] ] ] } },
{ "type": "Feature", "properties": { "ID": 82, "GRIDCODE": 1 }, "geometry": { "type": "Polygon", "coordinates": [ [ [ -157.743354470560774, 21.313233335836589 ], [ -157.744057260561249, 21.31342239098738 ], [ -157.74377942666581, 21.314541413042317 ], [ -157.742980717692518, 21.316329702728201 ], [ -157.742460615505451, 21.316012722735497 ], [ -157.742894110747642, 21.314160967057511 ], [ -157.743224904013061, 21.313656351962756 ], [ -157.743354470560774, 21.313233335836589 ] ] ] } },
{ "type": "Feature", "properties": { "ID": 83, "GRIDCODE": 1 }, "geometry": { "type": "Polygon", "coordinates": [ [ [ -157.772592828224191, 21.309926066229011 ], [ -157.773003239369842, 21.310227730879724 ], [ -157.773307437052409, 21.310939904219207 ], [ -157.77450371983258, 21.310783144060675 ], [ -157.774402358887386, 21.311391855269964 ], [ -157.773282689511859, 21.311675218309013 ], [ -157.773016973791101, 21.31333429608852 ], [ -157.772150816694477, 21.314411234630025 ], [ -157.770693463429069, 21.314507710899182 ], [ -157.771855665147058, 21.31386784711718 ], [ -157.772178023892792, 21.313482802452189 ], [ -157.772086526806589, 21.312869707922474 ], [ -157.77245433913788, 21.311433097206347 ], [ -157.772592828224191, 21.309926066229011 ] ] ] } },
{ "type": "Feature", "properties": { "ID": 84, "GRIDCODE": 1 }, "geometry": { "type": "Polygon", "coordinates": [ [ [ -157.763060799862927, 21.308501182781971 ], [ -157.763755826147644, 21.308673822056587 ], [ -157.763293672717367, 21.309697640431921 ], [ -157.762873990966114, 21.309190375580208 ], [ -157.763060799862927, 21.308501182781971 ] ] ] } },
{ "type": "Feature", "properties": { "ID": 85, "GRIDCODE": 1 }, "geometry": { "type": "Polygon", "coordinates": [ [ [ -157.761038744095231, 21.308215290437282 ], [ -157.761776804671285, 21.308341211211673 ], [ -157.762122780216544, 21.310296027940371 ], [ -157.763193048680449, 21.310179245121514 ], [ -157.763453437849535, 21.311496656312446 ], [ -157.762382596548548, 21.312287394821411 ], [ -157.761350520229087, 21.313640815323264 ], [ -157.760588295403153, 21.314203625103257 ], [ -157.759201251475758, 21.314739194308157 ], [ -157.758549316919186, 21.313839235781668 ], [ -157.759681333730413, 21.313402031415926 ], [ -157.760676090652822, 21.312256634650542 ], [ -157.760560222109973, 21.311322521320189 ], [ -157.760921515667548, 21.31017066694163 ], [ -157.760846637788035, 21.309568607736061 ], [ -157.761038744095231, 21.308215290437282 ] ] ] } }
]
}
