{
"type": "FeatureCollection",
"name": "violana",
"crs": { "type": "name", "properties": { "name": "urn:ogc:def:crs:OGC:1.3:CRS84" } },
"features": [
{ "type": "Feature", "properties": { "ID": 1, "GRIDCODE": 2 }, "geometry": { "type": "Polygon", "coordinates": [ [ [ -156.881591827221172, 20.826397665220661 ], [ -156.88196423160764, 20.826552950918163 ], [ -156.88169858061562, 20.827014675731217 ], [ -156.881591827221172, 20.826397665220661 ] ] ] } },
{ "type": "Feature", "properties": { "ID": 2, "GRIDCODE": 2 }, "geometry": { "type": "Polygon", "coordinates": [ [ [ -156.881591827221172, 20.826397665220661 ], [ -156.881241967299729, 20.826300601789839 ], [ -156.881497684507508, 20.826066166114437 ], [ -156.881591827221172, 20.826397665220661 ] ] ] } },
{ "type": "Feature", "properties": { "ID": 3, "GRIDCODE": 2 }, "geometry": { "type": "Polygon", "coordinates": [ [ [ -156.88995514199155, 20.825958996162655 ], [ -156.891213173308188, 20.826096062409562 ], [ -156.890914577136812, 20.826884427389675 ], [ -156.890098913246391, 20.826587837058071 ], [ -156.88995514199155, 20.825958996162655 ] ] ] } },
{ "type": "Feature", "properties": { "ID": 4, "GRIDCODE": 2 }, "geometry": { "type": "Polygon", "coordinates": [ [ [ -156.872386953338179, 20.825199866401501 ], [ -156.872742153390021, 20.825436978824243 ], [ -156.873018598234296, 20.826672977562616 ], [ -156.872190674002724, 20.825910086926545 ], [ -156.872386953338179, 20.825199866401501 ] ] ] } },
{ "type": "Feature", "properties": { "ID": 5, "GRIDCODE": 2 }, "geometry": { "type": "Polygon", "coordinates": [ [ [ -156.888537154164453, 20.824315907822662 ], [ -156.888887015745013, 20.824412956374569 ], [ -156.888631311956232, 20.824647404348926 ], [ -156.888537154164453, 20.824315907822662 ] ] ] } },
{ "type": "Feature", "properties": { "ID": 6, "GRIDCODE": 2 }, "geometry": { "type": "Polygon", "coordinates": [ [ [ -156.892896740490755, 20.821660203542283 ], [ -156.893631689729375, 20.821789758529505 ], [ -156.894933629914817, 20.823361927559127 ], [ -156.895102079826415, 20.824788138273878 ], [ -156.894474678300583, 20.824391089469351 ], [ -156.893515085727046, 20.823233500380496 ], [ -156.892401109517465, 20.822372065412097 ], [ -156.892896740490755, 20.821660203542283 ] ] ] } },
{ "type": "Feature", "properties": { "ID": 7, "GRIDCODE": 2 }, "geometry": { "type": "Polygon", "coordinates": [ [ [ -156.888537154164453, 20.824315907822662 ], [ -156.886337328045101, 20.822558126769575 ], [ -156.884667561459167, 20.822243831627969 ], [ -156.882489391245144, 20.820613274725876 ], [ -156.881586917081108, 20.820551452777693 ], [ -156.88269451734763, 20.822084789748384 ], [ -156.882642316077664, 20.822759103094441 ], [ -156.882940221726642, 20.823290897229043 ], [ -156.883204239441227, 20.823851376767223 ], [ -156.884652593306924, 20.824867149522177 ], [ -156.88460312989983, 20.825507101475445 ], [ -156.885760755475445, 20.8265056504729 ], [ -156.88509912442791, 20.826707168919135 ], [ -156.882625589342297, 20.82518356019883 ], [ -156.882036589725203, 20.824920690654853 ], [ -156.881275588765845, 20.824098475226837 ], [ -156.880467689834518, 20.824395931746977 ], [ -156.881162053750359, 20.825636033067827 ], [ -156.880672825272654, 20.825785029315295 ], [ -156.879451041412977, 20.824346839885013 ], [ -156.87919435328169, 20.823243781769929 ], [ -156.878891643825852, 20.823256968323758 ], [ -156.878047991244955, 20.822812206275664 ], [ -156.87829854315072, 20.824332572641627 ], [ -156.879132913954862, 20.825822595548747 ], [ -156.87916825520395, 20.826534370450954 ], [ -156.878292307995736, 20.825942760714454 ], [ -156.877651575468946, 20.825656746052605 ], [ -156.877135940416792, 20.825099492027981 ], [ -156.876272010280815, 20.825137204851149 ], [ -156.876008041587994, 20.822407649927289 ], [ -156.875724637138859, 20.822930660774709 ], [ -156.875353506613635, 20.824009798867738 ], [ -156.875139764596184, 20.82347850796085 ], [ -156.875187538414082, 20.822861427144016 ], [ -156.874899395547402, 20.821294819134362 ], [ -156.874310426411085, 20.821031925357207 ], [ -156.874046446866288, 20.820471435189578 ], [ -156.873505646888276, 20.82000500944724 ], [ -156.872912999762093, 20.819102697003384 ], [ -156.872237350667803, 20.818801017760507 ], [ -156.871474927711688, 20.817745515537105 ], [ -156.870870636601722, 20.815570533886163 ], [ -156.870490293489922, 20.815982926193133 ], [ -156.870898706550719, 20.817738358233537 ], [ -156.871752935300094, 20.819630163717751 ], [ -156.872013099620887, 20.820461543868134 ], [ -156.872659184698222, 20.822227597418269 ], [ -156.87217441050845, 20.825325021221289 ], [ -156.871948401498884, 20.825066625787304 ], [ -156.871676498068069, 20.824489497380139 ], [ -156.871073328255136, 20.824515738518869 ], [ -156.871153724137855, 20.823481022299681 ], [ -156.870570203676351, 20.822850543471869 ], [ -156.869527045264192, 20.823367009516815 ], [ -156.870555678812707, 20.821641742163173 ], [ -156.869986369525719, 20.821502242203707 ], [ -156.86940429212558, 20.821790414178757 ], [ -156.869133763761113, 20.821216607087806 ], [ -156.868555086741395, 20.821503098629492 ], [ -156.868260730830713, 20.821482900589572 ], [ -156.867452015681096, 20.821518082090616 ], [ -156.868005446331068, 20.820126245469734 ], [ -156.865924812549821, 20.819838145545585 ], [ -156.867428536396829, 20.818608160822979 ], [ -156.866864328626122, 20.817927508660603 ], [ -156.86600494754407, 20.817964964516509 ], [ -156.865622689263915, 20.817153620921516 ], [ -156.864374930518835, 20.818431891248931 ], [ -156.863867819026694, 20.817355198760371 ], [ -156.862851320386483, 20.817399544168598 ], [ -156.863827159721012, 20.816287097517147 ], [ -156.865431335020617, 20.815355772589449 ], [ -156.865485339481097, 20.814658340835877 ], [ -156.864617531244676, 20.814696083015821 ], [ -156.864276325801711, 20.814327235698801 ], [ -156.862552537906481, 20.814402321931784 ], [ -156.862618217526119, 20.813556341664558 ], [ -156.861758337389233, 20.813172290487021 ], [ -156.862061358957675, 20.81269664499327 ], [ -156.864070368619736, 20.811530136902977 ], [ -156.863672857598885, 20.811343414643019 ], [ -156.861359222650918, 20.81144408037521 ], [ -156.862737916144766, 20.810316421682362 ], [ -156.860886214113663, 20.809489125861298 ], [ -156.862089190655837, 20.808988061356807 ], [ -156.861825687156625, 20.808398326017624 ], [ -156.860941138263001, 20.808129455853305 ], [ -156.861456156938658, 20.807266194784749 ], [ -156.85915666403659, 20.807366217933126 ], [ -156.860428289316985, 20.80594778479837 ], [ -156.859540085020313, 20.805400918250644 ], [ -156.859972396139426, 20.80467566742854 ], [ -156.859246831134669, 20.804049602556439 ], [ -156.86055215501014, 20.803291722290577 ], [ -156.858905215064652, 20.802277656831901 ], [ -156.859770107044596, 20.801145585111144 ], [ -156.858690851809769, 20.800481105841335 ], [ -156.8590546935269, 20.799422949259679 ], [ -156.859632023017042, 20.797970712779801 ], [ -156.858829820989456, 20.796537109403413 ], [ -156.858783466990843, 20.795595275288555 ], [ -156.86037683274327, 20.794577989515872 ], [ -156.861440532138829, 20.794846841576391 ], [ -156.862097836890399, 20.796520854735924 ], [ -156.862838874619257, 20.797844542131571 ], [ -156.863272439062769, 20.798765007383409 ], [ -156.864085600779902, 20.799644029768039 ], [ -156.865349092872833, 20.800734236549872 ], [ -156.865382405084546, 20.801406033416058 ], [ -156.865329163441316, 20.802089982085651 ], [ -156.866648129767498, 20.802679220001323 ], [ -156.867051973070119, 20.804414756943871 ], [ -156.867928950481513, 20.80468125170724 ], [ -156.868605197064227, 20.806116297934572 ], [ -156.869636660225979, 20.805782642978663 ], [ -156.87150729386147, 20.807046115315689 ], [ -156.872018328199403, 20.805560199985287 ], [ -156.873654492966807, 20.806108080148281 ], [ -156.873681023011017, 20.806644061608974 ], [ -156.872760837166567, 20.807730542927967 ], [ -156.873891840267646, 20.808706338230035 ], [ -156.874466227003893, 20.809925524473758 ], [ -156.874763259907553, 20.81045573122989 ], [ -156.875508998573338, 20.81203846229808 ], [ -156.876704277136525, 20.813069675718573 ], [ -156.877088907644264, 20.81429801431937 ], [ -156.877864056806857, 20.815370981397198 ], [ -156.879096307144465, 20.817422747966123 ], [ -156.880398807240056, 20.818397984022042 ], [ -156.880987779184579, 20.81866085696209 ], [ -156.881255571430529, 20.818950449556727 ], [ -156.883019878472965, 20.819282611697748 ], [ -156.884141905382705, 20.819783571072939 ], [ -156.884421228607039, 20.820376517280756 ], [ -156.885305125131453, 20.820337949165104 ], [ -156.885224140802421, 20.821381668275325 ], [ -156.887336810402303, 20.821779471379035 ], [ -156.887829348634227, 20.822824706364841 ], [ -156.888375498192516, 20.823799691838865 ], [ -156.888537154164453, 20.824315907822662 ] ], [ [ -156.877391373098732, 20.817675751656353 ], [ -156.876988737651203, 20.816707542176562 ], [ -156.875891583183346, 20.815038042691366 ], [ -156.875586168689239, 20.813980812075432 ], [ -156.874285619894891, 20.812409987447658 ], [ -156.872579162573544, 20.809688068846754 ], [ -156.870391239979114, 20.809214418392976 ], [ -156.869281213943026, 20.809330140575632 ], [ -156.868966994113634, 20.808242629745695 ], [ -156.869051014549882, 20.807670319604497 ], [ -156.868158240131663, 20.807145133940665 ], [ -156.866966298990206, 20.806224241093442 ], [ -156.865574069830615, 20.806579450217306 ], [ -156.865265432127899, 20.803978583576118 ], [ -156.864411181360026, 20.803317864172126 ], [ -156.86361795608201, 20.804457335956251 ], [ -156.864255929036005, 20.80495092688842 ], [ -156.864108359026773, 20.805958476182465 ], [ -156.864453202507548, 20.806527261140296 ], [ -156.864701166020609, 20.807102115124934 ], [ -156.865343511995917, 20.80736609854657 ], [ -156.865202805276652, 20.808326109249936 ], [ -156.866256420290739, 20.808759119936685 ], [ -156.865701139896856, 20.810065073858016 ], [ -156.86720343310526, 20.810489245088359 ], [ -156.867509649849438, 20.812284818160467 ], [ -156.867826432425034, 20.812529794776104 ], [ -156.868192973085939, 20.81379853667481 ], [ -156.868680348971424, 20.815039544089462 ], [ -156.869408841246639, 20.814963537077929 ], [ -156.869189331416635, 20.81310355904073 ], [ -156.869501516902261, 20.810973566403984 ], [ -156.870013281965413, 20.810419403465055 ], [ -156.870820150896435, 20.811392778858178 ], [ -156.871295052004939, 20.811760099134165 ], [ -156.872395941408712, 20.813158337888023 ], [ -156.872712734461089, 20.813403306284183 ], [ -156.872964541435209, 20.813707263940742 ], [ -156.873281336571807, 20.813952231449097 ], [ -156.873731273307641, 20.814495317384594 ], [ -156.874422352975358, 20.814779189234667 ], [ -156.874896316664291, 20.815876876026216 ], [ -156.87578829482996, 20.816243402980522 ], [ -156.876138268441451, 20.817454644968446 ], [ -156.877391373098732, 20.817675751656353 ], [ -156.877485503167861, 20.818007252100518 ], [ -156.877741210388479, 20.817772821119888 ], [ -156.877391373098732, 20.817675751656353 ] ] ] } }
]
}
