{
"type": "FeatureCollection",
"name": "wikforb",
"crs": { "type": "name", "properties": { "name": "urn:ogc:def:crs:OGC:1.3:CRS84" } },
"features": [
{ "type": "Feature", "properties": { "ID": 1, "GRIDCODE": 2 }, "geometry": { "type": "Polygon", "coordinates": [ [ [ -156.814681908400189, 21.166919087464503 ], [ -156.814578074020574, 21.16724805826998 ], [ -156.814328607378286, 21.167007251797582 ], [ -156.814681908400189, 21.166919087464503 ] ] ] } },
{ "type": "Feature", "properties": { "ID": 2, "GRIDCODE": 2 }, "geometry": { "type": "Polygon", "coordinates": [ [ [ -156.808064151262272, 21.165207926506536 ], [ -156.808768869766283, 21.165427324953104 ], [ -156.808796087275766, 21.166413586739534 ], [ -156.808064151262272, 21.165207926506536 ] ] ] } },
{ "type": "Feature", "properties": { "ID": 3, "GRIDCODE": 2 }, "geometry": { "type": "Polygon", "coordinates": [ [ [ -156.797247461764925, 21.154501668988217 ], [ -156.797143601259819, 21.154830626926245 ], [ -156.796894184241268, 21.154589798658662 ], [ -156.797247461764925, 21.154501668988217 ] ] ] } },
{ "type": "Feature", "properties": { "ID": 4, "GRIDCODE": 2 }, "geometry": { "type": "Polygon", "coordinates": [ [ [ -156.79537064573384, 21.144724269129501 ], [ -156.795266790166067, 21.145053226499787 ], [ -156.795017391279458, 21.144812396904427 ], [ -156.79537064573384, 21.144724269129501 ] ] ] } },
{ "type": "Feature", "properties": { "ID": 5, "GRIDCODE": 2 }, "geometry": { "type": "Polygon", "coordinates": [ [ [ -156.787455368398412, 21.133242555651844 ], [ -156.786910215850696, 21.134044734547629 ], [ -156.786304535862342, 21.135238337148117 ], [ -156.785276270008495, 21.134696485662957 ], [ -156.783837446055173, 21.13436249345823 ], [ -156.784215804254188, 21.133343250219273 ], [ -156.785003672401871, 21.133609261984585 ], [ -156.78529036348138, 21.133918981887064 ], [ -156.787012244460726, 21.133364614947499 ], [ -156.787455368398412, 21.133242555651844 ] ] ] } },
{ "type": "Feature", "properties": { "ID": 6, "GRIDCODE": 2 }, "geometry": { "type": "Polygon", "coordinates": [ [ [ -156.787748089174443, 21.132975466262977 ], [ -156.787744068246667, 21.133246328416554 ], [ -156.787455368398412, 21.133242555651844 ], [ -156.787459389849886, 21.132971693551152 ], [ -156.787748089174443, 21.132975466262977 ] ] ] } },
{ "type": "Feature", "properties": { "ID": 7, "GRIDCODE": 2 }, "geometry": { "type": "Polygon", "coordinates": [ [ [ -156.877182916796784, 21.118406745799536 ], [ -156.877341616563967, 21.118529183211255 ], [ -156.877586174118193, 21.119375058146961 ], [ -156.87815044203478, 21.120303914315446 ], [ -156.877662511996817, 21.12205525530549 ], [ -156.876963427543927, 21.121801826527953 ], [ -156.877312623713834, 21.120982177688607 ], [ -156.876941991427401, 21.120039474540867 ], [ -156.877182916796784, 21.118406745799536 ] ] ] } },
{ "type": "Feature", "properties": { "ID": 8, "GRIDCODE": 2 }, "geometry": { "type": "Polygon", "coordinates": [ [ [ -156.847242197136978, 21.092291175237431 ], [ -156.847238292546734, 21.092562049462746 ], [ -156.847526925253703, 21.09256571360249 ], [ -156.847621101038783, 21.092897229755874 ], [ -156.847877360348491, 21.092662894873115 ], [ -156.847526925253703, 21.09256571360249 ], [ -156.847530829321471, 21.092294839325742 ], [ -156.847242197136978, 21.092291175237431 ], [ -156.847477877576296, 21.089181188345986 ], [ -156.852170225060377, 21.089639131104384 ], [ -156.853053822206249, 21.090457537499553 ], [ -156.854321089076961, 21.091729381861402 ], [ -156.854651339858748, 21.090248765362762 ], [ -156.866052937194695, 21.092594426651285 ], [ -156.876902926759783, 21.09664610904241 ], [ -156.891456312789217, 21.102751267478173 ], [ -156.903695690408512, 21.108945310971663 ], [ -156.912535954361346, 21.115413395399777 ], [ -156.916880952056289, 21.118495811895318 ], [ -156.921697477140242, 21.121891293599571 ], [ -156.933967386369773, 21.132482549701582 ], [ -156.934841957052612, 21.133291733927354 ], [ -156.944891140564465, 21.145226545994454 ], [ -156.946483508499483, 21.148682373132644 ], [ -156.946497754783422, 21.150471669924503 ], [ -156.946057602358877, 21.151690032625268 ], [ -156.941741111385369, 21.15579651067398 ], [ -156.939282291910644, 21.157500063358651 ], [ -156.937760459980552, 21.157510620753342 ], [ -156.936602276948719, 21.156966072647961 ], [ -156.936000756758517, 21.156409657101953 ], [ -156.935449951990847, 21.155308353650479 ], [ -156.935143350381566, 21.155024616058292 ], [ -156.933205039666831, 21.151148877954885 ], [ -156.928366440860771, 21.144024745263259 ], [ -156.925486923086964, 21.140279363003639 ], [ -156.923133076474215, 21.137919923262285 ], [ -156.921028491376887, 21.135972626877933 ], [ -156.92034595041298, 21.134967496391521 ], [ -156.91870141058493, 21.132877660191262 ], [ -156.917492881149741, 21.130909523746919 ], [ -156.915909642651485, 21.129322066407649 ], [ -156.913272428903639, 21.129239118994896 ], [ -156.913260899198718, 21.129559120448363 ], [ -156.913540439993483, 21.130641263700593 ], [ -156.913758981471517, 21.135255213455689 ], [ -156.914455794970991, 21.136929868086789 ], [ -156.913704678179698, 21.139536329170831 ], [ -156.914500034342325, 21.14420507562857 ], [ -156.914783395248037, 21.145016267559051 ], [ -156.91476492634186, 21.145529658232125 ], [ -156.915605731028876, 21.147740803555212 ], [ -156.916721142571731, 21.149839572974741 ], [ -156.917155678316504, 21.152083545370402 ], [ -156.917838131217337, 21.153723354436217 ], [ -156.918984160632846, 21.158398189791534 ], [ -156.920324395142217, 21.161411852791979 ], [ -156.9198205854035, 21.162686693708817 ], [ -156.919440328374293, 21.162689358151081 ], [ -156.916962895075557, 21.161647500429311 ], [ -156.913008139456366, 21.161144592216083 ], [ -156.91224492295342, 21.16043853216728 ], [ -156.910389717210052, 21.158578706659252 ], [ -156.909688090417973, 21.158228662604309 ], [ -156.909108636672499, 21.157955994482229 ], [ -156.908829387913357, 21.157676188414094 ], [ -156.908249938076438, 21.157403517640539 ], [ -156.906970197715566, 21.156566563500188 ], [ -156.906242725140714, 21.156571451053182 ], [ -156.905461716283611, 21.155009095917425 ], [ -156.90422939975511, 21.153510732259214 ], [ -156.903690667002905, 21.153012204024332 ], [ -156.902279298993534, 21.151092780351473 ], [ -156.900772082184574, 21.150613189176813 ], [ -156.899040463975439, 21.149947445599281 ], [ -156.896312116223925, 21.148585756639505 ], [ -156.893546866641088, 21.148859588438782 ], [ -156.892171669276792, 21.150513803468378 ], [ -156.890997148169333, 21.152314701577964 ], [ -156.89042499012811, 21.15202909985716 ], [ -156.889649203525408, 21.151663898184712 ], [ -156.89074392856071, 21.149225176011953 ], [ -156.890826259161571, 21.146936874126428 ], [ -156.89020753618496, 21.146316398216058 ], [ -156.888382028917817, 21.145457297871179 ], [ -156.888913923018578, 21.144462837259127 ], [ -156.891060751489988, 21.144000134471781 ], [ -156.891413920602957, 21.143377153854402 ], [ -156.891716355908073, 21.142811615210555 ], [ -156.893707660697771, 21.142874574877979 ], [ -156.894304202460205, 21.142351120864426 ], [ -156.894324645947336, 21.141782729421589 ], [ -156.894041404267796, 21.140971512715161 ], [ -156.89376987458283, 21.140149924424385 ], [ -156.892053112220907, 21.139063029118173 ], [ -156.892050715084793, 21.138774013391835 ], [ -156.892725434384801, 21.1378665756184 ], [ -156.892368359778146, 21.137152265751162 ], [ -156.891805784391977, 21.136093428460189 ], [ -156.892108611103964, 21.135777985331917 ], [ -156.894104333098994, 21.135841054828603 ], [ -156.895008704126553, 21.133826685736857 ], [ -156.894659426565795, 21.132180894587275 ], [ -156.893766205167282, 21.130393733128287 ], [ -156.89249907206613, 21.128008729184188 ], [ -156.892494881989933, 21.127427463414762 ], [ -156.892796987671517, 21.126862312082622 ], [ -156.8933892632229, 21.125817846925592 ], [ -156.893095953160042, 21.125202226923744 ], [ -156.891952515183903, 21.124143705221645 ], [ -156.894298976519707, 21.122741719847216 ], [ -156.894018677252092, 21.122542644687581 ], [ -156.892277469108222, 21.122121339285531 ], [ -156.892302075876785, 21.121437774915801 ], [ -156.892015042780457, 21.120897570670902 ], [ -156.891382422614583, 21.119332054297161 ], [ -156.889710057532255, 21.118771620284697 ], [ -156.888124539806654, 21.120163652341294 ], [ -156.887418259804321, 21.12083527484387 ], [ -156.886526069557704, 21.121094676377144 ], [ -156.886094193756719, 21.121902071426216 ], [ -156.884027826519059, 21.121585300212001 ], [ -156.885095754503652, 21.120148683655508 ], [ -156.884818747986913, 21.119718724986569 ], [ -156.88368320404868, 21.11918411694478 ], [ -156.88338494955093, 21.118622527896644 ], [ -156.883012126050176, 21.117494008262515 ], [ -156.881473603223753, 21.116725887860223 ], [ -156.879947705862236, 21.116677563544066 ], [ -156.879645293013169, 21.116965210973241 ], [ -156.878199325691753, 21.117601274382981 ], [ -156.877187647648412, 21.118074363862412 ], [ -156.87592969402877, 21.117446232052068 ], [ -156.875320068623154, 21.117426813624757 ], [ -156.874197438386972, 21.11743429302712 ], [ -156.873435461365204, 21.116728892841682 ], [ -156.874796057004147, 21.115534733322065 ], [ -156.873615870413232, 21.115248998239952 ], [ -156.873057663370332, 21.114689290519998 ], [ -156.872176000244735, 21.115101542495221 ], [ -156.870260329524029, 21.113699161397776 ], [ -156.869806931537227, 21.115733080497602 ], [ -156.868847591781446, 21.11573940344044 ], [ -156.867837484568383, 21.115707247644771 ], [ -156.867259963197711, 21.115711090597287 ], [ -156.866438123696696, 21.115685000473867 ], [ -156.865226813069455, 21.11674788746646 ], [ -156.865786609931263, 21.117588883396124 ], [ -156.86636055426726, 21.118407170243586 ], [ -156.864608624630023, 21.119591890339727 ], [ -156.865219690486072, 21.120653463197776 ], [ -156.866601388373482, 21.121933228255987 ], [ -156.864827863367196, 21.122181276571411 ], [ -156.863982545562209, 21.122984716656003 ], [ -156.863398268030153, 21.123497501995995 ], [ -156.863360013419538, 21.12455346837616 ], [ -156.863657163005968, 21.125148013522104 ], [ -156.863943816296569, 21.125688055670381 ], [ -156.864215158120089, 21.126509677041245 ], [ -156.864796793871022, 21.127048345032712 ], [ -156.864767761417767, 21.12785466917812 ], [ -156.865197541892627, 21.128285789631924 ], [ -156.867314030842124, 21.130245779017262 ], [ -156.865232469098828, 21.130986022868452 ], [ -156.864112910730654, 21.131677525667119 ], [ -156.8589403738263, 21.131513112042121 ], [ -156.856629888363216, 21.132892868793597 ], [ -156.856248606762222, 21.133894150512504 ], [ -156.856878723748196, 21.13508113672664 ], [ -156.857146142177527, 21.136173641322987 ], [ -156.857432788155535, 21.136713693646563 ], [ -156.858496364552366, 21.138842753804326 ], [ -156.861403057164495, 21.141375036803847 ], [ -156.862316836467812, 21.141666037549236 ], [ -156.863833087376122, 21.142423213149488 ], [ -156.865436012146489, 21.143056854582305 ], [ -156.86664767373108, 21.143048916052908 ], [ -156.867712474106924, 21.144434819293515 ], [ -156.868631221284403, 21.145602851794973 ], [ -156.868423752748299, 21.151348929470945 ], [ -156.869318835964037, 21.153661082896139 ], [ -156.869590244426263, 21.154482699949273 ], [ -156.869876966465341, 21.155022736907355 ], [ -156.870152255617995, 21.155573477135903 ], [ -156.870438981511512, 21.156113513425865 ], [ -156.870714274464234, 21.156664253019272 ], [ -156.872134094592468, 21.158360255840211 ], [ -156.869824731081707, 21.158278603011773 ], [ -156.866465617773514, 21.157152566693984 ], [ -156.861944747586506, 21.157976117963919 ], [ -156.86070200370898, 21.159157072579251 ], [ -156.857378418507125, 21.158232119772538 ], [ -156.856524535888155, 21.157829996764338 ], [ -156.855973206925228, 21.157277061918688 ], [ -156.854974064670756, 21.158226514999555 ], [ -156.851923317058123, 21.158745120931261 ], [ -156.848806029590151, 21.159885362767795 ], [ -156.846689916195658, 21.159898913779827 ], [ -156.847012374878716, 21.158782158817154 ], [ -156.847006673109377, 21.157986980565674 ], [ -156.847045751003776, 21.156903790033535 ], [ -156.847036874704742, 21.155684527976167 ], [ -156.847138145400208, 21.152894446309841 ], [ -156.846544057016445, 21.152298674684591 ], [ -156.845464742698908, 21.151790315042149 ], [ -156.845085269635888, 21.150319090755769 ], [ -156.845131696486987, 21.149040343128998 ], [ -156.844811255416147, 21.147797336296666 ], [ -156.844918378383028, 21.144838203056299 ], [ -156.84455706863227, 21.142561189952371 ], [ -156.843550776464099, 21.138162953439434 ], [ -156.84300981400645, 21.137661773754946 ], [ -156.84179491737234, 21.135619070561084 ], [ -156.840497030030889, 21.133019965332139 ], [ -156.838870339069331, 21.131513042327313 ], [ -156.838167204824316, 21.130510929529997 ], [ -156.839682635190258, 21.128797721434587 ], [ -156.839665838431642, 21.12645432437003 ], [ -156.841717463049946, 21.128115475543893 ], [ -156.843130869545462, 21.127797278870403 ], [ -156.844844155166442, 21.126611582390755 ], [ -156.846401581945514, 21.126258083204757 ], [ -156.847906397894775, 21.126306051817021 ], [ -156.848772731857309, 21.126300457152499 ], [ -156.849494278196119, 21.126323445418642 ], [ -156.85029123860491, 21.126318284865466 ], [ -156.851514163138575, 21.126614517015934 ], [ -156.852958160961606, 21.127185459464286 ], [ -156.853668831709683, 21.127180842830725 ], [ -156.854246073602013, 21.127199270232321 ], [ -156.854965205795082, 21.127194556934747 ], [ -156.855364377557635, 21.127594952625088 ], [ -156.856412529133053, 21.12694738354713 ], [ -156.856992590714867, 21.126965837219633 ], [ -156.85757015166871, 21.126962099166942 ], [ -156.858917992826832, 21.127005008018269 ], [ -156.862199265436914, 21.126134340352152 ], [ -156.860665979410754, 21.124434001354373 ], [ -156.859772137750781, 21.123606164172266 ], [ -156.860225632783482, 21.123208219162432 ], [ -156.860516539815649, 21.122664620981173 ], [ -156.86138487023527, 21.12228275961289 ], [ -156.861404918383073, 21.121730315463431 ], [ -156.861401759984716, 21.12132137481986 ], [ -156.861801266977125, 21.120617092593005 ], [ -156.860895908157715, 21.119708553750556 ], [ -156.859706687978957, 21.119148639841985 ], [ -156.859704849566157, 21.118864132435423 ], [ -156.859714695126769, 21.118590686360129 ], [ -156.858322579911942, 21.117708990589673 ], [ -156.859166137751942, 21.116968921867226 ], [ -156.859739870945504, 21.11642360636862 ], [ -156.860187063380948, 21.11603093761812 ], [ -156.860916011605894, 21.115338092923906 ], [ -156.862353094439385, 21.115383747230965 ], [ -156.86236805582115, 21.114969346414991 ], [ -156.8623649106801, 21.114539504040469 ], [ -156.863744698967366, 21.113328482867747 ], [ -156.862971453764004, 21.112942373168007 ], [ -156.861812526723355, 21.112396484727679 ], [ -156.861859350345128, 21.111096687569923 ], [ -156.861148637734658, 21.109673562909972 ], [ -156.860410472993777, 21.109929877851776 ], [ -156.858808387965041, 21.11111028329562 ], [ -156.858355322452866, 21.109811182837333 ], [ -156.859552474849551, 21.108201023485723 ], [ -156.858022049657848, 21.107199054880063 ], [ -156.857565501154824, 21.107184552921069 ], [ -156.857274221450581, 21.107186426442102 ], [ -156.855594853755264, 21.106623203691328 ], [ -156.85381887667711, 21.106916756863402 ], [ -156.854094758732515, 21.107416988999798 ], [ -156.854955642245784, 21.108214600267946 ], [ -156.854945210105171, 21.10850880745021 ], [ -156.854949092333641, 21.109042900376657 ], [ -156.854640721331066, 21.10958613680053 ], [ -156.854646600240642, 21.110373452673414 ], [ -156.854323105441438, 21.111223006167716 ], [ -156.854332893507461, 21.112561744365244 ], [ -156.854023556042478, 21.112563779706527 ], [ -156.853055190883396, 21.112532992066718 ], [ -156.851513028176839, 21.114676336725644 ], [ -156.850237405102831, 21.113015167675982 ], [ -156.84969065644114, 21.11250871436534 ], [ -156.849318776399429, 21.112135575504709 ], [ -156.847396917952949, 21.11139589607718 ], [ -156.84712178048963, 21.110845262522663 ], [ -156.846548245533256, 21.110027586159198 ], [ -156.848133290706215, 21.108235259872625 ], [ -156.847451626024053, 21.107603664085413 ], [ -156.846277955391912, 21.106426084085189 ], [ -156.844022281486019, 21.107819352452616 ], [ -156.843406732440428, 21.107823293756649 ], [ -156.841756293880394, 21.106998774735168 ], [ -156.840535520258982, 21.106702908830727 ], [ -156.839594985937168, 21.106233078808987 ], [ -156.836506084822133, 21.105838751259913 ], [ -156.833984667435544, 21.104187629429781 ], [ -156.832807833006711, 21.104150097249622 ], [ -156.826701304988148, 21.104383305964348 ], [ -156.825977335116875, 21.105018648214887 ], [ -156.824474073836882, 21.106446957345728 ], [ -156.822057613624281, 21.106732081858343 ], [ -156.821193253969994, 21.106997182835634 ], [ -156.820217255072095, 21.107280686002969 ], [ -156.817420927876697, 21.108303238784686 ], [ -156.816164853579295, 21.108573585370607 ], [ -156.813639013431327, 21.109874709267636 ], [ -156.812770653522136, 21.110410631748227 ], [ -156.811216686400599, 21.111093525421619 ], [ -156.810726183325187, 21.112009739847597 ], [ -156.80924343323224, 21.113889250887443 ], [ -156.809247107146717, 21.114426240123287 ], [ -156.809228661823369, 21.114933443922968 ], [ -156.809600360946234, 21.116060814119809 ], [ -156.810362054742058, 21.117147190216464 ], [ -156.810637058924755, 21.117697938531954 ], [ -156.811492900851846, 21.11878724704513 ], [ -156.812540568256196, 21.12033269865433 ], [ -156.814971186830178, 21.122772442783024 ], [ -156.816731917963409, 21.123805737283895 ], [ -156.819928237237519, 21.124336299192546 ], [ -156.820351117462138, 21.125132805494648 ], [ -156.820331827788891, 21.125661431928151 ], [ -156.820892585952009, 21.127577849360041 ], [ -156.821413688814118, 21.13027893201108 ], [ -156.821711171700258, 21.130839413985388 ], [ -156.821982280578254, 21.131661083434643 ], [ -156.822406102819116, 21.132877536742736 ], [ -156.82282709087238, 21.134153282661469 ], [ -156.824204251729213, 21.136748162879957 ], [ -156.824807014201383, 21.141027257481767 ], [ -156.824683488388416, 21.144426317067683 ], [ -156.824689076277309, 21.145240866676321 ], [ -156.820798039380207, 21.145515099352451 ], [ -156.818011036970489, 21.146505051158009 ], [ -156.817723896132748, 21.146777690309005 ], [ -156.815702622704777, 21.148550014433113 ], [ -156.815358728926412, 21.149499409634959 ], [ -156.814775085919905, 21.150527260461704 ], [ -156.814778940925237, 21.151071659386641 ], [ -156.814695236878521, 21.153373379674779 ], [ -156.814712461514688, 21.155811861976378 ], [ -156.814686104467711, 21.156531345057612 ], [ -156.815524284532955, 21.158935521398977 ], [ -156.815494598398629, 21.159747428175852 ], [ -156.816360503847278, 21.16137882576146 ], [ -156.817132339755176, 21.162925336094105 ], [ -156.817756831687944, 21.163845958142517 ], [ -156.818047343975451, 21.164115201228046 ], [ -156.818310530627429, 21.165478610454738 ], [ -156.818626174282059, 21.166073199260037 ], [ -156.816563981102433, 21.166540663417369 ], [ -156.815991378232184, 21.166254545886012 ], [ -156.814681908400189, 21.166919087464503 ], [ -156.815058950649615, 21.165483255922979 ], [ -156.814485969036554, 21.165396216145069 ], [ -156.813988252672743, 21.165984001521917 ], [ -156.813685439297529, 21.165937953988173 ], [ -156.81316974004082, 21.16600265229339 ], [ -156.812807935710623, 21.165422273597926 ], [ -156.812560230135318, 21.16393021535092 ], [ -156.811352972575605, 21.164779597463326 ], [ -156.811712860561073, 21.166333495968832 ], [ -156.810660775327676, 21.168040754373898 ], [ -156.809779410661889, 21.168151304718471 ], [ -156.810175035892968, 21.165858861645699 ], [ -156.809529634817551, 21.165939793361503 ], [ -156.80978218026101, 21.164476370455468 ], [ -156.808650477261352, 21.164618332048825 ], [ -156.807913718003675, 21.164506395209735 ], [ -156.807422797804918, 21.165588524746731 ], [ -156.807287020381494, 21.165270672820473 ], [ -156.807449215951749, 21.164331777731004 ], [ -156.806991988018467, 21.161922258520427 ], [ -156.808252023357625, 21.160993692221837 ], [ -156.809231238231177, 21.160632480147228 ], [ -156.809006229914957, 21.160072717433941 ], [ -156.809359516112238, 21.15998456300721 ], [ -156.809110069709845, 21.159743750428738 ], [ -156.809006229914957, 21.160072717433941 ], [ -156.808581135716111, 21.159923351467096 ], [ -156.808278878334875, 21.159936300913344 ], [ -156.807980150392893, 21.159613890620879 ], [ -156.806565384472293, 21.159674587713795 ], [ -156.806862432951476, 21.15800545063448 ], [ -156.807476017821813, 21.156674034654895 ], [ -156.807776560703729, 21.154766299939507 ], [ -156.808245839448489, 21.153982449160353 ], [ -156.808666720930887, 21.153152331873791 ], [ -156.809252515792537, 21.152173479159227 ], [ -156.809280941834629, 21.151813307930869 ], [ -156.809267252744462, 21.151536128513609 ], [ -156.809648615820066, 21.150899159377293 ], [ -156.809288561537443, 21.149915399300298 ], [ -156.809604869837983, 21.149386853928441 ], [ -156.809889426787549, 21.148562573148418 ], [ -156.810481552741123, 21.147573146880028 ], [ -156.80991564396939, 21.147201844124002 ], [ -156.808872007261755, 21.14826763628205 ], [ -156.807745946598857, 21.147594211353248 ], [ -156.807651839080961, 21.147262679679674 ], [ -156.807395420151721, 21.147496938670855 ], [ -156.807745946598857, 21.147594211353248 ], [ -156.807902933771686, 21.14861615254809 ], [ -156.806446939908312, 21.148457855948497 ], [ -156.806988741448976, 21.149086942896631 ], [ -156.807828173511069, 21.149441560122501 ], [ -156.807947858228289, 21.15071773014219 ], [ -156.807252472847978, 21.152167211933335 ], [ -156.806355770576658, 21.152846570184753 ], [ -156.805405754861766, 21.153889540048109 ], [ -156.804166819026079, 21.15421316638519 ], [ -156.802747916090425, 21.156009800944975 ], [ -156.802890210989034, 21.157528144500287 ], [ -156.802436844752748, 21.158473172599194 ], [ -156.801975168183333, 21.157937114752698 ], [ -156.801507447671582, 21.157562230466453 ], [ -156.800769614226482, 21.156705100625953 ], [ -156.799827710363644, 21.157194997892724 ], [ -156.800528548383909, 21.154963236928122 ], [ -156.799567149921529, 21.155532514499551 ], [ -156.799113324412474, 21.156030873183369 ], [ -156.798559738677909, 21.155970623880691 ], [ -156.79776989210319, 21.156381399014016 ], [ -156.798263448607116, 21.155199394036369 ], [ -156.798237390110614, 21.154920929913214 ], [ -156.798344066606262, 21.154058179789384 ], [ -156.797247461764925, 21.154501668988217 ], [ -156.797066679516263, 21.153720366918897 ], [ -156.797232932795424, 21.152757990881323 ], [ -156.79641782008332, 21.153638234439441 ], [ -156.795771176738953, 21.155063557229649 ], [ -156.794824038585432, 21.155582923189279 ], [ -156.794737688690503, 21.154977000796588 ], [ -156.795120861657551, 21.153518022234849 ], [ -156.794671284818406, 21.152796247664941 ], [ -156.795942836930323, 21.15087924035263 ], [ -156.795425080507954, 21.150800532578106 ], [ -156.794643837294046, 21.150898491876216 ], [ -156.794242471447063, 21.150254466010079 ], [ -156.796586804668664, 21.149099493996179 ], [ -156.796278514835677, 21.148530696949948 ], [ -156.795153146678445, 21.148671798985646 ], [ -156.794898405058063, 21.148353381500144 ], [ -156.794335297221409, 21.148424022566886 ], [ -156.79421932951405, 21.147609302288849 ], [ -156.796293298162908, 21.147226844304779 ], [ -156.796458615892476, 21.146270078075936 ], [ -156.795903529266042, 21.14585647551888 ], [ -156.79753071692565, 21.143856112629354 ], [ -156.796661569410418, 21.144046331880272 ], [ -156.795824086311342, 21.144612179512155 ], [ -156.79537064573384, 21.144724269129501 ], [ -156.795241232535233, 21.144036431624926 ], [ -156.792913533824986, 21.14483517179287 ], [ -156.792345934489163, 21.144543823077083 ], [ -156.791939976733971, 21.144553606812064 ], [ -156.792580193434418, 21.142913583923761 ], [ -156.790640137087394, 21.14296036170272 ], [ -156.790624017863109, 21.142374006930098 ], [ -156.791329480518158, 21.141164627006127 ], [ -156.790681853414412, 21.139976609716673 ], [ -156.791545631346423, 21.139386393056355 ], [ -156.792138195687613, 21.139133526647612 ], [ -156.792708508259238, 21.138859731705747 ], [ -156.793855317355479, 21.138370222205353 ], [ -156.794164098844504, 21.138065961132508 ], [ -156.794748949050302, 21.137571567859951 ], [ -156.79440041744661, 21.137170376398977 ], [ -156.792700525257203, 21.137799711460534 ], [ -156.792764184605915, 21.136681494859541 ], [ -156.791148701048058, 21.137456830606485 ], [ -156.791596906203722, 21.136688229279123 ], [ -156.791886531012807, 21.135868943961938 ], [ -156.79276123026662, 21.135129579942166 ], [ -156.792810683409527, 21.134265822244384 ], [ -156.792378154972425, 21.134605374576591 ], [ -156.791909127550724, 21.135067208026921 ], [ -156.791229186467064, 21.135033071804969 ], [ -156.790450110935183, 21.136131434116322 ], [ -156.789857556773455, 21.136384295490025 ], [ -156.789105199022856, 21.137125240720781 ], [ -156.787543376695226, 21.137874652279152 ], [ -156.787524415760174, 21.137176548152315 ], [ -156.788098432744135, 21.136691165148967 ], [ -156.7885155660245, 21.135622943737726 ], [ -156.787855159462822, 21.135032734760756 ], [ -156.787887522493122, 21.134467319037306 ], [ -156.787868817355758, 21.133789787903567 ], [ -156.787907272874065, 21.133117831932807 ], [ -156.787748089174443, 21.132975466262977 ], [ -156.787886386003777, 21.132834209737826 ], [ -156.788355363229783, 21.132452021238169 ], [ -156.789082292992305, 21.131503789216957 ], [ -156.788546891098463, 21.130547668839476 ], [ -156.789123164717154, 21.129584901076335 ], [ -156.788510917600746, 21.129057167085772 ], [ -156.788846300424268, 21.128783753407607 ], [ -156.788817586930662, 21.128191214948082 ], [ -156.790261813796917, 21.128290958999418 ], [ -156.790285452848167, 21.12798979498185 ], [ -156.789983366380255, 21.127729422423076 ], [ -156.789494907391088, 21.127201918786515 ], [ -156.788845052099617, 21.127157056651697 ], [ -156.788039496315264, 21.127191578268825 ], [ -156.787527213844896, 21.126749940511115 ], [ -156.789150800197291, 21.125535161473255 ], [ -156.789453893260315, 21.125556116446894 ], [ -156.789816968437066, 21.124840575496492 ], [ -156.791912509483552, 21.124750774477356 ], [ -156.792590524791592, 21.124797578558443 ], [ -156.792943872633316, 21.124509441532613 ], [ -156.792364763590882, 21.124010131485207 ], [ -156.79264195916889, 21.123685153587306 ], [ -156.794378541502311, 21.12340438711762 ], [ -156.792917797752921, 21.122861251955868 ], [ -156.791806416088946, 21.122908872207866 ], [ -156.791786309179685, 21.122495887176377 ], [ -156.793540793588136, 21.12148079371422 ], [ -156.793271753496441, 21.121255119236142 ], [ -156.792121996378512, 21.120905525725483 ], [ -156.792438442864096, 21.120671474761593 ], [ -156.793719793267968, 21.120759933642027 ], [ -156.792405686922052, 21.119627136172138 ], [ -156.793609735543527, 21.118288575457466 ], [ -156.793176801773882, 21.11751569374643 ], [ -156.794232212095608, 21.116655246001784 ], [ -156.793447940025629, 21.115979119012255 ], [ -156.794498239608998, 21.11531087568639 ], [ -156.795691698454903, 21.115066736199459 ], [ -156.794528782718771, 21.114351161411303 ], [ -156.794972195562963, 21.113728455100478 ], [ -156.79649586507395, 21.113308568436999 ], [ -156.796867701633801, 21.112376969502584 ], [ -156.797243831990784, 21.111287875506498 ], [ -156.798311019517683, 21.110197839400499 ], [ -156.79908268247496, 21.109568669608183 ], [ -156.79949747187348, 21.109144796082862 ], [ -156.800680195226192, 21.108362744096024 ], [ -156.800972459474821, 21.108064136256775 ], [ -156.801549573509504, 21.108103901451738 ], [ -156.801830659613131, 21.107549574566487 ], [ -156.802720718976417, 21.10703462742925 ], [ -156.80327632262825, 21.106466924269053 ], [ -156.803881879049129, 21.106508637176173 ], [ -156.80474109960403, 21.105961795136601 ], [ -156.806163985656298, 21.105371316157793 ], [ -156.804498553410127, 21.103935633241917 ], [ -156.805296523237615, 21.103526627314235 ], [ -156.805650837492919, 21.103551057479415 ], [ -156.806466989436558, 21.103515983886126 ], [ -156.807094788827584, 21.103846881114762 ], [ -156.807496047096492, 21.103055588648346 ], [ -156.808846056090971, 21.102779242729437 ], [ -156.810398341115075, 21.10201326826612 ], [ -156.812217385483052, 21.101935162045553 ], [ -156.812606610801595, 21.1022706323342 ], [ -156.813201057507598, 21.10353169963604 ], [ -156.814041677146008, 21.102846328871628 ], [ -156.814738898311731, 21.102133970533956 ], [ -156.815578637984146, 21.101719631187198 ], [ -156.818400482307879, 21.104035640332246 ], [ -156.820846404674825, 21.104684215701106 ], [ -156.821504150621024, 21.103584386138913 ], [ -156.821864180783791, 21.102541314321947 ], [ -156.823317932546928, 21.10135539917659 ], [ -156.824466716253198, 21.100181694874998 ], [ -156.825910266945016, 21.100564397068549 ], [ -156.826196081786549, 21.099736251085922 ], [ -156.826504793512385, 21.099484633831889 ], [ -156.82700057208163, 21.098506123380332 ], [ -156.829287284664986, 21.097556372213873 ], [ -156.830300059094697, 21.096521632934618 ], [ -156.830896016516277, 21.096562594759742 ], [ -156.830868587853843, 21.096005452501146 ], [ -156.831232843811762, 21.095092444913753 ], [ -156.831145867747324, 21.093316584166793 ], [ -156.831501307377124, 21.09330128733875 ], [ -156.832628583278023, 21.09414460459308 ], [ -156.833218489880608, 21.094407720855994 ], [ -156.83583439650846, 21.096608507793416 ], [ -156.836086288753819, 21.096074111749537 ], [ -156.835550553973007, 21.095612737797968 ], [ -156.835506610750059, 21.094715540862047 ], [ -156.835580672259965, 21.093768258624124 ], [ -156.835519343256493, 21.092514460481031 ], [ -156.836681222660729, 21.09338359272666 ], [ -156.837831075212733, 21.093896581902836 ], [ -156.838274181098541, 21.094836438319955 ], [ -156.839129165671494, 21.094355363634953 ], [ -156.839223323086088, 21.094686882885949 ], [ -156.83947959769273, 21.094452562147094 ], [ -156.839129165671494, 21.094355363634953 ], [ -156.839001049441634, 21.092922259042119 ], [ -156.838131894945263, 21.091773119827003 ], [ -156.838462565783601, 21.089826374492784 ], [ -156.839325814308324, 21.091013005710124 ], [ -156.839902172361491, 21.089776457929251 ], [ -156.840973391027859, 21.091067194442946 ], [ -156.842347615014944, 21.092128956624997 ], [ -156.842918452663042, 21.094103455012522 ], [ -156.843574621409516, 21.094894409853147 ], [ -156.844735354727533, 21.095554728226769 ], [ -156.8450440180778, 21.093467461281403 ], [ -156.845641617825862, 21.092065405935973 ], [ -156.845411679166403, 21.090221050673843 ], [ -156.845027723924886, 21.088891450901819 ], [ -156.845427308500376, 21.089137554723738 ], [ -156.846231349836046, 21.091266740666097 ], [ -156.846794919741598, 21.092164982788887 ], [ -156.847242197136978, 21.092291175237431 ] ], [ [ -156.793506046852571, 21.134134270081802 ], [ -156.793600116683052, 21.134465806626615 ], [ -156.793856530766078, 21.134231568154586 ], [ -156.793506046852571, 21.134134270081802 ] ], [ [ -156.794095481031746, 21.133329204906794 ], [ -156.794177880290789, 21.133915829167094 ], [ -156.794734741509188, 21.133425104471627 ], [ -156.794095481031746, 21.133329204906794 ] ], [ [ -156.853791670421174, 21.138702206693985 ], [ -156.853667923577632, 21.138013275347795 ], [ -156.853376996421588, 21.136675076911356 ], [ -156.852908144492886, 21.134063742262768 ], [ -156.853668655199783, 21.13099235788264 ], [ -156.85090179595764, 21.13061695385106 ], [ -156.846855220342178, 21.130870332083905 ], [ -156.845878251047992, 21.131192854699233 ], [ -156.846300854412902, 21.132722104178075 ], [ -156.846952548164268, 21.13385403404466 ], [ -156.84759281104246, 21.135250852578896 ], [ -156.847921921246893, 21.135230232979644 ], [ -156.84884120023321, 21.135311301048176 ], [ -156.849632964352793, 21.135982197813313 ], [ -156.848765670863571, 21.138804292602195 ], [ -156.849314671050251, 21.138769929519206 ], [ -156.849767280205356, 21.138809875805048 ], [ -156.850319538184749, 21.137689742450121 ], [ -156.850875750307125, 21.136783630419348 ], [ -156.851636871270301, 21.137194847960142 ], [ -156.852520845185751, 21.137456880217997 ], [ -156.853217136064956, 21.138531943649554 ], [ -156.853791670421174, 21.138702206693985 ], [ -156.853943817449164, 21.139651441653839 ], [ -156.853685003551703, 21.141153715842322 ], [ -156.854618792996064, 21.140641368281379 ], [ -156.854407178309458, 21.139160578865056 ], [ -156.853791670421174, 21.138702206693985 ] ], [ [ -156.897523336919534, 21.129768527207684 ], [ -156.897994015722134, 21.13042655922618 ], [ -156.89850399278572, 21.130017697893365 ], [ -156.897523336919534, 21.129768527207684 ] ], [ [ -156.901144255777638, 21.118705319003471 ], [ -156.901605353709982, 21.118600370641541 ], [ -156.902676526003688, 21.117842317973956 ], [ -156.902014446312705, 21.117521782751396 ], [ -156.901144255777638, 21.118705319003471 ], [ -156.900188909737295, 21.119306908561928 ], [ -156.900878653993288, 21.119625478901824 ], [ -156.901144255777638, 21.118705319003471 ] ], [ [ -156.849992007143015, 21.101808404374438 ], [ -156.851537545130469, 21.103672215961303 ], [ -156.853340385271991, 21.103311822455844 ], [ -156.853234858726637, 21.102415694931455 ], [ -156.850695402184215, 21.101967735161701 ], [ -156.849992007143015, 21.101808404374438 ] ], [ [ -156.870786635296895, 21.101258106432507 ], [ -156.870343656893169, 21.101380332236467 ], [ -156.869475798859952, 21.101660328664291 ], [ -156.869167385617203, 21.101006519570817 ], [ -156.868050556536019, 21.101366852713056 ], [ -156.865828308223229, 21.101663126874055 ], [ -156.864827969569717, 21.102157192426677 ], [ -156.864872169367402, 21.101590101290036 ], [ -156.864836785587983, 21.100870670172132 ], [ -156.865190528892015, 21.099693925384077 ], [ -156.864767958787127, 21.099158128304918 ], [ -156.863162840641621, 21.099950680737496 ], [ -156.861549997049735, 21.10039573135963 ], [ -156.862308527145188, 21.099127132978598 ], [ -156.862596788851135, 21.098015580534032 ], [ -156.862020725871048, 21.098040594999361 ], [ -156.860605110991543, 21.09729541834362 ], [ -156.860274434684129, 21.09992946015689 ], [ -156.859933493145093, 21.099561497378428 ], [ -156.858066210903985, 21.099642289217652 ], [ -156.857670152667595, 21.100423998731287 ], [ -156.856954459359201, 21.100374869232947 ], [ -156.856524200467248, 21.099002105579704 ], [ -156.85594506532118, 21.099594176588273 ], [ -156.855150942657332, 21.099176156483072 ], [ -156.854776447279448, 21.100928459065155 ], [ -156.854411080824747, 21.102142995101286 ], [ -156.854459463916356, 21.103131397092135 ], [ -156.859614648281791, 21.104101950699235 ], [ -156.861052194307348, 21.10507164393503 ], [ -156.86266035187316, 21.106060013886751 ], [ -156.86393597663016, 21.106447296058953 ], [ -156.866099651333798, 21.107373714571487 ], [ -156.868786148752946, 21.109382053719056 ], [ -156.870685355992947, 21.108930219935278 ], [ -156.87196051322934, 21.10901767341867 ], [ -156.873679936859247, 21.11037814834518 ], [ -156.875640731202168, 21.111482480833246 ], [ -156.881400821538534, 21.112062587425026 ], [ -156.88231321438488, 21.112382755472083 ], [ -156.884389389112727, 21.113012723195801 ], [ -156.884276635124451, 21.114461865270741 ], [ -156.885492175664439, 21.115974685561909 ], [ -156.887145532132706, 21.115902842980638 ], [ -156.888819897003401, 21.115362676988457 ], [ -156.891201276975778, 21.115790394078246 ], [ -156.893340473774657, 21.116915937749173 ], [ -156.894501162475052, 21.118167804946651 ], [ -156.895835805542731, 21.119942452609205 ], [ -156.896540146978708, 21.122963835373575 ], [ -156.896844861651715, 21.126110162417248 ], [ -156.897249516516808, 21.128849086968007 ], [ -156.898863517595998, 21.1287788998774 ], [ -156.899411793701603, 21.128373156172866 ], [ -156.898260822216628, 21.128023983154296 ], [ -156.898288031872369, 21.127674149768765 ], [ -156.899723966744972, 21.127772331248348 ], [ -156.900000123984739, 21.127606094287639 ], [ -156.899139249584721, 21.127222359088162 ], [ -156.897829017190077, 21.125809383971959 ], [ -156.899177319040717, 21.125901586284506 ], [ -156.89914878177629, 21.125325242134661 ], [ -156.89947570057376, 21.125058367464995 ], [ -156.899418899787634, 21.123906079267609 ], [ -156.897801722345349, 21.123185275184916 ], [ -156.900281062861779, 21.12215453518758 ], [ -156.899504284261269, 21.121808292172091 ], [ -156.898945589841276, 21.121514359855592 ], [ -156.898642838254858, 21.121527537291747 ], [ -156.8983736903036, 21.121237195105156 ], [ -156.897494850068256, 21.120970572375683 ], [ -156.897224884817064, 21.120798419389047 ], [ -156.898097083671843, 21.120435790334074 ], [ -156.89808306130206, 21.120150267049418 ], [ -156.898681258341725, 21.119901575529596 ], [ -156.898957632236034, 21.119618860571347 ], [ -156.899572843099918, 21.119363166847489 ], [ -156.899539245726601, 21.118685425478496 ], [ -156.89957090530919, 21.118279423141153 ], [ -156.899544977129381, 21.117757879020086 ], [ -156.900050051071048, 21.116912589578007 ], [ -156.899050692137394, 21.116956025436316 ], [ -156.897832061422577, 21.117732398807028 ], [ -156.897699030875202, 21.117307949459153 ], [ -156.898052178503917, 21.11721959627311 ], [ -156.897802640981723, 21.116978907279652 ], [ -156.897699030875202, 21.117307949459153 ], [ -156.895531896383119, 21.11775979898524 ], [ -156.895266559583973, 21.11632102650152 ], [ -156.894962127361509, 21.116334177202187 ], [ -156.894697101624104, 21.115772885891896 ], [ -156.894398671223456, 21.115241076600384 ], [ -156.894422798552284, 21.114930098732891 ], [ -156.893568392625468, 21.114194266161658 ], [ -156.893552108332187, 21.113869821690436 ], [ -156.893593772653674, 21.113335360158654 ], [ -156.893274522689751, 21.113060461696445 ], [ -156.89331383495616, 21.1125528258071 ], [ -156.892917790209481, 21.112125500320506 ], [ -156.890970725078887, 21.111674775149208 ], [ -156.891294771990431, 21.111410260303696 ], [ -156.891280752562693, 21.111125398665894 ], [ -156.892414621776254, 21.110199719654009 ], [ -156.891519012376165, 21.10972847494908 ], [ -156.88959149092608, 21.109812296758108 ], [ -156.889102564062085, 21.108776730374789 ], [ -156.888737364971263, 21.108382853090671 ], [ -156.888441130436149, 21.108395698439885 ], [ -156.888008466512161, 21.108366097919774 ], [ -156.887286218278831, 21.108397443565607 ], [ -156.886887101466584, 21.107551900878136 ], [ -156.885295502495921, 21.106714368190453 ], [ -156.884718556468812, 21.10673944675888 ], [ -156.884195081790807, 21.106174916531373 ], [ -156.883264005527707, 21.10641887298592 ], [ -156.882698962571823, 21.106698088453047 ], [ -156.88210165254398, 21.106946207580869 ], [ -156.881532016487853, 21.107528832426308 ], [ -156.881066416718426, 21.106542750208781 ], [ -156.880674450395873, 21.106943711662201 ], [ -156.880365803843574, 21.107195433925554 ], [ -156.879956777788038, 21.108003100728975 ], [ -156.87951373958731, 21.107354633814591 ], [ -156.87979231803817, 21.106917332606166 ], [ -156.880116085932997, 21.106653100817073 ], [ -156.878367874037451, 21.106324314464004 ], [ -156.877786843415237, 21.105823867210127 ], [ -156.877518600028196, 21.105534235213419 ], [ -156.877213045344462, 21.10527112245196 ], [ -156.877816232985026, 21.103756958001508 ], [ -156.877030002146768, 21.10341202466503 ], [ -156.875189193605536, 21.104005952774749 ], [ -156.875365574839691, 21.101736238073244 ], [ -156.874419460708339, 21.101671329045477 ], [ -156.871780693802805, 21.103773619581869 ], [ -156.871510760893784, 21.101665917917476 ], [ -156.870920746366863, 21.101402926994727 ], [ -156.870786635296895, 21.101258106432507 ], [ -156.871139754584703, 21.101169807357611 ], [ -156.870890288677714, 21.10092908420204 ], [ -156.870786635296895, 21.101258106432507 ] ] ] } }
]
}
